<?xml version='1.0' encoding='UTF-8'?>
<osm version="0.6" generator="Osmosis 0.39">
  <node id="-208" version="0" timestamp="Fri Feb 24 10:53:32 +0100 2012" uid="1" user="" lat="46.6402156" lon="14.3143523">
    <tag k="shop" v="electronics"/>
    <tag k="name" v="Saeco Service"/>
    <tag k="wheelchair" v="no"/>
    <tag k="addr:city" v="Klagenfurt"/>
    <tag k="addr:postcode" v="9020"/>
    <tag k="addr:housenumber" v="138"/>
    <tag k="addr:street" v="St. Veiter Straße"/>
  </node>
  <node id="-209" version="0" timestamp="Fri Feb 24 10:53:32 +0100 2012" uid="1" user="" lat="46.6451625" lon="14.3136687">
    <tag k="shop" v="supermarket"/>
    <tag k="name" v="Hofer Kommanditgesellschaft"/>
    <tag k="wheelchair" v="yes"/>
    <tag k="addr:city" v="Klagenfurt"/>
    <tag k="addr:postcode" v="9020"/>
    <tag k="addr:housenumber" v="141"/>
    <tag k="addr:street" v="St. Veiter Straße"/>
  </node>
  <node id="-219" version="0" timestamp="Fri Feb 24 10:53:32 +0100 2012" uid="1" user="" lat="46.6282719" lon="14.3091263">
    <tag k="shop" v="clothes"/>
    <tag k="name" v="Glamour Boutique"/>
    <tag k="wheelchair" v="yes"/>
    <tag k="addr:city" v="Klagenfurt"/>
    <tag k="addr:postcode" v="9020"/>
    <tag k="addr:housenumber" v="15"/>
    <tag k="addr:street" v="St. Veiter Straße"/>
  </node>
  <node id="-220" version="0" timestamp="Fri Feb 24 10:53:32 +0100 2012" uid="1" user="" lat="46.6339098" lon="14.3117425">
    <tag k="shop" v="supermarket"/>
    <tag k="name" v="Billa"/>
    <tag k="wheelchair" v="yes"/>
    <tag k="addr:city" v="Klagenfurt"/>
    <tag k="addr:postcode" v="9020"/>
    <tag k="addr:housenumber" v="151"/>
    <tag k="addr:street" v="St. Veiter Straße"/>
  </node>
  <node id="-221" version="0" timestamp="Fri Feb 24 10:53:32 +0100 2012" uid="1" user="" lat="46.6295706" lon="14.3099536">
    <tag k="name" v="&quot;Die Hose, das Hemd&quot;"/>
    <tag k="wheelchair" v="yes"/>
    <tag k="addr:city" v="Klagenfurt"/>
    <tag k="addr:postcode" v="9020"/>
    <tag k="addr:housenumber" v="18"/>
    <tag k="addr:street" v="St. Veiter Straße"/>
    <tag k="amenity" v="bank"/>
  </node>
  <node id="-222" version="0" timestamp="Fri Feb 24 10:53:32 +0100 2012" uid="1" user="" lat="46.6502985" lon="14.3139465">
    <tag k="name" v="Gastronomie &quot;Michelangelo&quot;"/>
    <tag k="wheelchair" v="limited"/>
    <tag k="addr:city" v="Klagenfurt"/>
    <tag k="addr:postcode" v="9020"/>
    <tag k="addr:housenumber" v="181"/>
    <tag k="addr:street" v="St. Veiter Straße"/>
    <tag k="amenity" v="restaurant"/>
  </node>
  <node id="-224" version="0" timestamp="Fri Feb 24 10:53:32 +0100 2012" uid="1" user="" lat="46.650543" lon="14.3138856">
    <tag k="shop" v="hairdresser"/>
    <tag k="name" v="&quot;Perfect Hair, ihr Friseur&quot;"/>
    <tag k="wheelchair" v="yes"/>
    <tag k="addr:city" v="Klagenfurt"/>
    <tag k="addr:postcode" v="9020"/>
    <tag k="addr:housenumber" v="183"/>
    <tag k="addr:street" v="St. Veiter Straße"/>
  </node>
  <node id="-225" version="0" timestamp="Fri Feb 24 10:53:32 +0100 2012" uid="1" user="" lat="46.6505437" lon="14.3138954">
    <tag k="shop" v="shoes"/>
    <tag k="name" v="Orthopädie Grübler/Lechner"/>
    <tag k="wheelchair" v="yes"/>
    <tag k="addr:city" v="Klagenfurt"/>
    <tag k="addr:postcode" v="9020"/>
    <tag k="addr:housenumber" v="183"/>
    <tag k="addr:street" v="St. Veiter Straße"/>
  </node>
  <node id="-226" version="0" timestamp="Fri Feb 24 10:53:32 +0100 2012" uid="1" user="" lat="46.6508751" lon="14.3138839">
    <tag k="shop" v="florist"/>
    <tag k="name" v="Holland Blumen Mark"/>
    <tag k="wheelchair" v="yes"/>
    <tag k="addr:city" v="Klagenfurt"/>
    <tag k="addr:postcode" v="9020"/>
    <tag k="addr:housenumber" v="189"/>
    <tag k="addr:street" v="St. Veiter Straße"/>
  </node>
  <node id="-227" version="0" timestamp="Fri Feb 24 10:53:32 +0100 2012" uid="1" user="" lat="46.6525149" lon="14.3133382">
    <tag k="shop" v="supermarket"/>
    <tag k="name" v="Merkur"/>
    <tag k="wheelchair" v="yes"/>
    <tag k="addr:city" v="Klagenfurt"/>
    <tag k="addr:postcode" v="9020"/>
    <tag k="addr:housenumber" v="199/201"/>
    <tag k="addr:street" v="St. Veiter Straße"/>
  </node>
  <node id="-228" version="0" timestamp="Fri Feb 24 10:53:32 +0100 2012" uid="1" user="" lat="46.6493063" lon="14.3143914">
    <tag k="shop" v="florist"/>
    <tag k="name" v="Blumen Jordan"/>
    <tag k="wheelchair" v="yes"/>
    <tag k="addr:city" v="Klagenfurt"/>
    <tag k="addr:postcode" v="9020"/>
    <tag k="addr:housenumber" v="228"/>
    <tag k="addr:street" v="St. Veiter Straße"/>
  </node>
  <node id="-229" version="0" timestamp="Fri Feb 24 10:53:32 +0100 2012" uid="1" user="" lat="46.6270928" lon="14.3081941">
    <tag k="shop" v="hairdresser"/>
    <tag k="name" v="Frisör Iris"/>
    <tag k="wheelchair" v="yes"/>
    <tag k="addr:city" v="Klagenfurt"/>
    <tag k="addr:postcode" v="9020"/>
    <tag k="addr:housenumber" v="1"/>
    <tag k="addr:street" v="St. Veiter Straße"/>
  </node>
  <node id="-231" version="0" timestamp="Fri Feb 24 10:53:32 +0100 2012" uid="1" user="" lat="46.6405754" lon="14.314166">
    <tag k="name" v="Rolltek Rollladen"/>
    <tag k="wheelchair" v="no"/>
    <tag k="addr:city" v="Klagenfurt"/>
    <tag k="addr:postcode" v="9020"/>
    <tag k="addr:housenumber" v="99"/>
    <tag k="addr:street" v="St. Veiter Straße"/>
    <tag k="amenity" v="bank"/>
  </node>
  <node id="-233" version="0" timestamp="Fri Feb 24 10:53:32 +0100 2012" uid="1" user="" lat="46.6241731" lon="14.3044711">
    <tag k="name" v="Cafe Schau ma amoi"/>
    <tag k="wheelchair" v="yes"/>
    <tag k="addr:city" v="Klagenfurt"/>
    <tag k="addr:postcode" v="9020"/>
    <tag k="addr:housenumber" v="3"/>
    <tag k="addr:street" v="Stauderplatz"/>
    <tag k="amenity" v="cafe"/>
  </node>
  <node id="-234" version="0" timestamp="Fri Feb 24 10:53:32 +0100 2012" uid="1" user="" lat="46.62417" lon="14.30447">
    <tag k="name" v="Das Frühbeisl"/>
    <tag k="wheelchair" v="yes"/>
    <tag k="addr:city" v="Klagenfurt"/>
    <tag k="addr:postcode" v="9020"/>
    <tag k="addr:housenumber" v="3"/>
    <tag k="addr:street" v="Stauderplatz"/>
    <tag k="amenity" v="pub"/>
  </node>
  <node id="-236" version="0" timestamp="Fri Feb 24 10:53:32 +0100 2012" uid="1" user="" lat="46.6240558" lon="14.3046417">
    <tag k="shop" v="mall"/>
    <tag k="name" v="Drogery"/>
    <tag k="wheelchair" v="yes"/>
    <tag k="addr:city" v="Klagenfurt"/>
    <tag k="addr:postcode" v="9020"/>
    <tag k="addr:housenumber" v="8"/>
    <tag k="addr:street" v="Stauderplatz"/>
  </node>
  <node id="-238" version="0" timestamp="Fri Feb 24 10:53:32 +0100 2012" uid="1" user="" lat="46.62406" lon="14.30464">
    <tag k="name" v="Roll In Kebap"/>
    <tag k="wheelchair" v="no"/>
    <tag k="addr:city" v="Klagenfurt"/>
    <tag k="addr:postcode" v="9020"/>
    <tag k="addr:housenumber" v="8"/>
    <tag k="addr:street" v="Stauderplatz"/>
    <tag k="amenity" v="fast_food"/>
  </node>
  <node id="-250" version="0" timestamp="Fri Feb 24 10:53:32 +0100 2012" uid="1" user="" lat="46.6268746" lon="14.3016145">
    <tag k="name" v="Österreichische Sportwetten GmbH"/>
    <tag k="wheelchair" v="yes"/>
    <tag k="addr:city" v="Klagenfurt"/>
    <tag k="addr:postcode" v="9020"/>
    <tag k="addr:housenumber" v="1"/>
    <tag k="addr:street" v="Sterneckstraße"/>
    <tag k="amenity" v="cafe"/>
  </node>
  <node id="-251" version="0" timestamp="Fri Feb 24 10:53:32 +0100 2012" uid="1" user="" lat="46.6245822" lon="14.2858923">
    <tag k="name" v="Dr Claudia Aichinger Pfand"/>
    <tag k="wheelchair" v="yes"/>
    <tag k="addr:city" v="Klagenfurt"/>
    <tag k="addr:postcode" v="9020"/>
    <tag k="addr:housenumber" v="103"/>
    <tag k="addr:street" v="Sterneckstraße"/>
    <tag k="amenity" v="doctors"/>
  </node>
  <node id="-252" version="0" timestamp="Fri Feb 24 10:53:32 +0100 2012" uid="1" user="" lat="46.6250921" lon="14.2894573">
    <tag k="name" v="Universität"/>
    <tag k="wheelchair" v="yes"/>
    <tag k="addr:city" v="Klagenfurt"/>
    <tag k="addr:postcode" v="9020"/>
    <tag k="addr:housenumber" v="15"/>
    <tag k="addr:street" v="Sterneckstraße"/>
    <tag k="amenity" v="university"/>
  </node>
  <node id="-253" version="0" timestamp="Fri Feb 24 10:53:32 +0100 2012" uid="1" user="" lat="46.6260994" lon="14.2975549">
    <tag k="name" v="Post &amp; Telekom Immobilien GmbH"/>
    <tag k="wheelchair" v="no"/>
    <tag k="addr:city" v="Klagenfurt"/>
    <tag k="addr:postcode" v="9020"/>
    <tag k="addr:housenumber" v="19"/>
    <tag k="addr:street" v="Sterneckstraße"/>
    <tag k="amenity" v="post_office"/>
  </node>
  <node id="-254" version="0" timestamp="Fri Feb 24 10:53:32 +0100 2012" uid="1" user="" lat="46.6259305" lon="14.296048">
    <tag k="name" v="Med wed Rechtsanwalt"/>
    <tag k="wheelchair" v="no"/>
    <tag k="addr:city" v="Klagenfurt"/>
    <tag k="addr:postcode" v="9020"/>
    <tag k="addr:housenumber" v="43"/>
    <tag k="addr:street" v="Sterneckstraße"/>
    <tag k="amenity" v="courthouse"/>
  </node>
  <node id="-255" version="0" timestamp="Fri Feb 24 10:53:32 +0100 2012" uid="1" user="" lat="46.6089807" lon="14.2783689">
    <tag k="name" v="Stadion"/>
    <tag k="wheelchair" v="yes"/>
    <tag k="addr:city" v="Klagenfurt"/>
    <tag k="addr:postcode" v="9020"/>
    <tag k="addr:housenumber" v="207"/>
    <tag k="addr:street" v="Südring"/>
    <tag k="leisure" v="arena"/>
  </node>
  <node id="-256" version="0" timestamp="Fri Feb 24 10:53:32 +0100 2012" uid="1" user="" lat="46.6243194" lon="14.3068443">
    <tag k="name" v="Averners Cafe Bar"/>
    <tag k="wheelchair" v="no"/>
    <tag k="addr:city" v="Klagenfurt"/>
    <tag k="addr:postcode" v="9020"/>
    <tag k="addr:housenumber" v="4"/>
    <tag k="addr:street" v="Tabakgasse"/>
    <tag k="amenity" v="cafe"/>
  </node>
  <node id="-257" version="0" timestamp="Fri Feb 24 10:53:32 +0100 2012" uid="1" user="" lat="46.62292" lon="14.2954031">
    <tag k="name" v="Diozöse Gurk"/>
    <tag k="wheelchair" v="yes"/>
    <tag k="addr:city" v="Klagenfurt"/>
    <tag k="addr:postcode" v="9020"/>
    <tag k="addr:housenumber" v="30"/>
    <tag k="addr:street" v="Tarviser Straße"/>
    <tag k="amenity" v="place_of_worship"/>
  </node>
  <node id="-259" version="0" timestamp="Fri Feb 24 10:53:32 +0100 2012" uid="1" user="" lat="46.62292" lon="14.2954">
    <tag k="name" v="Diozösen Bibliothek"/>
    <tag k="wheelchair" v="yes"/>
    <tag k="addr:city" v="Klagenfurt"/>
    <tag k="addr:postcode" v="9020"/>
    <tag k="addr:housenumber" v="30"/>
    <tag k="addr:street" v="Tarviser Straße"/>
    <tag k="amenity" v="library"/>
  </node>
  <node id="-260" version="0" timestamp="Fri Feb 24 10:53:32 +0100 2012" uid="1" user="" lat="46.6221389" lon="14.2910012">
    <tag k="name" v="Gasthaus Vrabac"/>
    <tag k="wheelchair" v="no"/>
    <tag k="addr:city" v="Klagenfurt"/>
    <tag k="addr:postcode" v="9020"/>
    <tag k="addr:housenumber" v="58/6"/>
    <tag k="addr:street" v="Tarviser Straße"/>
    <tag k="amenity" v="restaurant"/>
  </node>
  <node id="-261" version="0" timestamp="Fri Feb 24 10:53:32 +0100 2012" uid="1" user="" lat="46.6234663" lon="14.3025013">
    <tag k="name" v="Chili Bar"/>
    <tag k="wheelchair" v="no"/>
    <tag k="addr:city" v="Klagenfurt"/>
    <tag k="addr:postcode" v="9020"/>
    <tag k="addr:housenumber" v="10"/>
    <tag k="addr:street" v="Villacher Straße"/>
    <tag k="amenity" v="bar"/>
  </node>
  <node id="-262" version="0" timestamp="Fri Feb 24 10:53:32 +0100 2012" uid="1" user="" lat="46.6231421" lon="14.301985">
    <tag k="name" v="Wirtshaus der Franzos"/>
    <tag k="wheelchair" v="yes"/>
    <tag k="addr:city" v="Klagenfurt"/>
    <tag k="addr:postcode" v="9020"/>
    <tag k="addr:housenumber" v="11"/>
    <tag k="addr:street" v="Villacher Straße"/>
    <tag k="amenity" v="restaurant"/>
  </node>
  <node id="-264" version="0" timestamp="Fri Feb 24 10:53:32 +0100 2012" uid="1" user="" lat="46.6232468" lon="14.3013034">
    <tag k="name" v="Gewerbliches Buchhaltungsbüro"/>
    <tag k="wheelchair" v="no"/>
    <tag k="addr:city" v="Klagenfurt"/>
    <tag k="addr:postcode" v="9020"/>
    <tag k="addr:housenumber" v="17"/>
    <tag k="addr:street" v="Villacher Straße"/>
    <tag k="amenity" v="courthouse"/>
  </node>
  <node id="-265" version="0" timestamp="Fri Feb 24 10:53:32 +0100 2012" uid="1" user="" lat="46.62325" lon="14.3013">
    <tag k="shop" v="electronics"/>
    <tag k="name" v="Klagenfurter Uhrenstube"/>
    <tag k="wheelchair" v="no"/>
    <tag k="addr:city" v="Klagenfurt"/>
    <tag k="addr:postcode" v="9020"/>
    <tag k="addr:housenumber" v="17"/>
    <tag k="addr:street" v="Villacher Straße"/>
  </node>
  <node id="-266" version="0" timestamp="Fri Feb 24 10:53:32 +0100 2012" uid="1" user="" lat="46.62325" lon="14.3013">
    <tag k="shop" v="clothes"/>
    <tag k="name" v="Schneider Atelier"/>
    <tag k="wheelchair" v="no"/>
    <tag k="addr:city" v="Klagenfurt"/>
    <tag k="addr:postcode" v="9020"/>
    <tag k="addr:housenumber" v="17"/>
    <tag k="addr:street" v="Villacher Straße"/>
  </node>
  <node id="-267" version="0" timestamp="Fri Feb 24 10:53:32 +0100 2012" uid="1" user="" lat="46.62325" lon="14.3013">
    <tag k="name" v="Studio Music+Drinks+Fun"/>
    <tag k="wheelchair" v="limited"/>
    <tag k="addr:city" v="Klagenfurt"/>
    <tag k="addr:postcode" v="9020"/>
    <tag k="addr:housenumber" v="17"/>
    <tag k="addr:street" v="Villacher Straße"/>
    <tag k="amenity" v="bar"/>
  </node>
  <node id="-268" version="0" timestamp="Fri Feb 24 10:53:32 +0100 2012" uid="1" user="" lat="46.6233311" lon="14.3019115">
    <tag k="name" v="Lendhafen Cafe"/>
    <tag k="wheelchair" v="limited"/>
    <tag k="addr:city" v="Klagenfurt"/>
    <tag k="addr:postcode" v="9020"/>
    <tag k="addr:housenumber" v="18"/>
    <tag k="addr:street" v="Villacher Straße"/>
    <tag k="amenity" v="cafe"/>
  </node>
  <node id="-269" version="0" timestamp="Fri Feb 24 10:53:32 +0100 2012" uid="1" user="" lat="46.6232526" lon="14.3007245">
    <tag k="shop" v="clothes"/>
    <tag k="name" v="Änderungsschneiderei"/>
    <tag k="wheelchair" v="no"/>
    <tag k="addr:city" v="Klagenfurt"/>
    <tag k="addr:postcode" v="9020"/>
    <tag k="addr:housenumber" v="19"/>
    <tag k="addr:street" v="Villacher Straße"/>
  </node>
  <node id="-270" version="0" timestamp="Fri Feb 24 10:53:32 +0100 2012" uid="1" user="" lat="46.62325" lon="14.30072">
    <tag k="shop" v="hairdresser"/>
    <tag k="name" v="Elena Friseur"/>
    <tag k="wheelchair" v="no"/>
    <tag k="addr:city" v="Klagenfurt"/>
    <tag k="addr:postcode" v="9020"/>
    <tag k="addr:housenumber" v="19"/>
    <tag k="addr:street" v="Villacher Straße"/>
  </node>
  <node id="-271" version="0" timestamp="Fri Feb 24 10:53:32 +0100 2012" uid="1" user="" lat="46.62325" lon="14.30072">
    <tag k="shop" v="books"/>
    <tag k="name" v="Lendbuch"/>
    <tag k="wheelchair" v="no"/>
    <tag k="addr:city" v="Klagenfurt"/>
    <tag k="addr:postcode" v="9020"/>
    <tag k="addr:housenumber" v="19"/>
    <tag k="addr:street" v="Villacher Straße"/>
  </node>
  <node id="-273" version="0" timestamp="Fri Feb 24 10:53:32 +0100 2012" uid="1" user="" lat="46.62325" lon="14.30072">
    <tag k="shop" v="electronics"/>
    <tag k="name" v="Schator Tresore"/>
    <tag k="wheelchair" v="no"/>
    <tag k="addr:city" v="Klagenfurt"/>
    <tag k="addr:postcode" v="9020"/>
    <tag k="addr:housenumber" v="19"/>
    <tag k="addr:street" v="Villacher Straße"/>
  </node>
  <node id="-274" version="0" timestamp="Fri Feb 24 10:53:32 +0100 2012" uid="1" user="" lat="46.6232426" lon="14.3007093">
    <tag k="shop" v="hairdresser"/>
    <tag k="name" v="frisör Figaro"/>
    <tag k="wheelchair" v="yes"/>
    <tag k="addr:city" v="Klagenfurt"/>
    <tag k="addr:postcode" v="9020"/>
    <tag k="addr:housenumber" v="21"/>
    <tag k="addr:street" v="Villacher Straße"/>
  </node>
  <node id="-275" version="0" timestamp="Fri Feb 24 10:53:32 +0100 2012" uid="1" user="" lat="46.6231221" lon="14.300651">
    <tag k="name" v="Psychotherapeut"/>
    <tag k="wheelchair" v="yes"/>
    <tag k="addr:city" v="Klagenfurt"/>
    <tag k="addr:postcode" v="9020"/>
    <tag k="addr:housenumber" v="23"/>
    <tag k="addr:street" v="Villacher Straße"/>
    <tag k="amenity" v="doctors"/>
  </node>
  <node id="-278" version="0" timestamp="Fri Feb 24 10:53:32 +0100 2012" uid="1" user="" lat="46.6233374" lon="14.3018731">
    <tag k="name" v="Bar Roberts"/>
    <tag k="wheelchair" v="limited"/>
    <tag k="addr:city" v="Klagenfurt"/>
    <tag k="addr:postcode" v="9020"/>
    <tag k="addr:housenumber" v="16"/>
    <tag k="addr:street" v="Villacher Straße"/>
    <tag k="amenity" v="bar"/>
  </node>
  <node id="-279" version="0" timestamp="Fri Feb 24 10:53:32 +0100 2012" uid="1" user="" lat="46.6208236" lon="14.2874397">
    <tag k="name" v="Gasthof Jenull"/>
    <tag k="wheelchair" v="no"/>
    <tag k="addr:city" v="Klagenfurt"/>
    <tag k="addr:postcode" v="9020"/>
    <tag k="addr:housenumber" v="119"/>
    <tag k="addr:street" v="Villacher Straße"/>
    <tag k="amenity" v="restaurant"/>
  </node>
  <node id="-280" version="0" timestamp="Fri Feb 24 10:53:32 +0100 2012" uid="1" user="" lat="46.6206026" lon="14.286056">
    <tag k="shop" v="hairdresser"/>
    <tag k="name" v="Frisor Vollmaier"/>
    <tag k="wheelchair" v="no"/>
    <tag k="addr:city" v="Klagenfurt"/>
    <tag k="addr:postcode" v="9020"/>
    <tag k="addr:housenumber" v="127"/>
    <tag k="addr:street" v="Villacher Straße"/>
  </node>
  <node id="-281" version="0" timestamp="Fri Feb 24 10:53:32 +0100 2012" uid="1" user="" lat="46.6206" lon="14.28606">
    <tag k="shop" v="florist"/>
    <tag k="name" v="Holland Blumen Mark"/>
    <tag k="wheelchair" v="no"/>
    <tag k="addr:city" v="Klagenfurt"/>
    <tag k="addr:postcode" v="9020"/>
    <tag k="addr:housenumber" v="127"/>
    <tag k="addr:street" v="Villacher Straße"/>
  </node>
  <node id="-282" version="0" timestamp="Fri Feb 24 10:53:32 +0100 2012" uid="1" user="" lat="46.6206" lon="14.28606">
    <tag k="name" v="Reifen Ruhdorfer"/>
    <tag k="wheelchair" v="no"/>
    <tag k="addr:city" v="Klagenfurt"/>
    <tag k="addr:postcode" v="9020"/>
    <tag k="addr:housenumber" v="127"/>
    <tag k="addr:street" v="Villacher Straße"/>
    <tag k="amenity" v="car_rental"/>
  </node>
  <node id="-283" version="0" timestamp="Fri Feb 24 10:53:32 +0100 2012" uid="1" user="" lat="46.6202758" lon="14.2844507">
    <tag k="name" v="Hotel Rokohof"/>
    <tag k="wheelchair" v="yes"/>
    <tag k="addr:city" v="Klagenfurt"/>
    <tag k="addr:postcode" v="9020"/>
    <tag k="addr:housenumber" v="135"/>
    <tag k="tourism" v="hotel"/>
    <tag k="addr:street" v="Villacher Straße"/>
  </node>
  <node id="-284" version="0" timestamp="Fri Feb 24 10:53:32 +0100 2012" uid="1" user="" lat="46.620151" lon="14.2835702">
    <tag k="name" v="Polizei"/>
    <tag k="wheelchair" v="no"/>
    <tag k="addr:city" v="Klagenfurt"/>
    <tag k="addr:postcode" v="9020"/>
    <tag k="addr:housenumber" v="137"/>
    <tag k="addr:street" v="Villacher Straße"/>
  </node>
  <node id="-285" version="0" timestamp="Fri Feb 24 10:53:32 +0100 2012" uid="1" user="" lat="46.6199621" lon="14.2826849">
    <tag k="name" v="Eni wash"/>
    <tag k="wheelchair" v="limited"/>
    <tag k="addr:city" v="Klagenfurt"/>
    <tag k="addr:postcode" v="9020"/>
    <tag k="addr:housenumber" v="143"/>
    <tag k="addr:street" v="Villacher Straße"/>
    <tag k="amenity" v="fuel"/>
  </node>
  <node id="-356" version="0" timestamp="Fri Feb 24 10:53:32 +0100 2012" uid="1" user="" lat="46.6196642" lon="14.2806074">
    <tag k="name" v="Fiat Hafner"/>
    <tag k="wheelchair" v="no"/>
    <tag k="addr:city" v="Klagenfurt"/>
    <tag k="addr:postcode" v="9020"/>
    <tag k="addr:housenumber" v="155a"/>
    <tag k="addr:street" v="Villacher Straße"/>
    <tag k="amenity" v="car_rental"/>
  </node>
  <node id="-357" version="0" timestamp="Fri Feb 24 10:53:32 +0100 2012" uid="1" user="" lat="46.6195642" lon="14.2791777">
    <tag k="name" v="Promente"/>
    <tag k="wheelchair" v="no"/>
    <tag k="addr:city" v="Klagenfurt"/>
    <tag k="addr:postcode" v="9020"/>
    <tag k="addr:housenumber" v="161"/>
    <tag k="addr:street" v="Villacher Straße"/>
  </node>
  <node id="-358" version="0" timestamp="Fri Feb 24 10:53:32 +0100 2012" uid="1" user="" lat="46.6193147" lon="14.2779525">
    <tag k="shop" v="supermarket"/>
    <tag k="name" v="Spar"/>
    <tag k="wheelchair" v="yes"/>
    <tag k="addr:city" v="Klagenfurt"/>
    <tag k="addr:postcode" v="9020"/>
    <tag k="addr:housenumber" v="171"/>
    <tag k="addr:street" v="Villacher Straße"/>
  </node>
  <node id="-359" version="0" timestamp="Fri Feb 24 10:53:32 +0100 2012" uid="1" user="" lat="46.6193284" lon="14.2766196">
    <tag k="shop" v="supermarket"/>
    <tag k="name" v="Hofer Kommanditgesellschaft"/>
    <tag k="wheelchair" v="yes"/>
    <tag k="addr:city" v="Klagenfurt"/>
    <tag k="addr:postcode" v="9020"/>
    <tag k="addr:housenumber" v="181"/>
    <tag k="addr:street" v="Villacher Straße"/>
  </node>
  <node id="-360" version="0" timestamp="Fri Feb 24 10:53:32 +0100 2012" uid="1" user="" lat="46.6195216" lon="14.2751448">
    <tag k="shop" v="hairdresser"/>
    <tag k="name" v="Tatoo in Republik"/>
    <tag k="wheelchair" v="no"/>
    <tag k="addr:city" v="Klagenfurt"/>
    <tag k="addr:postcode" v="9020"/>
    <tag k="addr:housenumber" v="191"/>
    <tag k="addr:street" v="Villacher Straße"/>
  </node>
  <node id="-361" version="0" timestamp="Fri Feb 24 10:53:32 +0100 2012" uid="1" user="" lat="46.61952" lon="14.27514">
    <tag k="name" v="Zahnärztin Mory Ulrike"/>
    <tag k="wheelchair" v="no"/>
    <tag k="addr:city" v="Klagenfurt"/>
    <tag k="addr:postcode" v="9020"/>
    <tag k="addr:housenumber" v="191"/>
    <tag k="addr:street" v="Villacher Straße"/>
    <tag k="amenity" v="doctors"/>
  </node>
  <node id="-362" version="0" timestamp="Fri Feb 24 10:53:32 +0100 2012" uid="1" user="" lat="46.6194316" lon="14.2716209">
    <tag k="name" v="Porsche Klagenfurt"/>
    <tag k="wheelchair" v="yes"/>
    <tag k="addr:city" v="Klagenfurt"/>
    <tag k="addr:postcode" v="9020"/>
    <tag k="addr:housenumber" v="213"/>
    <tag k="addr:street" v="Villacher Straße"/>
    <tag k="amenity" v="car_rental"/>
  </node>
  <node id="-363" version="0" timestamp="Fri Feb 24 10:53:32 +0100 2012" uid="1" user="" lat="46.6201301" lon="14.2700429">
    <tag k="name" v="Agil Dienstleistungsgruppe"/>
    <tag k="wheelchair" v="no"/>
    <tag k="addr:city" v="Klagenfurt"/>
    <tag k="addr:postcode" v="9020"/>
    <tag k="addr:housenumber" v="222"/>
    <tag k="addr:street" v="Villacher Straße"/>
    <tag k="amenity" v="bank"/>
  </node>
  <node id="-364" version="0" timestamp="Fri Feb 24 10:53:32 +0100 2012" uid="1" user="" lat="46.6199458" lon="14.2698201">
    <tag k="name" v="Avanti Tankstelle"/>
    <tag k="wheelchair" v="yes"/>
    <tag k="addr:city" v="Klagenfurt"/>
    <tag k="addr:postcode" v="9020"/>
    <tag k="addr:housenumber" v="226"/>
    <tag k="addr:street" v="Villacher Straße"/>
    <tag k="amenity" v="fuel"/>
  </node>
  <node id="-1323" version="0" timestamp="Fri Feb 24 10:53:33 +0100 2012" uid="1" user="" lat="46.6292732" lon="13.8171751">
    <tag k="name" v="TMT"/>
    <tag k="wheelchair" v="yes"/>
    <tag k="addr:city" v="Villach"/>
    <tag k="addr:postcode" v="9500"/>
    <tag k="addr:housenumber" v="17"/>
    <tag k="addr:street" v="Obere Fellacherstrasse"/>
    <tag k="website" v="http://www.themobileterminal.com"/>
  </node>
  <node id="-3159" version="0" timestamp="Fri Feb 24 10:53:35 +0100 2012" uid="1" user="" lat="46.62183" lon="14.30804">
    <tag k="name" v="KSŠŠK - Klub slovenskih študentk in študentov na Koroškem"/>
    <tag k="wheelchair" v="limited"/>
    <tag k="amenity" v="nightclub"/>
  </node>
  <node id="-5489" version="0" timestamp="Fri Feb 24 10:53:37 +0100 2012" uid="1" user="" lat="46.6053376" lon="13.8653244">
    <tag k="name" v="McDonald&apos;s"/>
    <tag k="wheelchair" v="yes"/>
    <tag k="addr:city" v="Villach"/>
    <tag k="addr:postcode" v="9500"/>
    <tag k="addr:housenumber" v="35"/>
    <tag k="addr:street" v="Maria-Gailer-Straße"/>
    <tag k="amenity" v="fast_food"/>
    <tag k="phone" v="04242 2255550"/>
  </node>
  <node id="-5501" version="0" timestamp="Fri Feb 24 10:53:37 +0100 2012" uid="1" user="" lat="46.6616565" lon="14.3563392">
    <tag k="name" v="Tiko - das Tierschutzkompetenzzentrum Kärnten"/>
    <tag k="wheelchair" v="yes"/>
    <tag k="addr:city" v="Klagenfurt am Wörthersee"/>
    <tag k="addr:postcode" v="9020"/>
    <tag k="addr:housenumber" v="46"/>
    <tag k="addr:street" v="Judendorfer Straße"/>
    <tag k="wheelchair:description" v="Stufenloser Zugang, Lift, Rollstuhlgerechtes WC, Rollstuhlgerechte Dusche für Mitarbeiter, "/>
    <tag k="amenity" v="social_facility"/>
    <tag k="website" v="http://www.tiere-in-not.at"/>
    <tag k="phone" v="+43 463 43 5 41"/>
  </node>
</osm>
