<?xml version='1.0' encoding='UTF-8'?>
<osm version="0.6" generator="Osmosis 0.39">
  <node id="-856" version="0" timestamp="Fri Feb 24 10:53:32 +0100 2012" uid="1" user="" lat="48.55702" lon="15.68151">
    <tag k="name" v="ferienwohnung-kamptal/inge rehpennig"/>
    <tag k="wheelchair" v="limited"/>
    <tag k="addr:city" v="plank"/>
    <tag k="addr:postcode" v="3564"/>
    <tag k="addr:housenumber" v="3"/>
    <tag k="tourism" v="bed_and_breakfast"/>
    <tag k="addr:street" v=" Neustiftgasse"/>
    <tag k="wheelchair:description" v="3 appartements sind rollstuhlgerecht"/>
    <tag k="website" v="http://www.ferienwohnung-kamptal.at"/>
    <tag k="phone" v="+43 664 4448407"/>
  </node>
  <node id="-974" version="0" timestamp="Fri Feb 24 10:53:33 +0100 2012" uid="1" user="" lat="48.36631" lon="16.35613">
    <tag k="name" v="Autohaus Pruckner GmbH, Pruckner Rehatechnik"/>
    <tag k="wheelchair" v="yes"/>
    <tag k="addr:city" v="Tresdorf-Gewerbegebiet"/>
    <tag k="addr:postcode" v="2111"/>
    <tag k="addr:housenumber" v="1"/>
    <tag k="addr:street" v="Schusterstraße"/>
    <tag k="amenity" v="car_rental"/>
    <tag k="website" v="http://www.rehatechnik.co.at/"/>
    <tag k="phone" v="+ 43/2262/721 40-0"/>
  </node>
  <node id="-4114" version="0" timestamp="Fri Feb 24 10:53:36 +0100 2012" uid="1" user="" lat="48.3446226" lon="16.3328838">
    <tag k="name" v="RicSt"/>
    <tag k="wheelchair" v="no"/>
    <tag k="wheelchair:description" v="Cafe Grünzweig"/>
    <tag k="amenity" v="cafe"/>
  </node>
  <node id="-4115" version="0" timestamp="Fri Feb 24 10:53:36 +0100 2012" uid="1" user="" lat="48.3446343" lon="16.3328907">
    <tag k="name" v="Cafe Grünzweig"/>
    <tag k="wheelchair" v="unknown"/>
    <tag k="amenity" v="cafe"/>
  </node>
  <node id="-4121" version="0" timestamp="Fri Feb 24 10:53:36 +0100 2012" uid="1" user="" lat="48.3451473" lon="16.3348436">
    <tag k="name" v="Venini"/>
    <tag k="wheelchair" v="unknown"/>
    <tag k="amenity" v="restaurant"/>
  </node>
  <node id="-4131" version="0" timestamp="Fri Feb 24 10:53:36 +0100 2012" uid="1" user="" lat="48.3498203" lon="16.3302775">
    <tag k="shop" v="kiosk"/>
    <tag k="name" v="Trafik und Papiergeschäft Skribo"/>
    <tag k="wheelchair" v="yes"/>
  </node>
  <node id="-4132" version="0" timestamp="Fri Feb 24 10:53:36 +0100 2012" uid="1" user="" lat="48.3450823" lon="16.3347532">
    <tag k="name" v="Stadtbücherei"/>
    <tag k="wheelchair" v="unknown"/>
    <tag k="amenity" v="library"/>
  </node>
  <node id="-4133" version="0" timestamp="Fri Feb 24 10:53:36 +0100 2012" uid="1" user="" lat="48.3426254" lon="16.3342605">
    <tag k="name" v="Galerie zur ebenen Erde und im ersten Stock"/>
    <tag k="wheelchair" v="no"/>
    <tag k="amenity" v="gallery"/>
  </node>
  <node id="-4134" version="0" timestamp="Fri Feb 24 10:53:36 +0100 2012" uid="1" user="" lat="48.3409791" lon="16.3317602">
    <tag k="name" v="Museum"/>
    <tag k="wheelchair" v="no"/>
    <tag k="tourism" v="museum"/>
  </node>
  <node id="-4135" version="0" timestamp="Fri Feb 24 10:53:36 +0100 2012" uid="1" user="" lat="48.3458234" lon="16.335287">
    <tag k="name" v="Musikschule"/>
    <tag k="wheelchair" v="unknown"/>
    <tag k="amenity" v="school"/>
  </node>
  <node id="-4136" version="0" timestamp="Fri Feb 24 10:53:36 +0100 2012" uid="1" user="" lat="48.3446272" lon="16.3327111">
    <tag k="name" v="Stadtsaal"/>
    <tag k="wheelchair" v="no"/>
    <tag k="amenity" v="townhall"/>
  </node>
  <node id="-4231" version="0" timestamp="Fri Feb 24 10:53:36 +0100 2012" uid="1" user="" lat="47.80218" lon="16.23466">
    <tag k="name" v="ÖZIV (Österr. Zivilinvalidenverband)"/>
    <tag k="wheelchair" v="yes"/>
    <tag k="addr:city" v="Wiener Neustadt"/>
    <tag k="addr:postcode" v="2700"/>
    <tag k="addr:housenumber" v="65"/>
    <tag k="addr:street" v="Neunkirchnerstrasse "/>
    <tag k="wheelchair:description" v="Anlaufstelle für Menschen mit Behinderungen, ebenerdig, Parkplatz vor dem Haus"/>
    <tag k="amenity" v="social_facility"/>
    <tag k="website" v="http://www.oeziv.at/"/>
  </node>
  <node id="-4768" version="0" timestamp="Fri Feb 24 10:53:36 +0100 2012" uid="1" user="" lat="47.8315943" lon="16.1667156">
    <tag k="name" v="Sparkasse"/>
    <tag k="wheelchair" v="limited"/>
    <tag k="addr:city" v="Bad Fischau"/>
    <tag k="addr:postcode" v="2721"/>
    <tag k="addr:housenumber" v="2a"/>
    <tag k="addr:street" v="Hauptstrasse"/>
    <tag k="wheelchair:description" v="Rampe"/>
    <tag k="amenity" v="bank"/>
    <tag k="website" v="http://www.sparkasse.at/sgruppe/"/>
  </node>
  <node id="-4769" version="0" timestamp="Fri Feb 24 10:53:36 +0100 2012" uid="1" user="" lat="47.8316368" lon="16.1666717">
    <tag k="shop" v="kiosk"/>
    <tag k="name" v="Trafik Sederl"/>
    <tag k="wheelchair" v="limited"/>
    <tag k="addr:city" v="Bad Fischau"/>
    <tag k="addr:postcode" v="2721"/>
    <tag k="addr:housenumber" v="2"/>
    <tag k="addr:street" v="Hauptstrasse "/>
    <tag k="wheelchair:description" v="Rampe"/>
  </node>
  <node id="-5539" version="0" timestamp="Fri Feb 24 10:53:37 +0100 2012" uid="1" user="" lat="48.55693" lon="15.6826">
    <tag k="name" v="ferienwohnung-kamptal/inge rehpennig"/>
    <tag k="wheelchair" v="yes"/>
    <tag k="addr:city" v=" plank"/>
    <tag k="addr:postcode" v=" 3564"/>
    <tag k="addr:housenumber" v="3"/>
    <tag k="tourism" v="bed_and_breakfast"/>
    <tag k="addr:street" v="Neustiftgasse "/>
    <tag k="wheelchair:description" v="3 appartements sind rollstuhlgerecht"/>
    <tag k="website" v="http://www.ferienwohnung-kamptal.at"/>
    <tag k="phone" v="+43 664 4448407"/>
  </node>
</osm>
