<?xml version='1.0' encoding='UTF-8'?>
<osm version="0.6" generator="Osmosis 0.39">
  <node id="-451" version="0" timestamp="Fri Feb 24 10:53:32 +0100 2012" uid="1" user="" lat="48.0085347" lon="13.6542751">
    <tag k="name" v="Kienesberger Franz"/>
    <tag k="wheelchair" v="limited"/>
    <tag k="addr:city" v="Vöcklabruck"/>
    <tag k="addr:postcode" v="4840"/>
    <tag k="addr:housenumber" v="22"/>
    <tag k="addr:street" v="Stadtplatz"/>
    <tag k="amenity" v="doctors"/>
  </node>
  <node id="-452" version="0" timestamp="Fri Feb 24 10:53:32 +0100 2012" uid="1" user="" lat="48.00853" lon="13.65428">
    <tag k="name" v="Riedl Rudolf"/>
    <tag k="wheelchair" v="limited"/>
    <tag k="addr:city" v="Vöcklabruck"/>
    <tag k="addr:postcode" v="4840"/>
    <tag k="addr:housenumber" v="22"/>
    <tag k="addr:street" v="Stadtplatz"/>
    <tag k="amenity" v="doctors"/>
  </node>
  <node id="-454" version="0" timestamp="Fri Feb 24 10:53:32 +0100 2012" uid="1" user="" lat="48.00853" lon="13.65428">
    <tag k="name" v="Saleschak Klaus "/>
    <tag k="wheelchair" v="limited"/>
    <tag k="addr:city" v="Vöcklabruck"/>
    <tag k="addr:postcode" v="4840"/>
    <tag k="addr:housenumber" v="39"/>
    <tag k="addr:street" v="Stadtplatz"/>
    <tag k="amenity" v="doctors"/>
  </node>
  <node id="-462" version="0" timestamp="Fri Feb 24 10:53:32 +0100 2012" uid="1" user="" lat="48.00853" lon="13.65428">
    <tag k="name" v="Lengauer Bernhard "/>
    <tag k="wheelchair" v="limited"/>
    <tag k="addr:city" v="Vöcklabruck"/>
    <tag k="addr:postcode" v="4840"/>
    <tag k="addr:housenumber" v="22a "/>
    <tag k="addr:street" v="Stadtplatz"/>
    <tag k="amenity" v="doctors"/>
  </node>
  <node id="-463" version="0" timestamp="Fri Feb 24 10:53:32 +0100 2012" uid="1" user="" lat="48.00853" lon="13.65428">
    <tag k="name" v="Lohberger Roland"/>
    <tag k="wheelchair" v="limited"/>
    <tag k="addr:city" v="Vöcklabruck"/>
    <tag k="addr:postcode" v="4840"/>
    <tag k="addr:housenumber" v="22a"/>
    <tag k="addr:street" v="Stadtplatz"/>
    <tag k="amenity" v="doctors"/>
  </node>
  <node id="-464" version="0" timestamp="Fri Feb 24 10:53:32 +0100 2012" uid="1" user="" lat="48.00853" lon="13.65428">
    <tag k="name" v="Pohl Werner"/>
    <tag k="wheelchair" v="limited"/>
    <tag k="addr:city" v="Vöcklabruck"/>
    <tag k="addr:postcode" v="4840"/>
    <tag k="addr:housenumber" v="22"/>
    <tag k="addr:street" v="Stadtplatz"/>
    <tag k="amenity" v="doctors"/>
  </node>
  <node id="-465" version="0" timestamp="Fri Feb 24 10:53:32 +0100 2012" uid="1" user="" lat="48.00853" lon="13.65428">
    <tag k="name" v="Reissig Franz Günther"/>
    <tag k="wheelchair" v="limited"/>
    <tag k="addr:city" v="Vöcklabruck"/>
    <tag k="addr:postcode" v="4840"/>
    <tag k="addr:housenumber" v="22"/>
    <tag k="addr:street" v="Stadtplatz"/>
    <tag k="amenity" v="doctors"/>
  </node>
  <node id="-468" version="0" timestamp="Fri Feb 24 10:53:32 +0100 2012" uid="1" user="" lat="48.0073663" lon="13.6538208">
    <tag k="name" v="Fizek Gottfried "/>
    <tag k="wheelchair" v="limited"/>
    <tag k="addr:city" v="Vöcklabruck"/>
    <tag k="addr:postcode" v="4840"/>
    <tag k="addr:housenumber" v="36"/>
    <tag k="addr:street" v="Stadtplatz"/>
    <tag k="amenity" v="doctors"/>
  </node>
  <node id="-480" version="0" timestamp="Fri Feb 24 10:53:32 +0100 2012" uid="1" user="" lat="48.00836" lon="13.65438">
    <tag k="name" v="Füsgen ingrid "/>
    <tag k="wheelchair" v="yes"/>
    <tag k="addr:city" v="Vöcklabruck"/>
    <tag k="addr:postcode" v="4840"/>
    <tag k="addr:housenumber" v="36"/>
    <tag k="addr:street" v="Stadtplatz"/>
    <tag k="amenity" v="doctors"/>
  </node>
  <node id="-481" version="0" timestamp="Fri Feb 24 10:53:32 +0100 2012" uid="1" user="" lat="48.00836" lon="13.65438">
    <tag k="name" v="Gilhofer Reinhold"/>
    <tag k="wheelchair" v="yes"/>
    <tag k="addr:city" v="Vöcklabruck"/>
    <tag k="addr:postcode" v="4840"/>
    <tag k="addr:housenumber" v="36"/>
    <tag k="addr:street" v="Stadtplatz"/>
    <tag k="amenity" v="doctors"/>
  </node>
  <node id="-483" version="0" timestamp="Fri Feb 24 10:53:32 +0100 2012" uid="1" user="" lat="48.0088445" lon="13.65541">
    <tag k="name" v="Zum Schwazen Adler"/>
    <tag k="wheelchair" v="limited"/>
    <tag k="addr:city" v="Vöcklabruck"/>
    <tag k="addr:postcode" v="4840"/>
    <tag k="addr:housenumber" v="7"/>
    <tag k="addr:street" v="Stadtplatz"/>
    <tag k="amenity" v="doctors"/>
  </node>
  <node id="-484" version="0" timestamp="Fri Feb 24 10:53:32 +0100 2012" uid="1" user="" lat="48.0088472" lon="13.6552383">
    <tag k="name" v="Schustereder Josef "/>
    <tag k="wheelchair" v="no"/>
    <tag k="addr:city" v="Vöcklabruck"/>
    <tag k="addr:postcode" v="4840"/>
    <tag k="addr:housenumber" v="12"/>
    <tag k="addr:street" v="Stadtplatz"/>
    <tag k="amenity" v="doctors"/>
  </node>
  <node id="-528" version="0" timestamp="Fri Feb 24 10:53:32 +0100 2012" uid="1" user="" lat="48.5056602" lon="13.4551996">
    <tag k="name" v="GH zur Mariensäule"/>
    <tag k="wheelchair" v="yes"/>
    <tag k="amenity" v="restaurant"/>
    <tag k="website" v="http://www.mariensaeule.at"/>
  </node>
  <node id="-529" version="0" timestamp="Fri Feb 24 10:53:32 +0100 2012" uid="1" user="" lat="48.509079" lon="13.4589631">
    <tag k="name" v="öffentl. WC"/>
    <tag k="wheelchair" v="no"/>
    <tag k="amenity" v="toilets"/>
  </node>
  <node id="-530" version="0" timestamp="Fri Feb 24 10:53:32 +0100 2012" uid="1" user="" lat="48.5256864" lon="13.5042235">
    <tag k="name" v="GH Steinbrunnn"/>
    <tag k="wheelchair" v="yes"/>
    <tag k="amenity" v="restaurant"/>
  </node>
  <node id="-532" version="0" timestamp="Fri Feb 24 10:53:32 +0100 2012" uid="1" user="" lat="48.0075037" lon="13.6545499">
    <tag k="name" v="Urbanek Christoph "/>
    <tag k="wheelchair" v="limited"/>
    <tag k="addr:city" v="Vöcklabruck"/>
    <tag k="addr:postcode" v="4840"/>
    <tag k="addr:housenumber" v="24"/>
    <tag k="addr:street" v="Hinterstadt"/>
    <tag k="amenity" v="doctors"/>
  </node>
  <node id="-533" version="0" timestamp="Fri Feb 24 10:53:32 +0100 2012" uid="1" user="" lat="48.0075" lon="13.65455">
    <tag k="name" v="Schäffer Herbert "/>
    <tag k="wheelchair" v="limited"/>
    <tag k="addr:city" v="Vöcklabruck"/>
    <tag k="addr:postcode" v="4840"/>
    <tag k="addr:housenumber" v="24"/>
    <tag k="addr:street" v="Hinterstadt"/>
    <tag k="amenity" v="doctors"/>
  </node>
  <node id="-534" version="0" timestamp="Fri Feb 24 10:53:32 +0100 2012" uid="1" user="" lat="48.0074892" lon="13.654491">
    <tag k="name" v="Aspoldinger Ernst "/>
    <tag k="wheelchair" v="no"/>
    <tag k="addr:city" v="Vöcklabruck"/>
    <tag k="addr:postcode" v="4840"/>
    <tag k="addr:housenumber" v="26"/>
    <tag k="addr:street" v="Hinterstadt"/>
    <tag k="amenity" v="doctors"/>
  </node>
  <node id="-535" version="0" timestamp="Fri Feb 24 10:53:32 +0100 2012" uid="1" user="" lat="48.00749" lon="13.65449">
    <tag k="name" v="Baumert Stephan"/>
    <tag k="wheelchair" v="limited"/>
    <tag k="addr:city" v="Vöcklabruck"/>
    <tag k="addr:postcode" v="4840"/>
    <tag k="addr:housenumber" v="26"/>
    <tag k="addr:street" v="Hinterstadt"/>
    <tag k="amenity" v="doctors"/>
  </node>
  <node id="-536" version="0" timestamp="Fri Feb 24 10:53:32 +0100 2012" uid="1" user="" lat="48.00749" lon="13.65449">
    <tag k="name" v="Berger"/>
    <tag k="wheelchair" v="limited"/>
    <tag k="addr:city" v="Vöcklabruck"/>
    <tag k="addr:postcode" v="4840"/>
    <tag k="addr:housenumber" v="26"/>
    <tag k="addr:street" v="Hinterstadt"/>
    <tag k="amenity" v="doctors"/>
  </node>
  <node id="-538" version="0" timestamp="Fri Feb 24 10:53:32 +0100 2012" uid="1" user="" lat="48.00749" lon="13.65449">
    <tag k="name" v="Asamer johannes"/>
    <tag k="wheelchair" v="limited"/>
    <tag k="addr:city" v="Vöcklabruck"/>
    <tag k="addr:postcode" v="4840"/>
    <tag k="addr:housenumber" v="26"/>
    <tag k="addr:street" v="Hinterstadt"/>
    <tag k="amenity" v="doctors"/>
  </node>
  <node id="-539" version="0" timestamp="Fri Feb 24 10:53:32 +0100 2012" uid="1" user="" lat="48.0072695" lon="13.6555747">
    <tag k="shop" v="shoes"/>
    <tag k="name" v="Mayr Kurt GmbH&amp;Co KG "/>
    <tag k="wheelchair" v="limited"/>
    <tag k="addr:city" v="Vöcklabruck"/>
    <tag k="addr:postcode" v="4840"/>
    <tag k="addr:housenumber" v="17"/>
    <tag k="addr:street" v="Graben "/>
  </node>
  <node id="-541" version="0" timestamp="Fri Feb 24 10:53:32 +0100 2012" uid="1" user="" lat="48.0067424" lon="13.6544274">
    <tag k="name" v="Hofstätter Reinhard "/>
    <tag k="wheelchair" v="limited"/>
    <tag k="addr:city" v="Vöcklabruck"/>
    <tag k="addr:postcode" v="4840"/>
    <tag k="addr:housenumber" v="17"/>
    <tag k="addr:street" v="Graben "/>
    <tag k="amenity" v="doctors"/>
  </node>
  <node id="-542" version="0" timestamp="Fri Feb 24 10:53:32 +0100 2012" uid="1" user="" lat="48.0067879" lon="13.6541788">
    <tag k="name" v="Fellner Wolfang"/>
    <tag k="wheelchair" v="no"/>
    <tag k="addr:city" v="Vöcklabruck"/>
    <tag k="addr:postcode" v="4840"/>
    <tag k="addr:housenumber" v="15-17"/>
    <tag k="addr:street" v="Graben "/>
    <tag k="amenity" v="doctors"/>
  </node>
  <node id="-1421" version="0" timestamp="Fri Feb 24 10:53:33 +0100 2012" uid="1" user="" lat="48.0032" lon="13.65">
    <tag k="shop" v="department_store"/>
    <tag k="name" v="Maximarkt"/>
    <tag k="wheelchair" v="yes"/>
    <tag k="addr:housenumber" v="4"/>
    <tag k="addr:street" v="Robert- Kunz Straße"/>
  </node>
  <node id="-1422" version="0" timestamp="Fri Feb 24 10:53:33 +0100 2012" uid="1" user="" lat="47.9940582" lon="13.6824452">
    <tag k="shop" v="florist"/>
    <tag k="name" v="Bella Flora"/>
    <tag k="wheelchair" v="yes"/>
    <tag k="addr:city" v="Regau"/>
    <tag k="addr:postcode" v="4844"/>
    <tag k="addr:housenumber" v="1"/>
    <tag k="addr:street" v="Betriebsstraße"/>
  </node>
  <node id="-1430" version="0" timestamp="Fri Feb 24 10:53:33 +0100 2012" uid="1" user="" lat="48.0052064" lon="13.6432023">
    <tag k="name" v="Rudolf Schlitter"/>
    <tag k="wheelchair" v="yes"/>
    <tag k="addr:city" v="Vöcklabruck"/>
    <tag k="addr:postcode" v="4840"/>
    <tag k="addr:housenumber" v="1c"/>
    <tag k="addr:street" v="Wartenburgerstraße"/>
    <tag k="amenity" v="doctors"/>
  </node>
  <node id="-1431" version="0" timestamp="Fri Feb 24 10:53:33 +0100 2012" uid="1" user="" lat="48.0051705" lon="13.643141">
    <tag k="name" v="Fritz Köppl"/>
    <tag k="wheelchair" v="yes"/>
    <tag k="addr:city" v="Vöcklabruck"/>
    <tag k="addr:postcode" v="4840"/>
    <tag k="addr:housenumber" v="1c"/>
    <tag k="addr:street" v="Wartenburgerstraße"/>
    <tag k="amenity" v="doctors"/>
  </node>
  <node id="-1434" version="0" timestamp="Fri Feb 24 10:53:33 +0100 2012" uid="1" user="" lat="48.0051305" lon="13.6431132">
    <tag k="name" v="Peter Gebhartl"/>
    <tag k="wheelchair" v="yes"/>
    <tag k="addr:city" v="Vöcklabruck"/>
    <tag k="addr:postcode" v="4840"/>
    <tag k="addr:housenumber" v="1c"/>
    <tag k="addr:street" v="Wartenburgerstraße"/>
    <tag k="amenity" v="doctors"/>
  </node>
  <node id="-1436" version="0" timestamp="Fri Feb 24 10:53:33 +0100 2012" uid="1" user="" lat="48.0051049" lon="13.6430778">
    <tag k="name" v="Werner Baudisch"/>
    <tag k="wheelchair" v="limited"/>
    <tag k="addr:city" v="Vöcklabruck"/>
    <tag k="addr:postcode" v="4840"/>
    <tag k="addr:housenumber" v="1c"/>
    <tag k="addr:street" v="Wartenburgerstraße"/>
    <tag k="amenity" v="doctors"/>
  </node>
  <node id="-1439" version="0" timestamp="Fri Feb 24 10:53:33 +0100 2012" uid="1" user="" lat="48.0051" lon="13.64308">
    <tag k="name" v="Hiemetzberger Ernst"/>
    <tag k="wheelchair" v="limited"/>
    <tag k="addr:city" v="Vöcklabruck"/>
    <tag k="addr:postcode" v="4840"/>
    <tag k="addr:housenumber" v="1c"/>
    <tag k="addr:street" v="Wartenburgerstraße"/>
    <tag k="amenity" v="doctors"/>
  </node>
  <node id="-1442" version="0" timestamp="Fri Feb 24 10:53:33 +0100 2012" uid="1" user="" lat="48.0049923" lon="13.6431046">
    <tag k="name" v="Ninol&amp;Seifert"/>
    <tag k="wheelchair" v="limited"/>
    <tag k="addr:city" v="Vöcklabruck"/>
    <tag k="addr:postcode" v="4840"/>
    <tag k="addr:housenumber" v="1c"/>
    <tag k="addr:street" v="Wartenburgerstraße"/>
    <tag k="amenity" v="doctors"/>
  </node>
  <node id="-1443" version="0" timestamp="Fri Feb 24 10:53:33 +0100 2012" uid="1" user="" lat="48.0050797" lon="13.6436955">
    <tag k="name" v="Karin Derntl"/>
    <tag k="wheelchair" v="limited"/>
    <tag k="addr:city" v="Vöcklabruck"/>
    <tag k="addr:postcode" v="4840"/>
    <tag k="addr:housenumber" v="1b"/>
    <tag k="addr:street" v="Wartenburgerstraße"/>
    <tag k="amenity" v="doctors"/>
  </node>
  <node id="-1444" version="0" timestamp="Fri Feb 24 10:53:33 +0100 2012" uid="1" user="" lat="48.005001" lon="13.6439253">
    <tag k="name" v="Assista Soziale GesmbH"/>
    <tag k="wheelchair" v="yes"/>
    <tag k="addr:city" v="Vöcklabruck"/>
    <tag k="addr:postcode" v="4840"/>
    <tag k="addr:housenumber" v="1a"/>
    <tag k="addr:street" v="Wartenburgerstraße"/>
  </node>
  <node id="-1452" version="0" timestamp="Fri Feb 24 10:53:33 +0100 2012" uid="1" user="" lat="48.0049677" lon="13.6439193">
    <tag k="shop" v="electronics"/>
    <tag k="name" v="Onea engineering Austria"/>
    <tag k="wheelchair" v="yes"/>
    <tag k="addr:city" v="Vöcklabruck"/>
    <tag k="addr:postcode" v="4840"/>
    <tag k="addr:housenumber" v="1a"/>
    <tag k="addr:street" v="Wartenburgerstraße"/>
  </node>
  <node id="-1454" version="0" timestamp="Fri Feb 24 10:53:33 +0100 2012" uid="1" user="" lat="48.0049449" lon="13.6438878">
    <tag k="name" v="Günte Einschwanger"/>
    <tag k="wheelchair" v="yes"/>
    <tag k="addr:city" v="Vöcklabruck"/>
    <tag k="addr:postcode" v="4840"/>
    <tag k="addr:housenumber" v="1a"/>
    <tag k="addr:street" v="Wartenburgerstraße"/>
    <tag k="amenity" v="bank"/>
  </node>
  <node id="-1457" version="0" timestamp="Fri Feb 24 10:53:33 +0100 2012" uid="1" user="" lat="48.0048629" lon="13.6438725">
    <tag k="shop" v="computer"/>
    <tag k="name" v="Jürgen Klein&amp;Co"/>
    <tag k="wheelchair" v="yes"/>
    <tag k="addr:city" v="Vöcklabruck"/>
    <tag k="addr:postcode" v="4840"/>
    <tag k="addr:housenumber" v="1a"/>
    <tag k="addr:street" v="Wartenburgerstraße"/>
  </node>
  <node id="-1459" version="0" timestamp="Fri Feb 24 10:53:33 +0100 2012" uid="1" user="" lat="48.0048385" lon="13.6438271">
    <tag k="shop" v="department_store"/>
    <tag k="name" v="Stallinger Holding GmbH"/>
    <tag k="wheelchair" v="yes"/>
    <tag k="addr:city" v="Vöcklabruck"/>
    <tag k="addr:postcode" v="4840"/>
    <tag k="addr:housenumber" v="1a"/>
    <tag k="addr:street" v="Wartenburgerstraße"/>
  </node>
  <node id="-1461" version="0" timestamp="Fri Feb 24 10:53:33 +0100 2012" uid="1" user="" lat="48.0048149" lon="13.6437978">
    <tag k="name" v="Hans -Walter Klein"/>
    <tag k="wheelchair" v="yes"/>
    <tag k="addr:city" v="Vöcklabruck"/>
    <tag k="addr:postcode" v="4840"/>
    <tag k="addr:housenumber" v="1a"/>
    <tag k="addr:street" v="Wartenburgerstraße"/>
  </node>
  <node id="-1463" version="0" timestamp="Fri Feb 24 10:53:33 +0100 2012" uid="1" user="" lat="48.00481" lon="13.6438">
    <tag k="name" v="Aurotec GmbH"/>
    <tag k="wheelchair" v="yes"/>
    <tag k="addr:city" v="Vöcklabruck"/>
    <tag k="addr:postcode" v="4840"/>
    <tag k="addr:housenumber" v="1a"/>
    <tag k="addr:street" v="Wartenburgerstraße"/>
  </node>
  <node id="-1467" version="0" timestamp="Fri Feb 24 10:53:33 +0100 2012" uid="1" user="" lat="48.0047813" lon="13.6437785">
    <tag k="name" v="Mentor GmbH&amp;Co"/>
    <tag k="wheelchair" v="yes"/>
    <tag k="addr:city" v="Vöcklabruck"/>
    <tag k="addr:postcode" v="4840"/>
    <tag k="addr:housenumber" v="1a"/>
    <tag k="addr:street" v="Wartenburgerstraße"/>
  </node>
  <node id="-1468" version="0" timestamp="Fri Feb 24 10:53:33 +0100 2012" uid="1" user="" lat="48.0050851" lon="13.6436566">
    <tag k="name" v="Obermair Gruber"/>
    <tag k="wheelchair" v="yes"/>
    <tag k="addr:city" v="Vöcklabruck"/>
    <tag k="addr:postcode" v="4840"/>
    <tag k="addr:housenumber" v="1b"/>
    <tag k="addr:street" v="Wartenburgerstraße"/>
  </node>
  <node id="-1470" version="0" timestamp="Fri Feb 24 10:53:33 +0100 2012" uid="1" user="" lat="48.0050469" lon="13.6436546">
    <tag k="shop" v="electronics"/>
    <tag k="name" v="Bernecker+ Rainer"/>
    <tag k="wheelchair" v="yes"/>
    <tag k="addr:city" v="Vöcklabruck"/>
    <tag k="addr:postcode" v="4840"/>
    <tag k="addr:housenumber" v="1b"/>
    <tag k="addr:street" v="Wartenburgerstraße"/>
  </node>
  <node id="-1471" version="0" timestamp="Fri Feb 24 10:53:33 +0100 2012" uid="1" user="" lat="48.0051254" lon="13.6430545">
    <tag k="name" v="Mentor Chancen im Beruf"/>
    <tag k="wheelchair" v="yes"/>
    <tag k="addr:city" v="Vöcklabruck"/>
    <tag k="addr:postcode" v="4840"/>
    <tag k="addr:housenumber" v="1c"/>
    <tag k="addr:street" v="Wartenburgerstraße"/>
  </node>
  <node id="-1472" version="0" timestamp="Fri Feb 24 10:53:33 +0100 2012" uid="1" user="" lat="48.0050905" lon="13.6430071">
    <tag k="name" v="Mentor Jump"/>
    <tag k="wheelchair" v="yes"/>
    <tag k="addr:city" v="Vöcklabruck"/>
    <tag k="addr:postcode" v="4840"/>
    <tag k="addr:housenumber" v="1c"/>
    <tag k="addr:street" v="Wartenburgerstraße"/>
  </node>
  <node id="-2059" version="0" timestamp="Fri Feb 24 10:53:34 +0100 2012" uid="1" user="" lat="48.0086969" lon="13.6515746">
    <tag k="shop" v="supermarket"/>
    <tag k="name" v="Spar"/>
    <tag k="wheelchair" v="yes"/>
    <tag k="addr:city" v="Vöcklabruck"/>
    <tag k="addr:postcode" v="4840"/>
    <tag k="addr:housenumber" v="2"/>
    <tag k="addr:street" v="Hesch Gasse"/>
  </node>
  <node id="-2060" version="0" timestamp="Fri Feb 24 10:53:34 +0100 2012" uid="1" user="" lat="48.0086139" lon="13.6527931">
    <tag k="shop" v="department_store"/>
    <tag k="name" v="Hofer"/>
    <tag k="wheelchair" v="yes"/>
    <tag k="addr:city" v="Vöcklabruck"/>
    <tag k="addr:postcode" v="4840"/>
    <tag k="addr:housenumber" v="4"/>
    <tag k="addr:street" v="Mühlbachgasse"/>
  </node>
  <node id="-2061" version="0" timestamp="Fri Feb 24 10:53:34 +0100 2012" uid="1" user="" lat="48.009902" lon="13.6637763">
    <tag k="name" v="Bahnhof"/>
    <tag k="wheelchair" v="yes"/>
    <tag k="addr:city" v="Vöcklabruck"/>
    <tag k="addr:postcode" v="4840"/>
    <tag k="addr:housenumber" v="17"/>
    <tag k="addr:street" v="Bahnhofsstraße"/>
  </node>
  <node id="-2062" version="0" timestamp="Fri Feb 24 10:53:34 +0100 2012" uid="1" user="" lat="48.0112709" lon="13.6509805">
    <tag k="name" v="Hallenbad"/>
    <tag k="wheelchair" v="yes"/>
    <tag k="addr:city" v="Vöcklabruck"/>
    <tag k="addr:postcode" v="4840"/>
    <tag k="addr:housenumber" v="25"/>
    <tag k="addr:street" v="Hausruckstraße"/>
    <tag k="amenity" v="swimming_pool"/>
  </node>
  <node id="-2063" version="0" timestamp="Fri Feb 24 10:53:34 +0100 2012" uid="1" user="" lat="48.010965" lon="13.6513931">
    <tag k="name" v="Parkbad"/>
    <tag k="wheelchair" v="yes"/>
    <tag k="addr:city" v="Vöcklabruck"/>
    <tag k="addr:postcode" v="4840"/>
    <tag k="addr:housenumber" v="25"/>
    <tag k="addr:street" v="Hausruckstraße"/>
    <tag k="amenity" v="swimming_pool"/>
  </node>
  <node id="-2064" version="0" timestamp="Fri Feb 24 10:53:34 +0100 2012" uid="1" user="" lat="48.0032939" lon="13.6434507">
    <tag k="shop" v="department_store"/>
    <tag k="name" v="Baumax"/>
    <tag k="wheelchair" v="yes"/>
    <tag k="addr:city" v="Vöcklabruck"/>
    <tag k="addr:postcode" v="4840"/>
    <tag k="addr:housenumber" v="4"/>
    <tag k="addr:street" v="Dr. Wilhelm Bock Straße"/>
  </node>
  <node id="-2065" version="0" timestamp="Fri Feb 24 10:53:34 +0100 2012" uid="1" user="" lat="48.0035889" lon="13.6721639">
    <tag k="name" v="Happy Fit"/>
    <tag k="wheelchair" v="yes"/>
    <tag k="addr:city" v="Vöcklabruck"/>
    <tag k="addr:postcode" v="4840"/>
    <tag k="addr:housenumber" v="6"/>
    <tag k="addr:street" v="Telefunken Straße"/>
    <tag k="leisure" v="sports_centre"/>
  </node>
  <node id="-2066" version="0" timestamp="Fri Feb 24 10:53:34 +0100 2012" uid="1" user="" lat="48.0047863" lon="13.673281">
    <tag k="name" v="Mc Donald´s"/>
    <tag k="wheelchair" v="limited"/>
    <tag k="addr:city" v="Vöcklabruck"/>
    <tag k="addr:postcode" v="4840"/>
    <tag k="addr:housenumber" v="8"/>
    <tag k="addr:street" v="Kopernikus Straße"/>
    <tag k="amenity" v="fast_food"/>
  </node>
  <node id="-2068" version="0" timestamp="Fri Feb 24 10:53:34 +0100 2012" uid="1" user="" lat="48.0045224" lon="13.6743032">
    <tag k="shop" v="furniture"/>
    <tag k="name" v="Leiner"/>
    <tag k="wheelchair" v="yes"/>
    <tag k="addr:city" v="Vöcklabruck"/>
    <tag k="addr:postcode" v="4840"/>
    <tag k="addr:housenumber" v="2"/>
    <tag k="addr:street" v="Kopernikus Straße"/>
  </node>
  <node id="-2070" version="0" timestamp="Fri Feb 24 10:53:34 +0100 2012" uid="1" user="" lat="48.0033031" lon="13.6685948">
    <tag k="shop" v="mall"/>
    <tag k="name" v="Varena"/>
    <tag k="wheelchair" v="yes"/>
    <tag k="addr:city" v="Vöcklabruck"/>
    <tag k="addr:postcode" v="4840"/>
    <tag k="addr:housenumber" v="50"/>
    <tag k="addr:street" v="Linzer Straße"/>
  </node>
  <node id="-2076" version="0" timestamp="Fri Feb 24 10:53:34 +0100 2012" uid="1" user="" lat="48.0033" lon="13.66859">
    <tag k="shop" v="supermarket"/>
    <tag k="name" v="Unimarkt"/>
    <tag k="wheelchair" v="yes"/>
    <tag k="addr:housenumber" v="15"/>
    <tag k="addr:street" v="Linzer Straße"/>
  </node>
  <node id="-3180" version="0" timestamp="Fri Feb 24 10:53:35 +0100 2012" uid="1" user="" lat="48.31059" lon="14.29868">
    <tag k="shop" v="bakery"/>
    <tag k="name" v="Bäckerei Hoheneder"/>
    <tag k="wheelchair" v="yes"/>
    <tag k="wheelchair:description" v="WC Daten unbekannt"/>
  </node>
  <node id="-3181" version="0" timestamp="Fri Feb 24 10:53:35 +0100 2012" uid="1" user="" lat="48.31004" lon="14.29868">
    <tag k="name" v="Nöbis Familiencafe"/>
    <tag k="wheelchair" v="yes"/>
    <tag k="wheelchair:description" v="WC unbekannt"/>
    <tag k="amenity" v="cafe"/>
  </node>
  <node id="-4300" version="0" timestamp="Fri Feb 24 10:53:36 +0100 2012" uid="1" user="" lat="48.23361" lon="13.82924">
    <tag k="name" v="Sichtbar"/>
    <tag k="wheelchair" v="no"/>
    <tag k="addr:city" v="Grieskirchen"/>
    <tag k="addr:postcode" v="4710"/>
    <tag k="addr:housenumber" v="42"/>
    <tag k="addr:street" v="Stadtplatz"/>
    <tag k="amenity" v="bar"/>
  </node>
  <node id="-4301" version="0" timestamp="Fri Feb 24 10:53:36 +0100 2012" uid="1" user="" lat="48.23401" lon="13.83001">
    <tag k="name" v="Cafe Harlekin"/>
    <tag k="wheelchair" v="limited"/>
    <tag k="addr:city" v="Hofkirchen"/>
    <tag k="addr:postcode" v="4716"/>
    <tag k="addr:housenumber" v="228"/>
    <tag k="addr:street" v="Hauptstraße"/>
    <tag k="wheelchair:description" v="Relativ kleine Toilette, alle Räume stufenlos"/>
    <tag k="amenity" v="cafe"/>
  </node>
  <node id="-5043" version="0" timestamp="Fri Feb 24 10:53:36 +0100 2012" uid="1" user="" lat="48.36929" lon="14.51359">
    <tag k="name" v="Amsec"/>
    <tag k="wheelchair" v="yes"/>
    <tag k="office" v="company"/>
  </node>
  <node id="-5181" version="0" timestamp="Fri Feb 24 10:53:37 +0100 2012" uid="1" user="" lat="48.00094" lon="13.65018">
    <tag k="name" v="Lebens- &amp; Sozialberatung Astrid Ablinger"/>
    <tag k="wheelchair" v="yes"/>
    <tag k="addr:city" v="Vöcklabruck"/>
    <tag k="addr:postcode" v="4840"/>
    <tag k="addr:housenumber" v="11"/>
    <tag k="addr:street" v="Robert-Kunz-Straße"/>
    <tag k="amenity" v="social_facility"/>
  </node>
  <node id="-5185" version="0" timestamp="Fri Feb 24 10:53:37 +0100 2012" uid="1" user="" lat="48.005362" lon="13.6542085">
    <tag k="name" v="Labordiagnostik Dr. Barta"/>
    <tag k="wheelchair" v="no"/>
    <tag k="addr:street" v="Brucknerstraße 9"/>
    <tag k="amenity" v="doctors"/>
  </node>
  <node id="-5186" version="0" timestamp="Fri Feb 24 10:53:37 +0100 2012" uid="1" user="" lat="48.01258" lon="13.65997">
    <tag k="name" v="Kinderarzt Dr. Zauner"/>
    <tag k="wheelchair" v="no"/>
    <tag k="amenity" v="doctors"/>
  </node>
  <node id="-5205" version="0" timestamp="Fri Feb 24 10:53:37 +0100 2012" uid="1" user="" lat="48.30023" lon="14.28489">
    <tag k="name" v="BEZIEHUNGLEBEN Beratung im Diözesanhaus Linz"/>
    <tag k="wheelchair" v="limited"/>
    <tag k="addr:city" v="Linz"/>
    <tag k="addr:postcode" v="4020"/>
    <tag k="addr:housenumber" v="84"/>
    <tag k="addr:street" v="Kapuzinerstraße"/>
    <tag k="wheelchair:description" v="barrierefreies WC im EG nur bedingt rollstuhltauglich"/>
    <tag k="amenity" v="social_facility"/>
    <tag k="website" v="http://www.beziehungleben.at"/>
    <tag k="phone" v="+43 732 773676"/>
  </node>
  <node id="-5206" version="0" timestamp="Fri Feb 24 10:53:37 +0100 2012" uid="1" user="" lat="48.29611" lon="14.28939">
    <tag k="name" v="BEZIEHUNGLEBEN Beratung im Haus der Frau"/>
    <tag k="wheelchair" v="yes"/>
    <tag k="addr:city" v="Linz"/>
    <tag k="addr:postcode" v="4020"/>
    <tag k="addr:housenumber" v="18"/>
    <tag k="addr:street" v="Volksgartenstraße"/>
    <tag k="amenity" v="social_facility"/>
    <tag k="website" v="http://www.beziehungleben.at"/>
    <tag k="phone" v="+43 732 773676"/>
  </node>
  <node id="-5285" version="0" timestamp="Fri Feb 24 10:53:37 +0100 2012" uid="1" user="" lat="48.00094" lon="13.65018">
    <tag k="name" v="Ergotherapie Waldl Susanne"/>
    <tag k="wheelchair" v="yes"/>
    <tag k="amenity" v="doctors"/>
  </node>
  <node id="-5286" version="0" timestamp="Fri Feb 24 10:53:37 +0100 2012" uid="1" user="" lat="48.0009173" lon="13.6503159">
    <tag k="name" v="Optiker Teufelberger &amp; Friedl"/>
    <tag k="wheelchair" v="yes"/>
    <tag k="amenity" v="bank"/>
  </node>
  <node id="-5287" version="0" timestamp="Fri Feb 24 10:53:37 +0100 2012" uid="1" user="" lat="48.00092" lon="13.65032">
    <tag k="name" v="Kinder- &amp; Jugendheilkunde Schobermayr Waltraud"/>
    <tag k="wheelchair" v="yes"/>
    <tag k="amenity" v="doctors"/>
  </node>
  <node id="-5288" version="0" timestamp="Fri Feb 24 10:53:37 +0100 2012" uid="1" user="" lat="48.00092" lon="13.65032">
    <tag k="name" v="HNO-Arzt Ritzinger Peter"/>
    <tag k="wheelchair" v="yes"/>
    <tag k="amenity" v="doctors"/>
  </node>
  <node id="-5289" version="0" timestamp="Fri Feb 24 10:53:37 +0100 2012" uid="1" user="" lat="48.0009245" lon="13.6502998">
    <tag k="name" v="Physikalische Medizin Pauly Peter"/>
    <tag k="wheelchair" v="yes"/>
    <tag k="amenity" v="doctors"/>
  </node>
  <node id="-5290" version="0" timestamp="Fri Feb 24 10:53:37 +0100 2012" uid="1" user="" lat="48.0009303" lon="13.6502748">
    <tag k="name" v="ÖZIV"/>
    <tag k="wheelchair" v="yes"/>
    <tag k="amenity" v="social_facility"/>
  </node>
  <node id="-5291" version="0" timestamp="Fri Feb 24 10:53:37 +0100 2012" uid="1" user="" lat="48.00093" lon="13.65027">
    <tag k="shop" v="hearing_aids"/>
    <tag k="name" v="Neuroth AG"/>
    <tag k="wheelchair" v="yes"/>
  </node>
  <node id="-5292" version="0" timestamp="Fri Feb 24 10:53:37 +0100 2012" uid="1" user="" lat="48.0008762" lon="13.6503129">
    <tag k="shop" v="medical_supply"/>
    <tag k="name" v="Neumann GmbH"/>
    <tag k="wheelchair" v="yes"/>
  </node>
  <node id="-5293" version="0" timestamp="Fri Feb 24 10:53:37 +0100 2012" uid="1" user="" lat="48.0009604" lon="13.6503266">
    <tag k="name" v="Unfall- &amp; Handchirurgie Mihalic Alexander"/>
    <tag k="wheelchair" v="yes"/>
    <tag k="amenity" v="doctors"/>
  </node>
  <node id="-5294" version="0" timestamp="Fri Feb 24 10:53:37 +0100 2012" uid="1" user="" lat="48.0010246" lon="13.6501422">
    <tag k="name" v="Neurologie Metrovic Neved"/>
    <tag k="wheelchair" v="yes"/>
    <tag k="amenity" v="pharmacy"/>
  </node>
  <node id="-5295" version="0" timestamp="Fri Feb 24 10:53:37 +0100 2012" uid="1" user="" lat="48.0010236" lon="13.6505423">
    <tag k="name" v="Allgemeinmedizin Dick Johannes"/>
    <tag k="wheelchair" v="yes"/>
    <tag k="amenity" v="doctors"/>
  </node>
  <node id="-5296" version="0" timestamp="Fri Feb 24 10:53:37 +0100 2012" uid="1" user="" lat="48.0008692" lon="13.65054">
    <tag k="name" v="Psychiatrie Dunzinger Eduard"/>
    <tag k="wheelchair" v="yes"/>
    <tag k="amenity" v="doctors"/>
  </node>
  <node id="-5297" version="0" timestamp="Fri Feb 24 10:53:37 +0100 2012" uid="1" user="" lat="48.00087" lon="13.65054">
    <tag k="name" v="Augenarzt Feichtinger Reinhold"/>
    <tag k="wheelchair" v="yes"/>
    <tag k="amenity" v="doctors"/>
  </node>
  <node id="-5298" version="0" timestamp="Fri Feb 24 10:53:37 +0100 2012" uid="1" user="" lat="48.0011059" lon="13.6506915">
    <tag k="name" v="Logopädie Haidecker Maria"/>
    <tag k="wheelchair" v="yes"/>
    <tag k="amenity" v="doctors"/>
  </node>
  <node id="-5299" version="0" timestamp="Fri Feb 24 10:53:37 +0100 2012" uid="1" user="" lat="48.0008085" lon="13.6505666">
    <tag k="name" v="Innere Medizin Hesenberger Ernst"/>
    <tag k="wheelchair" v="yes"/>
    <tag k="amenity" v="doctors"/>
  </node>
  <node id="-5300" version="0" timestamp="Fri Feb 24 10:53:37 +0100 2012" uid="1" user="" lat="48.0007952" lon="13.650568">
    <tag k="name" v="Neurologie Honisch Walter"/>
    <tag k="wheelchair" v="yes"/>
    <tag k="amenity" v="doctors"/>
  </node>
  <node id="-5301" version="0" timestamp="Fri Feb 24 10:53:37 +0100 2012" uid="1" user="" lat="48.0009723" lon="13.6507792">
    <tag k="name" v="Massage Huber Helga"/>
    <tag k="wheelchair" v="yes"/>
    <tag k="amenity" v="social_facility"/>
  </node>
  <node id="-5302" version="0" timestamp="Fri Feb 24 10:53:37 +0100 2012" uid="1" user="" lat="48.0127846" lon="13.6591224">
    <tag k="name" v="Zahnmedizin Kepplinger Robert"/>
    <tag k="wheelchair" v="no"/>
    <tag k="amenity" v="doctors"/>
  </node>
  <node id="-5303" version="0" timestamp="Fri Feb 24 10:53:37 +0100 2012" uid="1" user="" lat="48.0010824" lon="13.6507236">
    <tag k="name" v="Zahnmedizin Leitner Wolfgang"/>
    <tag k="wheelchair" v="yes"/>
    <tag k="amenity" v="doctors"/>
  </node>
  <node id="-5304" version="0" timestamp="Fri Feb 24 10:53:37 +0100 2012" uid="1" user="" lat="48.0010262" lon="13.6505966">
    <tag k="name" v="Physiotherapie Maderebner Christian"/>
    <tag k="wheelchair" v="yes"/>
    <tag k="amenity" v="doctors"/>
  </node>
  <node id="-5305" version="0" timestamp="Fri Feb 24 10:53:37 +0100 2012" uid="1" user="" lat="48.0008433" lon="13.6505249">
    <tag k="name" v="Lebens- &amp; Sozialberatung Maderebner Petra"/>
    <tag k="wheelchair" v="yes"/>
    <tag k="amenity" v="social_facility"/>
  </node>
  <node id="-5306" version="0" timestamp="Fri Feb 24 10:53:37 +0100 2012" uid="1" user="" lat="48.0091743" lon="13.6585125">
    <tag k="name" v="Gynäkologie &amp; Geburtenhilfe Walter Johann"/>
    <tag k="wheelchair" v="limited"/>
    <tag k="amenity" v="doctors"/>
  </node>
</osm>
