<?xml version='1.0' encoding='UTF-8'?>
<osm version="0.6" generator="Osmosis 0.39">
  <node id="-14" version="0" timestamp="Fri Feb 24 10:53:32 +0100 2012" uid="1" user="" lat="47.09533" lon="15.40209">
    <tag k="name" v="Zum Stern"/>
    <tag k="wheelchair" v="limited"/>
    <tag k="amenity" v="restaurant"/>
  </node>
  <node id="-15" version="0" timestamp="Fri Feb 24 10:53:32 +0100 2012" uid="1" user="" lat="47.0961002" lon="15.4041837">
    <tag k="name" v="Zum Stern"/>
    <tag k="wheelchair" v="limited"/>
    <tag k="amenity" v="restaurant"/>
  </node>
  <node id="-3270" version="0" timestamp="Fri Feb 24 10:53:35 +0100 2012" uid="1" user="" lat="46.9519468" lon="15.8900441">
    <tag k="name" v="Konditorei Fitz"/>
    <tag k="wheelchair" v="limited"/>
    <tag k="addr:city" v="Feldbach"/>
    <tag k="addr:postcode" v="8330"/>
    <tag k="addr:street" v="Ungarstrasse"/>
    <tag k="wheelchair:description" v="WC nicht rollstuhlgerecht"/>
    <tag k="amenity" v="bank"/>
  </node>
  <node id="-3704" version="0" timestamp="Fri Feb 24 10:53:35 +0100 2012" uid="1" user="" lat="47.0667" lon="15.45">
    <tag k="name" v="TagesstÃ¤tte Anzengrubergasse"/>
    <tag k="wheelchair" v="yes"/>
    <tag k="addr:city" v="Graz"/>
    <tag k="addr:postcode" v="8010"/>
    <tag k="addr:housenumber" v="8"/>
    <tag k="addr:street" v="Anzengrubergasse "/>
    <tag k="website" v="http://www.lebenshilfe-guv.at"/>
  </node>
</osm>
