<?xml version='1.0' encoding='UTF-8'?>
<osm version="0.6" generator="Osmosis 0.39">
  <node id="-22" version="0" timestamp="Fri Feb 24 10:53:32 +0100 2012" uid="1" user="" lat="47.367601" lon="11.7184823">
    <tag k="name" v="Marschall"/>
    <tag k="wheelchair" v="limited"/>
    <tag k="amenity" v="restaurant"/>
  </node>
  <node id="-23" version="0" timestamp="Fri Feb 24 10:53:32 +0100 2012" uid="1" user="" lat="47.3506773" lon="11.7186237">
    <tag k="name" v="Haus der Völker"/>
    <tag k="wheelchair" v="no"/>
    <tag k="tourism" v="museum"/>
  </node>
  <node id="-24" version="0" timestamp="Fri Feb 24 10:53:32 +0100 2012" uid="1" user="" lat="47.30209" lon="11.67486">
    <tag k="name" v="Schwannerwirt"/>
    <tag k="wheelchair" v="limited"/>
    <tag k="amenity" v="restaurant"/>
  </node>
  <node id="-25" version="0" timestamp="Fri Feb 24 10:53:32 +0100 2012" uid="1" user="" lat="47.2982077" lon="11.6659992">
    <tag k="name" v="Dr. Ruth Rudiferia"/>
    <tag k="wheelchair" v="yes"/>
    <tag k="amenity" v="doctors"/>
  </node>
  <node id="-26" version="0" timestamp="Fri Feb 24 10:53:32 +0100 2012" uid="1" user="" lat="47.2982682" lon="11.6660429">
    <tag k="name" v="Gemeindeamt Weerberg"/>
    <tag k="wheelchair" v="yes"/>
  </node>
  <node id="-166" version="0" timestamp="Fri Feb 24 10:53:32 +0100 2012" uid="1" user="" lat="47.3464038" lon="11.7109731">
    <tag k="name" v="Pölzbühne"/>
    <tag k="wheelchair" v="yes"/>
    <tag k="amenity" v="townhall"/>
  </node>
  <node id="-167" version="0" timestamp="Fri Feb 24 10:53:32 +0100 2012" uid="1" user="" lat="47.3454794" lon="11.7116835">
    <tag k="name" v="Kolpingsaal"/>
    <tag k="wheelchair" v="yes"/>
    <tag k="amenity" v="townhall"/>
  </node>
  <node id="-168" version="0" timestamp="Fri Feb 24 10:53:32 +0100 2012" uid="1" user="" lat="47.3507146" lon="11.7185654">
    <tag k="name" v="Haus der Völker"/>
    <tag k="wheelchair" v="no"/>
    <tag k="tourism" v="museum"/>
  </node>
  <node id="-223" version="0" timestamp="Fri Feb 24 10:53:32 +0100 2012" uid="1" user="" lat="47.3774993" lon="11.7684958">
    <tag k="name" v="Kultut am Land"/>
    <tag k="wheelchair" v="yes"/>
    <tag k="amenity" v="arts_centre"/>
  </node>
  <node id="-230" version="0" timestamp="Fri Feb 24 10:53:32 +0100 2012" uid="1" user="" lat="47.29379" lon="11.60062">
    <tag k="name" v="Swarovski Kristallwelten"/>
    <tag k="wheelchair" v="yes"/>
    <tag k="tourism" v="museum"/>
  </node>
  <node id="-237" version="0" timestamp="Fri Feb 24 10:53:32 +0100 2012" uid="1" user="" lat="47.2981896" lon="11.6663541">
    <tag k="name" v="Gemeindeamt Weerberg"/>
    <tag k="wheelchair" v="yes"/>
  </node>
  <node id="-239" version="0" timestamp="Fri Feb 24 10:53:32 +0100 2012" uid="1" user="" lat="47.29819" lon="11.66635">
    <tag k="name" v="Dr. Ruth Rudiferia"/>
    <tag k="wheelchair" v="yes"/>
    <tag k="amenity" v="doctors"/>
  </node>
  <node id="-240" version="0" timestamp="Fri Feb 24 10:53:32 +0100 2012" uid="1" user="" lat="47.29819" lon="11.66635">
    <tag k="name" v="Gemeindesaal"/>
    <tag k="wheelchair" v="yes"/>
    <tag k="amenity" v="townhall"/>
  </node>
  <node id="-241" version="0" timestamp="Fri Feb 24 10:53:32 +0100 2012" uid="1" user="" lat="47.3497212" lon="11.7073226">
    <tag k="name" v="StayInn"/>
    <tag k="wheelchair" v="yes"/>
    <tag k="tourism" v="hotel"/>
  </node>
  <node id="-242" version="0" timestamp="Fri Feb 24 10:53:32 +0100 2012" uid="1" user="" lat="47.3451128" lon="11.7083143">
    <tag k="name" v="Silvercity"/>
    <tag k="wheelchair" v="no"/>
    <tag k="amenity" v="bar"/>
  </node>
  <node id="-243" version="0" timestamp="Fri Feb 24 10:53:32 +0100 2012" uid="1" user="" lat="47.3466999" lon="11.7112205">
    <tag k="name" v="Pölzbühne"/>
    <tag k="wheelchair" v="yes"/>
    <tag k="amenity" v="townhall"/>
  </node>
  <node id="-244" version="0" timestamp="Fri Feb 24 10:53:32 +0100 2012" uid="1" user="" lat="47.3454399" lon="11.7117317">
    <tag k="name" v="Kolpingsaal"/>
    <tag k="wheelchair" v="yes"/>
    <tag k="amenity" v="townhall"/>
  </node>
  <node id="-640" version="0" timestamp="Fri Feb 24 10:53:32 +0100 2012" uid="1" user="" lat="47.3830782" lon="10.5612994">
    <tag k="shop" v="supermarket"/>
    <tag k="name" v="Spar"/>
    <tag k="wheelchair" v="yes"/>
  </node>
  <node id="-641" version="0" timestamp="Fri Feb 24 10:53:32 +0100 2012" uid="1" user="" lat="47.3829227" lon="10.5630887">
    <tag k="shop" v="bakery"/>
    <tag k="name" v="Bäckerei Winkler"/>
    <tag k="wheelchair" v="no"/>
  </node>
  <node id="-642" version="0" timestamp="Fri Feb 24 10:53:32 +0100 2012" uid="1" user="" lat="47.3809108" lon="10.5639872">
    <tag k="name" v="GH Jamdo"/>
    <tag k="wheelchair" v="limited"/>
    <tag k="amenity" v="restaurant"/>
  </node>
  <node id="-698" version="0" timestamp="Fri Feb 24 10:53:32 +0100 2012" uid="1" user="" lat="47.28287" lon="11.50871">
    <tag k="name" v="Geisterburg"/>
    <tag k="wheelchair" v="no"/>
    <tag k="wheelchair:description" v="Stufen, kein Barrierefreies WC"/>
    <tag k="amenity" v="restaurant"/>
  </node>
  <node id="-699" version="0" timestamp="Fri Feb 24 10:53:32 +0100 2012" uid="1" user="" lat="47.28295" lon="11.50814">
    <tag k="name" v="Cafe Murauer"/>
    <tag k="wheelchair" v="no"/>
    <tag k="wheelchair:description" v="Stufen und kein barrierefreies WC"/>
    <tag k="amenity" v="cafe"/>
  </node>
  <node id="-739" version="0" timestamp="Fri Feb 24 10:53:32 +0100 2012" uid="1" user="" lat="47.28072" lon="11.52919">
    <tag k="name" v="Reschenhof"/>
    <tag k="wheelchair" v="yes"/>
    <tag k="wheelchair:description" v="Restaurant barrierefrei, Hotel unbekannt"/>
    <tag k="amenity" v="restaurant"/>
  </node>
  <node id="-750" version="0" timestamp="Fri Feb 24 10:53:32 +0100 2012" uid="1" user="" lat="47.28069" lon="11.52921">
    <tag k="name" v="Reschenhof"/>
    <tag k="wheelchair" v="yes"/>
    <tag k="wheelchair:description" v="Restaurant barrierefrei, Hotel unbekannt"/>
    <tag k="amenity" v="restaurant"/>
  </node>
  <node id="-751" version="0" timestamp="Fri Feb 24 10:53:32 +0100 2012" uid="1" user="" lat="47.2808" lon="11.52576">
    <tag k="shop" v="supermarket"/>
    <tag k="name" v="Super-M"/>
    <tag k="wheelchair" v="limited"/>
    <tag k="wheelchair:description" v="Parkplatz neben dem Eingang, Regale wie üblich"/>
  </node>
  <node id="-752" version="0" timestamp="Fri Feb 24 10:53:32 +0100 2012" uid="1" user="" lat="47.28502" lon="11.52244">
    <tag k="shop" v="supermarket"/>
    <tag k="name" v="Super-M"/>
    <tag k="wheelchair" v="limited"/>
    <tag k="wheelchair:description" v="Parkplatz n ähe Eingang, Regale wie üblich"/>
  </node>
  <node id="-753" version="0" timestamp="Fri Feb 24 10:53:32 +0100 2012" uid="1" user="" lat="47.2924219" lon="11.5144654">
    <tag k="name" v="Konditorei/Eisdiele Fuchs"/>
    <tag k="wheelchair" v="limited"/>
    <tag k="wheelchair:description" v="Rampe Nordseitig, kein Barrierfr. WC"/>
    <tag k="amenity" v="cafe"/>
  </node>
  <node id="-973" version="0" timestamp="Fri Feb 24 10:53:33 +0100 2012" uid="1" user="" lat="47.2924" lon="11.51449">
    <tag k="name" v="Konditorei/Eisdiele Fuchs"/>
    <tag k="wheelchair" v="limited"/>
    <tag k="wheelchair:description" v="Rampe nördlich beim Zugang"/>
    <tag k="amenity" v="cafe"/>
  </node>
  <node id="-1072" version="0" timestamp="Fri Feb 24 10:53:33 +0100 2012" uid="1" user="" lat="47.3497511" lon="11.7072426">
    <tag k="name" v="Stayinn"/>
    <tag k="wheelchair" v="yes"/>
    <tag k="tourism" v="hotel"/>
  </node>
  <node id="-1229" version="0" timestamp="Fri Feb 24 10:53:33 +0100 2012" uid="1" user="" lat="47.6537137" lon="12.4152995">
    <tag k="name" v="Kaiseralm"/>
    <tag k="wheelchair" v="limited"/>
    <tag k="wheelchair:description" v="Steile Rampe außen, innen viel Platz"/>
    <tag k="amenity" v="restaurant"/>
  </node>
  <node id="-1759" version="0" timestamp="Fri Feb 24 10:53:33 +0100 2012" uid="1" user="" lat="47.3492834" lon="11.7120905">
    <tag k="name" v="Goldener Löwe"/>
    <tag k="wheelchair" v="limited"/>
    <tag k="tourism" v="hotel"/>
  </node>
  <node id="-1760" version="0" timestamp="Fri Feb 24 10:53:33 +0100 2012" uid="1" user="" lat="47.34928" lon="11.71209">
    <tag k="name" v="Goldener öwe"/>
    <tag k="wheelchair" v="limited"/>
    <tag k="amenity" v="restaurant"/>
  </node>
  <node id="-1761" version="0" timestamp="Fri Feb 24 10:53:33 +0100 2012" uid="1" user="" lat="47.3482682" lon="11.7112283">
    <tag k="name" v="Gasthaus Mondschein"/>
    <tag k="wheelchair" v="limited"/>
    <tag k="amenity" v="pub"/>
  </node>
  <node id="-4909" version="0" timestamp="Fri Feb 24 10:53:36 +0100 2012" uid="1" user="" lat="47.28828" lon="11.53215">
    <tag k="name" v="Gemeindeamt Mils"/>
    <tag k="wheelchair" v="unknown"/>
    <tag k="wheelchair:description" v="Alles ausreichend bis perfekt Barrierefrai"/>
    <tag k="amenity" v="bank"/>
  </node>
  <node id="-4910" version="0" timestamp="Fri Feb 24 10:53:36 +0100 2012" uid="1" user="" lat="47.28828" lon="11.53215">
    <tag k="name" v="Gemeindeamt Mils"/>
    <tag k="wheelchair" v="unknown"/>
    <tag k="addr:city" v="Mils"/>
    <tag k="addr:postcode" v="6068"/>
    <tag k="addr:housenumber" v="4"/>
    <tag k="addr:street" v="Unterdorf"/>
    <tag k="wheelchair:description" v="Alles ausreichend bis perfekt Barrierefrei"/>
    <tag k="amenity" v="community_center"/>
    <tag k="website" v="http://www.mils-tirol.at/"/>
    <tag k="phone" v="05223/56570 "/>
  </node>
</osm>
