<?xml version='1.0' encoding='UTF-8'?>
<osm version="0.6" generator="Osmosis 0.39">
  <node id="-659" version="0" timestamp="Fri Feb 24 10:53:32 +0100 2012" uid="1" user="" lat="48.1913035" lon="16.4084929">
    <tag k="name" v="Restaurant Scala"/>
    <tag k="wheelchair" v="limited"/>
    <tag k="addr:city" v="Wien"/>
    <tag k="addr:postcode" v="1030"/>
    <tag k="addr:housenumber" v="83"/>
    <tag k="addr:street" v="Baumgasse"/>
    <tag k="amenity" v="restaurant"/>
  </node>
  <node id="-660" version="0" timestamp="Fri Feb 24 10:53:32 +0100 2012" uid="1" user="" lat="48.1914144" lon="16.4080877">
    <tag k="name" v="Vienna Sporthotel"/>
    <tag k="wheelchair" v="no"/>
    <tag k="addr:city" v="Wien"/>
    <tag k="addr:postcode" v="1030"/>
    <tag k="addr:housenumber" v="83"/>
    <tag k="tourism" v="hotel"/>
    <tag k="addr:street" v="Baumgasse"/>
  </node>
  <node id="-724" version="0" timestamp="Fri Feb 24 10:53:32 +0100 2012" uid="1" user="" lat="48.1912413" lon="16.4081866">
    <tag k="name" v="Vienna Sporthotel"/>
    <tag k="wheelchair" v="limited"/>
    <tag k="addr:city" v="Wien"/>
    <tag k="addr:postcode" v="1030"/>
    <tag k="addr:housenumber" v="83"/>
    <tag k="tourism" v="hotel"/>
    <tag k="addr:street" v="Baumgasse"/>
  </node>
  <node id="-725" version="0" timestamp="Fri Feb 24 10:53:32 +0100 2012" uid="1" user="" lat="48.1912829" lon="16.4085119">
    <tag k="name" v="Restaurant Scala"/>
    <tag k="wheelchair" v="limited"/>
    <tag k="addr:postcode" v="1030"/>
    <tag k="addr:housenumber" v="83"/>
    <tag k="addr:street" v="Baumgasse"/>
    <tag k="amenity" v="restaurant"/>
  </node>
  <node id="-921" version="0" timestamp="Fri Feb 24 10:53:33 +0100 2012" uid="1" user="" lat="48.27988" lon="16.40986">
    <tag k="name" v="Zahnarztordination Dr.Daniela Stanitz"/>
    <tag k="wheelchair" v="yes"/>
    <tag k="addr:city" v="Wiener Neustadt"/>
    <tag k="addr:postcode" v="2700"/>
    <tag k="addr:housenumber" v="11"/>
    <tag k="addr:street" v="Wiener Straße "/>
    <tag k="amenity" v="doctors"/>
    <tag k="website" v="http://www.dr-stanitz.at"/>
    <tag k="phone" v="+43 2622 22 929"/>
  </node>
  <node id="-2081" version="0" timestamp="Fri Feb 24 10:53:34 +0100 2012" uid="1" user="" lat="48.2172507" lon="16.3117363">
    <tag k="name" v="Bank Austria Filiala"/>
    <tag k="wheelchair" v="unknown"/>
    <tag k="amenity" v="bank"/>
  </node>
  <node id="-3248" version="0" timestamp="Fri Feb 24 10:53:35 +0100 2012" uid="1" user="" lat="48.2162538" lon="16.3773772">
    <tag k="name" v="Fett+Zucker"/>
    <tag k="wheelchair" v="limited"/>
    <tag k="addr:city" v="Wien"/>
    <tag k="addr:postcode" v="1030"/>
    <tag k="addr:housenumber" v="16"/>
    <tag k="addr:street" v="Hollandstraße"/>
    <tag k="amenity" v="cafe"/>
    <tag k="website" v="http://www.fettundzucker.at/"/>
  </node>
  <node id="-3777" version="0" timestamp="Fri Feb 24 10:53:35 +0100 2012" uid="1" user="" lat="48.1887873" lon="16.3487942">
    <tag k="name" v="Perchtenbräu"/>
    <tag k="wheelchair" v="unknown"/>
    <tag k="amenity" v="pub"/>
  </node>
  <node id="-4153" version="0" timestamp="Fri Feb 24 10:53:36 +0100 2012" uid="1" user="" lat="48.203719" lon="16.3637608">
    <tag k="name" v="Passage Vanity"/>
    <tag k="wheelchair" v="limited"/>
    <tag k="addr:city" v="Wien"/>
    <tag k="addr:postcode" v="1010"/>
    <tag k="addr:housenumber" v="3"/>
    <tag k="addr:street" v="Burgring"/>
    <tag k="wheelchair:description" v="Lift für Handrollstühle vorhanden. Es existiert zwar ein Behindertenwc, allerdings wird diese als Lager benutzt und das Waschbecken wurde direkt vor die Toilette gebaut, sodass diese so nur von der zugestellten Seite und ohne Handgriffe zugänglich ist."/>
    <tag k="amenity" v="nightclub"/>
    <tag k="website" v="http://www.sunshine.at/neu/index.php?l=clubshow&amp;id=2&amp;menu=club&amp;act=2"/>
    <tag k="phone" v="00431 961 88 00"/>
  </node>
  <node id="-4154" version="0" timestamp="Fri Feb 24 10:53:36 +0100 2012" uid="1" user="" lat="48.1739469" lon="16.3305401">
    <tag k="name" v="öffentliche Toilette"/>
    <tag k="wheelchair" v="yes"/>
    <tag k="wheelchair:description" v="Behinderten WC im Bahnhof. Funktioniert mit Euroschlüssel."/>
    <tag k="amenity" v="toilets"/>
  </node>
  <node id="-4920" version="0" timestamp="Fri Feb 24 10:53:36 +0100 2012" uid="1" user="" lat="48.20582" lon="16.42487">
    <tag k="shop" v="mall"/>
    <tag k="name" v="Stadioncenter"/>
    <tag k="wheelchair" v="yes"/>
    <tag k="addr:city" v="Wien"/>
    <tag k="addr:postcode" v="1020"/>
    <tag k="addr:housenumber" v="2"/>
    <tag k="addr:street" v="Olympiaplatz"/>
    <tag k="wheelchair:description" v="ebener Haupteingang, 4 Aufzüge, Barrierefreie Tiefgarage, je Einkaufsebene ein Roolstuhltaugliches WC"/>
    <tag k="website" v="http://www.stadioncenter.at/"/>
    <tag k="phone" v="0043 1 726 51 29"/>
  </node>
</osm>
