<?xml version='1.0' encoding='UTF-8'?>
<osm version="0.6" generator="Osmosis 0.39">
  <node id="-577" version="0" timestamp="Fri Feb 24 10:53:32 +0100 2012" uid="1" user="" lat="53.2659566" lon="7.9342559">
    <tag k="shop" v="electronics"/>
    <tag k="name" v="Detlef Coldewey GmbH"/>
    <tag k="wheelchair" v="yes"/>
    <tag k="addr:city" v="Westerstede"/>
    <tag k="addr:postcode" v="26655"/>
    <tag k="addr:housenumber" v="6"/>
    <tag k="addr:street" v="Burgstraße "/>
    <tag k="website" v="http://www.coldewey.de"/>
    <tag k="phone" v="0448883840"/>
  </node>
  <node id="-2835" version="0" timestamp="Fri Feb 24 10:53:34 +0100 2012" uid="1" user="" lat="53.1856132" lon="8.0011277">
    <tag k="shop" v="shoes"/>
    <tag k="name" v="Schuhhaus Hinrichs"/>
    <tag k="wheelchair" v="yes"/>
    <tag k="addr:city" v="Bad Zwischenahn"/>
    <tag k="addr:postcode" v="26160"/>
    <tag k="addr:housenumber" v="12"/>
    <tag k="addr:street" v="Lange Straße "/>
    <tag k="wheelchair:description" v="Komplett Eben und Mitarbeiterinnen helfen"/>
  </node>
  <node id="-2836" version="0" timestamp="Fri Feb 24 10:53:34 +0100 2012" uid="1" user="" lat="53.1855554" lon="8.0009476">
    <tag k="shop" v="bakery"/>
    <tag k="name" v="Bäckerei Janssen"/>
    <tag k="wheelchair" v="yes"/>
    <tag k="addr:city" v="Bad Zwischenahn"/>
    <tag k="addr:postcode" v="26160"/>
    <tag k="addr:housenumber" v="14"/>
    <tag k="addr:street" v="Lange Straße"/>
  </node>
  <node id="-2838" version="0" timestamp="Fri Feb 24 10:53:34 +0100 2012" uid="1" user="" lat="53.1868007" lon="7.9997577">
    <tag k="name" v="Badepark"/>
    <tag k="wheelchair" v="limited"/>
    <tag k="addr:city" v="Bad Zwischenahn"/>
    <tag k="addr:postcode" v="26160"/>
    <tag k="addr:street" v="Am Badepark"/>
    <tag k="amenity" v="swimming_pool"/>
  </node>
  <node id="-2840" version="0" timestamp="Fri Feb 24 10:53:34 +0100 2012" uid="1" user="" lat="53.1814607" lon="8.0074634">
    <tag k="shop" v="supermarket"/>
    <tag k="name" v="ALDI"/>
    <tag k="wheelchair" v="yes"/>
    <tag k="addr:city" v="Bad Zwischenahn"/>
    <tag k="addr:postcode" v="26160"/>
    <tag k="addr:street" v="Langenhof"/>
  </node>
  <node id="-2841" version="0" timestamp="Fri Feb 24 10:53:34 +0100 2012" uid="1" user="" lat="53.17844" lon="7.995523">
    <tag k="shop" v="supermarket"/>
    <tag k="name" v="Netto"/>
    <tag k="wheelchair" v="yes"/>
    <tag k="addr:city" v="Bad Zwischenahn"/>
    <tag k="addr:postcode" v="26160"/>
    <tag k="addr:street" v="Reihdamm"/>
  </node>
</osm>
