<?xml version='1.0' encoding='UTF-8'?>
<osm version="0.6" generator="Osmosis 0.39">
  <node id="-762" version="0" timestamp="Fri Feb 24 10:53:32 +0100 2012" uid="1" user="" lat="52.276822" lon="10.5199751">
    <tag k="name" v="Autohaus Holzberg"/>
    <tag k="wheelchair" v="yes"/>
    <tag k="addr:city" v="Braunschweig"/>
    <tag k="addr:postcode" v="38114"/>
    <tag k="addr:housenumber" v="23"/>
    <tag k="addr:street" v="Hamburger Str. "/>
    <tag k="amenity" v="car_rental"/>
    <tag k="website" v="http://www.holzberg-handicap.de"/>
    <tag k="phone" v="0531388180"/>
  </node>
  <node id="-905" version="0" timestamp="Fri Feb 24 10:53:32 +0100 2012" uid="1" user="" lat="52.2591185" lon="10.5473609">
    <tag k="name" v="Christopherusschule"/>
    <tag k="wheelchair" v="limited"/>
    <tag k="addr:city" v="Braunschweig"/>
    <tag k="addr:postcode" v="38100"/>
    <tag k="addr:housenumber" v="76"/>
    <tag k="addr:street" v="Georg-Westermann-Alle"/>
    <tag k="amenity" v="school"/>
    <tag k="website" v="http://www.cjd-braunschweig.de/braunschweig/pages/index/p/3185"/>
  </node>
  <node id="-906" version="0" timestamp="Fri Feb 24 10:53:33 +0100 2012" uid="1" user="" lat="52.2579564" lon="10.5427398">
    <tag k="name" v="Grundschule hans-Georg-Karg-Schule"/>
    <tag k="wheelchair" v="unknown"/>
    <tag k="amenity" v="school"/>
    <tag k="website" v="http://www.cjd-braunschweig.de/braunschweig/pages/index/p/3123"/>
  </node>
  <node id="-1116" version="0" timestamp="Fri Feb 24 10:53:33 +0100 2012" uid="1" user="" lat="52.264325" lon="10.5267119">
    <tag k="name" v="Alex"/>
    <tag k="wheelchair" v="limited"/>
    <tag k="amenity" v="restaurant"/>
  </node>
  <node id="-1162" version="0" timestamp="Fri Feb 24 10:53:33 +0100 2012" uid="1" user="" lat="52.2660157" lon="10.5146998">
    <tag k="name" v="Sanitätshaus Müllenheim"/>
    <tag k="wheelchair" v="yes"/>
    <tag k="addr:city" v="Braunschweig"/>
    <tag k="addr:postcode" v="38100"/>
    <tag k="addr:housenumber" v="6"/>
    <tag k="addr:street" v="Bäckerklint"/>
    <tag k="amenity" v="pharmacy"/>
    <tag k="website" v="http://www.muellenheim.de"/>
    <tag k="phone" v="+49 531 590 92-40"/>
  </node>
  <node id="-1163" version="0" timestamp="Fri Feb 24 10:53:33 +0100 2012" uid="1" user="" lat="52.26602" lon="10.5148287">
    <tag k="shop" v="shoes"/>
    <tag k="name" v="Orthopädie-Schuhtechnik Reinhardt &amp; Müllenheim GmbH"/>
    <tag k="wheelchair" v="yes"/>
    <tag k="addr:city" v="Braunschweig"/>
    <tag k="addr:postcode" v="38100"/>
    <tag k="addr:housenumber" v="6"/>
    <tag k="addr:street" v="Bäckerklint"/>
    <tag k="website" v="http://www.reinhardt-muellenheim.de/"/>
    <tag k="phone" v="+49 531 2392740"/>
  </node>
  <node id="-1244" version="0" timestamp="Fri Feb 24 10:53:33 +0100 2012" uid="1" user="" lat="52.25497" lon="10.55059">
    <tag k="shop" v="supermarket"/>
    <tag k="name" v="Lidl"/>
    <tag k="wheelchair" v="limited"/>
    <tag k="addr:housenumber" v="1"/>
    <tag k="addr:street" v="Am Hauptgüterbahnhof"/>
    <tag k="website" v="http://www.lidl.de"/>
  </node>
  <node id="-1248" version="0" timestamp="Fri Feb 24 10:53:33 +0100 2012" uid="1" user="" lat="52.25497" lon="10.55059">
    <tag k="shop" v="bakery"/>
    <tag k="name" v="Steinnecke"/>
    <tag k="wheelchair" v="limited"/>
    <tag k="addr:city" v="Braunschweig"/>
    <tag k="addr:postcode" v="38126"/>
    <tag k="addr:housenumber" v="103"/>
    <tag k="addr:street" v="Helmstedter Straße"/>
    <tag k="website" v="http://www.steinecke.info"/>
    <tag k="phone" v="+49 531/7014806"/>
  </node>
  <node id="-1249" version="0" timestamp="Fri Feb 24 10:53:33 +0100 2012" uid="1" user="" lat="52.25455" lon="10.55056">
    <tag k="shop" v="bakery"/>
    <tag k="name" v="Steineckes Heidebrot Backstube"/>
    <tag k="wheelchair" v="limited"/>
  </node>
  <node id="-1250" version="0" timestamp="Fri Feb 24 10:53:33 +0100 2012" uid="1" user="" lat="52.2543411" lon="10.5506521">
    <tag k="shop" v="beverages"/>
    <tag k="name" v="Hol&apos;s ab"/>
    <tag k="wheelchair" v="limited"/>
  </node>
  <node id="-1797" version="0" timestamp="Fri Feb 24 10:53:33 +0100 2012" uid="1" user="" lat="52.2705693" lon="10.5342596">
    <tag k="name" v="Chiropractor Heinemeier"/>
    <tag k="wheelchair" v="yes"/>
    <tag k="addr:city" v="Braunschweig"/>
    <tag k="addr:postcode" v="38106"/>
    <tag k="addr:housenumber" v="4"/>
    <tag k="addr:street" v="Humboldtstraße"/>
    <tag k="amenity" v="doctors"/>
    <tag k="website" v="http://www.chiropractor.de"/>
    <tag k="phone" v="+49 531 7020720"/>
  </node>
  <node id="-2091" version="0" timestamp="Fri Feb 24 10:53:34 +0100 2012" uid="1" user="" lat="52.31581" lon="10.50822">
    <tag k="shop" v="electronics"/>
    <tag k="name" v="KOSATEC Computer GmbH"/>
    <tag k="wheelchair" v="yes"/>
    <tag k="addr:city" v="Braunschweig"/>
    <tag k="addr:postcode" v="38112"/>
    <tag k="addr:housenumber" v="3"/>
    <tag k="addr:street" v="Carl-Miele-Straße"/>
    <tag k="website" v="http://www.kosatec.de"/>
    <tag k="phone" v="+49 531 23544-0"/>
  </node>
  <node id="-2379" version="0" timestamp="Fri Feb 24 10:53:34 +0100 2012" uid="1" user="" lat="52.24271" lon="10.53416">
    <tag k="name" v="Ausbildungwerkstatt Braunschweig "/>
    <tag k="wheelchair" v="yes"/>
    <tag k="amenity" v="school"/>
  </node>
  <node id="-2646" version="0" timestamp="Fri Feb 24 10:53:34 +0100 2012" uid="1" user="" lat="52.2644264" lon="10.5235807">
    <tag k="name" v="Dom St Blasii"/>
    <tag k="wheelchair" v="yes"/>
    <tag k="amenity" v="place_of_worship"/>
  </node>
  <node id="-3893" version="0" timestamp="Fri Feb 24 10:53:35 +0100 2012" uid="1" user="" lat="52.2622924" lon="10.5299762">
    <tag k="name" v="St. Magni"/>
    <tag k="wheelchair" v="no"/>
    <tag k="amenity" v="place_of_worship"/>
  </node>
  <node id="-4117" version="0" timestamp="Fri Feb 24 10:53:36 +0100 2012" uid="1" user="" lat="52.2733823" lon="10.5058563">
    <tag k="name" v="Physiotherapie &amp; Lymphdrainage Praxis P.Brecht-Schaumburg"/>
    <tag k="wheelchair" v="yes"/>
    <tag k="addr:city" v="Braunschweig"/>
    <tag k="addr:postcode" v="38114"/>
    <tag k="addr:housenumber" v="30"/>
    <tag k="addr:street" v="Celler Straße "/>
    <tag k="wheelchair:description" v="Praxis im 2.OG per Aufzug ohne Stufen erreichbar"/>
    <tag k="amenity" v="doctors"/>
    <tag k="website" v="http://www.physiotherapie-bs.com"/>
    <tag k="phone" v="+49 531 17913"/>
  </node>
  <node id="-5404" version="0" timestamp="Fri Feb 24 10:53:37 +0100 2012" uid="1" user="" lat="52.26522" lon="10.51877">
    <tag k="name" v="Santander Consumer Bank"/>
    <tag k="wheelchair" v="limited"/>
    <tag k="addr:city" v="Braunschweig"/>
    <tag k="addr:postcode" v="38100"/>
    <tag k="addr:housenumber" v="4"/>
    <tag k="addr:street" v="Schützenstraße - Ecke Neue Straße"/>
    <tag k="amenity" v="bank"/>
    <tag k="website" v="http://www.santander.de"/>
  </node>
</osm>
