<?xml version='1.0' encoding='UTF-8'?>
<osm version="0.6" generator="Osmosis 0.39">
  <node id="-655" version="0" timestamp="Fri Feb 24 10:53:32 +0100 2012" uid="1" user="" lat="52.61229" lon="10.07127">
    <tag k="name" v="Hengstparade im Niedersächsischen Landgestüt"/>
    <tag k="wheelchair" v="yes"/>
    <tag k="addr:city" v="Celle"/>
    <tag k="addr:postcode" v="29221"/>
    <tag k="addr:housenumber" v="10"/>
    <tag k="tourism" v="attraction"/>
    <tag k="addr:street" v="Spörckenstr."/>
    <tag k="website" v="http://www.landgestuetcelle.de"/>
    <tag k="phone" v="+49 5141 9294 0"/>
  </node>
  <node id="-690" version="0" timestamp="Fri Feb 24 10:53:32 +0100 2012" uid="1" user="" lat="52.6705375" lon="10.0698254">
    <tag k="name" v="Zur Heideschänke"/>
    <tag k="wheelchair" v="yes"/>
    <tag k="addr:city" v="Winsen OT Wolthausen"/>
    <tag k="addr:postcode" v="29308"/>
    <tag k="addr:housenumber" v="2"/>
    <tag k="addr:street" v="Harburger Str."/>
    <tag k="wheelchair:description" v="Rollstuhl-WC, Zugang zu Restaurant, Biergarten und Vere"/>
    <tag k="amenity" v="restaurant"/>
    <tag k="website" v="http://www.heideschenke.de/"/>
    <tag k="phone" v="+49 5143 6662 0"/>
  </node>
  <node id="-789" version="0" timestamp="Fri Feb 24 10:53:32 +0100 2012" uid="1" user="" lat="52.6564791" lon="9.832569">
    <tag k="name" v="Glückauf Apotheke"/>
    <tag k="wheelchair" v="yes"/>
    <tag k="addr:city" v="Wietze"/>
    <tag k="addr:postcode" v="29323"/>
    <tag k="addr:housenumber" v="35"/>
    <tag k="addr:street" v="Nienburgerstr."/>
    <tag k="wheelchair:description" v="Ebenerdig"/>
    <tag k="amenity" v="pharmacy"/>
    <tag k="website" v="http://www.apotheke-glueckauf.de"/>
    <tag k="phone" v="05146/8810"/>
  </node>
  <node id="-1030" version="0" timestamp="Fri Feb 24 10:53:33 +0100 2012" uid="1" user="" lat="52.613887" lon="10.0527246">
    <tag k="shop" v="optician"/>
    <tag k="name" v="fasch Augenoptik"/>
    <tag k="wheelchair" v="yes"/>
    <tag k="addr:city" v="Celle"/>
    <tag k="addr:postcode" v="29225"/>
    <tag k="addr:housenumber" v="13"/>
    <tag k="addr:street" v="Lauensteinplatz"/>
    <tag k="wheelchair:description" v="Eingang ebenerdig, Parken kostenfrei vor dem Geschäft"/>
    <tag k="website" v="http://fasch.com/"/>
    <tag k="phone" v="+49 5141  4 33 23"/>
  </node>
  <node id="-4160" version="0" timestamp="Fri Feb 24 10:53:36 +0100 2012" uid="1" user="" lat="52.6170179" lon="10.055851">
    <tag k="name" v="Was guckst du Döner"/>
    <tag k="wheelchair" v="yes"/>
    <tag k="addr:city" v="Celle"/>
    <tag k="addr:postcode" v="29225"/>
    <tag k="addr:housenumber" v="19"/>
    <tag k="addr:street" v="Heese "/>
    <tag k="wheelchair:description" v="Da kommt man auf jeden fall super mit dem Rolli rein. Es ist ebenerdig."/>
    <tag k="amenity" v="restaurant"/>
    <tag k="phone" v="05141 9781922"/>
  </node>
  <node id="-4161" version="0" timestamp="Fri Feb 24 10:53:36 +0100 2012" uid="1" user="" lat="52.6109614" lon="10.0389318">
    <tag k="shop" v="supermarket"/>
    <tag k="name" v="LIDL"/>
    <tag k="wheelchair" v="yes"/>
    <tag k="addr:city" v="Celle"/>
    <tag k="addr:postcode" v="29225"/>
    <tag k="addr:housenumber" v="139"/>
    <tag k="addr:street" v="Fuhrberger Str."/>
    <tag k="wheelchair:description" v="Alles eben."/>
  </node>
  <node id="-4162" version="0" timestamp="Fri Feb 24 10:53:36 +0100 2012" uid="1" user="" lat="52.6106375" lon="10.0395201">
    <tag k="shop" v="beverages"/>
    <tag k="name" v="Hol Ab"/>
    <tag k="wheelchair" v="yes"/>
    <tag k="addr:city" v="Celle"/>
    <tag k="addr:postcode" v="29225"/>
    <tag k="addr:housenumber" v="139a"/>
    <tag k="addr:street" v="Fuhrberger Str."/>
    <tag k="wheelchair:description" v="Alles eben."/>
    <tag k="website" v="http://www.holab.de"/>
    <tag k="phone" v="05141 485602"/>
  </node>
  <node id="-4223" version="0" timestamp="Fri Feb 24 10:53:36 +0100 2012" uid="1" user="" lat="52.6056118" lon="10.0553006">
    <tag k="shop" v="hairdresser"/>
    <tag k="name" v="Hair Express"/>
    <tag k="wheelchair" v="yes"/>
    <tag k="addr:city" v="Celle"/>
    <tag k="addr:postcode" v="29225"/>
    <tag k="addr:housenumber" v="3"/>
    <tag k="addr:street" v="An der Hasenbahn"/>
    <tag k="wheelchair:description" v="Alles eben.  Personal ist sehr nett und freundlich. "/>
  </node>
  <node id="-4224" version="0" timestamp="Fri Feb 24 10:53:36 +0100 2012" uid="1" user="" lat="52.605684" lon="10.0546684">
    <tag k="shop" v="supermarket"/>
    <tag k="name" v="Fressnapf "/>
    <tag k="wheelchair" v="yes"/>
    <tag k="addr:city" v="Celle"/>
    <tag k="addr:postcode" v="29225"/>
    <tag k="addr:housenumber" v="3"/>
    <tag k="addr:street" v="An der Hasenbahn"/>
    <tag k="wheelchair:description" v="Alles für das Tier."/>
  </node>
  <node id="-4225" version="0" timestamp="Fri Feb 24 10:53:36 +0100 2012" uid="1" user="" lat="52.6794593" lon="9.9092648">
    <tag k="shop" v="butcher"/>
    <tag k="name" v="Fleischerei Kleinschmidt"/>
    <tag k="wheelchair" v="limited"/>
    <tag k="addr:city" v="Winsen"/>
    <tag k="addr:postcode" v="29308"/>
    <tag k="addr:housenumber" v="2"/>
    <tag k="addr:street" v="Poststr."/>
    <tag k="website" v="http://www.fleischerei-kleinschmidt-winsen.de"/>
  </node>
  <node id="-4374" version="0" timestamp="Fri Feb 24 10:53:36 +0100 2012" uid="1" user="" lat="52.6279679" lon="10.1003009">
    <tag k="name" v="Dr. Sander und Dr. Wefing - Algemeinmedizin"/>
    <tag k="wheelchair" v="yes"/>
    <tag k="addr:city" v="Celle"/>
    <tag k="addr:postcode" v="29223"/>
    <tag k="addr:housenumber" v="47"/>
    <tag k="addr:street" v="Dörnbergstr. "/>
    <tag k="wheelchair:description" v="Vor dem eingang ist eine Rampe, sie könnte für manche Rollifahrer schwer zu bewältigen sein, da sie etwas steil ist. "/>
    <tag k="amenity" v="doctors"/>
    <tag k="phone" v="05141381440"/>
  </node>
  <node id="-4382" version="0" timestamp="Fri Feb 24 10:53:36 +0100 2012" uid="1" user="" lat="52.5959661" lon="10.0700256">
    <tag k="name" v="Burger King"/>
    <tag k="wheelchair" v="yes"/>
    <tag k="addr:city" v="Celle"/>
    <tag k="addr:postcode" v="29227"/>
    <tag k="addr:housenumber" v="1"/>
    <tag k="addr:street" v="Gerhard-Kamm-Str. "/>
    <tag k="wheelchair:description" v="Voll Rollstuhl gerecht, und sogar mit Behindertentoilette. "/>
    <tag k="amenity" v="fast_food"/>
    <tag k="phone" v="05141883909"/>
  </node>
  <node id="-4383" version="0" timestamp="Fri Feb 24 10:53:36 +0100 2012" uid="1" user="" lat="52.5959891" lon="10.0700346">
    <tag k="name" v="Burger King"/>
    <tag k="wheelchair" v="yes"/>
    <tag k="addr:city" v="Celle"/>
    <tag k="addr:postcode" v="29227"/>
    <tag k="addr:housenumber" v="1"/>
    <tag k="addr:street" v="Gerhard-Kamm-Str. "/>
    <tag k="wheelchair:description" v="Voll rollstuhlgerecht, mit Behindertentoilette. "/>
    <tag k="amenity" v="fast_food"/>
    <tag k="phone" v="05141883909"/>
  </node>
  <node id="-5334" version="0" timestamp="Fri Feb 24 10:53:37 +0100 2012" uid="1" user="" lat="52.5614553" lon="10.0910371">
    <tag k="shop" v="supermarket"/>
    <tag k="name" v="E-Center"/>
    <tag k="wheelchair" v="yes"/>
  </node>
  <node id="-5335" version="0" timestamp="Fri Feb 24 10:53:37 +0100 2012" uid="1" user="" lat="52.639388" lon="10.0798933">
    <tag k="shop" v="bakery"/>
    <tag k="name" v="Bahlsen Fabrikverkauf"/>
    <tag k="wheelchair" v="yes"/>
    <tag k="wheelchair:description" v="Toilette nicht bekannt. "/>
  </node>
  <node id="-5434" version="0" timestamp="Fri Feb 24 10:53:37 +0100 2012" uid="1" user="" lat="52.62413" lon="10.08655">
    <tag k="name" v="Santander Consumer Bank"/>
    <tag k="wheelchair" v="limited"/>
    <tag k="addr:city" v="Celle"/>
    <tag k="addr:postcode" v="29221"/>
    <tag k="addr:housenumber" v="41"/>
    <tag k="addr:street" v="Mauernstraße"/>
    <tag k="amenity" v="bank"/>
    <tag k="website" v="http://www.santander.de"/>
  </node>
</osm>
