<?xml version='1.0' encoding='UTF-8'?>
<osm version="0.6" generator="Osmosis 0.39">
  <node id="-1594" version="0" timestamp="Fri Feb 24 10:53:33 +0100 2012" uid="1" user="" lat="52.795177" lon="7.8608438">
    <tag k="shop" v="hairdresser"/>
    <tag k="name" v="HAIR FASHION Friseur + Shop"/>
    <tag k="wheelchair" v="limited"/>
    <tag k="addr:city" v="Lastrup"/>
    <tag k="addr:postcode" v="49688"/>
    <tag k="addr:housenumber" v="5"/>
    <tag k="addr:street" v="Vlämische Straße 5"/>
    <tag k="website" v="http://www.hairfashion-friseur.de/"/>
    <tag k="phone" v="04472/950751"/>
  </node>
  <node id="-1595" version="0" timestamp="Fri Feb 24 10:53:33 +0100 2012" uid="1" user="" lat="52.7955692" lon="7.8595472">
    <tag k="shop" v="supermarket"/>
    <tag k="name" v="Edeka neukauf"/>
    <tag k="wheelchair" v="yes"/>
    <tag k="addr:city" v="Lastrup"/>
    <tag k="addr:postcode" v="49688"/>
    <tag k="addr:housenumber" v="7"/>
    <tag k="addr:street" v="Ladestraße"/>
    <tag k="website" v="http://www.edeka.de/"/>
    <tag k="phone" v="04472/950877 "/>
  </node>
  <node id="-5158" version="0" timestamp="Fri Feb 24 10:53:37 +0100 2012" uid="1" user="" lat="53.1038257" lon="7.6739546">
    <tag k="shop" v="supermarket"/>
    <tag k="name" v="Markant bojert"/>
    <tag k="wheelchair" v="yes"/>
  </node>
</osm>
