<?xml version='1.0' encoding='UTF-8'?>
<osm version="0.6" generator="Osmosis 0.39">
  <node id="-1213" version="0" timestamp="Fri Feb 24 10:53:33 +0100 2012" uid="1" user="" lat="53.02684" lon="8.74841">
    <tag k="name" v="Dschingis Khan"/>
    <tag k="wheelchair" v="no"/>
    <tag k="amenity" v="restaurant"/>
  </node>
  <node id="-1214" version="0" timestamp="Fri Feb 24 10:53:33 +0100 2012" uid="1" user="" lat="53.0269" lon="8.74867">
    <tag k="name" v="Rathaus Stuhr"/>
    <tag k="wheelchair" v="yes"/>
  </node>
  <node id="-1215" version="0" timestamp="Fri Feb 24 10:53:33 +0100 2012" uid="1" user="" lat="53.01202" lon="8.78752">
    <tag k="name" v="Mehrgenerationen Haus"/>
    <tag k="wheelchair" v="limited"/>
    <tag k="addr:city" v="Stuhr"/>
    <tag k="addr:postcode" v="28816"/>
    <tag k="addr:street" v="Bremer Straße"/>
    <tag k="website" v="http://www.mehrgenerationenhaeuser.de/coremedia/mgh/de/01__Mehrgenerationenh_C3_A4user/04__H_C3_A4userinformationen/Stuhr_20Brinkum/Haus__1462.html"/>
  </node>
  <node id="-1216" version="0" timestamp="Fri Feb 24 10:53:33 +0100 2012" uid="1" user="" lat="53.01202" lon="8.78752">
    <tag k="name" v="Lohmannhaus"/>
    <tag k="wheelchair" v="yes"/>
    <tag k="addr:city" v="Stuhr"/>
    <tag k="addr:postcode" v="28816"/>
    <tag k="addr:housenumber" v="33"/>
    <tag k="addr:street" v="Bremer Straße"/>
    <tag k="website" v="http://www.stuhr.de/internet/page.php?naviID=4000138&amp;site=4000100&amp;typ=2"/>
  </node>
  <node id="-1218" version="0" timestamp="Fri Feb 24 10:53:33 +0100 2012" uid="1" user="" lat="53.01202" lon="8.78752">
    <tag k="name" v="Altes Pfarrhaus"/>
    <tag k="wheelchair" v="no"/>
    <tag k="addr:city" v="Stuhr"/>
    <tag k="addr:postcode" v="28816"/>
    <tag k="addr:housenumber" v="37"/>
    <tag k="addr:street" v="Bremer Straße"/>
    <tag k="amenity" v="place_of_worship"/>
    <tag k="website" v="http://www.kirchenregion-stuhr.de/index.php?option=com_content&amp;view=article&amp;id=247&amp;Itemid=114"/>
  </node>
  <node id="-1219" version="0" timestamp="Fri Feb 24 10:53:33 +0100 2012" uid="1" user="" lat="53.01202" lon="8.78752">
    <tag k="name" v="Kirche &quot;Zum heiligen Kreuz&quot;"/>
    <tag k="wheelchair" v="limited"/>
    <tag k="addr:city" v="Stuhr"/>
    <tag k="addr:postcode" v="28816"/>
    <tag k="addr:housenumber" v="39-41"/>
    <tag k="addr:street" v="Bremer Straße"/>
    <tag k="amenity" v="place_of_worship"/>
    <tag k="website" v="http://www.kirchenregion-stuhr.de/index.php?option=com_content&amp;view=article&amp;id=2&amp;Itemid=81"/>
  </node>
  <node id="-1222" version="0" timestamp="Fri Feb 24 10:53:33 +0100 2012" uid="1" user="" lat="53.01202" lon="8.78752">
    <tag k="name" v="Bücherrei Brinkum"/>
    <tag k="wheelchair" v="yes"/>
    <tag k="addr:city" v="Stuhr"/>
    <tag k="addr:postcode" v="28816"/>
    <tag k="addr:housenumber" v="1"/>
    <tag k="addr:street" v="Jupiterstraße "/>
    <tag k="amenity" v="library"/>
    <tag k="website" v="http://www.stuhr.de/internet/page.php?naviID=4000100&amp;site=4000072&amp;typ=2"/>
  </node>
  <node id="-1223" version="0" timestamp="Fri Feb 24 10:53:33 +0100 2012" uid="1" user="" lat="53.01202" lon="8.78752">
    <tag k="name" v="Volkshochschule Brinkum"/>
    <tag k="wheelchair" v="yes"/>
    <tag k="addr:city" v="Stuhr"/>
    <tag k="addr:postcode" v="28816"/>
    <tag k="addr:housenumber" v="1"/>
    <tag k="addr:street" v="Jupiterstraße"/>
    <tag k="amenity" v="school"/>
    <tag k="website" v="http://www.vhs-diepholz.de/"/>
  </node>
  <node id="-1224" version="0" timestamp="Fri Feb 24 10:53:33 +0100 2012" uid="1" user="" lat="53.01202" lon="8.78752">
    <tag k="name" v="Frauentreffpunkt sie(h)da"/>
    <tag k="wheelchair" v="yes"/>
    <tag k="addr:city" v="Stuhr"/>
    <tag k="addr:postcode" v="28816"/>
    <tag k="addr:housenumber" v="1"/>
    <tag k="addr:street" v="Jupiterstraße"/>
    <tag k="website" v="http://www.frauentreffpunktstuhr.de/"/>
  </node>
  <node id="-1225" version="0" timestamp="Fri Feb 24 10:53:33 +0100 2012" uid="1" user="" lat="53.01202" lon="8.78752">
    <tag k="name" v="Martin-Luther-Kirche"/>
    <tag k="wheelchair" v="yes"/>
    <tag k="addr:city" v="Stuhr"/>
    <tag k="addr:postcode" v="28816"/>
    <tag k="addr:street" v="Industriestraße"/>
    <tag k="amenity" v="place_of_worship"/>
    <tag k="website" v="http://www.kirchenregion-stuhr.de/index.php?option=com_content&amp;view=article&amp;id=23&amp;Itemid=44"/>
  </node>
  <node id="-1228" version="0" timestamp="Fri Feb 24 10:53:33 +0100 2012" uid="1" user="" lat="53.0035" lon="8.76998">
    <tag k="name" v="Künstlerstätte Heiligenrode"/>
    <tag k="wheelchair" v="no"/>
    <tag k="addr:city" v="Stuhr"/>
    <tag k="addr:postcode" v="28816"/>
    <tag k="addr:street" v="Zur Malsch"/>
    <tag k="amenity" v="arts_centre"/>
    <tag k="website" v="http://www.stuhr.de/internet/page.php?naviID=4000275&amp;site=4000110&amp;brotID=4000275&amp;typ=2"/>
  </node>
  <node id="-2058" version="0" timestamp="Fri Feb 24 10:53:34 +0100 2012" uid="1" user="" lat="53.0027792" lon="8.7781773">
    <tag k="shop" v="supermarket"/>
    <tag k="name" v="Inkoop"/>
    <tag k="wheelchair" v="yes"/>
    <tag k="addr:city" v="Stuhr"/>
    <tag k="addr:postcode" v="28816"/>
    <tag k="addr:housenumber" v="2"/>
    <tag k="addr:street" v="Jupiterstraße"/>
    <tag k="website" v="http://www.inkoop.de"/>
    <tag k="phone" v="+49 421 80779 0"/>
  </node>
</osm>
