<?xml version='1.0' encoding='UTF-8'?>
<osm version="0.6" generator="Osmosis 0.39">
  <node id="-189" version="0" timestamp="Fri Feb 24 10:53:32 +0100 2012" uid="1" user="" lat="53.3742216" lon="7.2019286">
    <tag k="name" v="Friesentherme"/>
    <tag k="wheelchair" v="yes"/>
    <tag k="addr:city" v="Emden"/>
    <tag k="addr:postcode" v="26721"/>
    <tag k="addr:housenumber" v="2"/>
    <tag k="addr:street" v="Theaterstraße"/>
    <tag k="amenity" v="swimming_pool"/>
    <tag k="website" v="http://www.friesentherme-emden.de/"/>
    <tag k="phone" v="0 49 21/ 39 60 00"/>
  </node>
  <node id="-190" version="0" timestamp="Fri Feb 24 10:53:32 +0100 2012" uid="1" user="" lat="53.3681476" lon="7.1979953">
    <tag k="name" v="Cinestar"/>
    <tag k="wheelchair" v="yes"/>
    <tag k="amenity" v="cinema"/>
  </node>
  <node id="-543" version="0" timestamp="Fri Feb 24 10:53:32 +0100 2012" uid="1" user="" lat="53.3644824" lon="7.1911648">
    <tag k="name" v="Agentur für Arbeit"/>
    <tag k="wheelchair" v="yes"/>
    <tag k="addr:city" v="Emden"/>
    <tag k="addr:postcode" v="26723"/>
    <tag k="addr:housenumber" v="10 - 12"/>
    <tag k="addr:street" v="Schlesierstraße"/>
    <tag k="website" v="http://www.arbeitsagentur.de/nn_13248/Navigation/Dienststellen/RD-NSB/Emden/Agentur/Agentur-Nav.html"/>
    <tag k="phone" v="+49 (0) 1801-555111"/>
  </node>
  <node id="-544" version="0" timestamp="Fri Feb 24 10:53:32 +0100 2012" uid="1" user="" lat="53.366921" lon="7.2067974">
    <tag k="name" v="Ostfriesisches Landesmuseum Emden"/>
    <tag k="wheelchair" v="yes"/>
    <tag k="addr:city" v="Emden"/>
    <tag k="addr:postcode" v="26725"/>
    <tag k="addr:housenumber" v="1"/>
    <tag k="tourism" v="museum"/>
    <tag k="addr:street" v="Brückstraße"/>
    <tag k="website" v="http://www.landesmuseum-emden.de"/>
    <tag k="phone" v="+49 (0) 4921-872058"/>
  </node>
  <node id="-688" version="0" timestamp="Fri Feb 24 10:53:32 +0100 2012" uid="1" user="" lat="53.3626209" lon="7.2080059">
    <tag k="name" v="Wasser- und Schifffahrtsamt Emden"/>
    <tag k="wheelchair" v="yes"/>
    <tag k="addr:city" v="Emden"/>
    <tag k="addr:postcode" v="26725"/>
    <tag k="addr:housenumber" v="3"/>
    <tag k="addr:street" v="Am Eisenbahndock"/>
    <tag k="website" v="http://www.wsa-emden.de"/>
    <tag k="phone" v="+49 (0) 49218020"/>
  </node>
  <node id="-693" version="0" timestamp="Fri Feb 24 10:53:32 +0100 2012" uid="1" user="" lat="53.36822" lon="7.1979413">
    <tag k="name" v="Cunestar "/>
    <tag k="wheelchair" v="yes"/>
    <tag k="amenity" v="cinema"/>
  </node>
  <node id="-700" version="0" timestamp="Fri Feb 24 10:53:32 +0100 2012" uid="1" user="" lat="53.3682424" lon="7.1979715">
    <tag k="name" v="Cinestar"/>
    <tag k="wheelchair" v="yes"/>
    <tag k="addr:city" v="Emden"/>
    <tag k="addr:postcode" v="26721"/>
    <tag k="addr:housenumber" v="15"/>
    <tag k="addr:street" v="Abdenastraße"/>
    <tag k="amenity" v="cinema"/>
    <tag k="website" v="http://www.cinestar.de/de/kino/emden-cinestar/"/>
    <tag k="phone" v="04921 589589"/>
  </node>
  <node id="-3110" version="0" timestamp="Fri Feb 24 10:53:35 +0100 2012" uid="1" user="" lat="53.3675181" lon="7.2142166">
    <tag k="name" v="Neue Kirche"/>
    <tag k="wheelchair" v="yes"/>
    <tag k="addr:city" v="Emden"/>
    <tag k="addr:postcode" v="26725"/>
    <tag k="addr:housenumber" v="103"/>
    <tag k="addr:street" v="Brückstr."/>
    <tag k="wheelchair:description" v="behindertengerechte Toilette, stufenfrei"/>
    <tag k="website" v="http://www.neue-kirche.de"/>
    <tag k="phone" v="04921-22658"/>
  </node>
  <node id="-3111" version="0" timestamp="Fri Feb 24 10:53:35 +0100 2012" uid="1" user="" lat="53.367563" lon="7.2171557">
    <tag k="name" v="Gemeindehaus Rote Mühle"/>
    <tag k="wheelchair" v="yes"/>
    <tag k="addr:city" v="Emden"/>
    <tag k="addr:postcode" v="26725"/>
    <tag k="addr:housenumber" v="116"/>
    <tag k="addr:street" v="Brückstr."/>
    <tag k="wheelchair:description" v="behindertengerechte Toilette, stufenfrei"/>
    <tag k="amenity" v="place_of_worship"/>
    <tag k="website" v="http://www.emden.reformiert.de"/>
    <tag k="phone" v="04921-9392-0"/>
  </node>
</osm>
