<?xml version='1.0' encoding='UTF-8'?>
<osm version="0.6" generator="Osmosis 0.39">
  <node id="-136" version="0" timestamp="Fri Feb 24 10:53:32 +0100 2012" uid="1" user="" lat="52.5185509" lon="7.3164978">
    <tag k="name" v="Pizzeria Pinocchio"/>
    <tag k="wheelchair" v="limited"/>
    <tag k="addr:city" v="Lingen"/>
    <tag k="addr:postcode" v="49808"/>
    <tag k="addr:housenumber" v="4"/>
    <tag k="addr:street" v="Konrad-Adenauer-Ring "/>
    <tag k="amenity" v="restaurant"/>
    <tag k="phone" v="0591/52766 ‎ "/>
  </node>
  <node id="-624" version="0" timestamp="Fri Feb 24 10:53:32 +0100 2012" uid="1" user="" lat="53.0765635" lon="7.4392172">
    <tag k="name" v="Michaelis Apotheke"/>
    <tag k="wheelchair" v="yes"/>
    <tag k="addr:city" v="Papenburg"/>
    <tag k="addr:postcode" v="26871"/>
    <tag k="addr:housenumber" v="17"/>
    <tag k="addr:street" v="Splitting rechts"/>
    <tag k="amenity" v="pharmacy"/>
    <tag k="website" v="http://www.michaelis-apotheke-papenburg.de"/>
    <tag k="phone" v="+49 4961 97850"/>
  </node>
  <node id="-1066" version="0" timestamp="Fri Feb 24 10:53:33 +0100 2012" uid="1" user="" lat="53.0813701" lon="7.3909487">
    <tag k="shop" v="electronics"/>
    <tag k="name" v="Elektro Rüther"/>
    <tag k="wheelchair" v="limited"/>
    <tag k="wheelchair:description" v="Toiletten nicht behindertengerecht, restlicher Ladenbereich schon"/>
    <tag k="website" v="http://www.elektro-ruether.de"/>
  </node>
  <node id="-1806" version="0" timestamp="Fri Feb 24 10:53:33 +0100 2012" uid="1" user="" lat="53.078059" lon="7.3970118">
    <tag k="shop" v="hairdresser"/>
    <tag k="name" v="Studio 78"/>
    <tag k="wheelchair" v="limited"/>
    <tag k="addr:city" v="Papenburg"/>
    <tag k="addr:postcode" v="26871"/>
    <tag k="addr:housenumber" v="78"/>
    <tag k="addr:street" v="Hauptkanal links"/>
    <tag k="website" v="http://www.studio78-dieprofisamhaar.de"/>
    <tag k="phone" v="04961 665061"/>
  </node>
  <node id="-2422" version="0" timestamp="Fri Feb 24 10:53:34 +0100 2012" uid="1" user="" lat="53.0815062" lon="7.3879005">
    <tag k="name" v="news cafee"/>
    <tag k="wheelchair" v="yes"/>
    <tag k="addr:city" v="Papenburg"/>
    <tag k="addr:postcode" v="26871"/>
    <tag k="addr:housenumber" v="35"/>
    <tag k="addr:street" v="Am Stadtpark"/>
    <tag k="amenity" v="cafe"/>
    <tag k="phone" v="04961/992966 ‎ "/>
  </node>
  <node id="-2639" version="0" timestamp="Fri Feb 24 10:53:34 +0100 2012" uid="1" user="" lat="52.8395406" lon="7.5319569">
    <tag k="name" v="Jugendbildungsstätte Marstall Clemenswerth"/>
    <tag k="wheelchair" v="yes"/>
    <tag k="addr:city" v="Sögel"/>
    <tag k="addr:postcode" v="49751"/>
    <tag k="addr:housenumber" v="1"/>
    <tag k="addr:street" v="Clemenswerth"/>
    <tag k="amenity" v="place_of_worship"/>
    <tag k="website" v="http://www.marstall-clemenswerth.de"/>
    <tag k="phone" v="05952 207-0"/>
  </node>
  <node id="-3741" version="0" timestamp="Fri Feb 24 10:53:35 +0100 2012" uid="1" user="" lat="52.8533885" lon="7.6895849">
    <tag k="name" v="Nicole Stammermann"/>
    <tag k="wheelchair" v="yes"/>
    <tag k="addr:city" v="Werlte"/>
    <tag k="addr:postcode" v="49757"/>
    <tag k="addr:housenumber" v="18"/>
    <tag k="tourism" v="guest_house"/>
    <tag k="addr:street" v="Oldenkamp"/>
    <tag k="wheelchair:description" v="Bei der Ausstattung wurde auf Barrierefreiheit und Kinderfreundlichkeit sehr viel Wert gelegt. "/>
    <tag k="website" v="http://www.ferienwohnung-stammermann.de"/>
    <tag k="phone" v="05951 - 9363"/>
  </node>
  <node id="-4350" version="0" timestamp="Fri Feb 24 10:53:36 +0100 2012" uid="1" user="" lat="52.5141648" lon="7.3153162">
    <tag k="name" v="Emslandhallen"/>
    <tag k="wheelchair" v="limited"/>
    <tag k="addr:city" v="Lingen (Ems)"/>
    <tag k="addr:postcode" v="49808"/>
    <tag k="addr:housenumber" v=" 24a"/>
    <tag k="addr:street" v="Lindenstraße"/>
    <tag k="wheelchair:description" v="Rollstuhlgerecht bei vielen Veranstaltungen. Bei Konzerten sollte man sich vorher anmelden, um eine &quot;Rolli-Rampe&quot; zu bekommen."/>
    <tag k="amenity" v="townhall"/>
    <tag k="website" v="http://www.emslandhallen.de"/>
    <tag k="phone" v="0591 91295-0 "/>
  </node>
  <node id="-4351" version="0" timestamp="Fri Feb 24 10:53:36 +0100 2012" uid="1" user="" lat="52.5229944" lon="7.3213135">
    <tag k="name" v="Robert Koop &amp; Kollegen"/>
    <tag k="wheelchair" v="yes"/>
    <tag k="addr:city" v="Lingen (Ems)"/>
    <tag k="addr:postcode" v="49808"/>
    <tag k="addr:housenumber" v="32"/>
    <tag k="addr:street" v="Burgstraße"/>
    <tag k="website" v="http://www.koop.de"/>
    <tag k="phone" v="0591 800590"/>
    <tag k="office" v="lawyer"/>
  </node>
  <node id="-5500" version="0" timestamp="Fri Feb 24 10:53:37 +0100 2012" uid="1" user="" lat="52.8591199" lon="7.6834365">
    <tag k="name" v="Ferienwohnung Schürmann"/>
    <tag k="wheelchair" v="yes"/>
    <tag k="addr:city" v="Werlte"/>
    <tag k="addr:postcode" v="49757"/>
    <tag k="addr:housenumber" v="15"/>
    <tag k="tourism" v="guest_house"/>
    <tag k="addr:street" v="Auf dem Hehm "/>
    <tag k="phone" v="05951/2952"/>
  </node>
</osm>
