<?xml version='1.0' encoding='UTF-8'?>
<osm version="0.6" generator="Osmosis 0.39">
  <node id="-344" version="0" timestamp="Fri Feb 24 10:53:32 +0100 2012" uid="1" user="" lat="53.5059793" lon="8.0142591">
    <tag k="shop" v="hairdresser"/>
    <tag k="name" v="Tholen"/>
    <tag k="wheelchair" v="yes"/>
    <tag k="addr:city" v="Sande"/>
    <tag k="addr:postcode" v="26452"/>
    <tag k="addr:housenumber" v="107"/>
    <tag k="addr:street" v="Hauptstraße"/>
    <tag k="phone" v="04422 1439"/>
  </node>
  <node id="-346" version="0" timestamp="Fri Feb 24 10:53:32 +0100 2012" uid="1" user="" lat="53.5060725" lon="8.0142707">
    <tag k="shop" v="hairdresser"/>
    <tag k="name" v="Salon Tholen"/>
    <tag k="wheelchair" v="yes"/>
    <tag k="addr:city" v="Sande"/>
    <tag k="addr:postcode" v="26452"/>
    <tag k="addr:housenumber" v="107"/>
    <tag k="addr:street" v="Hauptstraße"/>
    <tag k="phone" v="04422 1439"/>
  </node>
  <node id="-348" version="0" timestamp="Fri Feb 24 10:53:32 +0100 2012" uid="1" user="" lat="53.50607" lon="8.01427">
    <tag k="shop" v="hairdresser"/>
    <tag k="name" v="Salon Tholen"/>
    <tag k="wheelchair" v="yes"/>
    <tag k="addr:city" v="Sande"/>
    <tag k="addr:postcode" v="26452"/>
    <tag k="addr:housenumber" v="107"/>
    <tag k="addr:street" v="Hauptstraße"/>
    <tag k="phone" v="04422 1439"/>
  </node>
  <node id="-713" version="0" timestamp="Fri Feb 24 10:53:32 +0100 2012" uid="1" user="" lat="53.5333" lon="7.95">
    <tag k="shop" v="computer"/>
    <tag k="name" v="A &amp; G Computer GmbH"/>
    <tag k="wheelchair" v="yes"/>
    <tag k="addr:city" v="Oldenburg"/>
    <tag k="addr:postcode" v="26135"/>
    <tag k="addr:housenumber" v="122"/>
    <tag k="addr:street" v="Bremer Heerstraße"/>
    <tag k="wheelchair:description" v="Erdgeschoss ohne Stufe oder Absatz"/>
    <tag k="website" v="Http://www.agc-ol.de"/>
    <tag k="phone" v="+49 441 36115660"/>
  </node>
  <node id="-876" version="0" timestamp="Fri Feb 24 10:53:32 +0100 2012" uid="1" user="" lat="53.7931921" lon="7.9000568">
    <tag k="name" v="Cafe Pudding"/>
    <tag k="wheelchair" v="no"/>
    <tag k="amenity" v="restaurant"/>
  </node>
  <node id="-877" version="0" timestamp="Fri Feb 24 10:53:32 +0100 2012" uid="1" user="" lat="53.7937546" lon="7.8947457">
    <tag k="name" v="Freizeitbad Oase"/>
    <tag k="wheelchair" v="yes"/>
    <tag k="wheelchair:description" v="Zugänglich während der Öffnungszeiten"/>
    <tag k="amenity" v="toilets"/>
  </node>
  <node id="-901" version="0" timestamp="Fri Feb 24 10:53:32 +0100 2012" uid="1" user="" lat="53.7890865" lon="7.9000431">
    <tag k="name" v="Zahnarzt Dr. F. Peters"/>
    <tag k="wheelchair" v="yes"/>
    <tag k="addr:city" v="Wangerooge"/>
    <tag k="addr:postcode" v="26486"/>
    <tag k="addr:housenumber" v="2"/>
    <tag k="addr:street" v="Am Dorfplatz"/>
    <tag k="amenity" v="doctors"/>
    <tag k="phone" v="+49 4469 70258"/>
  </node>
  <node id="-1284" version="0" timestamp="Fri Feb 24 10:53:33 +0100 2012" uid="1" user="" lat="53.7879035" lon="7.899142">
    <tag k="name" v="Öffentliche Toilette"/>
    <tag k="wheelchair" v="yes"/>
    <tag k="amenity" v="toilets"/>
  </node>
  <node id="-1286" version="0" timestamp="Fri Feb 24 10:53:33 +0100 2012" uid="1" user="" lat="53.7936203" lon="7.8953241">
    <tag k="name" v="Öffentliche Toilette, auch mit Euro-Schlüssel"/>
    <tag k="wheelchair" v="yes"/>
    <tag k="amenity" v="toilets"/>
  </node>
  <node id="-1288" version="0" timestamp="Fri Feb 24 10:53:33 +0100 2012" uid="1" user="" lat="53.7904839" lon="7.8993798">
    <tag k="name" v="Ärzte Kortenhorn &amp; Hoppe"/>
    <tag k="wheelchair" v="no"/>
    <tag k="amenity" v="doctors"/>
  </node>
  <node id="-1291" version="0" timestamp="Fri Feb 24 10:53:33 +0100 2012" uid="1" user="" lat="53.7933622" lon="7.896905">
    <tag k="name" v="Kurverwaltung"/>
    <tag k="wheelchair" v="limited"/>
  </node>
  <node id="-1292" version="0" timestamp="Fri Feb 24 10:53:33 +0100 2012" uid="1" user="" lat="53.7933663" lon="7.8971997">
    <tag k="name" v="Öffentliche Toilette"/>
    <tag k="wheelchair" v="limited"/>
    <tag k="amenity" v="toilets"/>
  </node>
  <node id="-1295" version="0" timestamp="Fri Feb 24 10:53:33 +0100 2012" uid="1" user="" lat="53.7879565" lon="7.8990454">
    <tag k="name" v="Verkehrsverein"/>
    <tag k="wheelchair" v="yes"/>
  </node>
  <node id="-1342" version="0" timestamp="Fri Feb 24 10:53:33 +0100 2012" uid="1" user="" lat="53.7915175" lon="7.8998459">
    <tag k="shop" v="clothes"/>
    <tag k="name" v="Modehaus Clemens"/>
    <tag k="wheelchair" v="limited"/>
  </node>
  <node id="-1343" version="0" timestamp="Fri Feb 24 10:53:33 +0100 2012" uid="1" user="" lat="53.7912348" lon="7.8996998">
    <tag k="shop" v="florist"/>
    <tag k="name" v="Blumen Wünsche"/>
    <tag k="wheelchair" v="limited"/>
  </node>
  <node id="-1344" version="0" timestamp="Fri Feb 24 10:53:33 +0100 2012" uid="1" user="" lat="53.7912173" lon="7.8994103">
    <tag k="shop" v="bakery"/>
    <tag k="name" v="Bäckerei Bolte"/>
    <tag k="wheelchair" v="no"/>
  </node>
  <node id="-1345" version="0" timestamp="Fri Feb 24 10:53:33 +0100 2012" uid="1" user="" lat="53.790713" lon="7.8989969">
    <tag k="shop" v="supermarket"/>
    <tag k="name" v="Schlecker"/>
    <tag k="wheelchair" v="no"/>
  </node>
  <node id="-1346" version="0" timestamp="Fri Feb 24 10:53:33 +0100 2012" uid="1" user="" lat="53.7925367" lon="7.9000622">
    <tag k="shop" v="books"/>
    <tag k="name" v="Buchhandlung Schröder"/>
    <tag k="wheelchair" v="limited"/>
  </node>
  <node id="-1349" version="0" timestamp="Fri Feb 24 10:53:33 +0100 2012" uid="1" user="" lat="53.7935244" lon="7.9007681">
    <tag k="name" v="Öffentliche Toilette"/>
    <tag k="wheelchair" v="no"/>
    <tag k="amenity" v="toilets"/>
  </node>
  <node id="-1350" version="0" timestamp="Fri Feb 24 10:53:33 +0100 2012" uid="1" user="" lat="53.7934028" lon="7.9031059">
    <tag k="name" v="Öffentliche Toilette"/>
    <tag k="wheelchair" v="no"/>
    <tag k="amenity" v="toilets"/>
  </node>
  <node id="-1352" version="0" timestamp="Fri Feb 24 10:53:33 +0100 2012" uid="1" user="" lat="53.7935489" lon="7.8945594">
    <tag k="name" v="Freizeitbad Oase"/>
    <tag k="wheelchair" v="yes"/>
    <tag k="amenity" v="swimming_pool"/>
  </node>
  <node id="-1354" version="0" timestamp="Fri Feb 24 10:53:33 +0100 2012" uid="1" user="" lat="53.7934803" lon="7.8964805">
    <tag k="name" v="Diggers"/>
    <tag k="wheelchair" v="limited"/>
    <tag k="amenity" v="cafe"/>
  </node>
  <node id="-1356" version="0" timestamp="Fri Feb 24 10:53:33 +0100 2012" uid="1" user="" lat="53.7930966" lon="7.8971506">
    <tag k="name" v="Gemeinde- und Kurverwaltung"/>
    <tag k="wheelchair" v="yes"/>
  </node>
  <node id="-1358" version="0" timestamp="Fri Feb 24 10:53:33 +0100 2012" uid="1" user="" lat="53.7883915" lon="7.8987379">
    <tag k="name" v="Leuchtturm Café"/>
    <tag k="wheelchair" v="yes"/>
    <tag k="amenity" v="cafe"/>
  </node>
  <node id="-1359" version="0" timestamp="Fri Feb 24 10:53:33 +0100 2012" uid="1" user="" lat="53.7903104" lon="7.8987085">
    <tag k="name" v="Eiscafé Venezia Pizzeria"/>
    <tag k="wheelchair" v="limited"/>
    <tag k="amenity" v="restaurant"/>
  </node>
  <node id="-1362" version="0" timestamp="Fri Feb 24 10:53:33 +0100 2012" uid="1" user="" lat="53.7906649" lon="7.8984418">
    <tag k="name" v="Teestube"/>
    <tag k="wheelchair" v="no"/>
    <tag k="amenity" v="cafe"/>
  </node>
  <node id="-1363" version="0" timestamp="Fri Feb 24 10:53:33 +0100 2012" uid="1" user="" lat="53.790603" lon="7.8987887">
    <tag k="name" v="Zur Kogge"/>
    <tag k="wheelchair" v="no"/>
    <tag k="amenity" v="pub"/>
  </node>
  <node id="-1364" version="0" timestamp="Fri Feb 24 10:53:33 +0100 2012" uid="1" user="" lat="53.7916827" lon="7.899879">
    <tag k="name" v="Restaurant W´ooge"/>
    <tag k="wheelchair" v="limited"/>
    <tag k="amenity" v="restaurant"/>
  </node>
  <node id="-1365" version="0" timestamp="Fri Feb 24 10:53:33 +0100 2012" uid="1" user="" lat="53.7918987" lon="7.8999229">
    <tag k="shop" v="department_store"/>
    <tag k="name" v="Spielwaren und Drachen von Ahn"/>
    <tag k="wheelchair" v="no"/>
  </node>
  <node id="-1366" version="0" timestamp="Fri Feb 24 10:53:33 +0100 2012" uid="1" user="" lat="53.7915443" lon="7.8996196">
    <tag k="shop" v="supermarket"/>
    <tag k="name" v="Ihr Platz"/>
    <tag k="wheelchair" v="limited"/>
  </node>
  <node id="-1367" version="0" timestamp="Fri Feb 24 10:53:33 +0100 2012" uid="1" user="" lat="53.7916414" lon="7.8996307">
    <tag k="name" v="Cafe Treibsand"/>
    <tag k="wheelchair" v="limited"/>
    <tag k="amenity" v="cafe"/>
  </node>
  <node id="-1369" version="0" timestamp="Fri Feb 24 10:53:33 +0100 2012" uid="1" user="" lat="53.7921625" lon="7.8999572">
    <tag k="name" v="Restaurant-Bar Düne 17"/>
    <tag k="wheelchair" v="limited"/>
    <tag k="amenity" v="restaurant"/>
  </node>
  <node id="-1370" version="0" timestamp="Fri Feb 24 10:53:33 +0100 2012" uid="1" user="" lat="53.7932227" lon="7.8990394">
    <tag k="name" v="Strandkorb"/>
    <tag k="wheelchair" v="no"/>
    <tag k="amenity" v="pub"/>
  </node>
  <node id="-1391" version="0" timestamp="Fri Feb 24 10:53:33 +0100 2012" uid="1" user="" lat="53.7862075" lon="7.9316423">
    <tag k="name" v="Cafe Neudeich"/>
    <tag k="wheelchair" v="limited"/>
    <tag k="amenity" v="restaurant"/>
  </node>
  <node id="-1556" version="0" timestamp="Fri Feb 24 10:53:33 +0100 2012" uid="1" user="" lat="53.7930344" lon="7.9004924">
    <tag k="shop" v="bakery"/>
    <tag k="name" v="Der Kuchenladen"/>
    <tag k="wheelchair" v="limited"/>
  </node>
  <node id="-1557" version="0" timestamp="Fri Feb 24 10:53:33 +0100 2012" uid="1" user="" lat="53.7930427" lon="7.9043193">
    <tag k="shop" v="kiosk"/>
    <tag k="name" v="Löschi´s Kiosk"/>
    <tag k="wheelchair" v="limited"/>
  </node>
  <node id="-1558" version="0" timestamp="Fri Feb 24 10:53:33 +0100 2012" uid="1" user="" lat="53.793021" lon="7.899676">
    <tag k="name" v="Compass"/>
    <tag k="wheelchair" v="limited"/>
    <tag k="amenity" v="restaurant"/>
  </node>
  <node id="-1559" version="0" timestamp="Fri Feb 24 10:53:33 +0100 2012" uid="1" user="" lat="53.7914268" lon="7.8992133">
    <tag k="shop" v="alcohol"/>
    <tag k="name" v="Dit &amp; Dat; Spirituosen, Süßwaren, Lotto"/>
    <tag k="wheelchair" v="no"/>
  </node>
  <node id="-1571" version="0" timestamp="Fri Feb 24 10:53:33 +0100 2012" uid="1" user="" lat="53.7915061" lon="7.899505">
    <tag k="shop" v="hairdresser"/>
    <tag k="name" v="Frisör Flämig"/>
    <tag k="wheelchair" v="limited"/>
  </node>
  <node id="-1573" version="0" timestamp="Fri Feb 24 10:53:33 +0100 2012" uid="1" user="" lat="53.7931707" lon="7.9005722">
    <tag k="shop" v="hairdresser"/>
    <tag k="name" v="Kosmetikstudio &amp; Frisörsalon"/>
    <tag k="wheelchair" v="limited"/>
  </node>
  <node id="-1577" version="0" timestamp="Fri Feb 24 10:53:33 +0100 2012" uid="1" user="" lat="53.7892207" lon="7.9008972">
    <tag k="shop" v="beverages"/>
    <tag k="name" v="Hanke Getränkehandlung"/>
    <tag k="wheelchair" v="no"/>
  </node>
  <node id="-1578" version="0" timestamp="Fri Feb 24 10:53:33 +0100 2012" uid="1" user="" lat="53.7884922" lon="7.8975186">
    <tag k="shop" v="beverages"/>
    <tag k="name" v="Hanke Bierverlag"/>
    <tag k="wheelchair" v="limited"/>
  </node>
  <node id="-1579" version="0" timestamp="Fri Feb 24 10:53:33 +0100 2012" uid="1" user="" lat="53.7920199" lon="7.8987699">
    <tag k="name" v="Fischgaststätte Kruse"/>
    <tag k="wheelchair" v="limited"/>
    <tag k="amenity" v="restaurant"/>
  </node>
  <node id="-1580" version="0" timestamp="Fri Feb 24 10:53:33 +0100 2012" uid="1" user="" lat="53.7919915" lon="7.8990007">
    <tag k="shop" v="supermarket"/>
    <tag k="name" v="Fischgeschäft Kruse"/>
    <tag k="wheelchair" v="limited"/>
  </node>
  <node id="-1923" version="0" timestamp="Fri Feb 24 10:53:33 +0100 2012" uid="1" user="" lat="53.7921369" lon="7.898882">
    <tag k="name" v="Klabautermann"/>
    <tag k="wheelchair" v="no"/>
    <tag k="amenity" v="restaurant"/>
  </node>
  <node id="-1927" version="0" timestamp="Fri Feb 24 10:53:33 +0100 2012" uid="1" user="" lat="53.7907922" lon="7.8990666">
    <tag k="shop" v="kiosk"/>
    <tag k="name" v="Die Muschel"/>
    <tag k="wheelchair" v="no"/>
  </node>
  <node id="-1931" version="0" timestamp="Fri Feb 24 10:53:33 +0100 2012" uid="1" user="" lat="53.7926999" lon="7.9001518">
    <tag k="name" v="Der Pirat"/>
    <tag k="wheelchair" v="no"/>
    <tag k="amenity" v="restaurant"/>
  </node>
  <node id="-1934" version="0" timestamp="Fri Feb 24 10:53:33 +0100 2012" uid="1" user="" lat="53.7903842" lon="7.9000534">
    <tag k="name" v="Up Visite"/>
    <tag k="wheelchair" v="yes"/>
    <tag k="amenity" v="restaurant"/>
  </node>
  <node id="-1937" version="0" timestamp="Fri Feb 24 10:53:33 +0100 2012" uid="1" user="" lat="53.7883496" lon="7.9095084">
    <tag k="name" v="Towerstübchen"/>
    <tag k="wheelchair" v="limited"/>
    <tag k="amenity" v="restaurant"/>
  </node>
  <node id="-1942" version="0" timestamp="Fri Feb 24 10:53:33 +0100 2012" uid="1" user="" lat="53.7922937" lon="7.8999793">
    <tag k="name" v="Fleischerei Imbiss Drees"/>
    <tag k="wheelchair" v="yes"/>
    <tag k="amenity" v="restaurant"/>
  </node>
  <node id="-1943" version="0" timestamp="Fri Feb 24 10:53:33 +0100 2012" uid="1" user="" lat="53.7932005" lon="7.899583">
    <tag k="name" v="Eisbistro"/>
    <tag k="wheelchair" v="limited"/>
    <tag k="amenity" v="fast_food"/>
  </node>
  <node id="-1944" version="0" timestamp="Fri Feb 24 10:53:33 +0100 2012" uid="1" user="" lat="53.7906018" lon="7.8990801">
    <tag k="shop" v="electronics"/>
    <tag k="name" v="Elektro Zoeke"/>
    <tag k="wheelchair" v="limited"/>
  </node>
  <node id="-1945" version="0" timestamp="Fri Feb 24 10:53:33 +0100 2012" uid="1" user="" lat="53.7905493" lon="7.8990424">
    <tag k="shop" v="laundry"/>
    <tag k="name" v="Waschsalon"/>
    <tag k="wheelchair" v="limited"/>
  </node>
  <node id="-1946" version="0" timestamp="Fri Feb 24 10:53:33 +0100 2012" uid="1" user="" lat="53.7874115" lon="7.9003382">
    <tag k="shop" v="hardware"/>
    <tag k="name" v="Grunemann Haustechnik"/>
    <tag k="wheelchair" v="limited"/>
  </node>
  <node id="-1959" version="0" timestamp="Fri Feb 24 10:53:33 +0100 2012" uid="1" user="" lat="53.7906342" lon="7.9015439">
    <tag k="name" v="Nationalpark-Haus &quot;Rosenhaus&quot;"/>
    <tag k="wheelchair" v="yes"/>
  </node>
  <node id="-1962" version="0" timestamp="Fri Feb 24 10:53:34 +0100 2012" uid="1" user="" lat="53.793107" lon="7.9024841">
    <tag k="name" v="Schnigge"/>
    <tag k="wheelchair" v="yes"/>
    <tag k="wheelchair:description" v="Barrierefreier Zugang vom Damenpfad aus"/>
    <tag k="amenity" v="restaurant"/>
  </node>
  <node id="-1964" version="0" timestamp="Fri Feb 24 10:53:34 +0100 2012" uid="1" user="" lat="53.7930942" lon="7.9026141">
    <tag k="name" v="Schnigges Bar"/>
    <tag k="wheelchair" v="yes"/>
    <tag k="wheelchair:description" v="Barrierefreier Zugang vom Damenpfad aus"/>
    <tag k="amenity" v="pub"/>
  </node>
  <node id="-1966" version="0" timestamp="Fri Feb 24 10:53:34 +0100 2012" uid="1" user="" lat="53.792293" lon="7.9036239">
    <tag k="name" v="Katholische Kirche St. Willehad"/>
    <tag k="wheelchair" v="limited"/>
    <tag k="amenity" v="place_of_worship"/>
  </node>
  <node id="-1969" version="0" timestamp="Fri Feb 24 10:53:34 +0100 2012" uid="1" user="" lat="53.7888136" lon="7.9004031">
    <tag k="name" v="Evangelische Nikolai-Kirche"/>
    <tag k="wheelchair" v="limited"/>
    <tag k="amenity" v="place_of_worship"/>
  </node>
  <node id="-1971" version="0" timestamp="Fri Feb 24 10:53:34 +0100 2012" uid="1" user="" lat="53.7937183" lon="7.892236">
    <tag k="name" v="Bunkergrab und Gedenkstätte"/>
    <tag k="wheelchair" v="unknown"/>
  </node>
  <node id="-1972" version="0" timestamp="Fri Feb 24 10:53:34 +0100 2012" uid="1" user="" lat="53.7938277" lon="7.8930715">
    <tag k="shop" v="kiosk"/>
    <tag k="name" v="Surfschule und Kiosk"/>
    <tag k="wheelchair" v="no"/>
  </node>
  <node id="-1973" version="0" timestamp="Fri Feb 24 10:53:34 +0100 2012" uid="1" user="" lat="53.7934909" lon="7.896216">
    <tag k="name" v="Seminarraum Nord"/>
    <tag k="wheelchair" v="no"/>
  </node>
  <node id="-1974" version="0" timestamp="Fri Feb 24 10:53:34 +0100 2012" uid="1" user="" lat="53.7933284" lon="7.8963809">
    <tag k="name" v="Seminarraum Süd"/>
    <tag k="wheelchair" v="no"/>
  </node>
  <node id="-1976" version="0" timestamp="Fri Feb 24 10:53:34 +0100 2012" uid="1" user="" lat="53.7933839" lon="7.8974207">
    <tag k="name" v="Kleiner Kursaal"/>
    <tag k="wheelchair" v="limited"/>
  </node>
  <node id="-1981" version="0" timestamp="Fri Feb 24 10:53:34 +0100 2012" uid="1" user="" lat="53.7901484" lon="7.8979725">
    <tag k="name" v="Fahrradverleih Beier"/>
    <tag k="wheelchair" v="limited"/>
    <tag k="amenity" v="bicycle_rental"/>
  </node>
  <node id="-1983" version="0" timestamp="Fri Feb 24 10:53:34 +0100 2012" uid="1" user="" lat="53.7906919" lon="7.8982221">
    <tag k="shop" v="doityourself"/>
    <tag k="name" v="Lüttjet Bauhuus"/>
    <tag k="wheelchair" v="no"/>
  </node>
  <node id="-2037" version="0" timestamp="Fri Feb 24 10:53:34 +0100 2012" uid="1" user="" lat="53.5731966" lon="7.9009901">
    <tag k="shop" v="department_store"/>
    <tag k="name" v="Das gute Portrait"/>
    <tag k="wheelchair" v="limited"/>
    <tag k="addr:city" v="Jever"/>
    <tag k="addr:postcode" v="26441"/>
    <tag k="addr:housenumber" v="12"/>
    <tag k="addr:street" v="Am Kirchplatz"/>
    <tag k="wheelchair:description" v="Kleine Sufe am Eingang. Toiletten im ersten Stock."/>
    <tag k="website" v="http://www.dasguteportrait.de"/>
    <tag k="phone" v="044614350"/>
  </node>
  <node id="-2120" version="0" timestamp="Fri Feb 24 10:53:34 +0100 2012" uid="1" user="" lat="53.7929074" lon="7.90554">
    <tag k="name" v="Öffentliche Toilette"/>
    <tag k="wheelchair" v="no"/>
    <tag k="amenity" v="toilets"/>
  </node>
  <node id="-2157" version="0" timestamp="Fri Feb 24 10:53:34 +0100 2012" uid="1" user="" lat="53.50913" lon="8.01839">
    <tag k="name" v="Ferienwohnungen Beim Deichlümmel"/>
    <tag k="wheelchair" v="yes"/>
    <tag k="addr:city" v="Sande"/>
    <tag k="addr:postcode" v="26452"/>
    <tag k="addr:housenumber" v="1"/>
    <tag k="tourism" v="hotel"/>
    <tag k="addr:street" v="Karl-Marx-Platz "/>
    <tag k="wheelchair:description" v="Eingang mit Rampe, Bad behinderten gerecht, Bewegungsradien 1,50 cm, stufenlos aud die eigene Terrasse"/>
    <tag k="website" v="http://www.deichluemmel.de"/>
    <tag k="phone" v="04422-5069210"/>
  </node>
  <node id="-2436" version="0" timestamp="Fri Feb 24 10:53:34 +0100 2012" uid="1" user="" lat="53.79338" lon="7.8977873">
    <tag k="shop" v="kiosk"/>
    <tag k="name" v="Schmidt´s Eis-Bar"/>
    <tag k="wheelchair" v="limited"/>
  </node>
  <node id="-2437" version="0" timestamp="Fri Feb 24 10:53:34 +0100 2012" uid="1" user="" lat="53.7925903" lon="7.9005586">
    <tag k="name" v="Neuapostolische Kirche"/>
    <tag k="wheelchair" v="no"/>
    <tag k="amenity" v="place_of_worship"/>
  </node>
  <node id="-2438" version="0" timestamp="Fri Feb 24 10:53:34 +0100 2012" uid="1" user="" lat="53.7899273" lon="7.8995086">
    <tag k="name" v="Kreativ-Café"/>
    <tag k="wheelchair" v="no"/>
    <tag k="amenity" v="cafe"/>
  </node>
  <node id="-2918" version="0" timestamp="Fri Feb 24 10:53:34 +0100 2012" uid="1" user="" lat="53.7920453" lon="7.899922">
    <tag k="name" v="Die Fischbar"/>
    <tag k="wheelchair" v="limited"/>
    <tag k="amenity" v="fast_food"/>
  </node>
  <node id="-2919" version="0" timestamp="Fri Feb 24 10:53:34 +0100 2012" uid="1" user="" lat="53.7881716" lon="7.8990715">
    <tag k="shop" v="kiosk"/>
    <tag k="name" v="Bahnhofskiosk"/>
    <tag k="wheelchair" v="limited"/>
  </node>
  <node id="-2921" version="0" timestamp="Fri Feb 24 10:53:34 +0100 2012" uid="1" user="" lat="53.7904696" lon="7.8988319">
    <tag k="shop" v="clothes"/>
    <tag k="name" v="Lückemann"/>
    <tag k="wheelchair" v="limited"/>
  </node>
  <node id="-2923" version="0" timestamp="Fri Feb 24 10:53:34 +0100 2012" uid="1" user="" lat="53.7918495" lon="7.8996722">
    <tag k="shop" v="supermarket"/>
    <tag k="name" v="Tee-Handels-Kontor"/>
    <tag k="wheelchair" v="limited"/>
  </node>
  <node id="-2924" version="0" timestamp="Fri Feb 24 10:53:34 +0100 2012" uid="1" user="" lat="53.7917296" lon="7.8996271">
    <tag k="shop" v="clothes"/>
    <tag k="name" v="Inselstudio - Goldschmiede"/>
    <tag k="wheelchair" v="limited"/>
  </node>
  <node id="-3079" version="0" timestamp="Fri Feb 24 10:53:35 +0100 2012" uid="1" user="" lat="53.7897746" lon="7.898557">
    <tag k="shop" v="department_store"/>
    <tag k="name" v="Stövchen 2"/>
    <tag k="wheelchair" v="no"/>
  </node>
  <node id="-3080" version="0" timestamp="Fri Feb 24 10:53:35 +0100 2012" uid="1" user="" lat="53.792081" lon="7.8997044">
    <tag k="shop" v="clothes"/>
    <tag k="name" v="Medikosma"/>
    <tag k="wheelchair" v="limited"/>
  </node>
  <node id="-3081" version="0" timestamp="Fri Feb 24 10:53:35 +0100 2012" uid="1" user="" lat="53.7921782" lon="7.8997268">
    <tag k="shop" v="clothes"/>
    <tag k="name" v="Juwelier Tröndle"/>
    <tag k="wheelchair" v="limited"/>
  </node>
  <node id="-3082" version="0" timestamp="Fri Feb 24 10:53:35 +0100 2012" uid="1" user="" lat="53.7922877" lon="7.8997515">
    <tag k="shop" v="clothes"/>
    <tag k="name" v="Mode Journal"/>
    <tag k="wheelchair" v="limited"/>
  </node>
  <node id="-3150" version="0" timestamp="Fri Feb 24 10:53:35 +0100 2012" uid="1" user="" lat="53.7924003" lon="7.9000053">
    <tag k="shop" v="clothes"/>
    <tag k="name" v="Exklusiv Moden Hildebrands"/>
    <tag k="wheelchair" v="limited"/>
  </node>
  <node id="-3151" version="0" timestamp="Fri Feb 24 10:53:35 +0100 2012" uid="1" user="" lat="53.7924697" lon="7.9000261">
    <tag k="shop" v="clothes"/>
    <tag k="name" v="Venice"/>
    <tag k="wheelchair" v="limited"/>
  </node>
  <node id="-3332" version="0" timestamp="Fri Feb 24 10:53:35 +0100 2012" uid="1" user="" lat="53.6357547" lon="8.0227743">
    <tag k="name" v="K-H Kaisig"/>
    <tag k="wheelchair" v="yes"/>
    <tag k="addr:city" v="Hooksiel"/>
    <tag k="addr:postcode" v="26434"/>
    <tag k="addr:housenumber" v="3"/>
    <tag k="tourism" v="bed_and_breakfast"/>
    <tag k="addr:street" v="Oldenburger Str."/>
    <tag k="wheelchair:description" v="Erdgeschoss, Eingang 3cm-Schwelle,kein Frühstück "/>
    <tag k="website" v="http://www.FerienwohnungHooksiel.de"/>
  </node>
  <node id="-3806" version="0" timestamp="Fri Feb 24 10:53:35 +0100 2012" uid="1" user="" lat="53.6357391" lon="8.0227609">
    <tag k="name" v="Apartmenthaus Achtern Diek Erdgeschoss"/>
    <tag k="wheelchair" v="yes"/>
    <tag k="addr:city" v="Hooksiel"/>
    <tag k="addr:postcode" v="26434"/>
    <tag k="addr:housenumber" v="3"/>
    <tag k="tourism" v="bed_and_breakfast"/>
    <tag k="addr:street" v="Oldenburger Strasse"/>
    <tag k="wheelchair:description" v="barierefrei--Duschbad normal--ohne Frühstück--FeWo"/>
    <tag k="website" v="http://www.FerienwohnungHooksiel.de"/>
  </node>
  <node id="-3887" version="0" timestamp="Fri Feb 24 10:53:35 +0100 2012" uid="1" user="" lat="53.788741" lon="7.8990578">
    <tag k="name" v="Inselmuseum und Aussichtsturm"/>
    <tag k="wheelchair" v="no"/>
    <tag k="tourism" v="museum"/>
  </node>
  <node id="-4401" version="0" timestamp="Fri Feb 24 10:53:36 +0100 2012" uid="1" user="" lat="53.7930535" lon="7.8919369">
    <tag k="name" v="Spielplatz in den Dünen"/>
    <tag k="wheelchair" v="no"/>
    <tag k="wheelchair:description" v="Keine Rollstuhlgerechte Zuwegung, Platz nicht befahrbar!"/>
    <tag k="leisure" v="playground"/>
  </node>
  <node id="-4402" version="0" timestamp="Fri Feb 24 10:53:36 +0100 2012" uid="1" user="" lat="53.7895974" lon="7.8995153">
    <tag k="name" v="Diakonie-Sozialstation"/>
    <tag k="wheelchair" v="limited"/>
    <tag k="amenity" v="social_facility"/>
  </node>
  <node id="-4403" version="0" timestamp="Fri Feb 24 10:53:36 +0100 2012" uid="1" user="" lat="53.7882203" lon="7.8999492">
    <tag k="name" v="Spielplatz am Bahnhof"/>
    <tag k="wheelchair" v="limited"/>
    <tag k="leisure" v="playground"/>
  </node>
  <node id="-5151" version="0" timestamp="Fri Feb 24 10:53:37 +0100 2012" uid="1" user="" lat="53.7928657" lon="7.8997243">
    <tag k="shop" v="shoes"/>
    <tag k="name" v="Auftritt"/>
    <tag k="wheelchair" v="limited"/>
  </node>
  <node id="-5152" version="0" timestamp="Fri Feb 24 10:53:37 +0100 2012" uid="1" user="" lat="53.792748" lon="7.8996921">
    <tag k="shop" v="clothes"/>
    <tag k="name" v="Logo 3"/>
    <tag k="wheelchair" v="limited"/>
  </node>
  <node id="-5153" version="0" timestamp="Fri Feb 24 10:53:37 +0100 2012" uid="1" user="" lat="53.792129" lon="7.8994465">
    <tag k="name" v="Postfiliale"/>
    <tag k="wheelchair" v="limited"/>
    <tag k="amenity" v="post_office"/>
  </node>
</osm>
