<?xml version='1.0' encoding='UTF-8'?>
<osm version="0.6" generator="Osmosis 0.39">
  <node id="-371" version="0" timestamp="Fri Feb 24 10:53:32 +0100 2012" uid="1" user="" lat="52.5254308" lon="10.3619836">
    <tag k="name" v="Sparkasse Gifhorn-Wolfsburg"/>
    <tag k="wheelchair" v="yes"/>
    <tag k="wheelchair:description" v="Unbekannt, ob rollstuhlgerechtes WC vorhanden"/>
    <tag k="amenity" v="bank"/>
  </node>
  <node id="-372" version="0" timestamp="Fri Feb 24 10:53:32 +0100 2012" uid="1" user="" lat="52.5238634" lon="10.3666041">
    <tag k="shop" v="bakery"/>
    <tag k="name" v="Bäckerei"/>
    <tag k="wheelchair" v="no"/>
    <tag k="wheelchair:description" v="Mehrere Stufen. Laden ist ca. einen halben Meter über dem Fußweg."/>
  </node>
  <node id="-373" version="0" timestamp="Fri Feb 24 10:53:32 +0100 2012" uid="1" user="" lat="52.5225153" lon="10.3673939">
    <tag k="shop" v="supermarket"/>
    <tag k="name" v="Penny Markt"/>
    <tag k="wheelchair" v="limited"/>
    <tag k="wheelchair:description" v="Keine Stufen. Generell kein öffentliches WC."/>
  </node>
  <node id="-374" version="0" timestamp="Fri Feb 24 10:53:32 +0100 2012" uid="1" user="" lat="52.5256617" lon="10.3572972">
    <tag k="name" v="Heimatmuseum"/>
    <tag k="wheelchair" v="no"/>
    <tag k="tourism" v="museum"/>
  </node>
  <node id="-375" version="0" timestamp="Fri Feb 24 10:53:32 +0100 2012" uid="1" user="" lat="52.526427" lon="10.3565222">
    <tag k="shop" v="supermarket"/>
    <tag k="name" v="Lidl"/>
    <tag k="wheelchair" v="yes"/>
    <tag k="wheelchair:description" v="kein öffentliches WC"/>
  </node>
  <node id="-377" version="0" timestamp="Fri Feb 24 10:53:32 +0100 2012" uid="1" user="" lat="52.5265442" lon="10.356343">
    <tag k="shop" v="department_store"/>
    <tag k="name" v="Schlecker"/>
    <tag k="wheelchair" v="limited"/>
    <tag k="wheelchair:description" v="Keine Stufen aber sehr enge Gänge"/>
  </node>
  <node id="-2587" version="0" timestamp="Fri Feb 24 10:53:34 +0100 2012" uid="1" user="" lat="52.48533" lon="10.54566">
    <tag k="name" v="Polizeinspektion Gifhorn"/>
    <tag k="wheelchair" v="limited"/>
    <tag k="addr:city" v="Gifhorn"/>
    <tag k="addr:postcode" v="38518"/>
    <tag k="addr:housenumber" v="2"/>
    <tag k="addr:street" v="Hindenburgstraße"/>
    <tag k="wheelchair:description" v="Rollstuhlfahrereingang durch den Hof"/>
    <tag k="phone" v="05371/ 9800"/>
  </node>
  <node id="-2588" version="0" timestamp="Fri Feb 24 10:53:34 +0100 2012" uid="1" user="" lat="52.4854333" lon="10.5356978">
    <tag k="name" v="Stadthalle Gifhorn"/>
    <tag k="wheelchair" v="yes"/>
    <tag k="addr:city" v="Gifhorn"/>
    <tag k="addr:postcode" v="38518"/>
    <tag k="addr:housenumber" v="2"/>
    <tag k="addr:street" v="Schützenplatz"/>
    <tag k="wheelchair:description" v="Barrierefreie Eingänge/ Toiletten"/>
    <tag k="amenity" v="townhall"/>
    <tag k="website" v="http://www.stadthalle-gifhorn.de/"/>
    <tag k="phone" v="05371.59 47-0"/>
  </node>
  <node id="-2589" version="0" timestamp="Fri Feb 24 10:53:34 +0100 2012" uid="1" user="" lat="52.4883979" lon="10.5421572">
    <tag k="name" v="Alt Gifhorn"/>
    <tag k="wheelchair" v="limited"/>
    <tag k="amenity" v="bar"/>
  </node>
  <node id="-2590" version="0" timestamp="Fri Feb 24 10:53:34 +0100 2012" uid="1" user="" lat="52.4812831" lon="10.5417153">
    <tag k="name" v="Dietrich Bonhoeffer Realschule"/>
    <tag k="wheelchair" v="limited"/>
    <tag k="addr:city" v="Gifhorn"/>
    <tag k="addr:postcode" v="38518"/>
    <tag k="addr:street" v="Oldaustraße"/>
    <tag k="wheelchair:description" v="Auffahrtsrampe"/>
    <tag k="amenity" v="school"/>
  </node>
  <node id="-2591" version="0" timestamp="Fri Feb 24 10:53:34 +0100 2012" uid="1" user="" lat="52.4880269" lon="10.5457577">
    <tag k="name" v="St. Nicolai Kirche"/>
    <tag k="wheelchair" v="yes"/>
    <tag k="wheelchair:description" v="Ebenerdiger Eingang auf der Rückseite"/>
    <tag k="amenity" v="place_of_worship"/>
  </node>
  <node id="-4551" version="0" timestamp="Fri Feb 24 10:53:36 +0100 2012" uid="1" user="" lat="52.7300387" lon="10.6075246">
    <tag k="shop" v="furniture"/>
    <tag k="name" v="Möbel Meyer"/>
    <tag k="wheelchair" v="unknown"/>
  </node>
</osm>
