<?xml version='1.0' encoding='UTF-8'?>
<osm version="0.6" generator="Osmosis 0.39">
  <node id="-1392" version="0" timestamp="Fri Feb 24 10:53:33 +0100 2012" uid="1" user="" lat="52.43488" lon="7.07508">
    <tag k="name" v="Ergotherapie Lewandowski"/>
    <tag k="wheelchair" v="yes"/>
    <tag k="addr:city" v="Nordhorn"/>
    <tag k="addr:postcode" v="48529"/>
    <tag k="addr:housenumber" v="63"/>
    <tag k="addr:street" v="Denekamper Straße"/>
    <tag k="wheelchair:description" v="Vordereingang benutzen"/>
    <tag k="leisure" v="sports_centre"/>
    <tag k="phone" v="059214577"/>
  </node>
  <node id="-1393" version="0" timestamp="Fri Feb 24 10:53:33 +0100 2012" uid="1" user="" lat="52.4104835" lon="7.0876318">
    <tag k="name" v="Therapiezentrum Balka &amp; Partner"/>
    <tag k="wheelchair" v="yes"/>
    <tag k="addr:city" v="Nordhorn"/>
    <tag k="addr:postcode" v="48529"/>
    <tag k="addr:housenumber" v="257"/>
    <tag k="addr:street" v="Bentheimer Straße"/>
    <tag k="wheelchair:description" v="Eingang neben INJOY und auch Eingang durch das INJOY möglich"/>
    <tag k="leisure" v="sports_centre"/>
    <tag k="phone" v="+4959211797048"/>
  </node>
  <node id="-3649" version="0" timestamp="Fri Feb 24 10:53:35 +0100 2012" uid="1" user="" lat="52.43633" lon="7.07104">
    <tag k="name" v="Nino"/>
    <tag k="wheelchair" v="unknown"/>
    <tag k="addr:city" v="Nordhorn"/>
    <tag k="addr:housenumber" v="11"/>
    <tag k="addr:street" v="NINO-Allee"/>
  </node>
</osm>
