<?xml version='1.0' encoding='UTF-8'?>
<osm version="0.6" generator="Osmosis 0.39">
  <node id="-2461" version="0" timestamp="Fri Feb 24 10:53:34 +0100 2012" uid="1" user="" lat="52.1017493" lon="9.3541966">
    <tag k="name" v="Münster St. Bonifatius"/>
    <tag k="wheelchair" v="yes"/>
    <tag k="wheelchair:description" v="Weiträumig und mit Rampen ausgestattet. Lediglich Krypta Romana, Hoher Chor und Nebenräume nur über Treppen erreichbar."/>
    <tag k="amenity" v="place_of_worship"/>
  </node>
  <node id="-2462" version="0" timestamp="Fri Feb 24 10:53:34 +0100 2012" uid="1" user="" lat="52.105108" lon="9.3575357">
    <tag k="name" v="Haus der Kirche"/>
    <tag k="wheelchair" v="yes"/>
    <tag k="addr:city" v="Hameln"/>
    <tag k="addr:postcode" v="31785"/>
    <tag k="addr:housenumber" v="6"/>
    <tag k="addr:street" v="Emmernstraße"/>
    <tag k="wheelchair:description" v="Keine Stufen im EG, OGs per Fahrstuhl erreichbar"/>
    <tag k="amenity" v="place_of_worship"/>
    <tag k="website" v="http://www.marktkirche-hameln.de/startseite/hdk.htm"/>
    <tag k="phone" v="+49 5151 10674-70"/>
  </node>
  <node id="-2463" version="0" timestamp="Fri Feb 24 10:53:34 +0100 2012" uid="1" user="" lat="52.1051254" lon="9.3560838">
    <tag k="shop" v="mall"/>
    <tag k="name" v="Stadtgalerie"/>
    <tag k="wheelchair" v="yes"/>
    <tag k="addr:city" v="Hameln"/>
    <tag k="addr:postcode" v="31785"/>
    <tag k="addr:housenumber" v="1"/>
    <tag k="addr:street" v="Pferdemarkt"/>
    <tag k="website" v="http://www.stadtgaleriehameln.de/"/>
    <tag k="phone" v="+49 5151 82227 - 0"/>
  </node>
  <node id="-4165" version="0" timestamp="Fri Feb 24 10:53:36 +0100 2012" uid="1" user="" lat="52.0867886" lon="9.4996083">
    <tag k="name" v="Bäckerei Örke"/>
    <tag k="wheelchair" v="yes"/>
    <tag k="amenity" v="cafe"/>
  </node>
  <node id="-5437" version="0" timestamp="Fri Feb 24 10:53:37 +0100 2012" uid="1" user="" lat="52.10565" lon="9.35611">
    <tag k="name" v="Santander Consumer Bank"/>
    <tag k="wheelchair" v="limited"/>
    <tag k="addr:city" v="Hameln"/>
    <tag k="addr:postcode" v="31785"/>
    <tag k="addr:housenumber" v="12"/>
    <tag k="addr:street" v="Ritterstraße"/>
    <tag k="amenity" v="bank"/>
    <tag k="website" v="http://www.santander.de"/>
  </node>
</osm>
