<?xml version='1.0' encoding='UTF-8'?>
<osm version="0.6" generator="Osmosis 0.39">
  <node id="-2139" version="0" timestamp="Fri Feb 24 10:53:34 +0100 2012" uid="1" user="" lat="53.081022" lon="9.9954041">
    <tag k="shop" v="bakery"/>
    <tag k="name" v="Bäckerei"/>
    <tag k="wheelchair" v="yes"/>
    <tag k="addr:city" v="Bispingen"/>
    <tag k="addr:postcode" v="29646"/>
    <tag k="addr:street" v="Soltauer Str."/>
  </node>
  <node id="-2140" version="0" timestamp="Fri Feb 24 10:53:34 +0100 2012" uid="1" user="" lat="53.0811424" lon="9.9951854">
    <tag k="shop" v="supermarket"/>
    <tag k="name" v="Lidl"/>
    <tag k="wheelchair" v="yes"/>
    <tag k="addr:city" v="Bispingen"/>
    <tag k="addr:postcode" v="29646"/>
    <tag k="addr:street" v="Soltauer Str."/>
  </node>
  <node id="-2187" version="0" timestamp="Fri Feb 24 10:53:34 +0100 2012" uid="1" user="" lat="53.1072976" lon="9.7896051">
    <tag k="shop" v="supermarket"/>
    <tag k="name" v="Famila"/>
    <tag k="wheelchair" v="yes"/>
    <tag k="addr:city" v="Schneverdingen"/>
    <tag k="addr:postcode" v="29640"/>
    <tag k="addr:street" v="Am Vogelsang"/>
  </node>
  <node id="-5257" version="0" timestamp="Fri Feb 24 10:53:37 +0100 2012" uid="1" user="" lat="52.9855692" lon="10.0903666">
    <tag k="shop" v="medical_supply"/>
    <tag k="name" v="Sanitätshaus Hartig &amp; Kwella"/>
    <tag k="wheelchair" v="yes"/>
    <tag k="addr:city" v="Munster"/>
    <tag k="addr:postcode" v="29633"/>
    <tag k="addr:housenumber" v="1"/>
    <tag k="addr:street" v="Lüneburger Straße"/>
    <tag k="phone" v="05192899900"/>
  </node>
  <node id="-5258" version="0" timestamp="Fri Feb 24 10:53:37 +0100 2012" uid="1" user="" lat="52.8665081" lon="9.7050175">
    <tag k="name" v="Utspann"/>
    <tag k="wheelchair" v="yes"/>
    <tag k="addr:city" v="Bad Fallingbostel"/>
    <tag k="addr:postcode" v="29683"/>
    <tag k="addr:housenumber" v="13"/>
    <tag k="addr:street" v="Quintusstraße "/>
    <tag k="wheelchair:description" v="über eine Rampe im Garten"/>
    <tag k="amenity" v="restaurant"/>
    <tag k="website" v="http://www.utspann.info"/>
    <tag k="phone" v="+49 5162 / 2114"/>
  </node>
</osm>
