<?xml version='1.0' encoding='UTF-8'?>
<osm version="0.6" generator="Osmosis 0.39">
  <node id="-1168" version="0" timestamp="Fri Feb 24 10:53:33 +0100 2012" uid="1" user="" lat="52.2163346" lon="10.1610169">
    <tag k="name" v="Kapelle zu Mölme"/>
    <tag k="wheelchair" v="unknown"/>
    <tag k="addr:city" v="Söhlde"/>
    <tag k="addr:postcode" v="31185"/>
    <tag k="addr:street" v="Kohlengasse"/>
    <tag k="amenity" v="place_of_worship"/>
    <tag k="website" v="http://www.martins-bote.de/Kirchen/BerichtM%F6lme.htm"/>
  </node>
  <node id="-1169" version="0" timestamp="Fri Feb 24 10:53:33 +0100 2012" uid="1" user="" lat="52.2112375" lon="10.1876349">
    <tag k="name" v="Praxis Dr. Wilgrod-Gockel"/>
    <tag k="wheelchair" v="unknown"/>
    <tag k="addr:city" v="Söhlde"/>
    <tag k="addr:postcode" v="31185"/>
    <tag k="addr:housenumber" v="6"/>
    <tag k="addr:street" v="Hoyermannstarße "/>
    <tag k="amenity" v="doctors"/>
  </node>
  <node id="-2004" version="0" timestamp="Fri Feb 24 10:53:34 +0100 2012" uid="1" user="" lat="52.14747" lon="9.96123">
    <tag k="name" v="Supp culture"/>
    <tag k="wheelchair" v="yes"/>
    <tag k="addr:city" v="hildesheim"/>
    <tag k="addr:postcode" v="31134"/>
    <tag k="addr:housenumber" v="13/14"/>
    <tag k="addr:street" v="bahnhofstraße"/>
    <tag k="wheelchair:description" v="ein eingang der für rollstuhlfahre geeignet ist"/>
    <tag k="amenity" v="cafe"/>
    <tag k="website" v="http://www.kontor13.de/"/>
    <tag k="phone" v=" 05121/1740110"/>
  </node>
  <node id="-2702" version="0" timestamp="Fri Feb 24 10:53:34 +0100 2012" uid="1" user="" lat="51.9819915" lon="9.8254672">
    <tag k="name" v="Kieferorthopädische Praxis Isabell Stoltze"/>
    <tag k="wheelchair" v="no"/>
    <tag k="addr:city" v="Alfeld"/>
    <tag k="addr:postcode" v="31061"/>
    <tag k="addr:housenumber" v="3"/>
    <tag k="addr:street" v="Brunnenweg"/>
    <tag k="amenity" v="doctors"/>
  </node>
  <node id="-2703" version="0" timestamp="Fri Feb 24 10:53:34 +0100 2012" uid="1" user="" lat="51.9819107" lon="9.8254593">
    <tag k="name" v="Praxis Dr. Griebel"/>
    <tag k="wheelchair" v="no"/>
    <tag k="addr:city" v="Alfeld"/>
    <tag k="addr:postcode" v="31061"/>
    <tag k="addr:housenumber" v="3"/>
    <tag k="addr:street" v="Brunnenweg"/>
    <tag k="wheelchair:description" v="Treppenlift nicht einsatzbereit"/>
    <tag k="amenity" v="doctors"/>
  </node>
  <node id="-2704" version="0" timestamp="Fri Feb 24 10:53:34 +0100 2012" uid="1" user="" lat="51.9885618" lon="9.819829">
    <tag k="name" v="Zahnarztpraxis Dr. Jens Vierbücher"/>
    <tag k="wheelchair" v="yes"/>
    <tag k="addr:city" v="Alfeld"/>
    <tag k="addr:postcode" v="31061"/>
    <tag k="addr:street" v="Goethestraße"/>
    <tag k="wheelchair:description" v="befahrbarer Treppenlift vorhanden"/>
    <tag k="amenity" v="bank"/>
  </node>
  <node id="-2705" version="0" timestamp="Fri Feb 24 10:53:34 +0100 2012" uid="1" user="" lat="51.9869832" lon="9.8250288">
    <tag k="name" v="Bürgeramt Alfeld"/>
    <tag k="wheelchair" v="no"/>
    <tag k="addr:city" v="Alfeld"/>
    <tag k="addr:postcode" v="31061"/>
  </node>
  <node id="-2706" version="0" timestamp="Fri Feb 24 10:53:34 +0100 2012" uid="1" user="" lat="52.0205347" lon="9.7212221">
    <tag k="name" v="Dorfgemeinschaftshaus"/>
    <tag k="wheelchair" v="no"/>
    <tag k="addr:city" v="Rott"/>
    <tag k="addr:postcode" v="31093"/>
    <tag k="addr:street" v="Dorfstraße"/>
  </node>
  <node id="-2708" version="0" timestamp="Fri Feb 24 10:53:34 +0100 2012" uid="1" user="" lat="51.9941572" lon="9.8333027">
    <tag k="name" v="Urologische Praxis Dr. Hofmeister"/>
    <tag k="wheelchair" v="yes"/>
    <tag k="addr:city" v="Alfeld"/>
    <tag k="addr:postcode" v="31061 "/>
    <tag k="addr:street" v="Landrat-Beushausen-Straße"/>
    <tag k="amenity" v="doctors"/>
  </node>
  <node id="-2883" version="0" timestamp="Fri Feb 24 10:53:34 +0100 2012" uid="1" user="" lat="52.2333" lon="9.85">
    <tag k="name" v="Jann Hinsch Hof"/>
    <tag k="wheelchair" v="yes"/>
    <tag k="addr:city" v="Winsen/Aller"/>
    <tag k="addr:postcode" v="29308"/>
    <tag k="addr:housenumber" v="26"/>
    <tag k="addr:street" v="Bannetzer Str. "/>
    <tag k="amenity" v="restaurant"/>
  </node>
  <node id="-4024" version="0" timestamp="Fri Feb 24 10:53:36 +0100 2012" uid="1" user="" lat="52.11707" lon="9.98323">
    <tag k="name" v="Zur scharfen Ecke"/>
    <tag k="wheelchair" v="yes"/>
    <tag k="wheelchair:description" v="Schlüssel für die Toilette gibt es auf Nachfrage."/>
    <tag k="amenity" v="restaurant"/>
  </node>
  <node id="-4025" version="0" timestamp="Fri Feb 24 10:53:36 +0100 2012" uid="1" user="" lat="52.11707" lon="9.98205">
    <tag k="name" v="Burger King"/>
    <tag k="wheelchair" v="yes"/>
    <tag k="amenity" v="fast_food"/>
  </node>
  <node id="-4325" version="0" timestamp="Fri Feb 24 10:53:36 +0100 2012" uid="1" user="" lat="52.2087938" lon="10.1828185">
    <tag k="shop" v="butcher"/>
    <tag k="name" v="Fleischerei Werner"/>
    <tag k="wheelchair" v="unknown"/>
    <tag k="addr:city" v="Söhlde-Hoheneggelsen"/>
    <tag k="addr:postcode" v="31185"/>
    <tag k="addr:housenumber" v="40"/>
    <tag k="addr:street" v="Hauptstr. "/>
  </node>
</osm>
