<?xml version='1.0' encoding='UTF-8'?>
<osm version="0.6" generator="Osmosis 0.39">
  <node id="-507" version="0" timestamp="Fri Feb 24 10:53:32 +0100 2012" uid="1" user="" lat="52.3497" lon="8.01332">
    <tag k="name" v="Reise-Treff-Ludwig"/>
    <tag k="wheelchair" v="yes"/>
    <tag k="addr:city" v="Wallenhorst"/>
    <tag k="addr:postcode" v="49134"/>
    <tag k="addr:housenumber" v="11"/>
    <tag k="addr:street" v="Kirchplatz"/>
    <tag k="amenity" v="bank"/>
  </node>
  <node id="-892" version="0" timestamp="Fri Feb 24 10:53:32 +0100 2012" uid="1" user="" lat="52.67762" lon="7.96497">
    <tag k="name" v="Artland Arena"/>
    <tag k="wheelchair" v="yes"/>
    <tag k="addr:city" v="Quakenbrück"/>
    <tag k="addr:postcode" v="49610"/>
    <tag k="addr:housenumber" v="19"/>
    <tag k="addr:street" v="Jahnsrtraße"/>
    <tag k="wheelchair:description" v="ebenerdig, Behindertentoilette, Theken und Stände barrierefrei erreichbar, RRolli-Rampe in der Arena!"/>
    <tag k="leisure" v="stadium"/>
    <tag k="website" v="http://www.artland.de/htmlsite/index.php?menuid=67&amp;topmenu=21"/>
  </node>
  <node id="-983" version="0" timestamp="Fri Feb 24 10:53:33 +0100 2012" uid="1" user="" lat="52.4074807" lon="8.1289199">
    <tag k="name" v="Varusschlacht: Museum und Park Kalkriese"/>
    <tag k="wheelchair" v="yes"/>
    <tag k="addr:city" v="Bramsche-Kalkriese"/>
    <tag k="addr:postcode" v="49565"/>
    <tag k="addr:housenumber" v="69"/>
    <tag k="addr:street" v="Venner Straße "/>
    <tag k="website" v="http://www.kalkriese-varusschlacht.de"/>
    <tag k="historic" v="archaeological_site"/>
  </node>
  <node id="-1054" version="0" timestamp="Fri Feb 24 10:53:33 +0100 2012" uid="1" user="" lat="52.1576508" lon="8.0421247">
    <tag k="name" v="Schloss Bad Iburg"/>
    <tag k="wheelchair" v="unknown"/>
    <tag k="addr:city" v="Bad Iburg"/>
    <tag k="addr:postcode" v="49186"/>
    <tag k="amenity" v="bank"/>
  </node>
  <node id="-1139" version="0" timestamp="Fri Feb 24 10:53:33 +0100 2012" uid="1" user="" lat="52.3437134" lon="8.2316436">
    <tag k="name" v="Edeka"/>
    <tag k="wheelchair" v="yes"/>
    <tag k="addr:city" v="Ostercappeln"/>
    <tag k="addr:postcode" v="49179"/>
    <tag k="addr:housenumber" v="33"/>
    <tag k="addr:street" v="Bremer Straße"/>
    <tag k="amenity" v="bank"/>
  </node>
  <node id="-1140" version="0" timestamp="Fri Feb 24 10:53:33 +0100 2012" uid="1" user="" lat="52.3437329" lon="8.2326592">
    <tag k="name" v="ALDI"/>
    <tag k="wheelchair" v="yes"/>
    <tag k="addr:postcode" v="49179"/>
    <tag k="addr:street" v="Bremer Straße"/>
    <tag k="amenity" v="bank"/>
  </node>
  <node id="-1141" version="0" timestamp="Fri Feb 24 10:53:33 +0100 2012" uid="1" user="" lat="52.3428262" lon="8.2369626">
    <tag k="name" v="K+K"/>
    <tag k="wheelchair" v="yes"/>
    <tag k="addr:city" v="Ostercappeln"/>
    <tag k="addr:postcode" v="49179"/>
    <tag k="addr:housenumber" v="46"/>
    <tag k="addr:street" v="Bremer Straße"/>
    <tag k="amenity" v="bank"/>
  </node>
  <node id="-1147" version="0" timestamp="Fri Feb 24 10:53:33 +0100 2012" uid="1" user="" lat="52.5484342" lon="7.7673301">
    <tag k="name" v="Freie Kunstakademie Maiburg"/>
    <tag k="wheelchair" v="unknown"/>
    <tag k="addr:city" v="Bippen-Klein Bokern"/>
    <tag k="addr:postcode" v=" 49626 "/>
    <tag k="addr:housenumber" v="1"/>
    <tag k="addr:street" v="Alte Dorfstraße"/>
    <tag k="amenity" v="bank"/>
  </node>
  <node id="-1150" version="0" timestamp="Fri Feb 24 10:53:33 +0100 2012" uid="1" user="" lat="52.3362819" lon="8.0533821">
    <tag k="name" v="Kloster Rulle"/>
    <tag k="wheelchair" v="unknown"/>
    <tag k="addr:city" v="Wallenhorst"/>
    <tag k="addr:postcode" v="49134 "/>
    <tag k="addr:housenumber" v="13"/>
    <tag k="addr:street" v="Klosterstr."/>
    <tag k="amenity" v="bank"/>
  </node>
  <node id="-1154" version="0" timestamp="Fri Feb 24 10:53:33 +0100 2012" uid="1" user="" lat="52.1578535" lon="8.0421581">
    <tag k="name" v="Schloss Iburg"/>
    <tag k="wheelchair" v="no"/>
    <tag k="addr:city" v="Bad Iburg"/>
    <tag k="addr:postcode" v="49186 "/>
    <tag k="wheelchair:description" v="teils über Umwege für Rollstuhlfahrer mühsam erreichbar"/>
    <tag k="amenity" v="bank"/>
  </node>
  <node id="-1157" version="0" timestamp="Fri Feb 24 10:53:33 +0100 2012" uid="1" user="" lat="52.3490844" lon="8.1621838">
    <tag k="name" v="Schwarzkreidegrube"/>
    <tag k="wheelchair" v="no"/>
    <tag k="amenity" v="bank"/>
  </node>
  <node id="-1175" version="0" timestamp="Fri Feb 24 10:53:33 +0100 2012" uid="1" user="" lat="52.5165291" lon="7.6726179">
    <tag k="name" v="Schloss Fürstenau"/>
    <tag k="wheelchair" v="yes"/>
    <tag k="addr:city" v="Fürstenau"/>
    <tag k="addr:postcode" v="49584 "/>
    <tag k="addr:housenumber" v="1"/>
    <tag k="addr:street" v="Schloßplatz "/>
    <tag k="historic" v="castle"/>
  </node>
  <node id="-1187" version="0" timestamp="Fri Feb 24 10:53:33 +0100 2012" uid="1" user="" lat="52.2220574" lon="7.951973">
    <tag k="name" v="Töpfereimuseum Niehenke "/>
    <tag k="wheelchair" v="unknown"/>
    <tag k="addr:city" v="Hasbergen"/>
    <tag k="addr:postcode" v="49205"/>
    <tag k="addr:housenumber" v="72 "/>
    <tag k="tourism" v="museum"/>
    <tag k="addr:street" v="Am Plessen"/>
  </node>
  <node id="-2027" version="0" timestamp="Fri Feb 24 10:53:34 +0100 2012" uid="1" user="" lat="52.1577814" lon="8.0420598">
    <tag k="name" v="Schloss Iburg"/>
    <tag k="wheelchair" v="no"/>
    <tag k="addr:city" v="Bad Iburg"/>
    <tag k="addr:postcode" v="49186 "/>
    <tag k="historic" v="castle"/>
  </node>
  <node id="-2030" version="0" timestamp="Fri Feb 24 10:53:34 +0100 2012" uid="1" user="" lat="52.2220237" lon="7.9519957">
    <tag k="name" v="Töpfereimuseum Niehenke"/>
    <tag k="wheelchair" v="limited"/>
    <tag k="addr:city" v="Hagen A.T.W."/>
    <tag k="addr:postcode" v="49170"/>
    <tag k="addr:housenumber" v="9"/>
    <tag k="tourism" v="museum"/>
    <tag k="addr:street" v="Martinistraße "/>
    <tag k="wheelchair:description" v="Großteil der Ausstellung ebenerdig"/>
  </node>
  <node id="-2034" version="0" timestamp="Fri Feb 24 10:53:34 +0100 2012" uid="1" user="" lat="52.240249" lon="8.3640352">
    <tag k="name" v="Diedrichsburg"/>
    <tag k="wheelchair" v="limited"/>
    <tag k="addr:city" v="Melle"/>
    <tag k="addr:postcode" v="49328"/>
    <tag k="addr:housenumber" v="17"/>
    <tag k="tourism" v="attraction"/>
    <tag k="addr:street" v="Holzhausener Str. "/>
    <tag k="wheelchair:description" v="Zugang bis Parkplatz, kein BehindertenWC "/>
  </node>
  <node id="-2056" version="0" timestamp="Fri Feb 24 10:53:34 +0100 2012" uid="1" user="" lat="52.494158" lon="7.8681231">
    <tag k="name" v="Steinwerk Meyer in Westerholte"/>
    <tag k="wheelchair" v="yes"/>
    <tag k="addr:city" v="Ankum"/>
    <tag k="addr:postcode" v="49577 "/>
    <tag k="wheelchair:description" v="z.Z. leider nicht fahrstuhlsicher, da Zufahrt durch Landmaschinen aufgewühlt"/>
    <tag k="historic" v="memorial"/>
  </node>
  <node id="-2057" version="0" timestamp="Fri Feb 24 10:53:34 +0100 2012" uid="1" user="" lat="52.5418194" lon="7.8703755">
    <tag k="name" v="Rathaus"/>
    <tag k="wheelchair" v="yes"/>
    <tag k="addr:city" v="Ankum"/>
    <tag k="addr:postcode" v="49577"/>
    <tag k="addr:housenumber" v="27 "/>
    <tag k="addr:street" v="Hauptstr."/>
    <tag k="wheelchair:description" v="Behindertentoilette"/>
  </node>
  <node id="-3068" version="0" timestamp="Fri Feb 24 10:53:35 +0100 2012" uid="1" user="" lat="52.33521" lon="8.02194">
    <tag k="shop" v="electronics"/>
    <tag k="name" v="Videothek Ollis Medienhouse"/>
    <tag k="wheelchair" v="yes"/>
    <tag k="addr:city" v="Wallenhorst"/>
    <tag k="addr:postcode" v="49134"/>
    <tag k="addr:housenumber" v="12"/>
    <tag k="addr:street" v="Osnabrücker Strasse"/>
    <tag k="website" v="http://www.ollismedienhouse.de"/>
    <tag k="phone" v="05407 860113"/>
  </node>
  <node id="-3069" version="0" timestamp="Fri Feb 24 10:53:35 +0100 2012" uid="1" user="" lat="52.3352584" lon="8.0223866">
    <tag k="name" v="Parkplatz "/>
    <tag k="wheelchair" v="yes"/>
    <tag k="addr:city" v="Wallenhorst"/>
    <tag k="addr:postcode" v="49134"/>
    <tag k="addr:housenumber" v="12"/>
    <tag k="addr:street" v="Osnabrücker Strasse"/>
    <tag k="amenity" v="parking"/>
  </node>
  <node id="-3070" version="0" timestamp="Fri Feb 24 10:53:35 +0100 2012" uid="1" user="" lat="52.3353314" lon="8.0217507">
    <tag k="name" v="Parkplatz"/>
    <tag k="wheelchair" v="yes"/>
    <tag k="amenity" v="parking"/>
  </node>
  <node id="-3930" version="0" timestamp="Fri Feb 24 10:53:35 +0100 2012" uid="1" user="" lat="52.3495394" lon="8.0145511">
    <tag k="shop" v="bakery"/>
    <tag k="name" v="Bäckerei + Café Berelsmann"/>
    <tag k="wheelchair" v="limited"/>
    <tag k="addr:city" v="Wallenhorst"/>
    <tag k="addr:postcode" v="49134"/>
    <tag k="addr:housenumber" v="11"/>
    <tag k="addr:street" v="Kirchplatz"/>
    <tag k="wheelchair:description" v="Steile Rampe"/>
    <tag k="website" v="http://www.berelsmann.de"/>
    <tag k="phone" v="05407/8733-0"/>
  </node>
  <node id="-3931" version="0" timestamp="Fri Feb 24 10:53:35 +0100 2012" uid="1" user="" lat="52.3457093" lon="7.9735923">
    <tag k="name" v="Dr. med. Elisabeth Spellmann, Allg. Medizin"/>
    <tag k="wheelchair" v="yes"/>
    <tag k="addr:city" v="Wallenhorst"/>
    <tag k="addr:postcode" v="49134"/>
    <tag k="addr:housenumber" v="123"/>
    <tag k="addr:street" v="Hollager Straße"/>
    <tag k="wheelchair:description" v="Aufzug in die Praxis"/>
    <tag k="amenity" v="doctors"/>
    <tag k="phone" v="05407 5885"/>
  </node>
  <node id="-3933" version="0" timestamp="Fri Feb 24 10:53:35 +0100 2012" uid="1" user="" lat="52.3318528" lon="8.0708336">
    <tag k="name" v="Helmichsteine"/>
    <tag k="wheelchair" v="limited"/>
    <tag k="website" v="http://www.stonepages.de/db/stone.php?rcrd=68&amp;menu=Osnabr%C3%BCck"/>
    <tag k="historic" v="archaeological_site"/>
  </node>
</osm>
