<?xml version='1.0' encoding='UTF-8'?>
<osm version="0.6" generator="Osmosis 0.39">
  <node id="-193" version="0" timestamp="Fri Feb 24 10:53:32 +0100 2012" uid="1" user="" lat="53.4710654" lon="7.4743002">
    <tag k="name" v="Sparkassen-Arena"/>
    <tag k="wheelchair" v="yes"/>
    <tag k="addr:city" v="Aurich"/>
    <tag k="addr:postcode" v="26603"/>
    <tag k="addr:housenumber" v="4"/>
    <tag k="addr:street" v="Emder Strasse"/>
    <tag k="leisure" v="arena"/>
    <tag k="website" v="http://www.sparkassen-arena-aurich.de"/>
    <tag k="phone" v="04941/ 12 33 20"/>
  </node>
  <node id="-417" version="0" timestamp="Fri Feb 24 10:53:32 +0100 2012" uid="1" user="" lat="53.52116" lon="7.27323">
    <tag k="name" v="Hoter zur Waage"/>
    <tag k="wheelchair" v="no"/>
    <tag k="addr:city" v="Marienhafe"/>
    <tag k="addr:postcode" v="26529"/>
    <tag k="addr:housenumber" v="6"/>
    <tag k="addr:street" v="Rosenstraße"/>
    <tag k="amenity" v="restaurant"/>
    <tag k="phone" v="04934-316"/>
  </node>
  <node id="-1078" version="0" timestamp="Fri Feb 24 10:53:33 +0100 2012" uid="1" user="" lat="53.6721233" lon="7.3521369">
    <tag k="name" v="Ferienhaus &quot;Ferien-für-Alle&quot;"/>
    <tag k="wheelchair" v="yes"/>
    <tag k="addr:city" v="Dornum-Neßmersiel"/>
    <tag k="addr:postcode" v="26553"/>
    <tag k="addr:housenumber" v="18"/>
    <tag k="tourism" v="chalet"/>
    <tag k="addr:street" v="Seeregenpfeiferweg"/>
    <tag k="wheelchair:description" v="Rollstuhlgerechtes Ferienhaus mit Pflegebett"/>
    <tag k="website" v="http://www.ferien-fuer-alle.net"/>
    <tag k="phone" v="+49 6032 87086"/>
  </node>
  <node id="-1148" version="0" timestamp="Fri Feb 24 10:53:33 +0100 2012" uid="1" user="" lat="53.6723" lon="7.35134">
    <tag k="name" v="Ferienhaus &quot;Ferien-für-Alle&quot;"/>
    <tag k="wheelchair" v="yes"/>
    <tag k="addr:city" v="Dornum-Neßmersiel"/>
    <tag k="addr:postcode" v="26553"/>
    <tag k="addr:housenumber" v="18"/>
    <tag k="tourism" v="chalet"/>
    <tag k="addr:street" v="Seeregenpfeiferweg"/>
    <tag k="wheelchair:description" v="Rollstuhlgerechtes Ferienhaus mit Pflegebett"/>
    <tag k="website" v="http://www.ferien-fuer-alle.net"/>
    <tag k="phone" v="+49 6032 87086"/>
  </node>
  <node id="-1407" version="0" timestamp="Fri Feb 24 10:53:33 +0100 2012" uid="1" user="" lat="53.4682832" lon="7.4944932">
    <tag k="shop" v="supermarket"/>
    <tag k="name" v="Netto Markt"/>
    <tag k="wheelchair" v="limited"/>
    <tag k="addr:city" v="Aurich"/>
    <tag k="addr:postcode" v="26603"/>
    <tag k="addr:street" v="Wallinghausener Strasse"/>
    <tag k="wheelchair:description" v="Eingang ebenerdig"/>
  </node>
  <node id="-1408" version="0" timestamp="Fri Feb 24 10:53:33 +0100 2012" uid="1" user="" lat="53.46814" lon="7.49878">
    <tag k="name" v="Ubbo Emius Klinik GmbH"/>
    <tag k="wheelchair" v="yes"/>
    <tag k="addr:city" v="Aurich"/>
    <tag k="addr:postcode" v="26603"/>
    <tag k="addr:street" v="Wallinghausener Strasse"/>
    <tag k="wheelchair:description" v="Eingang Ebenerdig "/>
    <tag k="amenity" v="hospital"/>
  </node>
  <node id="-1409" version="0" timestamp="Fri Feb 24 10:53:33 +0100 2012" uid="1" user="" lat="53.4714923" lon="7.4795329">
    <tag k="name" v="Dr.Kahle"/>
    <tag k="wheelchair" v="yes"/>
    <tag k="addr:postcode" v="26603"/>
    <tag k="addr:street" v="Krähennestergang"/>
    <tag k="wheelchair:description" v="Eingang mit Rampe "/>
    <tag k="amenity" v="doctors"/>
  </node>
  <node id="-1833" version="0" timestamp="Fri Feb 24 10:53:33 +0100 2012" uid="1" user="" lat="53.4672795" lon="7.4842423">
    <tag k="name" v="Landkreis Aurich Verwaltung und Arge"/>
    <tag k="wheelchair" v="yes"/>
    <tag k="wheelchair:description" v="eingang ebenerdig,Fahrstuhl für die oberen Etagen"/>
  </node>
  <node id="-1834" version="0" timestamp="Fri Feb 24 10:53:33 +0100 2012" uid="1" user="" lat="53.467165" lon="7.4835802">
    <tag k="shop" v="mall"/>
    <tag k="name" v="Carolinenhof Einkaufscenter/Kino/Disco usw"/>
    <tag k="wheelchair" v="yes"/>
    <tag k="addr:street" v="Fischteichweg"/>
    <tag k="wheelchair:description" v="eingang hat eine langsam stellbare drehtür/Fahrstuhl für die oberen Etagen!"/>
  </node>
  <node id="-1924" version="0" timestamp="Fri Feb 24 10:53:33 +0100 2012" uid="1" user="" lat="53.6007246" lon="7.2158149">
    <tag k="name" v="HNO Arzt Arends"/>
    <tag k="wheelchair" v="yes"/>
    <tag k="addr:city" v="Norden"/>
    <tag k="addr:postcode" v="26506"/>
    <tag k="addr:housenumber" v="10"/>
    <tag k="addr:street" v="Juister Str. "/>
    <tag k="amenity" v="doctors"/>
  </node>
  <node id="-2471" version="0" timestamp="Fri Feb 24 10:53:34 +0100 2012" uid="1" user="" lat="53.5961142" lon="7.2079953">
    <tag k="shop" v="department_store"/>
    <tag k="name" v="Müller"/>
    <tag k="wheelchair" v="yes"/>
    <tag k="addr:city" v="Norden"/>
    <tag k="addr:postcode" v="26427"/>
  </node>
  <node id="-2472" version="0" timestamp="Fri Feb 24 10:53:34 +0100 2012" uid="1" user="" lat="53.59606" lon="7.20768">
    <tag k="shop" v="clothes"/>
    <tag k="name" v="CeKa"/>
    <tag k="wheelchair" v="unknown"/>
    <tag k="addr:city" v="Norden"/>
    <tag k="addr:postcode" v="26427"/>
  </node>
  <node id="-2473" version="0" timestamp="Fri Feb 24 10:53:34 +0100 2012" uid="1" user="" lat="53.5971524" lon="7.2105921">
    <tag k="name" v="Apollo"/>
    <tag k="wheelchair" v="limited"/>
    <tag k="addr:city" v="Norden"/>
    <tag k="addr:postcode" v="26506"/>
    <tag k="addr:housenumber" v="136 b"/>
    <tag k="addr:street" v="Osterstrasse "/>
    <tag k="amenity" v="cinema"/>
    <tag k="website" v="http://www.kino-norden.de/"/>
  </node>
  <node id="-2474" version="0" timestamp="Fri Feb 24 10:53:34 +0100 2012" uid="1" user="" lat="53.5961151" lon="7.2084002">
    <tag k="shop" v="clothes"/>
    <tag k="name" v="Esprit"/>
    <tag k="wheelchair" v="yes"/>
    <tag k="addr:city" v="Norden"/>
    <tag k="addr:postcode" v="26506"/>
    <tag k="addr:housenumber" v="2"/>
    <tag k="addr:street" v="Neuer Weg"/>
    <tag k="website" v="http://www.esprit.de/?LKZ=DE"/>
  </node>
  <node id="-2475" version="0" timestamp="Fri Feb 24 10:53:34 +0100 2012" uid="1" user="" lat="53.5957896" lon="7.208755">
    <tag k="name" v="Mittelhaus"/>
    <tag k="wheelchair" v="yes"/>
    <tag k="addr:city" v="Norden"/>
    <tag k="addr:postcode" v="26506"/>
    <tag k="addr:housenumber" v="11"/>
    <tag k="addr:street" v="Neuer Weg"/>
    <tag k="amenity" v="bar"/>
    <tag k="website" v="http://www.mittelhaus.de/"/>
  </node>
  <node id="-2476" version="0" timestamp="Fri Feb 24 10:53:34 +0100 2012" uid="1" user="" lat="53.5956085" lon="7.2084328">
    <tag k="shop" v="clothes"/>
    <tag k="name" v="Ernsting&apos;s family"/>
    <tag k="wheelchair" v="yes"/>
    <tag k="addr:city" v="Norden"/>
    <tag k="addr:postcode" v="26506"/>
    <tag k="addr:housenumber" v="117"/>
    <tag k="addr:street" v="Neuer Weg"/>
    <tag k="website" v="http://www.ernstings-family.de/shop/servlet/efWillkommen?storeId=10001&amp;catalogId=10002&amp;langId=-3&amp;cm_mmc=1000-_-AddWords-_-73878-_-SEM&amp;execid=15000"/>
  </node>
  <node id="-2811" version="0" timestamp="Fri Feb 24 10:53:34 +0100 2012" uid="1" user="" lat="53.50131" lon="7.08354">
    <tag k="name" v="Ferienhaus Friesengeist"/>
    <tag k="wheelchair" v="yes"/>
    <tag k="addr:city" v="Greetsiel"/>
    <tag k="addr:postcode" v="26736"/>
    <tag k="addr:housenumber" v="33"/>
    <tag k="tourism" v="chalet"/>
    <tag k="addr:street" v="Aalring "/>
    <tag k="website" v="Http://www.greetsiel-nordsee.org"/>
    <tag k="phone" v="+49 04926-926470"/>
  </node>
  <node id="-2813" version="0" timestamp="Fri Feb 24 10:53:34 +0100 2012" uid="1" user="" lat="53.502426" lon="7.0848073">
    <tag k="name" v="Landhaus Leuchtturm"/>
    <tag k="wheelchair" v="limited"/>
    <tag k="addr:city" v="Greetsiel"/>
    <tag k="addr:postcode" v="26736"/>
    <tag k="addr:housenumber" v="1"/>
    <tag k="tourism" v="chalet"/>
    <tag k="addr:street" v="Aalring"/>
    <tag k="wheelchair:description" v="1 Schlafzimmer und Bad+Wohnzimmer und Küche im EG"/>
    <tag k="website" v="http://www.greetsiel-nordsee.org"/>
    <tag k="phone" v="+49 04926 - 926470"/>
  </node>
  <node id="-2877" version="0" timestamp="Fri Feb 24 10:53:34 +0100 2012" uid="1" user="" lat="53.5052331" lon="7.0905268">
    <tag k="name" v="Ferienhaus Klönschnack"/>
    <tag k="wheelchair" v="limited"/>
    <tag k="addr:city" v="Greetsiel"/>
    <tag k="addr:postcode" v="26736"/>
    <tag k="addr:housenumber" v="2"/>
    <tag k="tourism" v="chalet"/>
    <tag k="addr:street" v="Baltrumer Weg "/>
    <tag k="wheelchair:description" v="Schlafzimmer, Bad, Küche Wohnzimmer im EG"/>
    <tag k="website" v="http://www.greetsiel-nordsee.org"/>
    <tag k="phone" v="04926926470"/>
  </node>
  <node id="-2911" version="0" timestamp="Fri Feb 24 10:53:34 +0100 2012" uid="1" user="" lat="53.499543" lon="7.054942">
    <tag k="name" v="NABU Vogelbeobachtungshütte"/>
    <tag k="wheelchair" v="yes"/>
    <tag k="tourism" v="viewpoint"/>
    <tag k="wheelchair:description" v="Schöne Ideen zur Barrierefreiheit"/>
    <tag k="website" v="http://niedersachsen.nabu.de/nabu/zentren/greetsiel/"/>
  </node>
  <node id="-3762" version="0" timestamp="Fri Feb 24 10:53:35 +0100 2012" uid="1" user="" lat="53.4673523" lon="7.4855916">
    <tag k="name" v="Polizei"/>
    <tag k="wheelchair" v="limited"/>
  </node>
</osm>
