<?xml version='1.0' encoding='UTF-8'?>
<osm version="0.6" generator="Osmosis 0.39">
  <node id="-780" version="0" timestamp="Fri Feb 24 10:53:32 +0100 2012" uid="1" user="" lat="53.36443" lon="10.19041">
    <tag k="shop" v="mall"/>
    <tag k="name" v="Famila"/>
    <tag k="wheelchair" v="yes"/>
  </node>
  <node id="-935" version="0" timestamp="Fri Feb 24 10:53:33 +0100 2012" uid="1" user="" lat="53.36198" lon="10.20341">
    <tag k="name" v="Brasserie am Schloss"/>
    <tag k="wheelchair" v="yes"/>
    <tag k="amenity" v="restaurant"/>
  </node>
  <node id="-2805" version="0" timestamp="Fri Feb 24 10:53:34 +0100 2012" uid="1" user="" lat="53.3508023" lon="9.8629027">
    <tag k="shop" v="electronics"/>
    <tag k="name" v="Media Markt"/>
    <tag k="wheelchair" v="yes"/>
    <tag k="addr:city" v="Buchholz in der Nordheide"/>
    <tag k="addr:postcode" v="21244"/>
    <tag k="addr:street" v="Nordring"/>
  </node>
  <node id="-3484" version="0" timestamp="Fri Feb 24 10:53:35 +0100 2012" uid="1" user="" lat="53.4271836" lon="10.0396894">
    <tag k="name" v="Reha Group Automotive"/>
    <tag k="wheelchair" v="yes"/>
    <tag k="addr:city" v="Seevetal"/>
    <tag k="addr:postcode" v="21217"/>
    <tag k="addr:housenumber" v="8c"/>
    <tag k="addr:street" v="Storchenweg"/>
    <tag k="wheelchair:description" v="hier werden Autos Barrierefrei gemacht!"/>
    <tag k="amenity" v="car_rental"/>
    <tag k="website" v="http://www.reha.com"/>
    <tag k="phone" v="(0)40 - 701033-0"/>
  </node>
  <node id="-3896" version="0" timestamp="Fri Feb 24 10:53:35 +0100 2012" uid="1" user="" lat="53.3248745" lon="9.8804528">
    <tag k="name" v="Smileys Pizzaservice"/>
    <tag k="wheelchair" v="yes"/>
    <tag k="addr:city" v="Buchholz i.d.N."/>
    <tag k="addr:postcode" v="21244"/>
    <tag k="addr:housenumber" v="16d"/>
    <tag k="addr:street" v="Bahnhofsstr."/>
    <tag k="wheelchair:description" v="Lieferservice mit Abholungsmöglichkeit"/>
    <tag k="amenity" v="fast_food"/>
    <tag k="website" v="http://www.smileys.de/smileys/17/index.htm"/>
    <tag k="phone" v="0049 4181 35252"/>
  </node>
  <node id="-3897" version="0" timestamp="Fri Feb 24 10:53:35 +0100 2012" uid="1" user="" lat="53.3835608" lon="9.9986122">
    <tag k="name" v="Bellandris Mattie"/>
    <tag k="wheelchair" v="unknown"/>
    <tag k="amenity" v="bank"/>
  </node>
  <node id="-3898" version="0" timestamp="Fri Feb 24 10:53:35 +0100 2012" uid="1" user="" lat="53.3835608" lon="9.9986122">
    <tag k="shop" v="garden_centre"/>
    <tag k="name" v="Bellandris Matthies – Mein Gartencenter  "/>
    <tag k="wheelchair" v="yes"/>
    <tag k="addr:city" v="Seevetal "/>
    <tag k="addr:postcode" v="21218"/>
    <tag k="addr:housenumber" v="8"/>
    <tag k="addr:street" v="An der Reitbahn"/>
    <tag k="website" v="http://garten-matthies.com/"/>
    <tag k="phone" v="0049 4105  6102 0 "/>
  </node>
</osm>
