<?xml version='1.0' encoding='UTF-8'?>
<osm version="0.6" generator="Osmosis 0.39">
  <node id="-405" version="0" timestamp="Fri Feb 24 10:53:32 +0100 2012" uid="1" user="" lat="53.2904461" lon="10.7313358">
    <tag k="name" v="Rathaus Bleckede"/>
    <tag k="wheelchair" v="limited"/>
    <tag k="addr:city" v="Bleckede"/>
    <tag k="addr:postcode" v="21354"/>
    <tag k="addr:housenumber" v="2 a"/>
    <tag k="addr:street" v="Lüneburger Straße"/>
    <tag k="wheelchair:description" v="Serviice-Büro und WC rollstuhlgerecht, Sitzungssaal nicht erreichbar"/>
    <tag k="website" v="http://www.bleckede.de"/>
    <tag k="phone" v="+49 5852- 977-0"/>
  </node>
  <node id="-1138" version="0" timestamp="Fri Feb 24 10:53:33 +0100 2012" uid="1" user="" lat="53.2600287" lon="10.8571715">
    <tag k="name" v="Landhaus Elbufer"/>
    <tag k="wheelchair" v="yes"/>
    <tag k="addr:city" v="Gülstorf / Amt Neuhaus"/>
    <tag k="addr:postcode" v="19273"/>
    <tag k="addr:housenumber" v="3"/>
    <tag k="tourism" v="hotel"/>
    <tag k="addr:street" v="Elbstrasse"/>
    <tag k="wheelchair:description" v="Zimmer teilweise mit Pflegebetten. Zimmer und Restaurant rollstuhlgerecht"/>
    <tag k="website" v="http://www.landhaus-elbufer.de"/>
    <tag k="phone" v="+49 38841 614-0"/>
  </node>
  <node id="-1176" version="0" timestamp="Fri Feb 24 10:53:33 +0100 2012" uid="1" user="" lat="53.260089" lon="10.8571767">
    <tag k="name" v="Landhaus Elbufer"/>
    <tag k="wheelchair" v="yes"/>
    <tag k="addr:city" v="Gülstorf"/>
    <tag k="addr:postcode" v="19273"/>
    <tag k="addr:housenumber" v="3"/>
    <tag k="tourism" v="hotel"/>
    <tag k="addr:street" v="Elbstrasse"/>
    <tag k="wheelchair:description" v="Hotel und Restaurant barrierefrei. Zimmer teilweise mit Pflegebetten."/>
    <tag k="website" v="http://www.landhaus-elbufer.de"/>
    <tag k="phone" v="+49 38841 614-0 "/>
  </node>
  <node id="-1245" version="0" timestamp="Fri Feb 24 10:53:33 +0100 2012" uid="1" user="" lat="53.2247289" lon="10.3936034">
    <tag k="name" v="Restaurant zur Hasenburg"/>
    <tag k="wheelchair" v="yes"/>
    <tag k="wheelchair:description" v="keine Rollstuhltoiletten"/>
    <tag k="amenity" v="restaurant"/>
  </node>
  <node id="-1246" version="0" timestamp="Fri Feb 24 10:53:33 +0100 2012" uid="1" user="" lat="53.2246947" lon="10.3936912">
    <tag k="name" v="Hotel zur Hasenburg"/>
    <tag k="wheelchair" v="no"/>
    <tag k="tourism" v="hotel"/>
  </node>
  <node id="-1247" version="0" timestamp="Fri Feb 24 10:53:33 +0100 2012" uid="1" user="" lat="53.2542321" lon="10.4161365">
    <tag k="name" v="Cinestar"/>
    <tag k="wheelchair" v="yes"/>
    <tag k="amenity" v="cinema"/>
  </node>
  <node id="-3884" version="0" timestamp="Fri Feb 24 10:53:35 +0100 2012" uid="1" user="" lat="53.2477337" lon="10.4100912">
    <tag k="shop" v="supermarket"/>
    <tag k="name" v="Budnikowski Drogeriemarkt"/>
    <tag k="wheelchair" v="limited"/>
    <tag k="addr:city" v="Lüneburg"/>
    <tag k="addr:postcode" v="21335"/>
    <tag k="addr:housenumber" v="50"/>
    <tag k="addr:street" v="Am Sande"/>
    <tag k="wheelchair:description" v="keine Stufe"/>
    <tag k="website" v="http://www.budni.de/filialen/21335-am-sande-50/"/>
    <tag k="phone" v="01805  28 36 48"/>
  </node>
  <node id="-4166" version="0" timestamp="Fri Feb 24 10:53:36 +0100 2012" uid="1" user="" lat="53.2479751" lon="10.3584032">
    <tag k="name" v="Alter Porthhof"/>
    <tag k="wheelchair" v="yes"/>
    <tag k="addr:city" v="Reppenstedt"/>
    <tag k="addr:postcode" v="21391"/>
    <tag k="addr:housenumber" v="10"/>
    <tag k="addr:street" v="Lüneburger Landstraße"/>
    <tag k="amenity" v="restaurant"/>
    <tag k="website" v="http://www.alter-porthhof.de/"/>
    <tag k="phone" v="+49 4131 684441"/>
  </node>
</osm>
