<?xml version='1.0' encoding='UTF-8'?>
<osm version="0.6" generator="Osmosis 0.39">
  <node id="-493" version="0" timestamp="Fri Feb 24 10:53:32 +0100 2012" uid="1" user="" lat="53.8616527" lon="8.7051029">
    <tag k="shop" v="department_store"/>
    <tag k="name" v="Real SB-Warenhaus"/>
    <tag k="wheelchair" v="yes"/>
    <tag k="addr:city" v="Cuxhaven"/>
    <tag k="addr:postcode" v="27472"/>
    <tag k="addr:housenumber" v="2"/>
    <tag k="addr:street" v="Konrad-Adenauer-Allee"/>
  </node>
  <node id="-494" version="0" timestamp="Fri Feb 24 10:53:32 +0100 2012" uid="1" user="" lat="53.863519" lon="8.702849">
    <tag k="name" v="Jobcenter Cuxhaven"/>
    <tag k="wheelchair" v="yes"/>
    <tag k="addr:city" v="Cuxhaven"/>
    <tag k="addr:postcode" v="27472"/>
    <tag k="addr:housenumber" v="1"/>
    <tag k="addr:street" v="Konrad-Adenauer-Allee"/>
  </node>
  <node id="-704" version="0" timestamp="Fri Feb 24 10:53:32 +0100 2012" uid="1" user="" lat="53.8066047" lon="8.8924711">
    <tag k="shop" v="department_store"/>
    <tag k="name" v="Kiebietzmarkt"/>
    <tag k="wheelchair" v="yes"/>
    <tag k="addr:city" v="Otterndorf"/>
    <tag k="addr:postcode" v="21762"/>
    <tag k="addr:housenumber" v="25"/>
    <tag k="addr:street" v="Cuxhavener Straße"/>
    <tag k="website" v="http://www.kiebitz-cadenberge.de/"/>
    <tag k="phone" v="+49 4751 911501"/>
  </node>
  <node id="-705" version="0" timestamp="Fri Feb 24 10:53:32 +0100 2012" uid="1" user="" lat="53.807407" lon="8.9059202">
    <tag k="shop" v="supermarket"/>
    <tag k="name" v="Marktkauf"/>
    <tag k="wheelchair" v="yes"/>
    <tag k="addr:city" v="Otterndorf"/>
    <tag k="addr:postcode" v="21762"/>
    <tag k="addr:housenumber" v="47"/>
    <tag k="addr:street" v="Marktstraße"/>
    <tag k="phone" v="+49 4751 918-0"/>
  </node>
  <node id="-706" version="0" timestamp="Fri Feb 24 10:53:32 +0100 2012" uid="1" user="" lat="53.8102641" lon="8.913013">
    <tag k="shop" v="supermarket"/>
    <tag k="name" v="Penny Markt"/>
    <tag k="wheelchair" v="yes"/>
    <tag k="addr:city" v="Otterndorf"/>
    <tag k="addr:postcode" v="21762"/>
    <tag k="addr:housenumber" v="71"/>
    <tag k="addr:street" v="Stader Straße"/>
  </node>
  <node id="-1539" version="0" timestamp="Fri Feb 24 10:53:33 +0100 2012" uid="1" user="" lat="53.7356535" lon="8.62546">
    <tag k="name" v="Ferienhaus Klein-Eden"/>
    <tag k="wheelchair" v="yes"/>
    <tag k="addr:city" v="Midlum"/>
    <tag k="addr:postcode" v="27632"/>
    <tag k="addr:housenumber" v="11"/>
    <tag k="tourism" v="guest_house"/>
    <tag k="addr:street" v="Am Lilienberg"/>
    <tag k="wheelchair:description" v="Für Rollstuhlfahrer alles ebenerdig, unterfahrbare Spüle, unterfahrbarer E-Herd höher gesetzter Backofen und Kühlschrank, komplette  behindertengerechtes Besteck etc., breite Türen"/>
    <tag k="website" v="http://www.klein-eden.de"/>
    <tag k="phone" v="+49 4741 180637"/>
  </node>
  <node id="-4107" version="0" timestamp="Fri Feb 24 10:53:36 +0100 2012" uid="1" user="" lat="53.6874747" lon="8.5744191">
    <tag k="name" v="Ferienhaus Gudrun"/>
    <tag k="wheelchair" v="yes"/>
    <tag k="addr:city" v="Dorum"/>
    <tag k="addr:postcode" v="27632"/>
    <tag k="addr:housenumber" v="39"/>
    <tag k="tourism" v="chalet"/>
    <tag k="addr:street" v="Kormoranweg "/>
    <tag k="wheelchair:description" v="barrierefreie Ferienunterkunft"/>
    <tag k="website" v="http://www.dorum-ferienhaus.de"/>
  </node>
  <node id="-5159" version="0" timestamp="Fri Feb 24 10:53:37 +0100 2012" uid="1" user="" lat="53.8865612" lon="8.6419489">
    <tag k="natural" v="beach"/>
    <tag k="name" v="Duhner Strand"/>
    <tag k="wheelchair" v="limited"/>
    <tag k="wheelchair:description" v="Rolli-geeignete Strandzufahrt"/>
  </node>
</osm>
