<?xml version='1.0' encoding='UTF-8'?>
<osm version="0.6" generator="Osmosis 0.39">
  <node id="-245" version="0" timestamp="Fri Feb 24 10:53:32 +0100 2012" uid="1" user="" lat="51.8702628" lon="10.0277553">
    <tag k="name" v="Rolli Parkplatz"/>
    <tag k="wheelchair" v="yes"/>
    <tag k="amenity" v="parking"/>
  </node>
  <node id="-2340" version="0" timestamp="Fri Feb 24 10:53:34 +0100 2012" uid="1" user="" lat="51.8190673" lon="9.8674759">
    <tag k="name" v="Anno 2006"/>
    <tag k="wheelchair" v="no"/>
    <tag k="addr:city" v="Einbeck"/>
    <tag k="addr:postcode" v="37574"/>
    <tag k="addr:street" v="Münsterstr."/>
    <tag k="wheelchair:description" v="keine Rampe, Stufen beim Eingang"/>
    <tag k="amenity" v="pub"/>
  </node>
  <node id="-2341" version="0" timestamp="Fri Feb 24 10:53:34 +0100 2012" uid="1" user="" lat="51.8182195" lon="9.8690057">
    <tag k="name" v="Soda Club"/>
    <tag k="wheelchair" v="no"/>
    <tag k="addr:city" v="Einbeck"/>
    <tag k="addr:postcode" v="37574"/>
    <tag k="addr:housenumber" v="9-11"/>
    <tag k="addr:street" v="Lange Brücke"/>
    <tag k="wheelchair:description" v="Stufen im Eingangsbereich"/>
    <tag k="amenity" v="nightclub"/>
  </node>
  <node id="-2345" version="0" timestamp="Fri Feb 24 10:53:34 +0100 2012" uid="1" user="" lat="51.7923122" lon="9.9765231">
    <tag k="name" v="Disco M1"/>
    <tag k="wheelchair" v="no"/>
    <tag k="addr:city" v="Kreiensen"/>
    <tag k="addr:postcode" v="37547"/>
    <tag k="addr:housenumber" v="22"/>
    <tag k="addr:street" v="Ahlshäuser Endestraße"/>
    <tag k="wheelchair:description" v="Stufen im Eingangsbereich"/>
    <tag k="amenity" v="nightclub"/>
  </node>
  <node id="-2452" version="0" timestamp="Fri Feb 24 10:53:34 +0100 2012" uid="1" user="" lat="51.8142369" lon="9.875448">
    <tag k="shop" v="electronics"/>
    <tag k="name" v="EURONICS XXL"/>
    <tag k="wheelchair" v="yes"/>
    <tag k="addr:city" v="Einbeck"/>
    <tag k="addr:postcode" v="37574"/>
    <tag k="addr:housenumber" v="20"/>
    <tag k="addr:street" v="Altendorfer Tor "/>
  </node>
  <node id="-2453" version="0" timestamp="Fri Feb 24 10:53:34 +0100 2012" uid="1" user="" lat="51.8163054" lon="9.8743011">
    <tag k="shop" v="supermarket"/>
    <tag k="name" v="Lidl"/>
    <tag k="wheelchair" v="yes"/>
    <tag k="addr:city" v="Einbeck"/>
    <tag k="addr:postcode" v="37574"/>
    <tag k="addr:housenumber" v="22-24"/>
    <tag k="addr:street" v="Grimsehlstr."/>
  </node>
  <node id="-2455" version="0" timestamp="Fri Feb 24 10:53:34 +0100 2012" uid="1" user="" lat="51.8137511" lon="9.8754502">
    <tag k="shop" v="furniture"/>
    <tag k="name" v="Dänisches Bettenlager"/>
    <tag k="wheelchair" v="yes"/>
    <tag k="addr:city" v="Einbeck"/>
    <tag k="addr:postcode" v="37574"/>
    <tag k="addr:housenumber" v="16"/>
    <tag k="addr:street" v="Altendorfer Tor"/>
  </node>
  <node id="-2456" version="0" timestamp="Fri Feb 24 10:53:34 +0100 2012" uid="1" user="" lat="51.8141698" lon="9.8749078">
    <tag k="shop" v="shoes"/>
    <tag k="name" v="Deichmann"/>
    <tag k="wheelchair" v="yes"/>
    <tag k="addr:city" v="Einbeck"/>
    <tag k="addr:postcode" v="37574"/>
    <tag k="addr:housenumber" v="16 a"/>
    <tag k="addr:street" v="Altendorfer Tor"/>
  </node>
  <node id="-2457" version="0" timestamp="Fri Feb 24 10:53:34 +0100 2012" uid="1" user="" lat="51.8142496" lon="9.874674">
    <tag k="shop" v="clothes"/>
    <tag k="name" v="Charles Vögele"/>
    <tag k="wheelchair" v="yes"/>
    <tag k="addr:city" v="Einbeck"/>
    <tag k="addr:postcode" v="37574"/>
    <tag k="addr:housenumber" v="16"/>
    <tag k="addr:street" v="Altendorfer Tor"/>
  </node>
  <node id="-2458" version="0" timestamp="Fri Feb 24 10:53:34 +0100 2012" uid="1" user="" lat="51.6912737" lon="9.9863304">
    <tag k="shop" v="furniture"/>
    <tag k="name" v="Möbel Bäucke"/>
    <tag k="wheelchair" v="yes"/>
    <tag k="addr:city" v="Northeim"/>
    <tag k="addr:postcode" v="37154"/>
    <tag k="addr:housenumber" v="1"/>
    <tag k="addr:street" v="Über dem Hellewege"/>
  </node>
  <node id="-4031" version="0" timestamp="Fri Feb 24 10:53:36 +0100 2012" uid="1" user="" lat="51.6999521" lon="9.9874231">
    <tag k="shop" v="department_store"/>
    <tag k="name" v="Citylights Werbung + Medien - Druck, Copy, Foto"/>
    <tag k="wheelchair" v="yes"/>
    <tag k="addr:city" v="Northeim"/>
    <tag k="addr:postcode" v="37154"/>
    <tag k="addr:housenumber" v="11a"/>
    <tag k="addr:street" v="Güterbahnhofstrasse"/>
    <tag k="website" v="http://www.citylights-medien.de"/>
    <tag k="phone" v="+49 5551 914130"/>
  </node>
  <node id="-5609" version="0" timestamp="Fri Feb 24 10:53:37 +0100 2012" uid="1" user="" lat="51.70747" lon="10.00068">
    <tag k="shop" v="hearing_aids"/>
    <tag k="name" v="Hörgeräteakustik Obrikat"/>
    <tag k="wheelchair" v="yes"/>
    <tag k="addr:city" v="Northeim"/>
    <tag k="addr:postcode" v="37154"/>
    <tag k="addr:housenumber" v="12"/>
    <tag k="addr:street" v="Mühlenstraße"/>
    <tag k="wheelchair:description" v="Keine Toilette, aber barrierefreie Zugänglichkeit"/>
    <tag k="website" v="http://www.hoergeraete-obrikat.de/front_content.php"/>
    <tag k="phone" v="05551 - 9140914"/>
  </node>
  <node id="-5610" version="0" timestamp="Fri Feb 24 10:53:37 +0100 2012" uid="1" user="" lat="51.7074" lon="9.99997">
    <tag k="shop" v="medical_supply"/>
    <tag k="name" v="Sanitätshaus O.R.T."/>
    <tag k="wheelchair" v="yes"/>
    <tag k="addr:city" v="Northeim"/>
    <tag k="addr:postcode" v="37154"/>
    <tag k="addr:housenumber" v="09"/>
    <tag k="addr:street" v="Mühlenstraße"/>
    <tag k="website" v="http://www.o-r-t.de/htm/de/html/UnternehmenNortheim.html"/>
    <tag k="phone" v="05551/ 908770 - 0"/>
  </node>
</osm>
