<?xml version='1.0' encoding='UTF-8'?>
<osm version="0.6" generator="Osmosis 0.39">
  <node id="-318" version="0" timestamp="Fri Feb 24 10:53:32 +0100 2012" uid="1" user="" lat="53.4737076" lon="9.6956141">
    <tag k="shop" v="department_store"/>
    <tag k="name" v="Sanitätshaus Orthopädie Service GmbH"/>
    <tag k="wheelchair" v="yes"/>
    <tag k="addr:city" v="Buxtehude"/>
    <tag k="addr:postcode" v="21614"/>
    <tag k="addr:housenumber" v="9"/>
    <tag k="addr:street" v="Bahnhofstrasse "/>
    <tag k="website" v="http://www.ot-service.de"/>
    <tag k="phone" v="04161-597759"/>
  </node>
  <node id="-319" version="0" timestamp="Fri Feb 24 10:53:32 +0100 2012" uid="1" user="" lat="53.4614931" lon="9.6762881">
    <tag k="shop" v="department_store"/>
    <tag k="name" v="Sanitätshaus Orthopädie Service GmbH"/>
    <tag k="wheelchair" v="yes"/>
    <tag k="addr:city" v="Buxtehude"/>
    <tag k="addr:postcode" v="21614"/>
    <tag k="addr:housenumber" v="1a"/>
    <tag k="addr:street" v="Am Krankenhaus"/>
    <tag k="website" v="http://www.ot-service.de"/>
    <tag k="phone" v="04161-995622"/>
  </node>
  <node id="-495" version="0" timestamp="Fri Feb 24 10:53:32 +0100 2012" uid="1" user="" lat="53.476" lon="9.69724">
    <tag k="shop" v="clothes"/>
    <tag k="name" v="K-Melion Bekleidungskultur"/>
    <tag k="wheelchair" v="limited"/>
    <tag k="addr:city" v="Buxtehude"/>
    <tag k="addr:postcode" v="21614"/>
    <tag k="addr:housenumber" v="27"/>
    <tag k="addr:street" v="Lange Str."/>
    <tag k="wheelchair:description" v="Klamotten für die Jungs sind im oberen Bereich zu finden (Treppe), aber die Mitarbeiter sind supernett und helfen gern!"/>
  </node>
  <node id="-625" version="0" timestamp="Fri Feb 24 10:53:32 +0100 2012" uid="1" user="" lat="53.48163" lon="9.69562">
    <tag k="shop" v="mall"/>
    <tag k="name" v="REWE"/>
    <tag k="wheelchair" v="yes"/>
  </node>
  <node id="-1087" version="0" timestamp="Fri Feb 24 10:53:33 +0100 2012" uid="1" user="" lat="53.5028076" lon="9.7270741">
    <tag k="name" v="Rechtsanwalt Au"/>
    <tag k="wheelchair" v="yes"/>
    <tag k="addr:city" v="Jork"/>
    <tag k="addr:postcode" v="21635"/>
    <tag k="addr:housenumber" v="68a"/>
    <tag k="addr:street" v="Buxtehuder Straße"/>
    <tag k="website" v="http://www.rechtsanwalt-au.de"/>
  </node>
  <node id="-1101" version="0" timestamp="Fri Feb 24 10:53:33 +0100 2012" uid="1" user="" lat="53.47468" lon="9.69803">
    <tag k="name" v="Dr.Schubert (Diabetologe)"/>
    <tag k="wheelchair" v="yes"/>
    <tag k="addr:city" v="Buxtehude"/>
    <tag k="addr:postcode" v="21614"/>
    <tag k="addr:housenumber" v="11"/>
    <tag k="addr:street" v="Bleicherstraße "/>
    <tag k="amenity" v="doctors"/>
    <tag k="website" v="http://www.docschubert.de/"/>
    <tag k="phone" v="04161.503 97 - 0"/>
  </node>
  <node id="-1103" version="0" timestamp="Fri Feb 24 10:53:33 +0100 2012" uid="1" user="" lat="53.4736322" lon="9.6953226">
    <tag k="name" v="Praxis  P.Beckmann &amp; Dr. Chr.Schuhmacher"/>
    <tag k="wheelchair" v="limited"/>
    <tag k="addr:city" v="Buxtehude"/>
    <tag k="addr:postcode" v="21614"/>
    <tag k="addr:housenumber" v="11"/>
    <tag k="addr:street" v="Bahnhofstraße"/>
    <tag k="wheelchair:description" v="kein Rolli WC"/>
    <tag k="amenity" v="doctors"/>
    <tag k="phone" v="04161 52222"/>
  </node>
  <node id="-1105" version="0" timestamp="Fri Feb 24 10:53:33 +0100 2012" uid="1" user="" lat="53.4742592" lon="9.6956459">
    <tag k="name" v="Stadtvervaltung Buxtehude"/>
    <tag k="wheelchair" v="yes"/>
    <tag k="addr:city" v="B"/>
    <tag k="addr:postcode" v="21614"/>
    <tag k="addr:housenumber" v="7"/>
    <tag k="addr:street" v="Bahnhofstraße"/>
    <tag k="phone" v="04161 501-0"/>
  </node>
  <node id="-1107" version="0" timestamp="Fri Feb 24 10:53:33 +0100 2012" uid="1" user="" lat="53.4742382" lon="9.698372">
    <tag k="name" v="Dr.Schubert (Diabetologe)"/>
    <tag k="wheelchair" v="yes"/>
    <tag k="addr:city" v="Buxtehude"/>
    <tag k="addr:postcode" v="21614"/>
    <tag k="addr:housenumber" v="11"/>
    <tag k="addr:street" v="Bleicherstraße "/>
    <tag k="amenity" v="doctors"/>
    <tag k="website" v="http://www.docschubert.de/"/>
    <tag k="phone" v="04161.503 97 - 0"/>
  </node>
  <node id="-1108" version="0" timestamp="Fri Feb 24 10:53:33 +0100 2012" uid="1" user="" lat="53.4736407" lon="9.6973137">
    <tag k="name" v="V.Großenbacher, C.Großenbacher-Dörlitz (Zahnärzte)"/>
    <tag k="wheelchair" v="yes"/>
    <tag k="addr:city" v="Buxtehude"/>
    <tag k="addr:postcode" v="21614"/>
    <tag k="addr:housenumber" v="2"/>
    <tag k="addr:street" v="Poststraße"/>
    <tag k="amenity" v="doctors"/>
    <tag k="phone" v="04161 512233"/>
  </node>
  <node id="-1110" version="0" timestamp="Fri Feb 24 10:53:33 +0100 2012" uid="1" user="" lat="53.4728623" lon="9.6983922">
    <tag k="name" v="Polizei"/>
    <tag k="wheelchair" v="no"/>
    <tag k="addr:city" v="Buxtehude"/>
    <tag k="addr:postcode" v="21614"/>
    <tag k="addr:housenumber" v="1"/>
    <tag k="addr:street" v="Grothe-Marie-Str."/>
    <tag k="phone" v="im Notfall 110     oder sonst 04161 6470"/>
  </node>
  <node id="-1111" version="0" timestamp="Fri Feb 24 10:53:33 +0100 2012" uid="1" user="" lat="53.4772733" lon="9.7011971">
    <tag k="name" v="St. Petri Kiche"/>
    <tag k="wheelchair" v="yes"/>
    <tag k="addr:city" v="Buxtehude"/>
    <tag k="addr:postcode" v="21614"/>
    <tag k="addr:street" v="Petriplatz"/>
    <tag k="wheelchair:description" v="nur zu den Öffnungszeiten zugänglich"/>
    <tag k="amenity" v="toilets"/>
  </node>
  <node id="-1112" version="0" timestamp="Fri Feb 24 10:53:33 +0100 2012" uid="1" user="" lat="53.4620689" lon="9.6755698">
    <tag k="name" v="Elbe Klinik Buxtehude"/>
    <tag k="wheelchair" v="yes"/>
    <tag k="addr:housenumber" v="1"/>
    <tag k="addr:street" v="Am Krankenhaus"/>
    <tag k="wheelchair:description" v="24h 7Tage die Woche zugänglich"/>
    <tag k="amenity" v="toilets"/>
  </node>
  <node id="-1113" version="0" timestamp="Fri Feb 24 10:53:33 +0100 2012" uid="1" user="" lat="53.4742539" lon="9.6956825">
    <tag k="name" v="Stadtverwaltung Buxtehude"/>
    <tag k="wheelchair" v="yes"/>
    <tag k="addr:city" v="Buxtehude"/>
    <tag k="addr:postcode" v="21614"/>
    <tag k="addr:housenumber" v="7"/>
    <tag k="addr:street" v="Bahnhofstraße"/>
    <tag k="wheelchair:description" v="nur zu den Öffnungszeiten zugänglich"/>
    <tag k="amenity" v="toilets"/>
  </node>
  <node id="-1118" version="0" timestamp="Fri Feb 24 10:53:33 +0100 2012" uid="1" user="" lat="53.4742254" lon="9.6983506">
    <tag k="name" v="Dr.Schubert (Diabetologe)"/>
    <tag k="wheelchair" v="yes"/>
    <tag k="addr:city" v="Buxtehude"/>
    <tag k="addr:postcode" v="21614"/>
    <tag k="addr:housenumber" v="11"/>
    <tag k="addr:street" v="Bleicherstraße "/>
    <tag k="amenity" v="doctors"/>
    <tag k="website" v="http://www.docschubert.de/"/>
    <tag k="phone" v="04161.503 97 - 0"/>
  </node>
  <node id="-1119" version="0" timestamp="Fri Feb 24 10:53:33 +0100 2012" uid="1" user="" lat="53.4742656" lon="9.6956567">
    <tag k="name" v="Stadtvervaltung Buxtehude"/>
    <tag k="wheelchair" v="yes"/>
    <tag k="addr:city" v="Buxtehude"/>
    <tag k="addr:postcode" v="21614"/>
    <tag k="addr:housenumber" v="7"/>
    <tag k="addr:street" v="Bahnhofstraße"/>
    <tag k="website" v="http://www.buxtehude.de/"/>
    <tag k="phone" v="04161 501-0"/>
  </node>
  <node id="-1120" version="0" timestamp="Fri Feb 24 10:53:33 +0100 2012" uid="1" user="" lat="53.4736418" lon="9.6953226">
    <tag k="name" v="Praxis  P.Beckmann &amp; Dr. Chr.Schuhmacher"/>
    <tag k="wheelchair" v="limited"/>
    <tag k="addr:city" v="Buxtehude"/>
    <tag k="addr:postcode" v="21614"/>
    <tag k="addr:housenumber" v="11"/>
    <tag k="addr:street" v="Bahnhofstraße"/>
    <tag k="wheelchair:description" v="kein Rolli WC"/>
    <tag k="amenity" v="doctors"/>
    <tag k="phone" v="04161 52222"/>
  </node>
  <node id="-1236" version="0" timestamp="Fri Feb 24 10:53:33 +0100 2012" uid="1" user="" lat="53.4779684" lon="9.7020109">
    <tag k="name" v="Kulturforum am Hafen e.V."/>
    <tag k="wheelchair" v="yes"/>
    <tag k="addr:city" v="Buxtehude"/>
    <tag k="addr:postcode" v="21614"/>
    <tag k="addr:housenumber" v="1"/>
    <tag k="addr:street" v="Hafenbrücke"/>
    <tag k="amenity" v="gallery"/>
    <tag k="website" v="http://www.kulturforum-hafen.de"/>
    <tag k="phone" v="04161 - 502556"/>
  </node>
  <node id="-1237" version="0" timestamp="Fri Feb 24 10:53:33 +0100 2012" uid="1" user="" lat="53.4767616" lon="9.695726">
    <tag k="name" v="Dr. J. Maaß &amp; Dr. T. Berg (HNO)"/>
    <tag k="wheelchair" v="limited"/>
    <tag k="addr:city" v="Buxtehude"/>
    <tag k="addr:postcode" v="21614"/>
    <tag k="addr:housenumber" v="4"/>
    <tag k="addr:street" v="Hosaeusweg"/>
    <tag k="wheelchair:description" v="stufenlos erreichbar aber kein Rolli WC"/>
    <tag k="amenity" v="doctors"/>
    <tag k="phone" v="04161 3310"/>
  </node>
  <node id="-1238" version="0" timestamp="Fri Feb 24 10:53:33 +0100 2012" uid="1" user="" lat="53.4613896" lon="9.6764148">
    <tag k="name" v="Dialyse Buxtehude Liane Arndt Hypertensiologin (DHL) Dr.med. Wiebke Meyer"/>
    <tag k="wheelchair" v="yes"/>
    <tag k="addr:city" v="Buxtehude"/>
    <tag k="addr:postcode" v="21614"/>
    <tag k="addr:housenumber" v="1a"/>
    <tag k="addr:street" v="Am Krankenhaus"/>
    <tag k="amenity" v="doctors"/>
    <tag k="website" v="http://www.dialyse-buxtehude.de"/>
    <tag k="phone" v="04161/500202"/>
  </node>
  <node id="-1239" version="0" timestamp="Fri Feb 24 10:53:33 +0100 2012" uid="1" user="" lat="53.461374" lon="9.6762222">
    <tag k="name" v="Joachim Draewe (Orthopäde)"/>
    <tag k="wheelchair" v="yes"/>
    <tag k="addr:city" v="Buxtehude"/>
    <tag k="addr:postcode" v="21614"/>
    <tag k="addr:housenumber" v="1a"/>
    <tag k="addr:street" v="Am Krankenhaus"/>
    <tag k="amenity" v="doctors"/>
    <tag k="phone" v="04161/99505"/>
  </node>
  <node id="-1240" version="0" timestamp="Fri Feb 24 10:53:33 +0100 2012" uid="1" user="" lat="53.4612582" lon="9.676338">
    <tag k="name" v="Dr. H.Hollberg &amp; Dr. Th.Dill"/>
    <tag k="wheelchair" v="yes"/>
    <tag k="addr:city" v="Buxtehude"/>
    <tag k="addr:postcode" v="21614"/>
    <tag k="addr:housenumber" v="1a"/>
    <tag k="addr:street" v="Am Krankenhaus"/>
    <tag k="amenity" v="doctors"/>
    <tag k="phone" v="04161/513213"/>
  </node>
  <node id="-1242" version="0" timestamp="Fri Feb 24 10:53:33 +0100 2012" uid="1" user="" lat="53.461276" lon="9.6761093">
    <tag k="name" v="Dr. med.  Ulrich Oberländer (Neurologe)"/>
    <tag k="wheelchair" v="yes"/>
    <tag k="addr:city" v="Buxtehude"/>
    <tag k="addr:postcode" v="21614"/>
    <tag k="addr:housenumber" v="1a"/>
    <tag k="addr:street" v="Am Krankenhaus"/>
    <tag k="amenity" v="doctors"/>
    <tag k="phone" v="04161 52028"/>
  </node>
  <node id="-1689" version="0" timestamp="Fri Feb 24 10:53:33 +0100 2012" uid="1" user="" lat="53.47676" lon="9.6997">
    <tag k="shop" v="optician"/>
    <tag k="name" v="blickwinkel.optik"/>
    <tag k="wheelchair" v="yes"/>
    <tag k="addr:city" v="Buxtehude"/>
    <tag k="addr:postcode" v="21614"/>
    <tag k="addr:housenumber" v="7"/>
    <tag k="addr:street" v="Breite Straße"/>
    <tag k="website" v="http://www.blickwinkeloptik.de"/>
    <tag k="phone" v="04161-997174"/>
  </node>
  <node id="-4221" version="0" timestamp="Fri Feb 24 10:53:36 +0100 2012" uid="1" user="" lat="53.4704219" lon="9.6711869">
    <tag k="name" v="Diskothek Garage Buxtehude"/>
    <tag k="wheelchair" v="limited"/>
    <tag k="addr:city" v="Buxtehude"/>
    <tag k="addr:postcode" v="21614"/>
    <tag k="addr:housenumber" v="2"/>
    <tag k="addr:street" v="Westende"/>
    <tag k="wheelchair:description" v="Alle Räume sind ohne Stufen zu erreichen. Es gibt KEIN extra Rolli WC!"/>
    <tag k="amenity" v="bar"/>
    <tag k="website" v="http://www.garage-Buxtehude.de"/>
    <tag k="phone" v="+49 4161 540 194"/>
  </node>
  <node id="-4253" version="0" timestamp="Fri Feb 24 10:53:36 +0100 2012" uid="1" user="" lat="53.4699238" lon="9.6865761">
    <tag k="shop" v="department_store"/>
    <tag k="name" v="Futterhaus - Tiernahrung"/>
    <tag k="wheelchair" v="limited"/>
  </node>
  <node id="-4254" version="0" timestamp="Fri Feb 24 10:53:36 +0100 2012" uid="1" user="" lat="53.4685675" lon="9.6855093">
    <tag k="shop" v="video"/>
    <tag k="name" v="Videothek Videoring"/>
    <tag k="wheelchair" v="limited"/>
  </node>
  <node id="-4255" version="0" timestamp="Fri Feb 24 10:53:36 +0100 2012" uid="1" user="" lat="53.4766996" lon="9.697837">
    <tag k="shop" v="video"/>
    <tag k="name" v="Videothek Moviestar"/>
    <tag k="wheelchair" v="limited"/>
  </node>
  <node id="-4256" version="0" timestamp="Fri Feb 24 10:53:36 +0100 2012" uid="1" user="" lat="53.4670261" lon="9.6890893">
    <tag k="name" v="Sparkasse"/>
    <tag k="wheelchair" v="limited"/>
    <tag k="amenity" v="bank"/>
  </node>
  <node id="-4257" version="0" timestamp="Fri Feb 24 10:53:36 +0100 2012" uid="1" user="" lat="53.4667629" lon="9.6892971">
    <tag k="shop" v="bakery"/>
    <tag k="name" v="Bäker"/>
    <tag k="wheelchair" v="limited"/>
  </node>
  <node id="-4258" version="0" timestamp="Fri Feb 24 10:53:36 +0100 2012" uid="1" user="" lat="53.46462" lon="9.69021">
    <tag k="shop" v="car_repair"/>
    <tag k="name" v="Autohaus AUDI"/>
    <tag k="wheelchair" v="limited"/>
  </node>
  <node id="-4259" version="0" timestamp="Fri Feb 24 10:53:36 +0100 2012" uid="1" user="" lat="53.4702398" lon="9.6716973">
    <tag k="shop" v="car_repair"/>
    <tag k="name" v="Autohaus VW"/>
    <tag k="wheelchair" v="limited"/>
  </node>
  <node id="-4260" version="0" timestamp="Fri Feb 24 10:53:36 +0100 2012" uid="1" user="" lat="53.4499544" lon="9.751161">
    <tag k="name" v="Music Stage Veranstaltungstechnik"/>
    <tag k="wheelchair" v="limited"/>
    <tag k="office" v="company"/>
  </node>
  <node id="-4261" version="0" timestamp="Fri Feb 24 10:53:36 +0100 2012" uid="1" user="" lat="53.469105" lon="9.6879498">
    <tag k="name" v="China Palace"/>
    <tag k="wheelchair" v="limited"/>
    <tag k="amenity" v="restaurant"/>
  </node>
  <node id="-4262" version="0" timestamp="Fri Feb 24 10:53:36 +0100 2012" uid="1" user="" lat="53.4694456" lon="9.688075">
    <tag k="shop" v="bakery"/>
    <tag k="name" v="Bäker"/>
    <tag k="wheelchair" v="limited"/>
  </node>
  <node id="-4263" version="0" timestamp="Fri Feb 24 10:53:36 +0100 2012" uid="1" user="" lat="53.4676145" lon="9.6889362">
    <tag k="name" v="Fahrschule"/>
    <tag k="wheelchair" v="no"/>
    <tag k="amenity" v="school"/>
  </node>
  <node id="-4264" version="0" timestamp="Fri Feb 24 10:53:36 +0100 2012" uid="1" user="" lat="53.4677629" lon="9.684664">
    <tag k="shop" v="kiosk"/>
    <tag k="name" v="Kiosk"/>
    <tag k="wheelchair" v="limited"/>
  </node>
  <node id="-4265" version="0" timestamp="Fri Feb 24 10:53:36 +0100 2012" uid="1" user="" lat="53.4673066" lon="9.6889408">
    <tag k="name" v="LVM Versicherung"/>
    <tag k="wheelchair" v="limited"/>
    <tag k="office" v="company"/>
  </node>
  <node id="-4266" version="0" timestamp="Fri Feb 24 10:53:36 +0100 2012" uid="1" user="" lat="53.4644393" lon="9.6681248">
    <tag k="name" v="Wachtel Imbiss"/>
    <tag k="wheelchair" v="limited"/>
    <tag k="amenity" v="fast_food"/>
  </node>
  <node id="-4267" version="0" timestamp="Fri Feb 24 10:53:36 +0100 2012" uid="1" user="" lat="53.4750827" lon="9.6983714">
    <tag k="shop" v="hairdresser"/>
    <tag k="name" v="Salon Bauer"/>
    <tag k="wheelchair" v="limited"/>
  </node>
  <node id="-4268" version="0" timestamp="Fri Feb 24 10:53:36 +0100 2012" uid="1" user="" lat="53.4736465" lon="9.6870422">
    <tag k="name" v="Buxtehuder Tanzschule"/>
    <tag k="wheelchair" v="limited"/>
    <tag k="amenity" v="school"/>
  </node>
  <node id="-4269" version="0" timestamp="Fri Feb 24 10:53:36 +0100 2012" uid="1" user="" lat="53.472527" lon="9.7151108">
    <tag k="shop" v="doityourself"/>
    <tag k="name" v="toom Baumarkt"/>
    <tag k="wheelchair" v="limited"/>
  </node>
  <node id="-4270" version="0" timestamp="Fri Feb 24 10:53:36 +0100 2012" uid="1" user="" lat="53.4674952" lon="9.7189769">
    <tag k="shop" v="doityourself"/>
    <tag k="name" v="toom Baumarkt"/>
    <tag k="wheelchair" v="limited"/>
  </node>
  <node id="-4271" version="0" timestamp="Fri Feb 24 10:53:36 +0100 2012" uid="1" user="" lat="53.4670229" lon="9.7200519">
    <tag k="name" v="A&amp;S Wasserbetten"/>
    <tag k="wheelchair" v="limited"/>
    <tag k="office" v="company"/>
  </node>
  <node id="-4272" version="0" timestamp="Fri Feb 24 10:53:36 +0100 2012" uid="1" user="" lat="53.4661777" lon="9.7200225">
    <tag k="shop" v="electronics"/>
    <tag k="name" v="expert Behning Elektrofachhandel"/>
    <tag k="wheelchair" v="limited"/>
  </node>
  <node id="-4273" version="0" timestamp="Fri Feb 24 10:53:36 +0100 2012" uid="1" user="" lat="53.4658553" lon="9.722321">
    <tag k="name" v="JET Tankstelle"/>
    <tag k="wheelchair" v="limited"/>
    <tag k="amenity" v="fuel"/>
  </node>
  <node id="-4274" version="0" timestamp="Fri Feb 24 10:53:36 +0100 2012" uid="1" user="" lat="53.4662824" lon="9.7219377">
    <tag k="shop" v="car_repair"/>
    <tag k="name" v="Skoda Autohaus"/>
    <tag k="wheelchair" v="limited"/>
  </node>
  <node id="-4275" version="0" timestamp="Fri Feb 24 10:53:36 +0100 2012" uid="1" user="" lat="53.4625251" lon="9.7172424">
    <tag k="shop" v="doityourself"/>
    <tag k="name" v="Baustoff Hasselbrink"/>
    <tag k="wheelchair" v="limited"/>
  </node>
  <node id="-4276" version="0" timestamp="Fri Feb 24 10:53:36 +0100 2012" uid="1" user="" lat="53.4625354" lon="9.6967988">
    <tag k="shop" v="car_repair"/>
    <tag k="name" v="Mercedes Autohaus Tesmer"/>
    <tag k="wheelchair" v="limited"/>
  </node>
  <node id="-4277" version="0" timestamp="Fri Feb 24 10:53:36 +0100 2012" uid="1" user="" lat="53.46116" lon="9.703">
    <tag k="name" v="CIty Car Taxi"/>
    <tag k="wheelchair" v="limited"/>
    <tag k="office" v="company"/>
  </node>
  <node id="-4278" version="0" timestamp="Fri Feb 24 10:53:36 +0100 2012" uid="1" user="" lat="53.4610214" lon="9.7041521">
    <tag k="name" v="fitsport Fitnessstudio"/>
    <tag k="wheelchair" v="limited"/>
    <tag k="leisure" v="sports_centre"/>
  </node>
  <node id="-4279" version="0" timestamp="Fri Feb 24 10:53:36 +0100 2012" uid="1" user="" lat="53.4615273" lon="9.7043201">
    <tag k="name" v="Diskothek Mauselfalle"/>
    <tag k="wheelchair" v="limited"/>
    <tag k="amenity" v="bar"/>
  </node>
  <node id="-4280" version="0" timestamp="Fri Feb 24 10:53:36 +0100 2012" uid="1" user="" lat="53.4715395" lon="9.6738577">
    <tag k="name" v="JOY! Fitnesstudio"/>
    <tag k="wheelchair" v="limited"/>
    <tag k="leisure" v="sports_centre"/>
  </node>
  <node id="-4281" version="0" timestamp="Fri Feb 24 10:53:36 +0100 2012" uid="1" user="" lat="53.4758033" lon="9.6982782">
    <tag k="shop" v="clothes"/>
    <tag k="name" v="MiGaT&apos;s T-Shirt"/>
    <tag k="wheelchair" v="limited"/>
  </node>
  <node id="-4282" version="0" timestamp="Fri Feb 24 10:53:36 +0100 2012" uid="1" user="" lat="53.4780544" lon="9.7054145">
    <tag k="name" v="Shell Tankstelle"/>
    <tag k="wheelchair" v="limited"/>
    <tag k="amenity" v="fuel"/>
  </node>
  <node id="-5444" version="0" timestamp="Fri Feb 24 10:53:37 +0100 2012" uid="1" user="" lat="53.5032033" lon="9.7265727">
    <tag k="name" v="Rechtsanwalt Au"/>
    <tag k="wheelchair" v="limited"/>
    <tag k="addr:city" v="Jork"/>
    <tag k="addr:postcode" v="21635"/>
    <tag k="addr:housenumber" v="68 A"/>
    <tag k="addr:street" v="Buxtehuder Straße"/>
    <tag k="wheelchair:description" v="Eine kleine Stufe vor dem Eingang, großes WC vorhanden"/>
    <tag k="website" v="http://www.rechtsanwalt-au.de"/>
    <tag k="phone" v="041629129282"/>
    <tag k="office" v="lawyer"/>
  </node>
</osm>
