<?xml version='1.0' encoding='UTF-8'?>
<osm version="0.6" generator="Osmosis 0.39">
  <node id="-878" version="0" timestamp="Fri Feb 24 10:53:32 +0100 2012" uid="1" user="" lat="51.54079" lon="9.8976">
    <tag k="shop" v="supermarket"/>
    <tag k="name" v="ALDI"/>
    <tag k="wheelchair" v="yes"/>
  </node>
  <node id="-879" version="0" timestamp="Fri Feb 24 10:53:32 +0100 2012" uid="1" user="" lat="51.5355965" lon="9.9177914">
    <tag k="shop" v="hairdresser"/>
    <tag k="name" v="Salon Paul"/>
    <tag k="wheelchair" v="no"/>
  </node>
  <node id="-896" version="0" timestamp="Fri Feb 24 10:53:32 +0100 2012" uid="1" user="" lat="51.5268538" lon="9.8876245">
    <tag k="shop" v="furniture"/>
    <tag k="name" v="Sconto"/>
    <tag k="wheelchair" v="yes"/>
  </node>
  <node id="-898" version="0" timestamp="Fri Feb 24 10:53:32 +0100 2012" uid="1" user="" lat="51.5269035" lon="9.8898534">
    <tag k="shop" v="furniture"/>
    <tag k="name" v="Dänishces Bettenlager"/>
    <tag k="wheelchair" v="no"/>
  </node>
  <node id="-986" version="0" timestamp="Fri Feb 24 10:53:33 +0100 2012" uid="1" user="" lat="51.5161876" lon="10.2376183">
    <tag k="name" v="Otto Bock HealthCare GmbH"/>
    <tag k="wheelchair" v="unknown"/>
    <tag k="addr:postcode" v="3"/>
    <tag k="addr:housenumber" v="15"/>
    <tag k="addr:street" v="Max-Näder-Straße"/>
    <tag k="amenity" v="bank"/>
  </node>
  <node id="-987" version="0" timestamp="Fri Feb 24 10:53:33 +0100 2012" uid="1" user="" lat="51.5165777" lon="10.2362069">
    <tag k="name" v="Otto Bock HealthCare GmbH"/>
    <tag k="wheelchair" v="yes"/>
    <tag k="addr:city" v="Duderstadt"/>
    <tag k="addr:postcode" v="37115"/>
    <tag k="addr:housenumber" v="15"/>
    <tag k="addr:street" v="Max-Näder-Straße"/>
    <tag k="amenity" v="bank"/>
    <tag k="website" v="http://www.ottobock.de"/>
    <tag k="phone" v="05527 848 0"/>
  </node>
  <node id="-988" version="0" timestamp="Fri Feb 24 10:53:33 +0100 2012" uid="1" user="" lat="51.53664" lon="9.89806">
    <tag k="name" v="Pizzaria Italia"/>
    <tag k="wheelchair" v="no"/>
    <tag k="addr:city" v="Göttingen"/>
    <tag k="addr:postcode" v="37079"/>
    <tag k="addr:housenumber" v="9"/>
    <tag k="addr:street" v="Greitweg"/>
    <tag k="amenity" v="restaurant"/>
    <tag k="phone" v="0551 / 93830"/>
  </node>
  <node id="-990" version="0" timestamp="Fri Feb 24 10:53:33 +0100 2012" uid="1" user="" lat="51.53507" lon="9.89545">
    <tag k="name" v="Bäckerei Küster"/>
    <tag k="wheelchair" v="limited"/>
    <tag k="amenity" v="bank"/>
  </node>
  <node id="-994" version="0" timestamp="Fri Feb 24 10:53:33 +0100 2012" uid="1" user="" lat="51.53153" lon="9.89307">
    <tag k="name" v="Sparkasse Göttingen - Pestalozziweg"/>
    <tag k="wheelchair" v="yes"/>
    <tag k="amenity" v="bank"/>
  </node>
  <node id="-996" version="0" timestamp="Fri Feb 24 10:53:33 +0100 2012" uid="1" user="" lat="51.52738" lon="9.88882">
    <tag k="name" v="McFit "/>
    <tag k="wheelchair" v="yes"/>
    <tag k="leisure" v="sports_centre"/>
  </node>
  <node id="-1059" version="0" timestamp="Fri Feb 24 10:53:33 +0100 2012" uid="1" user="" lat="51.5889894" lon="9.9279993">
    <tag k="shop" v="supermarket"/>
    <tag k="name" v="Rewe"/>
    <tag k="wheelchair" v="yes"/>
  </node>
  <node id="-1060" version="0" timestamp="Fri Feb 24 10:53:33 +0100 2012" uid="1" user="" lat="51.5883679" lon="9.9269407">
    <tag k="name" v="Feldtor Apotheke "/>
    <tag k="wheelchair" v="yes"/>
    <tag k="amenity" v="pharmacy"/>
  </node>
  <node id="-1063" version="0" timestamp="Fri Feb 24 10:53:33 +0100 2012" uid="1" user="" lat="51.5366739" lon="9.9339486">
    <tag k="shop" v="electronics"/>
    <tag k="name" v="Saturn"/>
    <tag k="wheelchair" v="yes"/>
  </node>
  <node id="-1117" version="0" timestamp="Fri Feb 24 10:53:33 +0100 2012" uid="1" user="" lat="51.5516535" lon="9.8702812">
    <tag k="name" v="Praxs Gesundbrunnen 3"/>
    <tag k="wheelchair" v="yes"/>
    <tag k="addr:city" v="Göttingen - Elliehausen"/>
    <tag k="addr:postcode" v="37079"/>
    <tag k="addr:housenumber" v="3"/>
    <tag k="addr:street" v="Gesunbrunnen"/>
    <tag k="amenity" v="doctors"/>
    <tag k="website" v="http://www.praxisgesundbrunnen.de/index.php"/>
    <tag k="phone" v="0551 / 37 07 44 - 0"/>
  </node>
  <node id="-1125" version="0" timestamp="Fri Feb 24 10:53:33 +0100 2012" uid="1" user="" lat="51.53512" lon="9.9340222">
    <tag k="name" v="Irish Pub"/>
    <tag k="wheelchair" v="no"/>
    <tag k="addr:city" v="Göttingen"/>
    <tag k="addr:postcode" v="37073"/>
    <tag k="addr:housenumber" v="4"/>
    <tag k="addr:street" v="Mühlnstraße"/>
    <tag k="amenity" v="pub"/>
    <tag k="website" v="http://www.irishpub-goettingen.de/"/>
    <tag k="phone" v="0551 / 45 66 4"/>
  </node>
  <node id="-1180" version="0" timestamp="Fri Feb 24 10:53:33 +0100 2012" uid="1" user="" lat="51.5420937" lon="9.9208532">
    <tag k="name" v="Sparkassen Arena"/>
    <tag k="wheelchair" v="yes"/>
    <tag k="addr:city" v=" Göttingen "/>
    <tag k="addr:postcode" v="37081 "/>
    <tag k="addr:housenumber" v="1"/>
    <tag k="addr:street" v="Auf dem Schützenplatz"/>
    <tag k="leisure" v="stadium"/>
  </node>
  <node id="-1182" version="0" timestamp="Fri Feb 24 10:53:33 +0100 2012" uid="1" user="" lat="51.5445935" lon="9.9303014">
    <tag k="shop" v="electronics"/>
    <tag k="name" v="World of Video"/>
    <tag k="wheelchair" v="no"/>
    <tag k="addr:city" v="Göttingen"/>
    <tag k="addr:postcode" v="37075"/>
    <tag k="addr:housenumber" v="59"/>
    <tag k="addr:street" v="Weender Landstrasse"/>
    <tag k="website" v="http://www.wov-goettingen.de/"/>
    <tag k="phone" v="0551 - 30 70 910"/>
  </node>
  <node id="-1665" version="0" timestamp="Fri Feb 24 10:53:33 +0100 2012" uid="1" user="" lat="51.5092595" lon="10.2684388">
    <tag k="name" v="Eichsfeld Gymnasium"/>
    <tag k="wheelchair" v="no"/>
    <tag k="addr:city" v="Duderstadt"/>
    <tag k="addr:postcode" v="37115"/>
    <tag k="addr:housenumber" v="39"/>
    <tag k="addr:street" v="Auf der Klappe"/>
    <tag k="amenity" v="school"/>
    <tag k="website" v="http://www.eichsfeld-gymnasium.de"/>
    <tag k="phone" v="05527 - 849588-0"/>
  </node>
  <node id="-1666" version="0" timestamp="Fri Feb 24 10:53:33 +0100 2012" uid="1" user="" lat="51.5108791" lon="10.2514421">
    <tag k="name" v="Soley"/>
    <tag k="wheelchair" v="yes"/>
    <tag k="addr:city" v="Duderstadt"/>
    <tag k="addr:postcode" v="37115"/>
    <tag k="addr:housenumber" v="3"/>
    <tag k="addr:street" v="Sachsenring"/>
    <tag k="amenity" v="bar"/>
    <tag k="website" v="http://www.soley-duderstadt.de"/>
    <tag k="phone" v="+49 5527 99 64 974"/>
  </node>
  <node id="-4097" version="0" timestamp="Fri Feb 24 10:53:36 +0100 2012" uid="1" user="" lat="51.5061403" lon="9.8977924">
    <tag k="name" v="Rosdorf Masch Haltestelle"/>
    <tag k="wheelchair" v="no"/>
    <tag k="addr:city" v="Rosdorf"/>
    <tag k="addr:postcode" v="37124"/>
    <tag k="addr:housenumber" v="25"/>
    <tag k="addr:street" v="Masch"/>
    <tag k="wheelchair:description" v="Bushaltestelle des Regionalbus Braunschweig GmbH."/>
    <tag k="amenity" v="bus_station"/>
  </node>
  <node id="-4098" version="0" timestamp="Fri Feb 24 10:53:36 +0100 2012" uid="1" user="" lat="51.5060133" lon="9.8988676">
    <tag k="name" v="Sparkasse Göttingen Geschäftsstelle Rosdorf"/>
    <tag k="wheelchair" v="limited"/>
    <tag k="addr:city" v="Rosdorf"/>
    <tag k="addr:postcode" v="37124"/>
    <tag k="addr:housenumber" v="12a"/>
    <tag k="addr:street" v="Masch"/>
    <tag k="wheelchair:description" v="Rollstuhlrampe vorhanden aber nicht nach Norm gebaut"/>
    <tag k="amenity" v="bank"/>
    <tag k="website" v="https://www.spk-goettingen.de/module/geschaeftsstellen/gs_25/index.php"/>
    <tag k="phone" v="0551 405-12510"/>
  </node>
  <node id="-4102" version="0" timestamp="Fri Feb 24 10:53:36 +0100 2012" uid="1" user="" lat="51.5053637" lon="9.8992731">
    <tag k="name" v="Mühlen Apotheke"/>
    <tag k="wheelchair" v="limited"/>
    <tag k="addr:city" v="Rosdorf"/>
    <tag k="addr:postcode" v="37124"/>
    <tag k="addr:housenumber" v="6"/>
    <tag k="addr:street" v="Lange Strasse"/>
    <tag k="amenity" v="pharmacy"/>
    <tag k="website" v="http://www.muehlenapotheke-rosdorf.de/"/>
    <tag k="phone" v="0551781796"/>
  </node>
  <node id="-4103" version="0" timestamp="Fri Feb 24 10:53:36 +0100 2012" uid="1" user="" lat="51.5046837" lon="9.9049143">
    <tag k="name" v="Anne Frank Hauptschule"/>
    <tag k="wheelchair" v="limited"/>
    <tag k="addr:city" v="Rosdorf"/>
    <tag k="addr:postcode" v="37124"/>
    <tag k="addr:housenumber" v="14"/>
    <tag k="addr:street" v="Hinter den Höfen"/>
    <tag k="amenity" v="school"/>
    <tag k="phone" v="0551781220"/>
  </node>
</osm>
