<?xml version='1.0' encoding='UTF-8'?>
<osm version="0.6" generator="Osmosis 0.39">
  <node id="-1736" version="0" timestamp="Fri Feb 24 10:53:33 +0100 2012" uid="1" user="" lat="53.1378762" lon="7.5977545">
    <tag k="shop" v="doityourself"/>
    <tag k="name" v="hagebaumarkt "/>
    <tag k="wheelchair" v="yes"/>
    <tag k="addr:city" v="Ostrhauderfehn"/>
    <tag k="addr:postcode" v="26842"/>
    <tag k="addr:housenumber" v="1a"/>
    <tag k="addr:street" v="Im Gewerbegebiet"/>
    <tag k="website" v="http://www.hagebaumarkt-ostrhauderfehn.de/index.cfm"/>
    <tag k="phone" v="0 49 52 / 8 90 93-0"/>
  </node>
  <node id="-1740" version="0" timestamp="Fri Feb 24 10:53:33 +0100 2012" uid="1" user="" lat="53.1358673" lon="7.5788741">
    <tag k="name" v="Untenende"/>
    <tag k="wheelchair" v="limited"/>
    <tag k="addr:city" v="Rhauderfehn"/>
    <tag k="addr:postcode" v="26842"/>
    <tag k="addr:housenumber" v="28"/>
    <tag k="addr:street" v="Untenende 28"/>
    <tag k="amenity" v="restaurant"/>
    <tag k="website" v="http://www.beibruno.de/"/>
    <tag k="phone" v="04952/2812"/>
  </node>
  <node id="-1742" version="0" timestamp="Fri Feb 24 10:53:33 +0100 2012" uid="1" user="" lat="53.1359183" lon="7.5795245">
    <tag k="name" v="Pantry Pizzeria Kebabhaus"/>
    <tag k="wheelchair" v="no"/>
    <tag k="addr:city" v="Rhauderfehn"/>
    <tag k="addr:postcode" v="26842"/>
    <tag k="addr:housenumber" v="1"/>
    <tag k="addr:street" v="Im Gewerbegebiet"/>
    <tag k="amenity" v="bank"/>
    <tag k="phone" v="04952 89093-0"/>
  </node>
  <node id="-2418" version="0" timestamp="Fri Feb 24 10:53:34 +0100 2012" uid="1" user="" lat="53.2321246" lon="7.4698388">
    <tag k="name" v="De PÃ¼tt"/>
    <tag k="wheelchair" v="unknown"/>
    <tag k="addr:city" v="Leer"/>
    <tag k="addr:postcode" v="26789"/>
    <tag k="addr:housenumber" v="37"/>
    <tag k="addr:street" v="Ulrichstr"/>
    <tag k="amenity" v="pub"/>
    <tag k="phone" v="0491-13535"/>
  </node>
  <node id="-5491" version="0" timestamp="Fri Feb 24 10:53:37 +0100 2012" uid="1" user="" lat="53.32346" lon="7.31231">
    <tag k="name" v="Fewo keineschwellen"/>
    <tag k="wheelchair" v="yes"/>
    <tag k="addr:city" v="Moormerland/Gandersum"/>
    <tag k="addr:postcode" v="26802"/>
    <tag k="addr:housenumber" v="18"/>
    <tag k="tourism" v="chalet"/>
    <tag k="addr:street" v="Zollhausstrasse"/>
    <tag k="wheelchair:description" v="Ferienwohnung komplett barrierefrei"/>
    <tag k="website" v="http://www.keineschwellen.de"/>
    <tag k="phone" v="0049 4924 955390"/>
  </node>
</osm>
