<?xml version='1.0' encoding='UTF-8'?>
<osm version="0.6" generator="Osmosis 0.39">
  <node id="-966" version="0" timestamp="Fri Feb 24 10:53:33 +0100 2012" uid="1" user="" lat="52.45038" lon="9.22368">
    <tag k="name" v="Paul-Gehardt-Stift Evangelisches Krankehaus"/>
    <tag k="wheelchair" v="yes"/>
    <tag k="addr:city" v="Lutherstadt Wittenberg"/>
    <tag k="addr:postcode" v="06886"/>
    <tag k="addr:housenumber" v="42"/>
    <tag k="addr:street" v="Paul-Gerhardt-Straße"/>
    <tag k="wheelchair:description" v="Haupteingang und Rettungsstelle "/>
    <tag k="amenity" v="hospital"/>
  </node>
  <node id="-1009" version="0" timestamp="Fri Feb 24 10:53:33 +0100 2012" uid="1" user="" lat="52.4932025" lon="8.9141806">
    <tag k="name" v="grundschule uchte"/>
    <tag k="wheelchair" v="yes"/>
    <tag k="amenity" v="school"/>
  </node>
  <node id="-1010" version="0" timestamp="Fri Feb 24 10:53:33 +0100 2012" uid="1" user="" lat="52.4947248" lon="8.9157792">
    <tag k="name" v="uchter freibad"/>
    <tag k="wheelchair" v="yes"/>
    <tag k="amenity" v="swimming_pool"/>
  </node>
  <node id="-1011" version="0" timestamp="Fri Feb 24 10:53:33 +0100 2012" uid="1" user="" lat="52.497462" lon="8.9070087">
    <tag k="name" v="sparkasse uchte"/>
    <tag k="wheelchair" v="yes"/>
    <tag k="amenity" v="bank"/>
  </node>
  <node id="-1012" version="0" timestamp="Fri Feb 24 10:53:33 +0100 2012" uid="1" user="" lat="52.4975197" lon="8.9063673">
    <tag k="name" v="rathaus uchte"/>
    <tag k="wheelchair" v="limited"/>
    <tag k="wheelchair:description" v="man kann mit einem außenlift ins hochpaterre"/>
  </node>
  <node id="-1014" version="0" timestamp="Fri Feb 24 10:53:33 +0100 2012" uid="1" user="" lat="52.49847" lon="8.90222">
    <tag k="shop" v="garden_centre"/>
    <tag k="name" v="hagebaumarkt"/>
    <tag k="wheelchair" v="yes"/>
  </node>
  <node id="-1016" version="0" timestamp="Fri Feb 24 10:53:33 +0100 2012" uid="1" user="" lat="52.4993076" lon="8.9044701">
    <tag k="shop" v="supermarket"/>
    <tag k="name" v="lidl"/>
    <tag k="wheelchair" v="yes"/>
  </node>
  <node id="-1017" version="0" timestamp="Fri Feb 24 10:53:33 +0100 2012" uid="1" user="" lat="52.499819" lon="8.9045471">
    <tag k="shop" v="supermarket"/>
    <tag k="name" v="WEZ"/>
    <tag k="wheelchair" v="yes"/>
  </node>
  <node id="-1018" version="0" timestamp="Fri Feb 24 10:53:33 +0100 2012" uid="1" user="" lat="52.4999838" lon="8.9074164">
    <tag k="name" v="Il Gabbiano"/>
    <tag k="wheelchair" v="no"/>
    <tag k="amenity" v="restaurant"/>
  </node>
  <node id="-1019" version="0" timestamp="Fri Feb 24 10:53:33 +0100 2012" uid="1" user="" lat="52.5000355" lon="8.9075273">
    <tag k="shop" v="beverages"/>
    <tag k="name" v="getränkemarkt"/>
    <tag k="wheelchair" v="yes"/>
  </node>
  <node id="-1020" version="0" timestamp="Fri Feb 24 10:53:33 +0100 2012" uid="1" user="" lat="52.5107729" lon="9.0604332">
    <tag k="shop" v="supermarket"/>
    <tag k="name" v="edeka"/>
    <tag k="wheelchair" v="yes"/>
  </node>
  <node id="-1022" version="0" timestamp="Fri Feb 24 10:53:33 +0100 2012" uid="1" user="" lat="52.5104955" lon="9.0699646">
    <tag k="name" v="gymnasium Stolzenau"/>
    <tag k="wheelchair" v="yes"/>
    <tag k="addr:city" v="stolzenau"/>
    <tag k="addr:postcode" v="31592"/>
    <tag k="addr:housenumber" v="3"/>
    <tag k="addr:street" v="zum ravensberg "/>
    <tag k="amenity" v="school"/>
  </node>
</osm>
