<?xml version='1.0' encoding='UTF-8'?>
<osm version="0.6" generator="Osmosis 0.39">
  <node id="-213" version="0" timestamp="Fri Feb 24 10:53:32 +0100 2012" uid="1" user="" lat="53.1446698" lon="8.2126924">
    <tag k="name" v="Caldero"/>
    <tag k="wheelchair" v="limited"/>
    <tag k="wheelchair:description" v="Tiolette leider nicht"/>
    <tag k="amenity" v="restaurant"/>
  </node>
  <node id="-272" version="0" timestamp="Fri Feb 24 10:53:32 +0100 2012" uid="1" user="" lat="53.14467" lon="8.21269">
    <tag k="name" v="Caldero"/>
    <tag k="wheelchair" v="limited"/>
    <tag k="wheelchair:description" v="Toilette leider nicht"/>
    <tag k="amenity" v="restaurant"/>
  </node>
  <node id="-975" version="0" timestamp="Fri Feb 24 10:53:33 +0100 2012" uid="1" user="" lat="53.1573561" lon="8.1746725">
    <tag k="name" v="EWE KundenCenter"/>
    <tag k="wheelchair" v="yes"/>
    <tag k="addr:city" v="Oldenburg"/>
    <tag k="addr:postcode" v="26129"/>
    <tag k="addr:housenumber" v="10"/>
    <tag k="addr:street" v="Posthalterweg"/>
    <tag k="website" v="http://www.ewe.de"/>
    <tag k="phone" v="+49 441 999590"/>
  </node>
  <node id="-976" version="0" timestamp="Fri Feb 24 10:53:33 +0100 2012" uid="1" user="" lat="53.1117329" lon="8.2101031">
    <tag k="name" v="EWE ServicePunkt"/>
    <tag k="wheelchair" v="limited"/>
    <tag k="addr:city" v="Oldenburg"/>
    <tag k="addr:postcode" v="26133"/>
    <tag k="addr:housenumber" v="302"/>
    <tag k="addr:street" v="Cloppenburger Str."/>
    <tag k="website" v="http://www.ewe.de"/>
  </node>
  <node id="-978" version="0" timestamp="Fri Feb 24 10:53:33 +0100 2012" uid="1" user="" lat="53.1409444" lon="8.2145217">
    <tag k="name" v="EWE ServicePunkt"/>
    <tag k="wheelchair" v="limited"/>
    <tag k="addr:city" v="Oldenburg"/>
    <tag k="addr:postcode" v="26122"/>
    <tag k="addr:housenumber" v="15"/>
    <tag k="addr:street" v="Achternstr."/>
    <tag k="website" v="http://www.ewe.de"/>
  </node>
  <node id="-1062" version="0" timestamp="Fri Feb 24 10:53:33 +0100 2012" uid="1" user="" lat="53.1426758" lon="8.2115759">
    <tag k="shop" v="optician"/>
    <tag k="name" v="Optik im Jaguarhaus"/>
    <tag k="wheelchair" v="yes"/>
    <tag k="addr:city" v="Oldenburg"/>
    <tag k="addr:postcode" v="26122"/>
    <tag k="addr:housenumber" v="8"/>
    <tag k="addr:street" v="Heiligengeistwall"/>
    <tag k="wheelchair:description" v="Barrierefreiheit gehört zum Konzept"/>
    <tag k="website" v="http://www.optik-im-jaguarhaus.de/"/>
    <tag k="phone" v="0441 / 14 3 15"/>
  </node>
  <node id="-1106" version="0" timestamp="Fri Feb 24 10:53:33 +0100 2012" uid="1" user="" lat="53.13863" lon="8.21676">
    <tag k="shop" v="mall"/>
    <tag k="name" v="Schlosshöfe"/>
    <tag k="wheelchair" v="yes"/>
    <tag k="addr:city" v="Oldenburg"/>
    <tag k="addr:postcode" v="26122"/>
    <tag k="addr:housenumber" v="3"/>
    <tag k="addr:street" v="Schlossplatz "/>
    <tag k="website" v="http://www.schlosshoefe-oldenburg.de/de/seite/home.php"/>
    <tag k="phone" v="+49 (0) 441 - 21 71 59 0"/>
  </node>
  <node id="-2094" version="0" timestamp="Fri Feb 24 10:53:34 +0100 2012" uid="1" user="" lat="52.8976903" lon="8.4370802">
    <tag k="name" v="Commerzbank"/>
    <tag k="wheelchair" v="yes"/>
    <tag k="amenity" v="atm"/>
  </node>
  <node id="-2843" version="0" timestamp="Fri Feb 24 10:53:34 +0100 2012" uid="1" user="" lat="53.1611804" lon="8.1726602">
    <tag k="shop" v="electronics"/>
    <tag k="name" v="Media Markt"/>
    <tag k="wheelchair" v="yes"/>
    <tag k="addr:city" v="Oldenburg"/>
    <tag k="wheelchair:description" v="Ebener Eingang + Fahrstuhl"/>
  </node>
  <node id="-2844" version="0" timestamp="Fri Feb 24 10:53:34 +0100 2012" uid="1" user="" lat="53.1635329" lon="8.1742058">
    <tag k="name" v="Parkplatz BBS Wechloy"/>
    <tag k="wheelchair" v="yes"/>
    <tag k="addr:city" v="Oldenburg"/>
    <tag k="amenity" v="parking"/>
  </node>
  <node id="-4604" version="0" timestamp="Fri Feb 24 10:53:36 +0100 2012" uid="1" user="" lat="53.14872" lon="8.20038">
    <tag k="name" v="OFFIS-Institut für Informatik"/>
    <tag k="wheelchair" v="yes"/>
    <tag k="addr:city" v="Oldenburg"/>
    <tag k="addr:postcode" v="26121"/>
    <tag k="addr:housenumber" v="2"/>
    <tag k="addr:street" v="Escherweg"/>
    <tag k="wheelchair:description" v="Rampen, Aufzüge, "/>
    <tag k="amenity" v="university"/>
    <tag k="website" v="http://www.offis.de"/>
    <tag k="phone" v="+40 9722 101"/>
  </node>
  <node id="-5072" version="0" timestamp="Fri Feb 24 10:53:37 +0100 2012" uid="1" user="" lat="53.1348372" lon="8.2187117">
    <tag k="name" v="Hotel Wieting"/>
    <tag k="wheelchair" v="yes"/>
    <tag k="addr:city" v="Oldenburg"/>
    <tag k="addr:postcode" v="26135"/>
    <tag k="addr:housenumber" v="29"/>
    <tag k="tourism" v="hotel"/>
    <tag k="addr:street" v="Damm"/>
    <tag k="wheelchair:description" v="nur die Schräge vom Parkplatz zum Hoteleingang ist zu steil und erfordert Hilfe"/>
    <tag k="website" v="http://www.hotel-wieting.de"/>
    <tag k="phone" v="+49 441 92400"/>
  </node>
  <node id="-5073" version="0" timestamp="Fri Feb 24 10:53:37 +0100 2012" uid="1" user="" lat="53.0659481" lon="8.2807014">
    <tag k="name" v="Hotel Ripken"/>
    <tag k="wheelchair" v="yes"/>
    <tag k="addr:city" v="Hatten/Streekermoor"/>
    <tag k="addr:postcode" v="26209"/>
    <tag k="addr:housenumber" v="150"/>
    <tag k="tourism" v="hotel"/>
    <tag k="addr:street" v="Borchersweg"/>
    <tag k="wheelchair:description" v="Rollstuhlgerechte Zimmer im separaten Neubau"/>
    <tag k="website" v="http://www.hotel-ripken.de"/>
    <tag k="phone" v="+49 4481 93510"/>
  </node>
</osm>
