<?xml version='1.0' encoding='UTF-8'?>
<osm version="0.6" generator="Osmosis 0.39">
  <node id="-476" version="0" timestamp="Fri Feb 24 10:53:32 +0100 2012" uid="1" user="" lat="52.29389" lon="10.26671">
    <tag k="name" v="Sparkasse Peine"/>
    <tag k="wheelchair" v="limited"/>
    <tag k="addr:city" v="Dungelbeck"/>
    <tag k="addr:postcode" v="31226"/>
    <tag k="addr:housenumber" v="2"/>
    <tag k="addr:street" v="Bruchweg"/>
    <tag k="amenity" v="bank"/>
    <tag k="website" v="http://www.ksk-peine.de"/>
    <tag k="phone" v=" 05171/42-1000 "/>
  </node>
  <node id="-1204" version="0" timestamp="Fri Feb 24 10:53:33 +0100 2012" uid="1" user="" lat="52.3403917" lon="10.2465352">
    <tag k="name" v="Die Beraterkanzlei - Steuerberatungs- und Anwaltskanzlei"/>
    <tag k="wheelchair" v="unknown"/>
    <tag k="addr:city" v="Peine"/>
    <tag k="addr:postcode" v="31228"/>
    <tag k="addr:housenumber" v="17 B"/>
    <tag k="addr:street" v="Wilhelm-Rausch-Straße"/>
    <tag k="wheelchair:description" v="barrierefrei, keine behindertengerechte Toiletten"/>
    <tag k="amenity" v="bank"/>
    <tag k="website" v="http://www.die-beraterkanzlei.de"/>
    <tag k="phone" v="+49 5171 7742-0"/>
  </node>
  <node id="-3072" version="0" timestamp="Fri Feb 24 10:53:35 +0100 2012" uid="1" user="" lat="52.3470385" lon="10.241806">
    <tag k="name" v="Hundesalon Wuschel"/>
    <tag k="wheelchair" v="limited"/>
    <tag k="addr:city" v="Peine"/>
    <tag k="addr:postcode" v="31228"/>
    <tag k="addr:housenumber" v="2"/>
    <tag k="addr:street" v="Konsumstraße"/>
    <tag k="amenity" v="veterinary"/>
  </node>
  <node id="-3073" version="0" timestamp="Fri Feb 24 10:53:35 +0100 2012" uid="1" user="" lat="52.3376632" lon="10.2447499">
    <tag k="name" v="McDonalds"/>
    <tag k="wheelchair" v="yes"/>
    <tag k="addr:city" v="Peine"/>
    <tag k="addr:postcode" v="31228"/>
    <tag k="amenity" v="fast_food"/>
  </node>
  <node id="-3074" version="0" timestamp="Fri Feb 24 10:53:35 +0100 2012" uid="1" user="" lat="52.3374109" lon="10.2462513">
    <tag k="shop" v="doityourself"/>
    <tag k="name" v="Praktiker"/>
    <tag k="wheelchair" v="yes"/>
    <tag k="addr:city" v="Peine"/>
    <tag k="addr:postcode" v="31228"/>
  </node>
  <node id="-3075" version="0" timestamp="Fri Feb 24 10:53:35 +0100 2012" uid="1" user="" lat="52.3250866" lon="10.2233301">
    <tag k="name" v="Ratsgymnasium"/>
    <tag k="wheelchair" v="limited"/>
    <tag k="addr:city" v="Peine"/>
    <tag k="addr:street" v="Burgstraße"/>
    <tag k="amenity" v="school"/>
  </node>
  <node id="-3076" version="0" timestamp="Fri Feb 24 10:53:35 +0100 2012" uid="1" user="" lat="52.3252703" lon="10.2240166">
    <tag k="name" v="Cafeteria"/>
    <tag k="wheelchair" v="yes"/>
    <tag k="addr:city" v="Peine"/>
    <tag k="addr:street" v="Burgstraße"/>
    <tag k="amenity" v="cafe"/>
  </node>
  <node id="-3077" version="0" timestamp="Fri Feb 24 10:53:35 +0100 2012" uid="1" user="" lat="52.3230269" lon="10.2267355">
    <tag k="name" v="Bernauer Eiscafé"/>
    <tag k="wheelchair" v="yes"/>
    <tag k="amenity" v="cafe"/>
  </node>
  <node id="-3078" version="0" timestamp="Fri Feb 24 10:53:35 +0100 2012" uid="1" user="" lat="52.3492982" lon="10.2451367">
    <tag k="name" v="Zimmer mit Frühstück"/>
    <tag k="wheelchair" v="unknown"/>
    <tag k="tourism" v="bed_and_breakfast"/>
  </node>
  <node id="-5436" version="0" timestamp="Fri Feb 24 10:53:37 +0100 2012" uid="1" user="" lat="52.32274" lon="10.22689">
    <tag k="name" v="Santander Consumer Bank"/>
    <tag k="wheelchair" v="limited"/>
    <tag k="addr:city" v="Peine"/>
    <tag k="addr:postcode" v="31224"/>
    <tag k="addr:housenumber" v="13"/>
    <tag k="addr:street" v="Echternplatz"/>
    <tag k="amenity" v="bank"/>
    <tag k="website" v="http://www.santander.de"/>
  </node>
</osm>
