<?xml version='1.0' encoding='UTF-8'?>
<osm version="0.6" generator="Osmosis 0.39">
  <node id="-39" version="0" timestamp="Fri Feb 24 10:53:32 +0100 2012" uid="1" user="" lat="52.3341737" lon="9.7012455">
    <tag k="shop" v="hairdresser"/>
    <tag k="name" v="Lege Artis"/>
    <tag k="wheelchair" v="no"/>
    <tag k="addr:city" v="Hannover"/>
    <tag k="addr:postcode" v="30459"/>
    <tag k="addr:housenumber" v="61"/>
    <tag k="addr:street" v="Rodbraken"/>
    <tag k="wheelchair:description" v="Wendeltreppe führt ins Geschäft"/>
    <tag k="phone" v="(0511) 42 17 25"/>
  </node>
  <node id="-41" version="0" timestamp="Fri Feb 24 10:53:32 +0100 2012" uid="1" user="" lat="52.3555566" lon="9.7477995">
    <tag k="name" v="Bismarckschule"/>
    <tag k="wheelchair" v="yes"/>
    <tag k="addr:city" v="Hannover"/>
    <tag k="addr:postcode" v="30173"/>
    <tag k="addr:housenumber" v="5"/>
    <tag k="addr:street" v="An der Bismarckschule"/>
    <tag k="amenity" v="school"/>
    <tag k="website" v="http://www.bismarckschule.de/"/>
    <tag k="phone" v="(0511) 168-43456"/>
  </node>
  <node id="-43" version="0" timestamp="Fri Feb 24 10:53:32 +0100 2012" uid="1" user="" lat="52.360105" lon="9.7311655">
    <tag k="name" v="AWD-arena"/>
    <tag k="wheelchair" v="yes"/>
    <tag k="addr:city" v="Hannover"/>
    <tag k="addr:postcode" v="30169"/>
    <tag k="addr:housenumber" v="3"/>
    <tag k="addr:street" v="Robert-Enke-Straße "/>
    <tag k="leisure" v="arena"/>
    <tag k="website" v="http://www.awd-arena.de/awd_arena/de/home.html"/>
    <tag k="phone" v="0511 1684574"/>
  </node>
  <node id="-44" version="0" timestamp="Fri Feb 24 10:53:32 +0100 2012" uid="1" user="" lat="52.3652772" lon="9.7310228">
    <tag k="name" v="Gottfried-Wilhelm-Leibniz-Bibliothek"/>
    <tag k="wheelchair" v="unknown"/>
    <tag k="addr:city" v="Hannover"/>
    <tag k="addr:postcode" v="30169"/>
    <tag k="addr:housenumber" v="8"/>
    <tag k="addr:street" v="Waterloostraße"/>
    <tag k="amenity" v="library"/>
    <tag k="website" v="http://www.gwlb.de/"/>
    <tag k="phone" v="0511 1267-0"/>
  </node>
  <node id="-794" version="0" timestamp="Fri Feb 24 10:53:32 +0100 2012" uid="1" user="" lat="52.4800668" lon="9.7341632">
    <tag k="name" v="Sparkasse Hannover"/>
    <tag k="wheelchair" v="yes"/>
    <tag k="amenity" v="bank"/>
  </node>
  <node id="-795" version="0" timestamp="Fri Feb 24 10:53:32 +0100 2012" uid="1" user="" lat="52.3656952" lon="9.7456896">
    <tag k="name" v="Haus der Region"/>
    <tag k="wheelchair" v="yes"/>
  </node>
  <node id="-796" version="0" timestamp="Fri Feb 24 10:53:32 +0100 2012" uid="1" user="" lat="52.3205244" lon="9.6681735">
    <tag k="name" v="Region Hannover"/>
    <tag k="wheelchair" v="no"/>
  </node>
  <node id="-797" version="0" timestamp="Fri Feb 24 10:53:32 +0100 2012" uid="1" user="" lat="52.32012" lon="9.66708">
    <tag k="name" v="Feuerwehrtechnische Zentrale Ronnenberg"/>
    <tag k="wheelchair" v="no"/>
  </node>
  <node id="-800" version="0" timestamp="Fri Feb 24 10:53:32 +0100 2012" uid="1" user="" lat="52.3181747" lon="9.6587056">
    <tag k="name" v="Sparkasse Hannover"/>
    <tag k="wheelchair" v="yes"/>
    <tag k="amenity" v="bank"/>
  </node>
  <node id="-841" version="0" timestamp="Fri Feb 24 10:53:32 +0100 2012" uid="1" user="" lat="52.37104" lon="9.7387">
    <tag k="name" v="Cityhotel Thüringer Hof Hannover"/>
    <tag k="wheelchair" v="limited"/>
    <tag k="addr:city" v="Hannover"/>
    <tag k="addr:postcode" v="30159"/>
    <tag k="addr:housenumber" v="37"/>
    <tag k="tourism" v="hotel"/>
    <tag k="addr:street" v="Osterstrasse"/>
    <tag k="website" v="http://www.thueringerhof.de"/>
    <tag k="phone" v="+49 511 36060"/>
  </node>
  <node id="-864" version="0" timestamp="Fri Feb 24 10:53:32 +0100 2012" uid="1" user="" lat="52.3948267" lon="9.7909075">
    <tag k="name" v="Bistro-Feinkost da Priscilla"/>
    <tag k="wheelchair" v="yes"/>
    <tag k="addr:city" v="Hannover"/>
    <tag k="addr:postcode" v="30655"/>
    <tag k="addr:housenumber" v="22b"/>
    <tag k="addr:street" v="Gehägestraße"/>
    <tag k="amenity" v="restaurant"/>
    <tag k="website" v="http://www.da-pricilla.de"/>
    <tag k="phone" v="0178 7792998"/>
  </node>
  <node id="-865" version="0" timestamp="Fri Feb 24 10:53:32 +0100 2012" uid="1" user="" lat="52.4029013" lon="9.7893753">
    <tag k="shop" v="supermarket"/>
    <tag k="name" v="EDEKA Neukauf-Markt"/>
    <tag k="wheelchair" v="yes"/>
    <tag k="addr:housenumber" v="2"/>
    <tag k="addr:street" v="Grethe-Jürgens-Straße"/>
  </node>
  <node id="-866" version="0" timestamp="Fri Feb 24 10:53:32 +0100 2012" uid="1" user="" lat="52.4072236" lon="9.801938">
    <tag k="name" v="LGLN-Landesvermessung und Geobasisdaten"/>
    <tag k="wheelchair" v="yes"/>
    <tag k="addr:city" v="Hannover"/>
    <tag k="addr:postcode" v="30659"/>
    <tag k="addr:housenumber" v="331"/>
    <tag k="addr:street" v="Podbielskistraße"/>
  </node>
  <node id="-867" version="0" timestamp="Fri Feb 24 10:53:32 +0100 2012" uid="1" user="" lat="52.3995444" lon="9.8077664">
    <tag k="shop" v="supermarket"/>
    <tag k="name" v="E aktiv markt Wucherpfennig"/>
    <tag k="wheelchair" v="yes"/>
    <tag k="addr:city" v="Hannover"/>
    <tag k="addr:postcode" v="30655"/>
    <tag k="addr:housenumber" v="12"/>
    <tag k="addr:street" v="Silberstraße"/>
    <tag k="wheelchair:description" v="keine Toilette"/>
  </node>
  <node id="-868" version="0" timestamp="Fri Feb 24 10:53:32 +0100 2012" uid="1" user="" lat="52.3981962" lon="9.8070087">
    <tag k="name" v="Steak- &amp; Schnitzelhaus"/>
    <tag k="wheelchair" v="no"/>
    <tag k="addr:city" v="Hannover"/>
    <tag k="addr:postcode" v="30655"/>
    <tag k="addr:housenumber" v="9"/>
    <tag k="addr:street" v="Pinekburger Straße"/>
    <tag k="wheelchair:description" v="zwar ebenerdig, aber keine Behindertentoilette"/>
    <tag k="amenity" v="restaurant"/>
    <tag k="website" v="http://www.steak-und-schnitzel.com"/>
  </node>
  <node id="-869" version="0" timestamp="Fri Feb 24 10:53:32 +0100 2012" uid="1" user="" lat="52.368999" lon="9.7227946">
    <tag k="name" v="Museum für Energiegeschichte"/>
    <tag k="wheelchair" v="no"/>
    <tag k="addr:city" v="Hannover"/>
    <tag k="addr:postcode" v="30169"/>
    <tag k="addr:housenumber" v="32"/>
    <tag k="tourism" v="museum"/>
    <tag k="addr:street" v="Humboldtstraße"/>
    <tag k="website" v="http://www.energiegeschichte.de"/>
  </node>
  <node id="-872" version="0" timestamp="Fri Feb 24 10:53:32 +0100 2012" uid="1" user="" lat="52.3677017" lon="9.7431538">
    <tag k="name" v="Theater am Aegi"/>
    <tag k="wheelchair" v="limited"/>
    <tag k="wheelchair:description" v="es gibt 2 Plätze für Rollstuhlfahrer, sehr weit hinten"/>
    <tag k="amenity" v="theatre"/>
  </node>
  <node id="-873" version="0" timestamp="Fri Feb 24 10:53:32 +0100 2012" uid="1" user="" lat="52.3567779" lon="9.7300664">
    <tag k="name" v="AWD-Hall"/>
    <tag k="wheelchair" v="yes"/>
    <tag k="wheelchair:description" v="gibt wenige Plätze auf Balkon"/>
    <tag k="amenity" v="theatre"/>
  </node>
  <node id="-946" version="0" timestamp="Fri Feb 24 10:53:33 +0100 2012" uid="1" user="" lat="52.39017" lon="9.74245">
    <tag k="name" v="aziita | lunch &amp; lounge"/>
    <tag k="wheelchair" v="yes"/>
    <tag k="addr:city" v="Hannover"/>
    <tag k="addr:postcode" v="30177"/>
    <tag k="addr:housenumber" v="98"/>
    <tag k="addr:street" v="Podbielskistr."/>
    <tag k="amenity" v="cafe"/>
    <tag k="website" v="http://www.aziita.de"/>
    <tag k="phone" v="0511 39064986"/>
  </node>
  <node id="-967" version="0" timestamp="Fri Feb 24 10:53:33 +0100 2012" uid="1" user="" lat="52.3837222" lon="9.7392388">
    <tag k="shop" v="furniture"/>
    <tag k="name" v="Dezenta Küchen Hannover"/>
    <tag k="wheelchair" v="yes"/>
    <tag k="addr:city" v="Hannover"/>
    <tag k="addr:postcode" v="30161"/>
    <tag k="addr:housenumber" v="12"/>
    <tag k="addr:street" v="Am Welfenplatz"/>
    <tag k="wheelchair:description" v="Eingang Rollstuhlgerecht"/>
    <tag k="website" v="http://www.dezenta.de"/>
    <tag k="phone" v="0511 769 65 20"/>
  </node>
  <node id="-1057" version="0" timestamp="Fri Feb 24 10:53:33 +0100 2012" uid="1" user="" lat="52.3619144" lon="9.7350686">
    <tag k="name" v="Courtyard by Marriott Hannover Maschsee"/>
    <tag k="wheelchair" v="yes"/>
    <tag k="addr:city" v="Hannover"/>
    <tag k="addr:postcode" v="30169"/>
    <tag k="addr:housenumber" v="3"/>
    <tag k="tourism" v="hotel"/>
    <tag k="addr:street" v="Arthur-Menge-Ufer "/>
    <tag k="wheelchair:description" v="Alle Bereiche und Ebenen sind per Aufzug befahrbar und für Rollstuhlfahrer zugänglich."/>
    <tag k="phone" v="+49.511.36600.0"/>
  </node>
  <node id="-1058" version="0" timestamp="Fri Feb 24 10:53:33 +0100 2012" uid="1" user="" lat="52.3620509" lon="9.7354562">
    <tag k="name" v="Julian&apos;s Bar und Restaurant"/>
    <tag k="wheelchair" v="yes"/>
    <tag k="addr:city" v="Hannover"/>
    <tag k="addr:postcode" v="30169"/>
    <tag k="addr:housenumber" v="3"/>
    <tag k="addr:street" v="Arthur-Menge-Ufer "/>
    <tag k="wheelchair:description" v="Über den Hoteleingang barrierefrei zu erreichen. Keine feste Bestuhlung, breite Terrasse."/>
    <tag k="amenity" v="restaurant"/>
    <tag k="website" v="http://www.julians-restaurant.de"/>
    <tag k="phone" v="+49.511.36600.823"/>
  </node>
  <node id="-1396" version="0" timestamp="Fri Feb 24 10:53:33 +0100 2012" uid="1" user="" lat="52.42596" lon="9.4629">
    <tag k="name" v="Podologische Praxis Susanne Borchers"/>
    <tag k="wheelchair" v="yes"/>
    <tag k="addr:city" v="Wunstorf Luthe"/>
    <tag k="addr:postcode" v="31515"/>
    <tag k="addr:housenumber" v="8"/>
    <tag k="addr:street" v="Hauptstrasse "/>
    <tag k="wheelchair:description" v="Praxis befindet sich im EG"/>
    <tag k="amenity" v="doctors"/>
    <tag k="website" v="http://www.podologie-borchers.de"/>
    <tag k="phone" v="+495031 690231"/>
  </node>
  <node id="-1476" version="0" timestamp="Fri Feb 24 10:53:33 +0100 2012" uid="1" user="" lat="52.3821995" lon="9.7451603">
    <tag k="name" v="Casa Blanca"/>
    <tag k="wheelchair" v="no"/>
    <tag k="amenity" v="nightclub"/>
  </node>
  <node id="-2118" version="0" timestamp="Fri Feb 24 10:53:34 +0100 2012" uid="1" user="" lat="52.3022464" lon="9.4596427">
    <tag k="shop" v="electronics"/>
    <tag k="name" v="Foto Hallemann"/>
    <tag k="wheelchair" v="yes"/>
    <tag k="addr:city" v="Barsinghausen"/>
    <tag k="addr:postcode" v="30890"/>
    <tag k="addr:housenumber" v="38"/>
    <tag k="addr:street" v="Marktstr. "/>
    <tag k="wheelchair:description" v="Barrierefrei, Fahrstuhl zum Parkdeck"/>
    <tag k="website" v="http://www.fotohallemann.de"/>
    <tag k="phone" v="0510561144"/>
  </node>
  <node id="-2119" version="0" timestamp="Fri Feb 24 10:53:34 +0100 2012" uid="1" user="" lat="52.3019421" lon="9.4639546">
    <tag k="name" v="Deutsche Bank"/>
    <tag k="wheelchair" v="no"/>
    <tag k="amenity" v="bank"/>
  </node>
  <node id="-2333" version="0" timestamp="Fri Feb 24 10:53:34 +0100 2012" uid="1" user="" lat="52.36968" lon="9.98304">
    <tag k="name" v="Polizeikommissariat Lehrte"/>
    <tag k="wheelchair" v="no"/>
    <tag k="addr:city" v="Lehrte"/>
    <tag k="addr:postcode" v="31275"/>
    <tag k="addr:housenumber" v="16a"/>
    <tag k="addr:street" v="Osterstraße"/>
    <tag k="phone" v="05132/8270"/>
  </node>
  <node id="-2403" version="0" timestamp="Fri Feb 24 10:53:34 +0100 2012" uid="1" user="" lat="52.302993" lon="9.4603464">
    <tag k="name" v="Bäckerei Schäfers"/>
    <tag k="wheelchair" v="yes"/>
    <tag k="amenity" v="cafe"/>
  </node>
  <node id="-2407" version="0" timestamp="Fri Feb 24 10:53:34 +0100 2012" uid="1" user="" lat="52.30225" lon="9.4623">
    <tag k="name" v="Eiscafé Piccoli"/>
    <tag k="wheelchair" v="yes"/>
    <tag k="addr:housenumber" v="17"/>
    <tag k="addr:street" v="Marktstr."/>
    <tag k="amenity" v="cafe"/>
  </node>
  <node id="-2449" version="0" timestamp="Fri Feb 24 10:53:34 +0100 2012" uid="1" user="" lat="52.28758" lon="9.51392">
    <tag k="shop" v="hairdresser"/>
    <tag k="name" v="Studio 25"/>
    <tag k="wheelchair" v="no"/>
    <tag k="addr:city" v="Barsinghausen"/>
    <tag k="addr:postcode" v="30890"/>
    <tag k="addr:housenumber" v="23"/>
    <tag k="addr:street" v="Wennigser Str."/>
    <tag k="phone" v="05105 8800"/>
  </node>
  <node id="-2778" version="0" timestamp="Fri Feb 24 10:53:34 +0100 2012" uid="1" user="" lat="52.2740356" lon="9.5685653">
    <tag k="name" v="Alte Schmiede"/>
    <tag k="wheelchair" v="yes"/>
    <tag k="addr:city" v="Wennigsen (Deister)"/>
    <tag k="addr:postcode" v="30974"/>
    <tag k="addr:housenumber" v="14"/>
    <tag k="addr:street" v="Feuerwehrplatz"/>
    <tag k="wheelchair:description" v="Baudenkmal, Besichtigung von außen"/>
    <tag k="historic" v="memorial"/>
  </node>
  <node id="-2812" version="0" timestamp="Fri Feb 24 10:53:34 +0100 2012" uid="1" user="" lat="52.2716645" lon="9.5665514">
    <tag k="name" v="Altes Forsthaus"/>
    <tag k="wheelchair" v="yes"/>
    <tag k="addr:city" v="Wennigsen (Deister)"/>
    <tag k="addr:postcode" v="30974"/>
    <tag k="addr:housenumber" v="37"/>
    <tag k="addr:street" v="Hauptstraße"/>
    <tag k="wheelchair:description" v="Baudenkmal, Besichtigung von außen"/>
    <tag k="historic" v="memorial"/>
  </node>
  <node id="-2814" version="0" timestamp="Fri Feb 24 10:53:34 +0100 2012" uid="1" user="" lat="52.2726071" lon="9.5730285">
    <tag k="name" v="Alte Volksschule"/>
    <tag k="wheelchair" v="yes"/>
    <tag k="addr:city" v="Wennigsen (Deister)"/>
    <tag k="addr:postcode" v="30974"/>
    <tag k="addr:housenumber" v="4B"/>
    <tag k="addr:street" v="Argestorfer Straße"/>
    <tag k="wheelchair:description" v="Baudenkmal, Besichtigung von außen"/>
    <tag k="historic" v="memorial"/>
  </node>
  <node id="-2815" version="0" timestamp="Fri Feb 24 10:53:34 +0100 2012" uid="1" user="" lat="52.2735815" lon="9.5753431">
    <tag k="name" v="Altes Zollhaus"/>
    <tag k="wheelchair" v="yes"/>
    <tag k="addr:city" v="Wennigsen (Deister)"/>
    <tag k="addr:postcode" v="30974"/>
    <tag k="addr:housenumber" v="2"/>
    <tag k="addr:street" v="Sorsumer Straße"/>
    <tag k="wheelchair:description" v="Baudenkmal, Besichtigung von außen"/>
    <tag k="historic" v="memorial"/>
  </node>
  <node id="-2817" version="0" timestamp="Fri Feb 24 10:53:34 +0100 2012" uid="1" user="" lat="52.2713078" lon="9.5673717">
    <tag k="name" v="Naturdenkmal Blutbuche"/>
    <tag k="wheelchair" v="yes"/>
    <tag k="addr:city" v="Wennigsen (Deister)"/>
    <tag k="addr:postcode" v="30974"/>
    <tag k="addr:housenumber" v="1"/>
    <tag k="addr:street" v="Hülsebrinkstraße"/>
    <tag k="historic" v="memorial"/>
  </node>
  <node id="-2820" version="0" timestamp="Fri Feb 24 10:53:34 +0100 2012" uid="1" user="" lat="52.4531217" lon="9.3562305">
    <tag k="name" v="Ferienhaus Nr. 1"/>
    <tag k="wheelchair" v="unknown"/>
    <tag k="addr:city" v="Wunstorf"/>
    <tag k="addr:postcode" v="31515"/>
    <tag k="addr:housenumber" v="1"/>
    <tag k="tourism" v="chalet"/>
    <tag k="addr:street" v="Spoorweg"/>
    <tag k="website" v="http://www.Ferienhausnr1.de"/>
    <tag k="phone" v="+49 5033-954-30"/>
  </node>
  <node id="-2821" version="0" timestamp="Fri Feb 24 10:53:34 +0100 2012" uid="1" user="" lat="52.4523423" lon="9.3554832">
    <tag k="name" v="Haus im Naturpark"/>
    <tag k="wheelchair" v="yes"/>
    <tag k="addr:city" v="Wunstorf"/>
    <tag k="addr:postcode" v="31515"/>
    <tag k="addr:housenumber" v="3"/>
    <tag k="tourism" v="hotel"/>
    <tag k="addr:street" v="Leinenweberstr."/>
    <tag k="website" v="http://www.Haus-im-naturpark.de"/>
    <tag k="phone" v="+49 5033-954-30"/>
  </node>
  <node id="-2824" version="0" timestamp="Fri Feb 24 10:53:34 +0100 2012" uid="1" user="" lat="52.4566747" lon="9.3722814">
    <tag k="name" v="Ferienhaus SEESTERN"/>
    <tag k="wheelchair" v="yes"/>
    <tag k="addr:city" v="Wunstorf"/>
    <tag k="addr:postcode" v="31515"/>
    <tag k="addr:housenumber" v="64"/>
    <tag k="tourism" v="chalet"/>
    <tag k="addr:street" v="In der Heide"/>
    <tag k="wheelchair:description" v="Erdgeschoss"/>
    <tag k="website" v="http://www.ferienhaus-seestern.net"/>
    <tag k="phone" v="+49 5033-954-30"/>
  </node>
  <node id="-2825" version="0" timestamp="Fri Feb 24 10:53:34 +0100 2012" uid="1" user="" lat="52.2732926" lon="9.573067">
    <tag k="name" v="Doppelhelix"/>
    <tag k="wheelchair" v="yes"/>
    <tag k="addr:city" v="Wennigsen (Deister)"/>
    <tag k="addr:postcode" v="30974"/>
    <tag k="addr:street" v="Forges-les-Eaux-Platz"/>
    <tag k="historic" v="memorial"/>
  </node>
  <node id="-2828" version="0" timestamp="Fri Feb 24 10:53:34 +0100 2012" uid="1" user="" lat="52.2719435" lon="9.5663904">
    <tag k="name" v="ehemaliges Amtsgerichtsgebäude"/>
    <tag k="wheelchair" v="yes"/>
    <tag k="addr:city" v="Wennigsen (Deister)"/>
    <tag k="addr:postcode" v="30974"/>
    <tag k="addr:housenumber" v="39"/>
    <tag k="addr:street" v="Hauptstraße"/>
    <tag k="wheelchair:description" v="Baudenkmal, Besichtigung von außen"/>
    <tag k="historic" v="memorial"/>
  </node>
  <node id="-2829" version="0" timestamp="Fri Feb 24 10:53:34 +0100 2012" uid="1" user="" lat="52.271543" lon="9.5676457">
    <tag k="name" v="ehemaliges Forsthaus"/>
    <tag k="wheelchair" v="yes"/>
    <tag k="addr:city" v="Wennigsen (Deister)"/>
    <tag k="addr:postcode" v="30974"/>
    <tag k="addr:housenumber" v="33"/>
    <tag k="addr:street" v="Hauptstraße"/>
    <tag k="wheelchair:description" v="Baudenkmal, Besichtigung von außen"/>
    <tag k="historic" v="memorial"/>
  </node>
  <node id="-2830" version="0" timestamp="Fri Feb 24 10:53:34 +0100 2012" uid="1" user="" lat="52.2711034" lon="9.5675749">
    <tag k="name" v="ehemalige Villa Krogmann und Wirtschaftsgebäude"/>
    <tag k="wheelchair" v="yes"/>
    <tag k="addr:city" v="Wennigsen (Deister)"/>
    <tag k="addr:postcode" v="30974"/>
    <tag k="addr:housenumber" v="1"/>
    <tag k="addr:street" v="Hülsebrinkstraße"/>
    <tag k="wheelchair:description" v="Baudenkmal, Besichtigung von außen"/>
    <tag k="historic" v="memorial"/>
  </node>
  <node id="-2831" version="0" timestamp="Fri Feb 24 10:53:34 +0100 2012" uid="1" user="" lat="52.2728382" lon="9.5758927">
    <tag k="name" v="Ehrenmal für gefallene Soldaten der Weltkriege"/>
    <tag k="wheelchair" v="yes"/>
    <tag k="addr:city" v="Wennigsen (Deister)"/>
    <tag k="addr:postcode" v="30974"/>
    <tag k="addr:street" v="Sorsumer Straße"/>
    <tag k="wheelchair:description" v="auf dem Wennigser Friedhof vor der Kapelle links"/>
    <tag k="historic" v="memorial"/>
  </node>
  <node id="-2837" version="0" timestamp="Fri Feb 24 10:53:34 +0100 2012" uid="1" user="" lat="52.2733127" lon="9.5749083">
    <tag k="name" v="Elten-Grabmal"/>
    <tag k="wheelchair" v="limited"/>
    <tag k="addr:city" v="Wennigsen (Deister)"/>
    <tag k="addr:postcode" v="30974"/>
    <tag k="addr:street" v="Sorsumer Straße"/>
    <tag k="wheelchair:description" v="wenige Meter rechts hinter dem Haupteingang des Wennigser Friedhofs bis auf wenige Meter barrierefrei erreichbar"/>
    <tag k="historic" v="memorial"/>
  </node>
  <node id="-2839" version="0" timestamp="Fri Feb 24 10:53:34 +0100 2012" uid="1" user="" lat="52.2784933" lon="9.5721417">
    <tag k="name" v="Gedenktafel zur Wiedergründung der Sozialdemokratischen Partei Deutschlands"/>
    <tag k="wheelchair" v="yes"/>
    <tag k="addr:city" v="Wennigsen (Deister)"/>
    <tag k="addr:postcode" v="30974"/>
    <tag k="addr:housenumber" v="11"/>
    <tag k="addr:street" v="Bahnhofstraße"/>
    <tag k="wheelchair:description" v="an der Südseite des Hotels Calenberger Hof"/>
    <tag k="historic" v="memorial"/>
  </node>
  <node id="-2842" version="0" timestamp="Fri Feb 24 10:53:34 +0100 2012" uid="1" user="" lat="52.2720753" lon="9.5678222">
    <tag k="name" v="Baudenkmal Geschäfts- und Wohnhaus"/>
    <tag k="wheelchair" v="yes"/>
    <tag k="addr:city" v="Wennigsen (Deister)"/>
    <tag k="addr:postcode" v="30974"/>
    <tag k="addr:housenumber" v="16"/>
    <tag k="addr:street" v="Hauptstraße"/>
    <tag k="wheelchair:description" v="Besichtigung von außen"/>
    <tag k="historic" v="memorial"/>
  </node>
  <node id="-2845" version="0" timestamp="Fri Feb 24 10:53:34 +0100 2012" uid="1" user="" lat="52.274371" lon="9.5689961">
    <tag k="name" v="Baudenkmal historisches Fachwerkhaus"/>
    <tag k="wheelchair" v="yes"/>
    <tag k="addr:city" v="Wennigsen (Deister)"/>
    <tag k="addr:postcode" v="30974"/>
    <tag k="addr:housenumber" v="15"/>
    <tag k="addr:street" v="Hirtenstraße"/>
    <tag k="wheelchair:description" v="Besichtigung von außen"/>
    <tag k="historic" v="memorial"/>
  </node>
  <node id="-2847" version="0" timestamp="Fri Feb 24 10:53:34 +0100 2012" uid="1" user="" lat="52.2740289" lon="9.5735899">
    <tag k="name" v="Baudenkmal Klosteramthaus"/>
    <tag k="wheelchair" v="yes"/>
    <tag k="addr:city" v="Wennigsen (Deister)"/>
    <tag k="addr:postcode" v="30974"/>
    <tag k="addr:housenumber" v="5"/>
    <tag k="addr:street" v="Klosteramthof"/>
    <tag k="wheelchair:description" v="Besichtigung von außen"/>
    <tag k="historic" v="memorial"/>
  </node>
  <node id="-2848" version="0" timestamp="Fri Feb 24 10:53:34 +0100 2012" uid="1" user="" lat="52.2743254" lon="9.5734183">
    <tag k="name" v="Jünglingsbrunnen"/>
    <tag k="wheelchair" v="limited"/>
    <tag k="addr:city" v="Wennigsen (Deister)"/>
    <tag k="addr:postcode" v="30974"/>
    <tag k="addr:street" v="Klosteramthof"/>
    <tag k="wheelchair:description" v="bis auf wenige Meter barrierefrei erreichbar"/>
    <tag k="historic" v="memorial"/>
  </node>
  <node id="-2849" version="0" timestamp="Fri Feb 24 10:53:34 +0100 2012" uid="1" user="" lat="52.2744547" lon="9.5731732">
    <tag k="name" v="Baudenkmal ehemaliges Wehr mit Brücke"/>
    <tag k="wheelchair" v="yes"/>
    <tag k="addr:city" v="Wennigsen (Deister)"/>
    <tag k="addr:postcode" v="30974"/>
    <tag k="addr:housenumber" v="zwischen 2A und 4"/>
    <tag k="addr:street" v="Klosteramthof"/>
    <tag k="historic" v="memorial"/>
  </node>
  <node id="-2853" version="0" timestamp="Fri Feb 24 10:53:34 +0100 2012" uid="1" user="" lat="52.2738805" lon="9.5741558">
    <tag k="name" v="Lutherbüste"/>
    <tag k="wheelchair" v="yes"/>
    <tag k="addr:city" v="Wennigsen (Deister)"/>
    <tag k="addr:postcode" v="30974"/>
    <tag k="addr:street" v="Hauptstraße"/>
    <tag k="wheelchair:description" v="südlich der Klosterkirche"/>
    <tag k="historic" v="memorial"/>
  </node>
  <node id="-2855" version="0" timestamp="Fri Feb 24 10:53:34 +0100 2012" uid="1" user="" lat="52.2749336" lon="9.5731837">
    <tag k="name" v="Mahnmal für die Opfer von Faschismus und Krieg"/>
    <tag k="wheelchair" v="limited"/>
    <tag k="addr:city" v="Wennigsen (Deister)"/>
    <tag k="addr:postcode" v="30974"/>
    <tag k="addr:housenumber" v="2A"/>
    <tag k="addr:street" v="Klosteramthof"/>
    <tag k="wheelchair:description" v="bis auf wenige Meter barrierefrei erreichbar"/>
    <tag k="historic" v="memorial"/>
  </node>
  <node id="-2858" version="0" timestamp="Fri Feb 24 10:53:34 +0100 2012" uid="1" user="" lat="52.2727266" lon="9.5763594">
    <tag k="name" v="Baudenkmal Mausoleum der Familie Heinrich Meyer aus Sorsum"/>
    <tag k="wheelchair" v="limited"/>
    <tag k="addr:city" v="Wennigsen (Deister)"/>
    <tag k="addr:postcode" v="30974"/>
    <tag k="addr:street" v="Sorsumer Straße"/>
    <tag k="wheelchair:description" v="Es befindet sich auf dem Wennigser Friedhof und ist vom Eingang ohne Stufen erreichbar, indem man hinter der Kapelle links abbiegt. Wenn man es innen besichtigen will, muss man drei Stufen überwinden."/>
    <tag k="website" v="http://de.wikipedia.org/wiki/Wennigser_Friedhof"/>
    <tag k="historic" v="memorial"/>
  </node>
  <node id="-2859" version="0" timestamp="Fri Feb 24 10:53:34 +0100 2012" uid="1" user="" lat="52.274021" lon="9.5732778">
    <tag k="name" v="Naturdenkmal Maßholder (Feldahorn)"/>
    <tag k="wheelchair" v="yes"/>
    <tag k="addr:city" v="Wennigsen (Deister)"/>
    <tag k="addr:postcode" v="30974"/>
    <tag k="addr:housenumber" v="5/7"/>
    <tag k="addr:street" v="Klosteramthof"/>
    <tag k="website" v="http://de.wikipedia.org/wiki/Liste_der_Naturdenkmale_in_Wennigsen_(Deister)"/>
    <tag k="historic" v="memorial"/>
  </node>
  <node id="-2860" version="0" timestamp="Fri Feb 24 10:53:34 +0100 2012" uid="1" user="" lat="52.2738682" lon="9.5686457">
    <tag k="name" v="Baudenkmal Mittelmühle"/>
    <tag k="wheelchair" v="yes"/>
    <tag k="addr:city" v="Wennigsen (Deister)"/>
    <tag k="addr:postcode" v="30974"/>
    <tag k="addr:housenumber" v="12"/>
    <tag k="addr:street" v="Feuerwehrplatz"/>
    <tag k="wheelchair:description" v="Besichtigung von außen"/>
    <tag k="website" v="http://de.wikipedia.org/wiki/Mittelm%C3%BChle_Wennigsen"/>
    <tag k="historic" v="memorial"/>
  </node>
  <node id="-2861" version="0" timestamp="Fri Feb 24 10:53:34 +0100 2012" uid="1" user="" lat="52.2720763" lon="9.5644376">
    <tag k="name" v="Baudenkmal Obere Mühle"/>
    <tag k="wheelchair" v="yes"/>
    <tag k="addr:city" v="Wennigsen (Deister)"/>
    <tag k="addr:postcode" v="30974"/>
    <tag k="addr:housenumber" v="6"/>
    <tag k="addr:street" v="Mühlenstraße"/>
    <tag k="wheelchair:description" v="Besichtigung von außen"/>
    <tag k="website" v="http://de.wikipedia.org/wiki/Heimatmuseum_Wennigsen"/>
    <tag k="historic" v="memorial"/>
  </node>
  <node id="-2863" version="0" timestamp="Fri Feb 24 10:53:34 +0100 2012" uid="1" user="" lat="52.2717433" lon="9.5671576">
    <tag k="name" v="Baudenkmal Scheune und Gartenanlage"/>
    <tag k="wheelchair" v="yes"/>
    <tag k="addr:city" v="Wennigsen (Deister)"/>
    <tag k="addr:postcode" v="30974"/>
    <tag k="addr:housenumber" v="35"/>
    <tag k="addr:street" v="Hauptstraße"/>
    <tag k="wheelchair:description" v="Besichtigung von außen"/>
    <tag k="website" v="http://de.wikipedia.org/wiki/Liste_der_Baudenkmale_in_Wennigsen"/>
    <tag k="historic" v="memorial"/>
  </node>
  <node id="-2864" version="0" timestamp="Fri Feb 24 10:53:34 +0100 2012" uid="1" user="" lat="52.2724821" lon="9.5685822">
    <tag k="name" v="Naturdenkmal Stieleiche"/>
    <tag k="wheelchair" v="yes"/>
    <tag k="addr:city" v="Wennigsen (Deister)"/>
    <tag k="addr:postcode" v="30974"/>
    <tag k="addr:housenumber" v="14"/>
    <tag k="addr:street" v="Hauptstraße"/>
    <tag k="website" v="http://de.wikipedia.org/wiki/Liste_der_Naturdenkmale_in_Wennigsen_(Deister)"/>
    <tag k="historic" v="memorial"/>
  </node>
  <node id="-3147" version="0" timestamp="Fri Feb 24 10:53:35 +0100 2012" uid="1" user="" lat="52.40112" lon="9.77212">
    <tag k="name" v="Restaurant Achilles"/>
    <tag k="wheelchair" v="limited"/>
    <tag k="addr:city" v="Hannover"/>
    <tag k="addr:postcode" v="30163"/>
    <tag k="addr:housenumber" v="38a"/>
    <tag k="addr:street" v="Höfestraße "/>
    <tag k="wheelchair:description" v="1 Stufe am Eingang"/>
    <tag k="amenity" v="restaurant"/>
    <tag k="website" v="http://www.achilles-hannover.de/"/>
    <tag k="phone" v="+49 511 622227"/>
  </node>
  <node id="-3321" version="0" timestamp="Fri Feb 24 10:53:35 +0100 2012" uid="1" user="" lat="52.3537781" lon="9.7228944">
    <tag k="name" v="Bibliothek der Fachhochschule Hannover"/>
    <tag k="wheelchair" v="limited"/>
    <tag k="addr:city" v="Hannover"/>
    <tag k="addr:postcode" v="30459"/>
    <tag k="addr:housenumber" v="118"/>
    <tag k="addr:street" v="Ricklinger Stadtweg"/>
    <tag k="wheelchair:description" v="Die Leselounge mit den tagesaktuellen Zeitschriften ist nicht erreichbar. Zugang zu Lesesaal/Ausleihe/Auskunft und der Rollstuhltoilette ohne Probleme möglich."/>
    <tag k="amenity" v="library"/>
    <tag k="website" v="http://www.fh-hannover.de/bibl/ueberblick/zb/index.html"/>
    <tag k="phone" v="0511 9296-1086"/>
  </node>
  <node id="-3415" version="0" timestamp="Fri Feb 24 10:53:35 +0100 2012" uid="1" user="" lat="52.3542857" lon="9.7303768">
    <tag k="name" v="jugendherberge hannover"/>
    <tag k="wheelchair" v="yes"/>
    <tag k="addr:city" v="hannover"/>
    <tag k="addr:postcode" v="30169"/>
    <tag k="addr:housenumber" v="1"/>
    <tag k="tourism" v="hostel"/>
    <tag k="addr:street" v="ferdinand wilherm fricke weg "/>
    <tag k="website" v="http://www.djh-niedersachsen.de/jh/hannover/"/>
    <tag k="phone" v="+49 511 1317674"/>
  </node>
  <node id="-3441" version="0" timestamp="Fri Feb 24 10:53:35 +0100 2012" uid="1" user="" lat="52.3727001" lon="9.7444066">
    <tag k="name" v="Dr. Buhmann Schule"/>
    <tag k="wheelchair" v="yes"/>
    <tag k="addr:city" v="Hannover"/>
    <tag k="addr:postcode" v="30159"/>
    <tag k="addr:housenumber" v="13"/>
    <tag k="addr:street" v="Prinzenstraße"/>
    <tag k="amenity" v="school"/>
    <tag k="website" v="http://www.buhmann.de"/>
    <tag k="phone" v="+49 511 30 10 80"/>
  </node>
  <node id="-3499" version="0" timestamp="Fri Feb 24 10:53:35 +0100 2012" uid="1" user="" lat="52.3793766" lon="9.6720966">
    <tag k="name" v="Teilbibliothek Bioverfahrenstechnik der Fachhochschule Hannover"/>
    <tag k="wheelchair" v="limited"/>
    <tag k="addr:city" v="Hannover"/>
    <tag k="addr:postcode" v="30453 "/>
    <tag k="addr:housenumber" v="12"/>
    <tag k="addr:street" v="Heisterbergallee "/>
    <tag k="wheelchair:description" v="Lesesaal/Ausleihe/Auskunft stufenlos erreichbar."/>
    <tag k="amenity" v="library"/>
    <tag k="website" v="http://www.fh-hannover.de/bibl/ueberblick/bv/index.html"/>
    <tag k="phone" v="0511 9296-2249"/>
  </node>
  <node id="-3747" version="0" timestamp="Fri Feb 24 10:53:35 +0100 2012" uid="1" user="" lat="52.3207003" lon="9.8192155">
    <tag k="name" v="Bibliothek im Kurt-Schwitters-Forum"/>
    <tag k="wheelchair" v="yes"/>
    <tag k="addr:city" v="Hannover"/>
    <tag k="addr:postcode" v="30539"/>
    <tag k="addr:housenumber" v="12"/>
    <tag k="addr:street" v="Expo Plaza"/>
    <tag k="wheelchair:description" v="Eine Rollstuhltoilette befindet sich wenige Meter außerhalb der Bibliothek auf dem gleichen Flur"/>
    <tag k="amenity" v="library"/>
    <tag k="website" v="http://www.kurt-schwitters-forum.de/bibliothek/index.htm"/>
    <tag k="phone" v="0511 9296-2640"/>
  </node>
  <node id="-4003" version="0" timestamp="Fri Feb 24 10:53:36 +0100 2012" uid="1" user="" lat="52.3130779" lon="9.6010178">
    <tag k="name" v="Margarethenkirche"/>
    <tag k="wheelchair" v="limited"/>
    <tag k="addr:city" v="Gehrden"/>
    <tag k="addr:postcode" v="30989"/>
    <tag k="addr:housenumber" v="4"/>
    <tag k="addr:street" v="Kirchstraße"/>
    <tag k="wheelchair:description" v="Keine Toliette, "/>
    <tag k="amenity" v="place_of_worship"/>
  </node>
  <node id="-4099" version="0" timestamp="Fri Feb 24 10:53:36 +0100 2012" uid="1" user="" lat="52.4372647" lon="10.0182435">
    <tag k="name" v="Isi`s Grillimbis"/>
    <tag k="wheelchair" v="unknown"/>
    <tag k="addr:city" v="Burgdorf"/>
    <tag k="addr:postcode" v="31303"/>
    <tag k="addr:housenumber" v="12"/>
    <tag k="addr:street" v="Immenser Landstr. "/>
    <tag k="amenity" v="fast_food"/>
    <tag k="phone" v="05136 801 87 40"/>
  </node>
  <node id="-4100" version="0" timestamp="Fri Feb 24 10:53:36 +0100 2012" uid="1" user="" lat="52.4587366" lon="9.9916394">
    <tag k="shop" v="electronics"/>
    <tag k="name" v="expert"/>
    <tag k="wheelchair" v="unknown"/>
    <tag k="addr:city" v="Burgdorf"/>
    <tag k="addr:postcode" v="31303"/>
    <tag k="addr:housenumber" v="1"/>
    <tag k="addr:street" v="Weserstr."/>
  </node>
  <node id="-4116" version="0" timestamp="Fri Feb 24 10:53:36 +0100 2012" uid="1" user="" lat="52.4526587" lon="9.9973964">
    <tag k="shop" v="kiosk"/>
    <tag k="name" v="Weststadt-Shop"/>
    <tag k="wheelchair" v="unknown"/>
    <tag k="addr:city" v="Burgdorf"/>
    <tag k="addr:postcode" v="31303"/>
    <tag k="addr:housenumber" v="15"/>
    <tag k="addr:street" v="Schillerslager Str."/>
    <tag k="phone" v="+49-5136-894601"/>
  </node>
  <node id="-4244" version="0" timestamp="Fri Feb 24 10:53:36 +0100 2012" uid="1" user="" lat="52.4441673" lon="9.9797241">
    <tag k="name" v="Landgasthof Heeßler Bauernstube"/>
    <tag k="wheelchair" v="unknown"/>
    <tag k="addr:city" v="Burgdorf"/>
    <tag k="addr:postcode" v="31303"/>
    <tag k="addr:housenumber" v="17"/>
    <tag k="addr:street" v="Dorfstr."/>
    <tag k="amenity" v="restaurant"/>
    <tag k="website" v="http://www.heesseler-bauernstube.de"/>
  </node>
  <node id="-4245" version="0" timestamp="Fri Feb 24 10:53:36 +0100 2012" uid="1" user="" lat="52.4428304" lon="10.0252445">
    <tag k="shop" v="shoes"/>
    <tag k="name" v="Deichmann"/>
    <tag k="wheelchair" v="unknown"/>
    <tag k="addr:city" v="Burgdorf"/>
    <tag k="addr:postcode" v="31303"/>
    <tag k="addr:housenumber" v="36"/>
    <tag k="addr:street" v="Duderstädter Weg"/>
  </node>
  <node id="-4246" version="0" timestamp="Fri Feb 24 10:53:36 +0100 2012" uid="1" user="" lat="52.4525377" lon="10.006001">
    <tag k="shop" v="garden_centre"/>
    <tag k="name" v="Raiffeisen"/>
    <tag k="wheelchair" v="unknown"/>
    <tag k="addr:city" v="Burgdorf"/>
    <tag k="addr:postcode" v="31303"/>
    <tag k="addr:housenumber" v="8"/>
    <tag k="addr:street" v="Raiffeisenstraße"/>
  </node>
  <node id="-4247" version="0" timestamp="Fri Feb 24 10:53:36 +0100 2012" uid="1" user="" lat="52.38962" lon="9.80918">
    <tag k="name" v="Studentenwohnheim Nobelring"/>
    <tag k="wheelchair" v="limited"/>
    <tag k="addr:city" v="Hannover"/>
    <tag k="addr:postcode" v="30625"/>
    <tag k="addr:housenumber" v="10 + 12"/>
    <tag k="addr:street" v="Nobelring "/>
    <tag k="amenity" v="social_facility"/>
  </node>
  <node id="-4323" version="0" timestamp="Fri Feb 24 10:53:36 +0100 2012" uid="1" user="" lat="52.4849623" lon="10.1020423">
    <tag k="shop" v="butcher"/>
    <tag k="name" v="Fleischerei Hoppe"/>
    <tag k="wheelchair" v="unknown"/>
    <tag k="addr:city" v="Uetze-Hänigsen"/>
    <tag k="addr:postcode" v="31311"/>
    <tag k="addr:housenumber" v="26"/>
    <tag k="addr:street" v="Steindamm"/>
    <tag k="website" v="http://www.fleischerei-hoppe.de"/>
  </node>
  <node id="-4334" version="0" timestamp="Fri Feb 24 10:53:36 +0100 2012" uid="1" user="" lat="52.4444559" lon="10.0016358">
    <tag k="name" v="Stadtwerke Burgdorf"/>
    <tag k="wheelchair" v="unknown"/>
    <tag k="addr:city" v="Burgdorf"/>
    <tag k="addr:postcode" v="31303"/>
    <tag k="addr:housenumber" v="12"/>
    <tag k="addr:street" v="Vor dem Hannoverschen Tor"/>
    <tag k="website" v="http://www.stadtwerke-burgdorf.de/"/>
    <tag k="office" v="company"/>
  </node>
  <node id="-4335" version="0" timestamp="Fri Feb 24 10:53:36 +0100 2012" uid="1" user="" lat="52.4452439" lon="10.0030294">
    <tag k="name" v="Finanzamt Burgdorf"/>
    <tag k="wheelchair" v="unknown"/>
    <tag k="addr:city" v="Burgdorf"/>
    <tag k="addr:postcode" v="31303"/>
    <tag k="office" v="company"/>
  </node>
  <node id="-4340" version="0" timestamp="Fri Feb 24 10:53:36 +0100 2012" uid="1" user="" lat="52.4451383" lon="10.0053983">
    <tag k="name" v="Rathaus 2"/>
    <tag k="wheelchair" v="unknown"/>
    <tag k="addr:city" v="Burgdorf"/>
    <tag k="addr:postcode" v="31303"/>
    <tag k="addr:housenumber" v="1"/>
    <tag k="addr:street" v="Vor dem Hannoverschen Tor"/>
    <tag k="amenity" v="townhall"/>
  </node>
  <node id="-4341" version="0" timestamp="Fri Feb 24 10:53:36 +0100 2012" uid="1" user="" lat="52.4445994" lon="10.00155">
    <tag k="name" v="Rathaus IV"/>
    <tag k="wheelchair" v="unknown"/>
    <tag k="addr:city" v="Burgdorf"/>
    <tag k="addr:postcode" v="31303"/>
    <tag k="addr:street" v="Vor dem Hannoverschen Tor"/>
    <tag k="amenity" v="townhall"/>
  </node>
  <node id="-4342" version="0" timestamp="Fri Feb 24 10:53:36 +0100 2012" uid="1" user="" lat="52.4479566" lon="10.0122519">
    <tag k="name" v="Völkerschlachtdenkmal"/>
    <tag k="wheelchair" v="unknown"/>
    <tag k="historic" v="memorial"/>
  </node>
  <node id="-4373" version="0" timestamp="Fri Feb 24 10:53:36 +0100 2012" uid="1" user="" lat="52.4393565" lon="10.0065904">
    <tag k="shop" v="hairdresser"/>
    <tag k="name" v="Damensalon Ludwig"/>
    <tag k="wheelchair" v="unknown"/>
    <tag k="addr:city" v="Burgdorf"/>
    <tag k="addr:postcode" v="31303"/>
    <tag k="addr:housenumber" v="10a"/>
    <tag k="addr:street" v="Am Kahlen Lehn"/>
    <tag k="phone" v="+49 5136 5510"/>
  </node>
  <node id="-4407" version="0" timestamp="Fri Feb 24 10:53:36 +0100 2012" uid="1" user="" lat="52.4537234" lon="9.9899368">
    <tag k="name" v="Burgdorf/Am Heidberg"/>
    <tag k="wheelchair" v="unknown"/>
    <tag k="amenity" v="bus_station"/>
  </node>
  <node id="-4408" version="0" timestamp="Fri Feb 24 10:53:36 +0100 2012" uid="1" user="" lat="52.3520626" lon="10.1132013">
    <tag k="shop" v="bakery"/>
    <tag k="name" v="Balkenholl"/>
    <tag k="wheelchair" v="yes"/>
  </node>
  <node id="-4409" version="0" timestamp="Fri Feb 24 10:53:36 +0100 2012" uid="1" user="" lat="52.3570578" lon="10.1168573">
    <tag k="name" v="SAN LORENZO Ital. Eiscafe"/>
    <tag k="wheelchair" v="limited"/>
    <tag k="addr:city" v="Lehrte Hämelerwald"/>
    <tag k="addr:postcode" v="31275"/>
    <tag k="addr:housenumber" v="4"/>
    <tag k="addr:street" v="Hermesstraße "/>
    <tag k="amenity" v="cafe"/>
    <tag k="phone" v="(05175) 3140586"/>
  </node>
  <node id="-4410" version="0" timestamp="Fri Feb 24 10:53:36 +0100 2012" uid="1" user="" lat="52.35273" lon="10.11317">
    <tag k="name" v="Seniorenresidenz Lindenhof"/>
    <tag k="wheelchair" v="yes"/>
    <tag k="addr:city" v="Lehrte-Hämelerwald  "/>
    <tag k="addr:postcode" v="31275 "/>
    <tag k="addr:housenumber" v="2d"/>
    <tag k="addr:street" v="Hildesheimer Straße"/>
    <tag k="amenity" v="social_facility"/>
    <tag k="phone" v="05175 9285-0 "/>
  </node>
  <node id="-4411" version="0" timestamp="Fri Feb 24 10:53:36 +0100 2012" uid="1" user="" lat="52.4525865" lon="10.0103928">
    <tag k="name" v="AOK Krankenkasse"/>
    <tag k="wheelchair" v="unknown"/>
    <tag k="addr:city" v="Burgdorf"/>
    <tag k="addr:postcode" v="31303"/>
    <tag k="addr:housenumber" v="29"/>
    <tag k="addr:street" v="Heinrichstraße"/>
    <tag k="phone" v="+49 5136 8050"/>
    <tag k="office" v="company"/>
  </node>
  <node id="-4417" version="0" timestamp="Fri Feb 24 10:53:36 +0100 2012" uid="1" user="" lat="52.4828652" lon="10.0092394">
    <tag k="shop" v="kiosk"/>
    <tag k="name" v="Onkel-Emma-Laden"/>
    <tag k="wheelchair" v="unknown"/>
    <tag k="addr:city" v="Burgdorf"/>
    <tag k="addr:postcode" v="31303"/>
    <tag k="addr:housenumber" v="26"/>
    <tag k="addr:street" v="Burgdorfer Str."/>
    <tag k="phone" v="+49 5136 83737"/>
  </node>
  <node id="-4418" version="0" timestamp="Fri Feb 24 10:53:36 +0100 2012" uid="1" user="" lat="52.4826413" lon="10.0086445">
    <tag k="name" v="Wellblechpalast"/>
    <tag k="wheelchair" v="unknown"/>
    <tag k="addr:city" v="Burgdorf"/>
    <tag k="addr:postcode" v="31303"/>
    <tag k="addr:housenumber" v="26"/>
    <tag k="addr:street" v="Burgdorfer Str."/>
    <tag k="amenity" v="restaurant"/>
    <tag k="website" v="http://www.wellblechpalast.de"/>
  </node>
  <node id="-4553" version="0" timestamp="Fri Feb 24 10:53:36 +0100 2012" uid="1" user="" lat="52.4477018" lon="10.0105263">
    <tag k="name" v="Fischfeinkost Burgdorf"/>
    <tag k="wheelchair" v="unknown"/>
    <tag k="addr:city" v="Burgdorf"/>
    <tag k="addr:postcode" v="31303"/>
    <tag k="addr:housenumber" v="7"/>
    <tag k="addr:street" v="Wallstr."/>
    <tag k="amenity" v="restaurant"/>
    <tag k="website" v="http://www.fischfeinkost-burgdorf.de"/>
  </node>
  <node id="-4554" version="0" timestamp="Fri Feb 24 10:53:36 +0100 2012" uid="1" user="" lat="52.4605884" lon="10.012039">
    <tag k="shop" v="bakery"/>
    <tag k="name" v="Parlasca Keksfabrik"/>
    <tag k="wheelchair" v="unknown"/>
    <tag k="addr:city" v="Burgdorf"/>
    <tag k="addr:postcode" v="31303"/>
    <tag k="addr:housenumber" v="49"/>
    <tag k="addr:street" v="Vor dem Celler Tor"/>
    <tag k="website" v="http://www.parlasca-keks.de"/>
  </node>
  <node id="-4555" version="0" timestamp="Fri Feb 24 10:53:36 +0100 2012" uid="1" user="" lat="52.4584581" lon="9.9909555">
    <tag k="name" v="Stadtsparkasse Burgdorf"/>
    <tag k="wheelchair" v="unknown"/>
    <tag k="addr:city" v="Burgdorf"/>
    <tag k="addr:postcode" v="31303"/>
    <tag k="amenity" v="bank"/>
  </node>
  <node id="-4557" version="0" timestamp="Fri Feb 24 10:53:36 +0100 2012" uid="1" user="" lat="52.4455747" lon="10.0088352">
    <tag k="name" v="Moccacino"/>
    <tag k="wheelchair" v="unknown"/>
    <tag k="addr:city" v="Burgdorf"/>
    <tag k="addr:postcode" v="31303"/>
    <tag k="addr:housenumber" v="6"/>
    <tag k="addr:street" v="Poststr."/>
    <tag k="amenity" v="cafe"/>
  </node>
  <node id="-4677" version="0" timestamp="Fri Feb 24 10:53:36 +0100 2012" uid="1" user="" lat="52.4461266" lon="10.0051391">
    <tag k="shop" v="hearing_aids"/>
    <tag k="name" v="KIND Hörgeräte"/>
    <tag k="wheelchair" v="unknown"/>
    <tag k="addr:city" v="Burgdorf"/>
    <tag k="addr:postcode" v="31303"/>
    <tag k="addr:housenumber" v="67"/>
    <tag k="addr:street" v="Marktstr."/>
    <tag k="website" v="http://www.kind.com/de"/>
    <tag k="phone" v="+49 5136 87 35 52"/>
  </node>
  <node id="-4688" version="0" timestamp="Fri Feb 24 10:53:36 +0100 2012" uid="1" user="" lat="52.4571073" lon="9.9848794">
    <tag k="name" v="Saalestraße"/>
    <tag k="wheelchair" v="unknown"/>
    <tag k="addr:city" v="Burgdorf"/>
    <tag k="addr:postcode" v="31303"/>
    <tag k="addr:street" v="Saalestraße"/>
    <tag k="highway" v="bus_stop"/>
  </node>
  <node id="-4739" version="0" timestamp="Fri Feb 24 10:53:36 +0100 2012" uid="1" user="" lat="52.4378515" lon="10.0104717">
    <tag k="shop" v="chemist"/>
    <tag k="name" v="Schlecker"/>
    <tag k="wheelchair" v="unknown"/>
    <tag k="addr:city" v="Burgdorf"/>
    <tag k="addr:postcode" v="31303"/>
    <tag k="addr:housenumber" v="20"/>
    <tag k="addr:street" v="Depenauer Weg"/>
  </node>
  <node id="-4779" version="0" timestamp="Fri Feb 24 10:53:36 +0100 2012" uid="1" user="" lat="52.34001" lon="9.80867">
    <tag k="name" v="VfB Wülfel"/>
    <tag k="wheelchair" v="yes"/>
    <tag k="addr:city" v="Hannover"/>
    <tag k="addr:postcode" v="30539"/>
    <tag k="addr:housenumber" v="7"/>
    <tag k="addr:street" v="Paderborner Str."/>
    <tag k="leisure" v="arena"/>
    <tag k="website" v="http://www.vfb-wuelfel.de"/>
  </node>
  <node id="-4984" version="0" timestamp="Fri Feb 24 10:53:36 +0100 2012" uid="1" user="" lat="52.445976" lon="10.0079478">
    <tag k="name" v="Arzt"/>
    <tag k="wheelchair" v="unknown"/>
    <tag k="addr:city" v="Burgdorf"/>
    <tag k="addr:postcode" v="31303"/>
    <tag k="addr:housenumber" v="5"/>
    <tag k="addr:street" v="Schloßstr."/>
    <tag k="amenity" v="doctors"/>
  </node>
  <node id="-4985" version="0" timestamp="Fri Feb 24 10:53:36 +0100 2012" uid="1" user="" lat="52.4459286" lon="10.0083442">
    <tag k="name" v="Augenarzt "/>
    <tag k="wheelchair" v="unknown"/>
    <tag k="addr:city" v="Burgdorf"/>
    <tag k="addr:postcode" v="31303"/>
    <tag k="addr:housenumber" v="2"/>
    <tag k="addr:street" v="Schloßstr."/>
    <tag k="amenity" v="doctors"/>
  </node>
  <node id="-5066" version="0" timestamp="Fri Feb 24 10:53:37 +0100 2012" uid="1" user="" lat="52.3560193" lon="10.1148461">
    <tag k="name" v="Frank Kutz Steuerberater"/>
    <tag k="wheelchair" v="limited"/>
    <tag k="addr:city" v="Lehrte Hämelerwald"/>
    <tag k="addr:postcode" v="31275"/>
    <tag k="addr:housenumber" v="13"/>
    <tag k="addr:street" v="Niedersachsenstraße "/>
    <tag k="website" v="http://www.steuerberater-kutz.de"/>
    <tag k="phone" v="+495175 92 93 30"/>
    <tag k="office" v="company"/>
  </node>
  <node id="-5067" version="0" timestamp="Fri Feb 24 10:53:37 +0100 2012" uid="1" user="" lat="52.3560193" lon="10.1148461">
    <tag k="name" v="Frank Kutz Steuerberater"/>
    <tag k="wheelchair" v="limited"/>
    <tag k="addr:city" v="Lehrte Hämelerwald"/>
    <tag k="addr:postcode" v="31275"/>
    <tag k="addr:housenumber" v="13"/>
    <tag k="addr:street" v="Niedersachsenstraße "/>
    <tag k="website" v="http://www.steuerberater-kutz.de"/>
    <tag k="phone" v="+495175 92 93 30"/>
    <tag k="office" v="company"/>
  </node>
  <node id="-5103" version="0" timestamp="Fri Feb 24 10:53:37 +0100 2012" uid="1" user="" lat="52.3681651" lon="9.7543035">
    <tag k="name" v="Sozialamt Hannover"/>
    <tag k="wheelchair" v="no"/>
    <tag k="addr:city" v="Hannover"/>
    <tag k="addr:housenumber" v="16"/>
    <tag k="addr:street" v="Sallstrasse"/>
    <tag k="wheelchair:description" v="Zugang nur über Stadtarchiv und mehrere Fahrstühle in verschiedenen Gebäuden"/>
    <tag k="amenity" v="social_facility"/>
  </node>
  <node id="-5107" version="0" timestamp="Fri Feb 24 10:53:37 +0100 2012" uid="1" user="" lat="52.3814522" lon="9.7272347">
    <tag k="name" v="Sozialamt Hannover"/>
    <tag k="wheelchair" v="unknown"/>
    <tag k="addr:city" v="Hannover"/>
    <tag k="addr:postcode" v="30167"/>
    <tag k="addr:housenumber" v="1"/>
    <tag k="addr:street" v="Arndtstraße"/>
    <tag k="amenity" v="embassy"/>
    <tag k="phone" v="0511 / 168 - 4 24 72"/>
  </node>
  <node id="-5115" version="0" timestamp="Fri Feb 24 10:53:37 +0100 2012" uid="1" user="" lat="52.3264985" lon="9.726719">
    <tag k="shop" v="supermarket"/>
    <tag k="name" v="Bioladen KAMÖRI"/>
    <tag k="wheelchair" v="limited"/>
    <tag k="addr:city" v="Hemmingen"/>
    <tag k="addr:postcode" v="30966"/>
    <tag k="addr:housenumber" v="6"/>
    <tag k="addr:street" v="Rathausplatz"/>
    <tag k="wheelchair:description" v="Zugang zum Platz und zum Laden über Rampen"/>
    <tag k="website" v="http://www.echt-bio.de/biolaeden/kamoeri"/>
    <tag k="phone" v="+49 511 4104035 "/>
  </node>
  <node id="-5370" version="0" timestamp="Fri Feb 24 10:53:37 +0100 2012" uid="1" user="" lat="52.36217" lon="9.74896">
    <tag k="name" v="Santander Consumer Bank"/>
    <tag k="wheelchair" v="unknown"/>
    <tag k="addr:city" v="Hannover"/>
    <tag k="addr:postcode" v="30169"/>
    <tag k="addr:housenumber" v="19"/>
    <tag k="addr:street" v="Hildesheimer Straße "/>
    <tag k="amenity" v="bank"/>
    <tag k="website" v="http://www.santander.de"/>
  </node>
  <node id="-5416" version="0" timestamp="Fri Feb 24 10:53:37 +0100 2012" uid="1" user="" lat="52.37354" lon="9.7065">
    <tag k="name" v="Santander Consumer Bank"/>
    <tag k="wheelchair" v="limited"/>
    <tag k="addr:city" v="Hannover"/>
    <tag k="addr:postcode" v="30451"/>
    <tag k="addr:housenumber" v="51"/>
    <tag k="addr:street" v="Limmerstraße"/>
    <tag k="amenity" v="bank"/>
    <tag k="website" v="http://www.santander.de"/>
  </node>
  <node id="-5426" version="0" timestamp="Fri Feb 24 10:53:37 +0100 2012" uid="1" user="" lat="52.46336" lon="10.20926">
    <tag k="name" v="Santander Consumer Bank"/>
    <tag k="wheelchair" v="limited"/>
    <tag k="addr:city" v="Hildesheim"/>
    <tag k="addr:postcode" v="31134"/>
    <tag k="addr:housenumber" v="12A"/>
    <tag k="addr:street" v="Osterstraße"/>
    <tag k="amenity" v="bank"/>
    <tag k="website" v="http://www.santander.de"/>
  </node>
  <node id="-5453" version="0" timestamp="Fri Feb 24 10:53:37 +0100 2012" uid="1" user="" lat="52.4418101" lon="9.7256352">
    <tag k="name" v="Lenny Soccio Ice Center"/>
    <tag k="wheelchair" v="limited"/>
    <tag k="addr:city" v="Langenhagen"/>
    <tag k="addr:postcode" v="30853"/>
    <tag k="addr:housenumber" v="1"/>
    <tag k="addr:street" v="Brüsseler Straße"/>
    <tag k="wheelchair:description" v="Ebenerdig zugänglich, rollstuhlgerechtes WC, eine rolligerechte Tribüne"/>
    <tag k="leisure" v="stadium"/>
    <tag k="website" v="http://www.soccio-center.de"/>
    <tag k="phone" v="+49 511 897900"/>
  </node>
  <node id="-5454" version="0" timestamp="Fri Feb 24 10:53:37 +0100 2012" uid="1" user="" lat="52.3758189" lon="9.7250366">
    <tag k="name" v="Neuapostolische Gemeinde Hannover-Mitte"/>
    <tag k="wheelchair" v="limited"/>
    <tag k="addr:city" v="Hannover"/>
    <tag k="addr:postcode" v="30169"/>
    <tag k="addr:housenumber" v="11 A"/>
    <tag k="addr:street" v="Brühlstraße"/>
    <tag k="wheelchair:description" v="Rollstuhlgerechtes WC, Fahrstuhl, Tiefgarage mit Fahrstuhl direkt nebenan"/>
    <tag k="amenity" v="place_of_worship"/>
    <tag k="website" v="http://www.mitteinander.de"/>
  </node>
  <node id="-5455" version="0" timestamp="Fri Feb 24 10:53:37 +0100 2012" uid="1" user="" lat="52.3694057" lon="9.6707307">
    <tag k="name" v="TUS Davenstedt"/>
    <tag k="wheelchair" v="limited"/>
    <tag k="amenity" v="restaurant"/>
  </node>
  <node id="-5563" version="0" timestamp="Fri Feb 24 10:53:37 +0100 2012" uid="1" user="" lat="52.3600331" lon="9.7507902">
    <tag k="name" v="Koh-I-Noor Dhaba"/>
    <tag k="wheelchair" v="yes"/>
    <tag k="addr:city" v="Hannover"/>
    <tag k="addr:postcode" v="30169"/>
    <tag k="addr:housenumber" v="85"/>
    <tag k="addr:street" v="Hildesheimer Str."/>
    <tag k="wheelchair:description" v="Für das WC steht eine Rampe zur Verfügung um die Treppe hinaufzukommen. Ob das WC groß genug ist, kann ich nicht genau sagen."/>
    <tag k="amenity" v="restaurant"/>
    <tag k="website" v="http://www.kohinoor-dhaba.de/"/>
    <tag k="phone" v="+4951195483483"/>
  </node>
  <node id="-5564" version="0" timestamp="Fri Feb 24 10:53:37 +0100 2012" uid="1" user="" lat="52.4374937" lon="10.0174206">
    <tag k="shop" v="bakery"/>
    <tag k="name" v="Muckel`s Backshop"/>
    <tag k="wheelchair" v="unknown"/>
    <tag k="addr:city" v="Burgdorf"/>
    <tag k="addr:postcode" v="31303"/>
    <tag k="addr:housenumber" v="7a"/>
    <tag k="addr:street" v="Rubensplatz"/>
  </node>
</osm>
