<?xml version='1.0' encoding='UTF-8'?>
<osm version="0.6" generator="Osmosis 0.39">
  <node id="-4398" version="0" timestamp="Fri Feb 24 10:53:36 +0100 2012" uid="1" user="" lat="52.7299105" lon="8.2897976">
    <tag k="name" v="Dr. Dr. Gerhards + Dr. Herzog"/>
    <tag k="wheelchair" v="yes"/>
    <tag k="addr:city" v="Vechta"/>
    <tag k="addr:postcode" v="49377"/>
    <tag k="addr:housenumber" v="16"/>
    <tag k="addr:street" v="Klingenhagen"/>
    <tag k="wheelchair:description" v="Zahnärzte"/>
    <tag k="amenity" v="doctors"/>
    <tag k="website" v="http://www.zahnaerzte-vechta.de"/>
    <tag k="phone" v="+49 4441 2313"/>
  </node>
  <node id="-5046" version="0" timestamp="Fri Feb 24 10:53:36 +0100 2012" uid="1" user="" lat="52.6653759" lon="8.2332034">
    <tag k="name" v="Arena"/>
    <tag k="wheelchair" v="limited"/>
    <tag k="addr:city" v=" Lohne"/>
    <tag k="addr:postcode" v="49393"/>
    <tag k="addr:housenumber" v="6"/>
    <tag k="addr:street" v="Bahnhofstraße "/>
    <tag k="wheelchair:description" v="gemauerte Rampe zum Restaurant ist vorhanden"/>
    <tag k="amenity" v="restaurant"/>
    <tag k="website" v="http://arena-lohne.de/"/>
    <tag k="phone" v="04442 808858"/>
  </node>
  <node id="-5047" version="0" timestamp="Fri Feb 24 10:53:36 +0100 2012" uid="1" user="" lat="52.6656883" lon="8.2357482">
    <tag k="name" v="Hee-Lam-Mun "/>
    <tag k="wheelchair" v="limited"/>
    <tag k="addr:city" v=" Lohne "/>
    <tag k="addr:postcode" v="49393"/>
    <tag k="addr:housenumber" v="2"/>
    <tag k="addr:street" v="Neuer Markt "/>
    <tag k="wheelchair:description" v="Alu Rampe (4 meter lang) wird bei Voranmeldung aufgebaut (ein Tag ein vor Restaurant besuch)"/>
    <tag k="amenity" v="restaurant"/>
    <tag k="phone" v="04442 5990"/>
  </node>
  <node id="-5094" version="0" timestamp="Fri Feb 24 10:53:37 +0100 2012" uid="1" user="" lat="52.6656971" lon="8.2371094">
    <tag k="shop" v="books"/>
    <tag k="name" v="Rießelmannsche Buch- u. Papierhandlung GmbH"/>
    <tag k="wheelchair" v="limited"/>
    <tag k="addr:city" v="Lohne"/>
    <tag k="addr:postcode" v="49393"/>
    <tag k="addr:housenumber" v="5-7"/>
    <tag k="addr:street" v="Marktstr. "/>
    <tag k="wheelchair:description" v="man kommt in die Buchhandelung (dort kann man sich nur im Ertgeschoss mit einschrenkgungen bewegen) doch das Persnal ist sehr hiftsbeit"/>
  </node>
</osm>
