<?xml version='1.0' encoding='UTF-8'?>
<osm version="0.6" generator="Osmosis 0.39">
  <node id="-924" version="0" timestamp="Fri Feb 24 10:53:33 +0100 2012" uid="1" user="" lat="52.1518225" lon="10.5655462">
    <tag k="shop" v="supermarket"/>
    <tag k="name" v="Aldi"/>
    <tag k="wheelchair" v="no"/>
  </node>
  <node id="-4180" version="0" timestamp="Fri Feb 24 10:53:36 +0100 2012" uid="1" user="" lat="52.16249" lon="10.53442">
    <tag k="name" v="Tourist-IO"/>
    <tag k="wheelchair" v="unknown"/>
    <tag k="amenity" v="bank"/>
  </node>
  <node id="-4181" version="0" timestamp="Fri Feb 24 10:53:36 +0100 2012" uid="1" user="" lat="52.1623255" lon="10.5345702">
    <tag k="name" v="Tourist-Information"/>
    <tag k="wheelchair" v="yes"/>
    <tag k="addr:city" v="Wolfenbüttel"/>
    <tag k="addr:postcode" v="38300"/>
    <tag k="addr:housenumber" v="7"/>
    <tag k="addr:street" v="Stadtmarkt"/>
    <tag k="wheelchair:description" v="ebenerdig; Tür öffnet nach innen"/>
    <tag k="website" v="http://www.wolfenbuettel-tourismus.de/web_content.html"/>
    <tag k="phone" v="+49 5331 86 280"/>
  </node>
  <node id="-4182" version="0" timestamp="Fri Feb 24 10:53:36 +0100 2012" uid="1" user="" lat="52.1589272" lon="10.550035">
    <tag k="name" v="Polizei-Kommissariat"/>
    <tag k="wheelchair" v="limited"/>
    <tag k="addr:city" v="Wolfenbüttel"/>
    <tag k="addr:postcode" v="38300"/>
    <tag k="addr:housenumber" v="22"/>
    <tag k="addr:street" v="Lindener Straße"/>
    <tag k="wheelchair:description" v="Treppenlift auf Anfrage nutzbar; eine Rampe ist vorhanden"/>
    <tag k="phone" v="+49 5331 933 0"/>
  </node>
  <node id="-4183" version="0" timestamp="Fri Feb 24 10:53:36 +0100 2012" uid="1" user="" lat="52.1590482" lon="10.534621">
    <tag k="name" v="Hauptpostamt"/>
    <tag k="wheelchair" v="yes"/>
    <tag k="addr:city" v="Wolfenbüttel"/>
    <tag k="addr:postcode" v="38300"/>
    <tag k="addr:housenumber" v="25"/>
    <tag k="addr:street" v="Harztorwall"/>
    <tag k="wheelchair:description" v="Zugang über eine Rampe links vom Haupteingang "/>
    <tag k="amenity" v="post_office"/>
    <tag k="phone" v="+49 1802 - 33 33"/>
  </node>
  <node id="-4184" version="0" timestamp="Fri Feb 24 10:53:36 +0100 2012" uid="1" user="" lat="52.1625517" lon="10.5252994">
    <tag k="name" v="Finanzamt Wolfenbüttel"/>
    <tag k="wheelchair" v="yes"/>
    <tag k="addr:city" v="Wolfenbüttel"/>
    <tag k="addr:postcode" v="38302"/>
    <tag k="addr:housenumber" v="19"/>
    <tag k="addr:street" v="Jägerstraße"/>
    <tag k="website" v="http://www.ofd.niedersachsen.de/portal/live.php?navigation_id=17501&amp;_psmand=110"/>
    <tag k="phone" v="+49 5331 803 0"/>
  </node>
  <node id="-4185" version="0" timestamp="Fri Feb 24 10:53:36 +0100 2012" uid="1" user="" lat="52.1620784" lon="10.550441">
    <tag k="name" v="Hauptfriedhof Wolfenbüttel"/>
    <tag k="wheelchair" v="limited"/>
    <tag k="addr:city" v="Wolfenbüttel"/>
    <tag k="addr:postcode" v="38300"/>
    <tag k="addr:housenumber" v="10"/>
    <tag k="addr:street" v="Lindener Straße "/>
    <tag k="wheelchair:description" v="Zugang zur barrierefreien Toilette über die Verwaltung im Tor; die Kapelle ist über drei Stufen zugänglich"/>
    <tag k="phone" v="+49 5331 97 41 0"/>
  </node>
  <node id="-4186" version="0" timestamp="Fri Feb 24 10:53:36 +0100 2012" uid="1" user="" lat="52.1592461" lon="10.5344888">
    <tag k="name" v="Hauptpostamt"/>
    <tag k="wheelchair" v="yes"/>
    <tag k="addr:city" v="Wolfenbüttel"/>
    <tag k="addr:postcode" v="38300"/>
    <tag k="addr:housenumber" v="25"/>
    <tag k="addr:street" v="Harztorwall"/>
    <tag k="wheelchair:description" v="Zugang über eine Rampe links vom Haupteingang "/>
    <tag k="amenity" v="post_office"/>
    <tag k="phone" v="+49 1802 - 33 33"/>
  </node>
</osm>
