<?xml version='1.0' encoding='UTF-8'?>
<osm version="0.6" generator="Osmosis 0.39">
  <node id="-2641" version="0" timestamp="Fri Feb 24 10:53:34 +0100 2012" uid="1" user="" lat="50.5325361" lon="7.0809546">
    <tag k="name" v="Romantik Hotel Sanct Peter"/>
    <tag k="wheelchair" v="yes"/>
    <tag k="addr:city" v="Bad Neuenahr-Ahrweiler"/>
    <tag k="addr:postcode" v="53474"/>
    <tag k="addr:housenumber" v="118"/>
    <tag k="tourism" v="hotel"/>
    <tag k="addr:street" v="Walporzheimer Str."/>
    <tag k="wheelchair:description" v="Rollstuhl gerechte Zimmer und ein Aufzug der auch direkt vom Parkplatz aus befahrbar ist"/>
    <tag k="website" v="http://www.hotel-sanctpeter.de"/>
    <tag k="phone" v="+ 49 2641 - 905030"/>
  </node>
  <node id="-2988" version="0" timestamp="Fri Feb 24 10:53:35 +0100 2012" uid="1" user="" lat="50.6403116" lon="7.2039585">
    <tag k="name" v="Rolandsbogen u. Rheinromantik-Terrasse"/>
    <tag k="wheelchair" v="no"/>
    <tag k="addr:city" v="Rolandswerth"/>
    <tag k="addr:postcode" v="53424"/>
    <tag k="addr:housenumber" v="0"/>
    <tag k="addr:street" v="Rolandsbogen"/>
    <tag k="wheelchair:description" v="nur über Weg mit zahlreichen Stufen erreichbar"/>
    <tag k="amenity" v="restaurant"/>
    <tag k="website" v="http://www.rolandsbogen.de/"/>
    <tag k="phone" v="+49 228 43342440"/>
  </node>
  <node id="-5644" version="0" timestamp="Fri Feb 24 10:53:37 +0100 2012" uid="1" user="" lat="50.5171869" lon="6.9923339">
    <tag k="name" v="Behindertenparkplatz"/>
    <tag k="wheelchair" v="yes"/>
    <tag k="wheelchair:description" v="max 1 Stunde per Parkscheibe"/>
    <tag k="amenity" v="parking"/>
  </node>
  <node id="-5645" version="0" timestamp="Fri Feb 24 10:53:37 +0100 2012" uid="1" user="" lat="50.516794" lon="6.9891122">
    <tag k="name" v="Volksbank inkl. Geldautomat"/>
    <tag k="wheelchair" v="yes"/>
    <tag k="wheelchair:description" v="mit guter Parkmöglichkeit"/>
    <tag k="amenity" v="bank"/>
  </node>
  <node id="-5646" version="0" timestamp="Fri Feb 24 10:53:37 +0100 2012" uid="1" user="" lat="50.51679" lon="6.98911">
    <tag k="name" v="Resturant Hotel Centralhotel"/>
    <tag k="wheelchair" v="no"/>
    <tag k="amenity" v="restaurant"/>
  </node>
  <node id="-5647" version="0" timestamp="Fri Feb 24 10:53:37 +0100 2012" uid="1" user="" lat="50.5167047" lon="6.9894909">
    <tag k="name" v="Resturant Hotel Zum Schwarzen Kreuz"/>
    <tag k="wheelchair" v="limited"/>
    <tag k="wheelchair:description" v="Gastraum Restaurant, Rauchraum und Terrasse ebenerdig, Toilete nicht"/>
    <tag k="amenity" v="restaurant"/>
  </node>
  <node id="-5648" version="0" timestamp="Fri Feb 24 10:53:37 +0100 2012" uid="1" user="" lat="50.515947" lon="6.9870304">
    <tag k="name" v="Sparkasse inkl. Geldautomat"/>
    <tag k="wheelchair" v="yes"/>
    <tag k="wheelchair:description" v="mit guter Parkmöglichkeit"/>
    <tag k="amenity" v="bank"/>
  </node>
  <node id="-5649" version="0" timestamp="Fri Feb 24 10:53:37 +0100 2012" uid="1" user="" lat="50.51595" lon="6.9868369">
    <tag k="name" v="Kundenparkplatz Sparkasse inkl. 1 Rollstuhlparkplatz"/>
    <tag k="wheelchair" v="yes"/>
    <tag k="amenity" v="parking"/>
  </node>
  <node id="-5650" version="0" timestamp="Fri Feb 24 10:53:37 +0100 2012" uid="1" user="" lat="50.5165437" lon="6.9890015">
    <tag k="name" v="Resturant Hotel Centralhotel"/>
    <tag k="wheelchair" v="no"/>
    <tag k="amenity" v="restaurant"/>
  </node>
  <node id="-5651" version="0" timestamp="Fri Feb 24 10:53:37 +0100 2012" uid="1" user="" lat="50.5170893" lon="6.9918925">
    <tag k="name" v="Schäferkarren"/>
    <tag k="wheelchair" v="limited"/>
    <tag k="wheelchair:description" v="Einige Tische ebenerdig, sonst 1 Stufe, keine R-Toilette"/>
    <tag k="amenity" v="restaurant"/>
  </node>
  <node id="-5652" version="0" timestamp="Fri Feb 24 10:53:37 +0100 2012" uid="1" user="" lat="50.5198945" lon="6.9971147">
    <tag k="name" v="Weißes Kreuz"/>
    <tag k="wheelchair" v="no"/>
    <tag k="tourism" v="viewpoint"/>
  </node>
  <node id="-5653" version="0" timestamp="Fri Feb 24 10:53:37 +0100 2012" uid="1" user="" lat="50.5243025" lon="6.9919561">
    <tag k="shop" v="beverages"/>
    <tag k="name" v="Getränke Zimmermann"/>
    <tag k="wheelchair" v="yes"/>
    <tag k="addr:city" v="Altenahr"/>
    <tag k="addr:postcode" v="53505"/>
    <tag k="addr:housenumber" v="125"/>
    <tag k="addr:street" v="Roßberg "/>
    <tag k="website" v="http://www.getraenkezimmermann.de/"/>
    <tag k="phone" v=" 02643 / 8447"/>
  </node>
  <node id="-5654" version="0" timestamp="Fri Feb 24 10:53:37 +0100 2012" uid="1" user="" lat="50.5244978" lon="6.9918849">
    <tag k="name" v=" Autohaus Mönch GmbH"/>
    <tag k="wheelchair" v="yes"/>
    <tag k="addr:city" v="Altenahr"/>
    <tag k="addr:postcode" v="53505 "/>
    <tag k="addr:housenumber" v="127"/>
    <tag k="addr:street" v="Roßberg "/>
    <tag k="wheelchair:description" v="exl. Toilette"/>
    <tag k="amenity" v="bank"/>
    <tag k="website" v="http://www.autohaus-moench.de/"/>
    <tag k="phone" v="02643 / 9411-0"/>
  </node>
  <node id="-5655" version="0" timestamp="Fri Feb 24 10:53:37 +0100 2012" uid="1" user="" lat="50.5238752" lon="6.9922141">
    <tag k="shop" v="kiosk"/>
    <tag k="name" v="Obststand Rossberg"/>
    <tag k="wheelchair" v="yes"/>
    <tag k="wheelchair:description" v="Man kann dort halten und wird im Auto bedient"/>
  </node>
  <node id="-5656" version="0" timestamp="Fri Feb 24 10:53:37 +0100 2012" uid="1" user="" lat="50.5243804" lon="6.9920408">
    <tag k="name" v="Oberer Rossberg"/>
    <tag k="wheelchair" v="no"/>
    <tag k="amenity" v="bus_station"/>
  </node>
  <node id="-5657" version="0" timestamp="Fri Feb 24 10:53:37 +0100 2012" uid="1" user="" lat="50.5239605" lon="6.9924262">
    <tag k="name" v="Oberer Rossberg"/>
    <tag k="wheelchair" v="no"/>
    <tag k="amenity" v="bus_station"/>
  </node>
  <node id="-5658" version="0" timestamp="Fri Feb 24 10:53:37 +0100 2012" uid="1" user="" lat="50.5217217" lon="6.9940652">
    <tag k="shop" v="car_repair"/>
    <tag k="name" v="Opel Auto Schmitz"/>
    <tag k="wheelchair" v="yes"/>
    <tag k="addr:city" v="Altenahr"/>
    <tag k="addr:postcode" v="53505 "/>
    <tag k="addr:housenumber" v="91 "/>
    <tag k="addr:street" v="Rossberg "/>
    <tag k="wheelchair:description" v="ex. Toilette"/>
    <tag k="website" v="http://www.auto-schmitz-altenahr.de/"/>
    <tag k="phone" v="02643/7190"/>
  </node>
  <node id="-5659" version="0" timestamp="Fri Feb 24 10:53:37 +0100 2012" uid="1" user="" lat="50.5210131" lon="6.9977286">
    <tag k="name" v="Kinkel Blick Rotweinwanderweg"/>
    <tag k="wheelchair" v="limited"/>
    <tag k="tourism" v="viewpoint"/>
    <tag k="wheelchair:description" v="Feldweg - Nur mit E-Rolli oder Scooter"/>
  </node>
  <node id="-5660" version="0" timestamp="Fri Feb 24 10:53:37 +0100 2012" uid="1" user="" lat="50.51749" lon="6.99218">
    <tag k="name" v="Hotel Restaurant Caspari"/>
    <tag k="wheelchair" v="limited"/>
    <tag k="addr:city" v="Altenahr"/>
    <tag k="addr:postcode" v="53505"/>
    <tag k="addr:housenumber" v="125"/>
    <tag k="addr:street" v="Roßberg "/>
    <tag k="amenity" v="restaurant"/>
    <tag k="website" v="http://www.gourmetguide.com/4088"/>
    <tag k="phone" v="02643/9417-0"/>
  </node>
  <node id="-5661" version="0" timestamp="Fri Feb 24 10:53:37 +0100 2012" uid="1" user="" lat="50.5165219" lon="6.9897737">
    <tag k="name" v="Hotel Restaurant &quot;Zur Post&quot;"/>
    <tag k="wheelchair" v="limited"/>
    <tag k="addr:city" v="Altenahr"/>
    <tag k="addr:postcode" v="53505"/>
    <tag k="addr:housenumber" v="2"/>
    <tag k="addr:street" v="Brückenstr"/>
    <tag k="wheelchair:description" v="keine B-Toilette"/>
    <tag k="amenity" v="restaurant"/>
    <tag k="website" v="http://www.hotelzur-post.de/"/>
    <tag k="phone" v="+49 2643 931 0 "/>
  </node>
  <node id="-5662" version="0" timestamp="Fri Feb 24 10:53:37 +0100 2012" uid="1" user="" lat="50.5168922" lon="6.9916729">
    <tag k="name" v="Postfiliale in der Wäscherei Buske"/>
    <tag k="wheelchair" v="no"/>
    <tag k="addr:city" v="Altenahr"/>
    <tag k="addr:postcode" v="53505"/>
    <tag k="addr:housenumber" v="18"/>
    <tag k="addr:street" v="Brückenstr"/>
    <tag k="wheelchair:description" v="Aber: Nummer an der Tür Tel. 02643 941136 anrufen und man wird freunlich draußen bedient"/>
    <tag k="amenity" v="post_office"/>
    <tag k="phone" v="02643 941136"/>
  </node>
  <node id="-5663" version="0" timestamp="Fri Feb 24 10:53:37 +0100 2012" uid="1" user="" lat="50.5168807" lon="6.9920091">
    <tag k="name" v="Resturant Hotel &quot; Zum weissen Kreuz&quot;"/>
    <tag k="wheelchair" v="limited"/>
    <tag k="addr:city" v="Altenahr"/>
    <tag k="addr:postcode" v="53505"/>
    <tag k="addr:housenumber" v="24"/>
    <tag k="addr:street" v="Brückenstr"/>
    <tag k="amenity" v="restaurant"/>
    <tag k="website" v="http://www.zum-weissen-kreuz.de/index.html"/>
    <tag k="phone" v="+49 (0) 2643 / 85 07"/>
  </node>
  <node id="-5664" version="0" timestamp="Fri Feb 24 10:53:37 +0100 2012" uid="1" user="" lat="50.5163942" lon="6.9931615">
    <tag k="name" v="Behindertenparkplatz"/>
    <tag k="wheelchair" v="yes"/>
    <tag k="wheelchair:description" v="2-3 offizielle Behindertenparkplätze"/>
    <tag k="amenity" v="parking"/>
  </node>
  <node id="-5665" version="0" timestamp="Fri Feb 24 10:53:37 +0100 2012" uid="1" user="" lat="50.5159813" lon="6.9872839">
    <tag k="name" v="Paradies-Apotheke"/>
    <tag k="wheelchair" v="no"/>
    <tag k="addr:city" v="Altenahr"/>
    <tag k="addr:postcode" v="53505"/>
    <tag k="addr:housenumber" v="6"/>
    <tag k="addr:street" v="Altenburger Strasse"/>
    <tag k="wheelchair:description" v="2 Stufen am Eingang. Haltemöglichkeit und Bedienung per Tel anrufen im Auto möglich"/>
    <tag k="amenity" v="pharmacy"/>
    <tag k="website" v="http://www.paradies-apotheke.de/"/>
    <tag k="phone" v="(02643) 83 25"/>
  </node>
  <node id="-5667" version="0" timestamp="Fri Feb 24 10:53:37 +0100 2012" uid="1" user="" lat="50.5168396" lon="6.9886587">
    <tag k="name" v="Allgemeinmediziner Dr. med. G. Sinß"/>
    <tag k="wheelchair" v="unknown"/>
    <tag k="addr:city" v="Altenahr"/>
    <tag k="addr:postcode" v="53505"/>
    <tag k="addr:housenumber" v="3"/>
    <tag k="addr:street" v="Brückenstr"/>
    <tag k="amenity" v="doctors"/>
    <tag k="website" v="http://www.med-kolleg.de/arzt/allgemein/15878.html"/>
    <tag k="phone" v="0 26 43 / 23 19"/>
  </node>
  <node id="-5668" version="0" timestamp="Fri Feb 24 10:53:37 +0100 2012" uid="1" user="" lat="50.5154203" lon="6.9857404">
    <tag k="name" v="Allgemeinmediziner R. Näkelu. Jaeger M. Facharzt f. Allg.Med. u. Naturheilverf. Facharzt f. Allg.Med."/>
    <tag k="wheelchair" v="no"/>
    <tag k="addr:city" v="Altenahr"/>
    <tag k="addr:postcode" v="53505"/>
    <tag k="addr:housenumber" v="11"/>
    <tag k="addr:street" v="Altenburger Strasse"/>
    <tag k="amenity" v="doctors"/>
    <tag k="website" v="http://www.med-kolleg.de/arzt/allgemein/15877.html"/>
    <tag k="phone" v="0 26 43 / 83 91"/>
  </node>
  <node id="-5669" version="0" timestamp="Fri Feb 24 10:53:37 +0100 2012" uid="1" user="" lat="50.5157943" lon="6.9900727">
    <tag k="name" v="Taverna Sirtaki Griechisches Restaurant"/>
    <tag k="wheelchair" v="limited"/>
    <tag k="addr:city" v="Altenahr"/>
    <tag k="addr:postcode" v="53505"/>
    <tag k="addr:housenumber" v="1a"/>
    <tag k="addr:street" v="Altenburger Strasse"/>
    <tag k="wheelchair:description" v="ebenerdig keine B-Toilette"/>
    <tag k="amenity" v="restaurant"/>
    <tag k="phone" v="(0 26 43) 81 10"/>
  </node>
  <node id="-5670" version="0" timestamp="Fri Feb 24 10:53:37 +0100 2012" uid="1" user="" lat="50.515923" lon="6.9894477">
    <tag k="name" v="Touristinformation Mittelahr Altenahr"/>
    <tag k="wheelchair" v="unknown"/>
    <tag k="addr:city" v="Altenahr"/>
    <tag k="addr:postcode" v="53505"/>
    <tag k="tourism" v="attraction"/>
    <tag k="addr:street" v="Bahnhof, Haus des Gastes"/>
    <tag k="website" v="http://www.mittelahr.de/open/M/qHsFag"/>
    <tag k="phone" v="02643/8448"/>
  </node>
  <node id="-5671" version="0" timestamp="Fri Feb 24 10:53:37 +0100 2012" uid="1" user="" lat="50.5452103" lon="7.1364387">
    <tag k="name" v="Commerzbank inkl. Geldautomat"/>
    <tag k="wheelchair" v="unknown"/>
    <tag k="amenity" v="bank"/>
  </node>
  <node id="-5672" version="0" timestamp="Fri Feb 24 10:53:37 +0100 2012" uid="1" user="" lat="50.54231" lon="7.1393">
    <tag k="name" v="Spielbank "/>
    <tag k="wheelchair" v="no"/>
    <tag k="tourism" v="theme_park"/>
  </node>
  <node id="-5673" version="0" timestamp="Fri Feb 24 10:53:37 +0100 2012" uid="1" user="" lat="50.5415484" lon="7.1408468">
    <tag k="name" v="Ahr-Resort Bad Neuenahr Ahrtherme"/>
    <tag k="wheelchair" v="yes"/>
    <tag k="addr:city" v="Bad Neuenahr "/>
    <tag k="addr:postcode" v="53474"/>
    <tag k="addr:housenumber" v="3"/>
    <tag k="addr:street" v="Felix-Rütten-Straße"/>
    <tag k="amenity" v="swimming_pool"/>
    <tag k="website" v="http://www.ahr-resort.de/"/>
  </node>
  <node id="-5677" version="0" timestamp="Fri Feb 24 10:53:37 +0100 2012" uid="1" user="" lat="50.50647" lon="7.29953">
    <tag k="name" v="Römer-Thermen"/>
    <tag k="wheelchair" v="yes"/>
    <tag k="addr:city" v="Bad Breisig"/>
    <tag k="addr:postcode" v="53498"/>
    <tag k="addr:housenumber" v="11"/>
    <tag k="addr:street" v="Albert-Mertés-Straße"/>
    <tag k="amenity" v="swimming_pool"/>
    <tag k="website" v="http://www.roemerthermen.de/"/>
    <tag k="phone" v="02633 / 48 07 10"/>
  </node>
</osm>
