<?xml version='1.0' encoding='UTF-8'?>
<osm version="0.6" generator="Osmosis 0.39">
  <node id="-53" version="0" timestamp="Fri Feb 24 10:53:32 +0100 2012" uid="1" user="" lat="50.8154739" lon="7.8518104">
    <tag k="name" v="Bürgerhaus Wehbach"/>
    <tag k="wheelchair" v="yes"/>
    <tag k="addr:city" v="Kirchen"/>
    <tag k="addr:postcode" v="57548"/>
    <tag k="addr:housenumber" v="13"/>
    <tag k="tourism" v="attraction"/>
    <tag k="addr:street" v="Bachstraße"/>
    <tag k="wheelchair:description" v="Leicht erhöht aber mit Rampe"/>
    <tag k="phone" v="+49 2741 95 72 11"/>
  </node>
  <node id="-1395" version="0" timestamp="Fri Feb 24 10:53:33 +0100 2012" uid="1" user="" lat="50.68619" lon="7.64142">
    <tag k="name" v="Jugendkunstschule Altenkirchen"/>
    <tag k="wheelchair" v="yes"/>
    <tag k="addr:city" v="Altenkirchen"/>
    <tag k="addr:postcode" v="57610"/>
    <tag k="addr:housenumber" v="5"/>
    <tag k="addr:street" v="Koblenzer Straße "/>
    <tag k="wheelchair:description" v="eine Ministufe zur Toilette!!!"/>
    <tag k="amenity" v="arts_centre"/>
    <tag k="website" v="http://www.jugendkunstschule-altenkirchen.de/"/>
  </node>
  <node id="-1818" version="0" timestamp="Fri Feb 24 10:53:33 +0100 2012" uid="1" user="" lat="50.6879286" lon="7.6478354">
    <tag k="name" v="Café Weinbrenner"/>
    <tag k="wheelchair" v="yes"/>
    <tag k="addr:city" v="Altenkirchen"/>
    <tag k="addr:postcode" v="57610"/>
    <tag k="addr:street" v="Frankfurter Straße"/>
    <tag k="amenity" v="cafe"/>
  </node>
  <node id="-1820" version="0" timestamp="Fri Feb 24 10:53:33 +0100 2012" uid="1" user="" lat="50.6860166" lon="7.6414939">
    <tag k="name" v="Jugendkunstschule Altenkirchen"/>
    <tag k="wheelchair" v="yes"/>
    <tag k="addr:housenumber" v="5"/>
    <tag k="addr:street" v="Koblenzer Straße"/>
    <tag k="wheelchair:description" v="eine Ministufe zur Toilette / Küche"/>
    <tag k="amenity" v="arts_centre"/>
  </node>
  <node id="-5084" version="0" timestamp="Fri Feb 24 10:53:37 +0100 2012" uid="1" user="" lat="50.6921757" lon="7.6578096">
    <tag k="name" v="Hallenbad Altenkirchen"/>
    <tag k="wheelchair" v="yes"/>
    <tag k="addr:city" v="Altenkirchen"/>
    <tag k="addr:postcode" v="57610"/>
    <tag k="wheelchair:description" v="leichtgängiger Schwimmba-Rollstuhl vorhanden"/>
    <tag k="amenity" v="swimming_pool"/>
    <tag k="website" v="http://www.vg-altenkirchen.de/index.php?id=237"/>
    <tag k="phone" v="02681 85-0 oder 02681 4222"/>
  </node>
</osm>
