<?xml version='1.0' encoding='UTF-8'?>
<osm version="0.6" generator="Osmosis 0.39">
  <node id="-1088" version="0" timestamp="Fri Feb 24 10:53:33 +0100 2012" uid="1" user="" lat="49.7439867" lon="8.1386033">
    <tag k="name" v="New Galaxy Massa Sportzentrum (Sportsbar,OkiDoki Kinderland;Bowling,Soccer, Fitness)"/>
    <tag k="wheelchair" v="yes"/>
    <tag k="addr:city" v="Alzey"/>
    <tag k="addr:postcode" v="55232"/>
    <tag k="addr:housenumber" v="11-13"/>
    <tag k="addr:street" v="Karl-Heinz-Kipp-Str."/>
    <tag k="amenity" v="restaurant"/>
    <tag k="website" v="http://www.massasportzentrum.com"/>
    <tag k="phone" v="+496731547796"/>
  </node>
  <node id="-1089" version="0" timestamp="Fri Feb 24 10:53:33 +0100 2012" uid="1" user="" lat="49.7383499" lon="8.0916949">
    <tag k="name" v="New Galaxy Sport und Freizeitpark (Fitness-Studio)"/>
    <tag k="wheelchair" v="limited"/>
    <tag k="addr:city" v="Alzey"/>
    <tag k="addr:postcode" v="55232"/>
    <tag k="addr:housenumber" v="1"/>
    <tag k="addr:street" v="Talstraße"/>
    <tag k="leisure" v="sports_centre"/>
    <tag k="website" v="http://www.newgalaxy.de"/>
    <tag k="phone" v="067317101"/>
  </node>
  <node id="-1144" version="0" timestamp="Fri Feb 24 10:53:33 +0100 2012" uid="1" user="" lat="49.8032038" lon="8.1933531">
    <tag k="name" v="Weingut Bretz"/>
    <tag k="wheelchair" v="limited"/>
    <tag k="addr:city" v="Bechtolsheim"/>
    <tag k="addr:postcode" v="55234"/>
    <tag k="addr:housenumber" v="35"/>
    <tag k="addr:street" v="Langgasse"/>
    <tag k="amenity" v="bank"/>
  </node>
  <node id="-1835" version="0" timestamp="Fri Feb 24 10:53:33 +0100 2012" uid="1" user="" lat="49.7476534" lon="8.1190316">
    <tag k="name" v="Vermessungs- u. Katasteramt"/>
    <tag k="wheelchair" v="yes"/>
    <tag k="addr:city" v="Alzey"/>
    <tag k="addr:postcode" v="55232"/>
    <tag k="addr:housenumber" v="28"/>
    <tag k="addr:street" v="Ostdeutsche Straße"/>
    <tag k="website" v="http://www.katasteramt.rlp.de/alzey"/>
    <tag k="phone" v="06731/494-0"/>
  </node>
  <node id="-2008" version="0" timestamp="Fri Feb 24 10:53:34 +0100 2012" uid="1" user="" lat="49.78628" lon="8.0385">
    <tag k="name" v="Ärztehaus Flonheim"/>
    <tag k="wheelchair" v="yes"/>
    <tag k="addr:city" v="Flonheim"/>
    <tag k="addr:postcode" v="55237"/>
    <tag k="addr:housenumber" v="22"/>
    <tag k="addr:street" v="Wilhelm-Leuschner Str."/>
    <tag k="amenity" v="doctors"/>
    <tag k="website" v="http://www.naturheilpraxis-rohleder.de"/>
    <tag k="phone" v="06734-9155633"/>
  </node>
  <node id="-2022" version="0" timestamp="Fri Feb 24 10:53:34 +0100 2012" uid="1" user="" lat="49.78628" lon="8.0385">
    <tag k="name" v="Naturheilpraxis Rohleder"/>
    <tag k="wheelchair" v="yes"/>
    <tag k="addr:city" v="Flonheim"/>
    <tag k="addr:postcode" v="55237"/>
    <tag k="addr:housenumber" v="22"/>
    <tag k="addr:street" v="Wilhelm-Leuschner Str."/>
    <tag k="amenity" v="doctors"/>
    <tag k="website" v="http://www.naturheilpraxis-rohleder.de"/>
    <tag k="phone" v="06734-9155633"/>
  </node>
  <node id="-3444" version="0" timestamp="Fri Feb 24 10:53:35 +0100 2012" uid="1" user="" lat="49.7826275" lon="8.0385354">
    <tag k="name" v="Speisegaststätte zum Adelberg"/>
    <tag k="wheelchair" v="yes"/>
    <tag k="addr:city" v="Flonheim"/>
    <tag k="addr:postcode" v="55237"/>
    <tag k="addr:housenumber" v="16"/>
    <tag k="addr:street" v="Berliner Strraße"/>
    <tag k="wheelchair:description" v="Eingang ohne Treppen, Zugang zur Toilette via Rampe, Behindertengerechte Toilette"/>
    <tag k="amenity" v="restaurant"/>
    <tag k="website" v="http://www.zum-adelberg.de"/>
    <tag k="phone" v="+49 6734 1314"/>
  </node>
</osm>
