<?xml version='1.0' encoding='UTF-8'?>
<osm version="0.6" generator="Osmosis 0.39">
  <node id="-1492" version="0" timestamp="Fri Feb 24 10:53:33 +0100 2012" uid="1" user="" lat="49.4665175" lon="8.1785104">
    <tag k="name" v="Ev. Krankenhaus Landesverein für innere Mission in der Pfalz e.V."/>
    <tag k="wheelchair" v="yes"/>
    <tag k="addr:city" v="Bad Dürkheim"/>
    <tag k="addr:postcode" v="67098"/>
    <tag k="addr:housenumber" v="2"/>
    <tag k="addr:street" v="Dr. Kaufmann Str."/>
    <tag k="wheelchair:description" v="Seiteneingang besser als Haupteingang. Der Seiteneingang befindet sich links am Hauptgebäude vorbei, dann gleich rechts auf die Doppeltür zu. Von dort aus gelangt man gleich zum Fahrstuhl.  "/>
    <tag k="amenity" v="hospital"/>
    <tag k="website" v="http://www.lvim-pfalz.de"/>
    <tag k="phone" v="+49 6322 607-0"/>
  </node>
  <node id="-1493" version="0" timestamp="Fri Feb 24 10:53:33 +0100 2012" uid="1" user="" lat="49.4675952" lon="8.1802396">
    <tag k="name" v="Ärztezentrum"/>
    <tag k="wheelchair" v="yes"/>
    <tag k="addr:city" v="Bad Dürkheim"/>
    <tag k="addr:postcode" v="67098"/>
    <tag k="addr:housenumber" v="43a"/>
    <tag k="addr:street" v="Wellsring"/>
    <tag k="wheelchair:description" v="Ebener Gebäudeeingang mit Fahrstuhl"/>
    <tag k="amenity" v="doctors"/>
  </node>
  <node id="-1494" version="0" timestamp="Fri Feb 24 10:53:33 +0100 2012" uid="1" user="" lat="49.4663137" lon="8.1785621">
    <tag k="name" v="Medizinisches Versorgungszentrum am Evangelischen Krankenhaus Bad Dürkheim"/>
    <tag k="wheelchair" v="yes"/>
    <tag k="addr:city" v="Bad Dürkheim"/>
    <tag k="addr:postcode" v="67098"/>
    <tag k="addr:housenumber" v="2"/>
    <tag k="addr:street" v="Dr. Kaufmann Str."/>
    <tag k="wheelchair:description" v="Seiteneingang besser als Haupteingang. Der Seiteneingang befindet sich links am Hauptgebäude vorbei, dann gleich rechts auf die Doppeltür zu. Von dort aus gelangt man gleich zum Fahrstuhl."/>
    <tag k="amenity" v="doctors"/>
    <tag k="website" v="http://www.mvz-bad-duerkheim.de"/>
    <tag k="phone" v="+49 6322 66041 "/>
  </node>
  <node id="-1707" version="0" timestamp="Fri Feb 24 10:53:33 +0100 2012" uid="1" user="" lat="49.4678883" lon="8.1991966">
    <tag k="shop" v="clothes"/>
    <tag k="name" v="AWG Mode Center"/>
    <tag k="wheelchair" v="yes"/>
    <tag k="addr:city" v="Bad Dürkheim"/>
    <tag k="addr:postcode" v="67098"/>
    <tag k="addr:housenumber" v="2 D"/>
    <tag k="addr:street" v="Bruchstr."/>
    <tag k="phone" v="+49 6322-793813"/>
  </node>
  <node id="-3433" version="0" timestamp="Fri Feb 24 10:53:35 +0100 2012" uid="1" user="" lat="49.463593" lon="8.1734109">
    <tag k="name" v="Fronmühle"/>
    <tag k="wheelchair" v="limited"/>
    <tag k="addr:city" v="Bad Dürkheim"/>
    <tag k="addr:postcode" v="67098"/>
    <tag k="addr:housenumber" v="15"/>
    <tag k="addr:street" v="Salinenstr."/>
    <tag k="wheelchair:description" v="keine Rollitoilette"/>
    <tag k="amenity" v="restaurant"/>
    <tag k="website" v="http://www.hotel-fronmuehle.de/"/>
    <tag k="phone" v="0)6322 - 9 40 90"/>
  </node>
  <node id="-3434" version="0" timestamp="Fri Feb 24 10:53:35 +0100 2012" uid="1" user="" lat="49.4648051" lon="8.1696739">
    <tag k="name" v="Behindertentoilette"/>
    <tag k="wheelchair" v="yes"/>
    <tag k="amenity" v="toilets"/>
  </node>
  <node id="-3435" version="0" timestamp="Fri Feb 24 10:53:35 +0100 2012" uid="1" user="" lat="49.4648051" lon="8.1696739">
    <tag k="name" v="Behindertentoilette"/>
    <tag k="wheelchair" v="yes"/>
    <tag k="wheelchair:description" v="mit Euroschlüssel"/>
    <tag k="amenity" v="toilets"/>
  </node>
  <node id="-5221" version="0" timestamp="Fri Feb 24 10:53:37 +0100 2012" uid="1" user="" lat="49.4072248" lon="8.2397361">
    <tag k="shop" v="bakery"/>
    <tag k="name" v="Bäcker Görtz"/>
    <tag k="wheelchair" v="no"/>
  </node>
  <node id="-5222" version="0" timestamp="Fri Feb 24 10:53:37 +0100 2012" uid="1" user="" lat="49.5577221" lon="8.1822294">
    <tag k="shop" v="supermarket"/>
    <tag k="name" v="Globus Grünstadt"/>
    <tag k="wheelchair" v="yes"/>
  </node>
  <node id="-5223" version="0" timestamp="Fri Feb 24 10:53:37 +0100 2012" uid="1" user="" lat="49.5557942" lon="8.1814396">
    <tag k="shop" v="supermarket"/>
    <tag k="name" v="Aldi"/>
    <tag k="wheelchair" v="limited"/>
  </node>
</osm>
