<?xml version='1.0' encoding='UTF-8'?>
<osm version="0.6" generator="Osmosis 0.39">
  <node id="-392" version="0" timestamp="Fri Feb 24 10:53:32 +0100 2012" uid="1" user="" lat="49.8427499" lon="7.8667108">
    <tag k="name" v="Bad Kreuznach Bahnhof"/>
    <tag k="wheelchair" v="limited"/>
    <tag k="wheelchair:description" v="Gleis 3 und 4 nur über die Schienen erreichbar (DB-Personal fragen) - Züge ab/nach Mainz sind eng und haben Stufen (nur mit DB-Hebebühne zugänglich)"/>
    <tag k="railway" v="platform"/>
  </node>
  <node id="-1561" version="0" timestamp="Fri Feb 24 10:53:33 +0100 2012" uid="1" user="" lat="49.7833622" lon="7.6518492">
    <tag k="shop" v="electronics"/>
    <tag k="name" v="Foto Studio Theis"/>
    <tag k="wheelchair" v="limited"/>
    <tag k="addr:city" v="Bad Sobernheim"/>
    <tag k="addr:postcode" v="55566"/>
    <tag k="addr:housenumber" v="9"/>
    <tag k="addr:street" v="Igelsbachstraße"/>
    <tag k="wheelchair:description" v="Eingang: Eine Stufe. Alle Räume erreichbar. Kein geeignetes WC."/>
    <tag k="website" v="http://www.foto-studio-theis.de"/>
  </node>
  <node id="-1562" version="0" timestamp="Fri Feb 24 10:53:33 +0100 2012" uid="1" user="" lat="49.7834117" lon="7.6536542">
    <tag k="shop" v="supermarket"/>
    <tag k="name" v="Schlecker"/>
    <tag k="wheelchair" v="yes"/>
  </node>
  <node id="-1563" version="0" timestamp="Fri Feb 24 10:53:33 +0100 2012" uid="1" user="" lat="49.7835273" lon="7.6536197">
    <tag k="shop" v="bakery"/>
    <tag k="name" v="Stadtcafé"/>
    <tag k="wheelchair" v="unknown"/>
  </node>
  <node id="-1564" version="0" timestamp="Fri Feb 24 10:53:33 +0100 2012" uid="1" user="" lat="49.7873062" lon="7.6389806">
    <tag k="shop" v="supermarket"/>
    <tag k="name" v="LIDL"/>
    <tag k="wheelchair" v="unknown"/>
  </node>
  <node id="-1565" version="0" timestamp="Fri Feb 24 10:53:33 +0100 2012" uid="1" user="" lat="49.7850589" lon="7.645742">
    <tag k="name" v="ALDI"/>
    <tag k="wheelchair" v="unknown"/>
    <tag k="amenity" v="bank"/>
  </node>
  <node id="-1566" version="0" timestamp="Fri Feb 24 10:53:33 +0100 2012" uid="1" user="" lat="49.7843279" lon="7.6514434">
    <tag k="shop" v="hairdresser"/>
    <tag k="name" v="Friseur Klein"/>
    <tag k="wheelchair" v="unknown"/>
  </node>
  <node id="-1567" version="0" timestamp="Fri Feb 24 10:53:33 +0100 2012" uid="1" user="" lat="49.7831574" lon="7.6508711">
    <tag k="name" v="Irish Pub"/>
    <tag k="wheelchair" v="unknown"/>
    <tag k="amenity" v="pub"/>
  </node>
  <node id="-1568" version="0" timestamp="Fri Feb 24 10:53:33 +0100 2012" uid="1" user="" lat="49.7859781" lon="7.6566998">
    <tag k="shop" v="computer"/>
    <tag k="name" v="E&amp;K Computer"/>
    <tag k="wheelchair" v="limited"/>
  </node>
  <node id="-1569" version="0" timestamp="Fri Feb 24 10:53:33 +0100 2012" uid="1" user="" lat="49.7851408" lon="7.6561674">
    <tag k="name" v="Kinderarzt Dr. Lauf &amp; Dr. Hein"/>
    <tag k="wheelchair" v="unknown"/>
    <tag k="amenity" v="doctors"/>
  </node>
  <node id="-1570" version="0" timestamp="Fri Feb 24 10:53:33 +0100 2012" uid="1" user="" lat="49.78477" lon="7.65562">
    <tag k="name" v="Dr. Mann"/>
    <tag k="wheelchair" v="unknown"/>
    <tag k="amenity" v="doctors"/>
  </node>
  <node id="-1705" version="0" timestamp="Fri Feb 24 10:53:33 +0100 2012" uid="1" user="" lat="49.8429548" lon="7.8706903">
    <tag k="name" v="Cineplex Bad Kreuznach"/>
    <tag k="wheelchair" v="yes"/>
    <tag k="addr:city" v="Bad Kreuznach"/>
    <tag k="addr:postcode" v="55543"/>
    <tag k="addr:housenumber" v="57-67"/>
    <tag k="addr:street" v="Kreuzstraße "/>
    <tag k="wheelchair:description" v="Es sind leider nur zwei Kinosäle barrierefrei."/>
    <tag k="amenity" v="cinema"/>
    <tag k="website" v="http://www.cineplex.de/kino/home/city6/"/>
    <tag k="phone" v="01805 - 54 66 54 *0"/>
  </node>
  <node id="-2267" version="0" timestamp="Fri Feb 24 10:53:34 +0100 2012" uid="1" user="" lat="49.9639979" lon="7.7162997">
    <tag k="shop" v="hairdresser"/>
    <tag k="name" v="Friseursalon Gohres"/>
    <tag k="wheelchair" v="yes"/>
    <tag k="addr:city" v="Seibersbach "/>
    <tag k="addr:postcode" v="55444"/>
    <tag k="addr:housenumber" v="5"/>
    <tag k="addr:street" v="Bergstraße "/>
    <tag k="phone" v="067241003"/>
  </node>
  <node id="-2268" version="0" timestamp="Fri Feb 24 10:53:34 +0100 2012" uid="1" user="" lat="49.9617658" lon="7.7185715">
    <tag k="shop" v="hardware"/>
    <tag k="name" v="Schneider Metallgestaltung "/>
    <tag k="wheelchair" v="yes"/>
    <tag k="addr:city" v="Seibersbach "/>
    <tag k="addr:postcode" v="55444"/>
    <tag k="addr:housenumber" v="33"/>
    <tag k="addr:street" v="Hauptstraße "/>
    <tag k="website" v="http://www.schneider-komplettbalkone.de"/>
    <tag k="phone" v="067246759"/>
  </node>
  <node id="-2269" version="0" timestamp="Fri Feb 24 10:53:34 +0100 2012" uid="1" user="" lat="49.9621652" lon="7.707335">
    <tag k="name" v="Soonwald Quarter Horses"/>
    <tag k="wheelchair" v="yes"/>
    <tag k="addr:city" v="Seibersbach "/>
    <tag k="addr:postcode" v="55444"/>
    <tag k="addr:housenumber" v="27"/>
    <tag k="tourism" v="attraction"/>
    <tag k="addr:street" v="Hellweg"/>
    <tag k="wheelchair:description" v="Teilweise schwer mit Rollstuhl befahrbar da unbefestigt "/>
    <tag k="website" v="http://www.soonwald-quarter.eu/"/>
  </node>
  <node id="-2270" version="0" timestamp="Fri Feb 24 10:53:34 +0100 2012" uid="1" user="" lat="49.9620271" lon="7.7176424">
    <tag k="shop" v="butcher"/>
    <tag k="name" v="Metzgerei Reths"/>
    <tag k="wheelchair" v="limited"/>
    <tag k="addr:city" v="Seibersbach "/>
    <tag k="addr:postcode" v="55444"/>
    <tag k="addr:housenumber" v="24"/>
    <tag k="addr:street" v="Hauptstraße"/>
  </node>
  <node id="-2283" version="0" timestamp="Fri Feb 24 10:53:34 +0100 2012" uid="1" user="" lat="49.958646" lon="7.7235287">
    <tag k="shop" v="doityourself"/>
    <tag k="name" v="Schitthof Naturstein GmbH"/>
    <tag k="wheelchair" v="yes"/>
    <tag k="addr:city" v="Seibersbach"/>
    <tag k="addr:postcode" v="55444"/>
    <tag k="addr:housenumber" v="10"/>
    <tag k="addr:street" v="Sandweg"/>
    <tag k="website" v="http://www.schitthof-naturstein.de"/>
    <tag k="phone" v="0672495770-73"/>
  </node>
  <node id="-2288" version="0" timestamp="Fri Feb 24 10:53:34 +0100 2012" uid="1" user="" lat="49.9591067" lon="7.719064">
    <tag k="shop" v="supermarket"/>
    <tag k="name" v="Daniels&apos;s Hühnerhof"/>
    <tag k="wheelchair" v="yes"/>
    <tag k="addr:city" v="Seibersbach"/>
    <tag k="addr:postcode" v="55444"/>
    <tag k="addr:housenumber" v="3"/>
    <tag k="addr:street" v="Zum Schlossgrund "/>
    <tag k="website" v="http://www.daniels-huehnerhof.de"/>
  </node>
  <node id="-2291" version="0" timestamp="Fri Feb 24 10:53:34 +0100 2012" uid="1" user="" lat="49.9606287" lon="7.7138899">
    <tag k="name" v="Schwimmbad Seibersbach"/>
    <tag k="wheelchair" v="yes"/>
    <tag k="addr:city" v="Seibersbach"/>
    <tag k="addr:postcode" v="55444 "/>
    <tag k="amenity" v="swimming_pool"/>
  </node>
  <node id="-2292" version="0" timestamp="Fri Feb 24 10:53:34 +0100 2012" uid="1" user="" lat="49.9606298" lon="7.7133331">
    <tag k="name" v="Sportplatz Seibersbach"/>
    <tag k="wheelchair" v="yes"/>
    <tag k="addr:city" v="Seibersbach "/>
    <tag k="addr:postcode" v="55444"/>
    <tag k="leisure" v="stadium"/>
  </node>
  <node id="-2293" version="0" timestamp="Fri Feb 24 10:53:34 +0100 2012" uid="1" user="" lat="49.9604397" lon="7.7133181">
    <tag k="name" v="Sportplatz Seibersbach"/>
    <tag k="wheelchair" v="yes"/>
    <tag k="addr:city" v="Seibersbach"/>
    <tag k="addr:postcode" v="55444"/>
    <tag k="leisure" v="stadium"/>
  </node>
  <node id="-2294" version="0" timestamp="Fri Feb 24 10:53:34 +0100 2012" uid="1" user="" lat="49.96056" lon="7.71112">
    <tag k="name" v="Sportplatz"/>
    <tag k="wheelchair" v="no"/>
    <tag k="leisure" v="sports_centre"/>
  </node>
  <node id="-2295" version="0" timestamp="Fri Feb 24 10:53:34 +0100 2012" uid="1" user="" lat="49.9597582" lon="7.7121819">
    <tag k="name" v="Dorfgemeinschaftshaus"/>
    <tag k="wheelchair" v="yes"/>
    <tag k="addr:city" v="Seibersbach"/>
    <tag k="addr:postcode" v="55444"/>
    <tag k="amenity" v="townhall"/>
  </node>
  <node id="-2296" version="0" timestamp="Fri Feb 24 10:53:34 +0100 2012" uid="1" user="" lat="49.9620228" lon="7.7176789">
    <tag k="shop" v="butcher"/>
    <tag k="name" v="Metzgerei Reths "/>
    <tag k="wheelchair" v="unknown"/>
    <tag k="addr:city" v="Seibersbach "/>
    <tag k="addr:postcode" v="55444"/>
    <tag k="addr:housenumber" v="24"/>
    <tag k="addr:street" v="Hauptstraße"/>
    <tag k="website" v="http://www.metzgerei-reths.de"/>
    <tag k="phone" v="0672495680"/>
  </node>
  <node id="-2297" version="0" timestamp="Fri Feb 24 10:53:34 +0100 2012" uid="1" user="" lat="49.9586552" lon="7.7383392">
    <tag k="name" v="Praxis für Osteopathie &amp; Physiotherapie Strauss"/>
    <tag k="wheelchair" v="unknown"/>
    <tag k="addr:city" v="Seibersbach "/>
    <tag k="addr:postcode" v="55444"/>
    <tag k="addr:housenumber" v="7"/>
    <tag k="addr:street" v="Autishof"/>
    <tag k="amenity" v="doctors"/>
    <tag k="website" v="http://www.osteopathie-strauss.de"/>
  </node>
  <node id="-2298" version="0" timestamp="Fri Feb 24 10:53:34 +0100 2012" uid="1" user="" lat="49.9557441" lon="7.7344465">
    <tag k="name" v="Psycho Logos"/>
    <tag k="wheelchair" v="unknown"/>
    <tag k="addr:city" v="Seibersbach "/>
    <tag k="addr:postcode" v="55444"/>
    <tag k="addr:housenumber" v="12"/>
    <tag k="addr:street" v="Autishof "/>
    <tag k="amenity" v="doctors"/>
    <tag k="website" v="http://www.psycho-logos.de/"/>
    <tag k="phone" v="067246057917"/>
  </node>
  <node id="-2300" version="0" timestamp="Fri Feb 24 10:53:34 +0100 2012" uid="1" user="" lat="49.9617026" lon="7.7176352">
    <tag k="name" v="Kindergarten"/>
    <tag k="wheelchair" v="limited"/>
    <tag k="addr:city" v="Seibersbach"/>
    <tag k="addr:postcode" v="55444"/>
    <tag k="addr:housenumber" v="31"/>
    <tag k="addr:street" v="Hauptstraße "/>
    <tag k="wheelchair:description" v="Nur eingeschränkt befahrbar"/>
    <tag k="amenity" v="kindergarten"/>
    <tag k="phone" v="067241842"/>
  </node>
  <node id="-2301" version="0" timestamp="Fri Feb 24 10:53:34 +0100 2012" uid="1" user="" lat="49.9615965" lon="7.7191474">
    <tag k="name" v="Kindergarten"/>
    <tag k="wheelchair" v="limited"/>
    <tag k="addr:city" v="Seibersbach"/>
    <tag k="addr:postcode" v="55444"/>
    <tag k="addr:housenumber" v="31"/>
    <tag k="addr:street" v="Hauptsraße "/>
    <tag k="amenity" v="kindergarten"/>
    <tag k="phone" v="067246057917"/>
  </node>
  <node id="-2302" version="0" timestamp="Fri Feb 24 10:53:34 +0100 2012" uid="1" user="" lat="49.9602558" lon="7.7134269">
    <tag k="name" v="Parkplatz Sportplatz/Schwimmbad"/>
    <tag k="wheelchair" v="yes"/>
    <tag k="amenity" v="parking"/>
  </node>
  <node id="-2303" version="0" timestamp="Fri Feb 24 10:53:34 +0100 2012" uid="1" user="" lat="49.9577738" lon="7.715129">
    <tag k="shop" v="doityourself"/>
    <tag k="name" v="Baggerbetrieb"/>
    <tag k="wheelchair" v="unknown"/>
    <tag k="addr:city" v="Seibersbach "/>
    <tag k="addr:postcode" v="55444"/>
    <tag k="addr:housenumber" v="17"/>
    <tag k="addr:street" v="Dörrebacher Straße"/>
  </node>
  <node id="-2304" version="0" timestamp="Fri Feb 24 10:53:34 +0100 2012" uid="1" user="" lat="49.9594722" lon="7.7191156">
    <tag k="shop" v="doityourself"/>
    <tag k="name" v="Maytrans"/>
    <tag k="wheelchair" v="limited"/>
  </node>
  <node id="-2305" version="0" timestamp="Fri Feb 24 10:53:34 +0100 2012" uid="1" user="" lat="49.9547745" lon="7.6657419">
    <tag k="shop" v="supermarket"/>
    <tag k="name" v="Milchhof Soonwald"/>
    <tag k="wheelchair" v="limited"/>
    <tag k="addr:city" v="Seibersbach "/>
    <tag k="addr:postcode" v="55444"/>
    <tag k="addr:street" v="Gut Marienbortn"/>
    <tag k="website" v="http://www.milchhof-soonwald.de/"/>
    <tag k="phone" v="06724602310"/>
  </node>
  <node id="-2306" version="0" timestamp="Fri Feb 24 10:53:34 +0100 2012" uid="1" user="" lat="49.9600754" lon="7.7278175">
    <tag k="name" v="Reithof Hofmann"/>
    <tag k="wheelchair" v="limited"/>
    <tag k="amenity" v="bank"/>
  </node>
  <node id="-2307" version="0" timestamp="Fri Feb 24 10:53:34 +0100 2012" uid="1" user="" lat="49.9602641" lon="7.7175247">
    <tag k="shop" v="doityourself"/>
    <tag k="name" v="Gerüstbau Conrad"/>
    <tag k="wheelchair" v="limited"/>
    <tag k="addr:city" v="Seibersbach"/>
    <tag k="addr:postcode" v="55444"/>
    <tag k="addr:housenumber" v="24"/>
    <tag k="addr:street" v="Stromberger Straße"/>
    <tag k="website" v="http://www.geruestebau-conrad.de"/>
    <tag k="phone" v="067243116"/>
  </node>
  <node id="-2309" version="0" timestamp="Fri Feb 24 10:53:34 +0100 2012" uid="1" user="" lat="49.9310213" lon="7.7287229">
    <tag k="name" v="Walderlebniszentrum "/>
    <tag k="wheelchair" v="yes"/>
  </node>
  <node id="-2310" version="0" timestamp="Fri Feb 24 10:53:34 +0100 2012" uid="1" user="" lat="49.9310601" lon="7.7280557">
    <tag k="name" v="Walderlebniszentrum"/>
    <tag k="wheelchair" v="yes"/>
    <tag k="tourism" v="hotel"/>
  </node>
  <node id="-2311" version="0" timestamp="Fri Feb 24 10:53:34 +0100 2012" uid="1" user="" lat="49.9309081" lon="7.7280064">
    <tag k="shop" v="supermarket"/>
    <tag k="name" v="Waldladen"/>
    <tag k="wheelchair" v="yes"/>
  </node>
  <node id="-2316" version="0" timestamp="Fri Feb 24 10:53:34 +0100 2012" uid="1" user="" lat="49.9333212" lon="7.6345843">
    <tag k="name" v="Glashütter Wiesen"/>
    <tag k="wheelchair" v="yes"/>
    <tag k="amenity" v="parking"/>
  </node>
  <node id="-2317" version="0" timestamp="Fri Feb 24 10:53:34 +0100 2012" uid="1" user="" lat="49.9324662" lon="7.6331884">
    <tag k="name" v="Glashütter Wiesen"/>
    <tag k="wheelchair" v="yes"/>
    <tag k="amenity" v="parking"/>
  </node>
  <node id="-2318" version="0" timestamp="Fri Feb 24 10:53:34 +0100 2012" uid="1" user="" lat="49.932597" lon="7.636846">
    <tag k="name" v="Eichenlagerplatz"/>
    <tag k="wheelchair" v="yes"/>
    <tag k="amenity" v="parking"/>
  </node>
  <node id="-2331" version="0" timestamp="Fri Feb 24 10:53:34 +0100 2012" uid="1" user="" lat="49.9196067" lon="7.6642669">
    <tag k="name" v="Parkplatz"/>
    <tag k="wheelchair" v="unknown"/>
    <tag k="amenity" v="parking"/>
  </node>
  <node id="-2332" version="0" timestamp="Fri Feb 24 10:53:34 +0100 2012" uid="1" user="" lat="49.9010614" lon="7.6819448">
    <tag k="name" v="Restaurant"/>
    <tag k="wheelchair" v="unknown"/>
    <tag k="amenity" v="restaurant"/>
  </node>
  <node id="-2336" version="0" timestamp="Fri Feb 24 10:53:34 +0100 2012" uid="1" user="" lat="49.9597331" lon="7.7232077">
    <tag k="name" v="Gästehaus Annerose"/>
    <tag k="wheelchair" v="unknown"/>
    <tag k="addr:city" v="Seibersbach"/>
    <tag k="addr:postcode" v="55444"/>
    <tag k="addr:housenumber" v="30"/>
    <tag k="tourism" v="hotel"/>
    <tag k="addr:street" v="Stromberger Straße "/>
    <tag k="phone" v="067248726"/>
  </node>
  <node id="-2338" version="0" timestamp="Fri Feb 24 10:53:34 +0100 2012" uid="1" user="" lat="49.9539181" lon="7.7332275">
    <tag k="shop" v="supermarket"/>
    <tag k="name" v="Imkerei Krümmelbein"/>
    <tag k="wheelchair" v="limited"/>
    <tag k="addr:city" v="Seibersbach"/>
    <tag k="addr:postcode" v="55444"/>
    <tag k="addr:street" v="Ziegelhütte"/>
  </node>
  <node id="-2339" version="0" timestamp="Fri Feb 24 10:53:34 +0100 2012" uid="1" user="" lat="49.9606558" lon="7.7221794">
    <tag k="name" v="Parkplatz"/>
    <tag k="wheelchair" v="yes"/>
    <tag k="amenity" v="parking"/>
  </node>
  <node id="-2343" version="0" timestamp="Fri Feb 24 10:53:34 +0100 2012" uid="1" user="" lat="49.868984" lon="7.5959397">
    <tag k="shop" v="supermarket"/>
    <tag k="name" v="Wildladen"/>
    <tag k="wheelchair" v="yes"/>
    <tag k="addr:city" v="Bad Sobernheim-Entenpfuhl"/>
    <tag k="addr:street" v="Forstamt Soonwald"/>
  </node>
  <node id="-2344" version="0" timestamp="Fri Feb 24 10:53:34 +0100 2012" uid="1" user="" lat="49.8689538" lon="7.5962535">
    <tag k="name" v="Forstamt Soonwald"/>
    <tag k="wheelchair" v="no"/>
    <tag k="addr:city" v="Bad Sobernheim-Entenpfuhl"/>
    <tag k="addr:street" v="Forstamt Soonwald"/>
  </node>
  <node id="-2522" version="0" timestamp="Fri Feb 24 10:53:34 +0100 2012" uid="1" user="" lat="49.9590649" lon="7.7151462">
    <tag k="name" v="Parkplatz"/>
    <tag k="wheelchair" v="yes"/>
    <tag k="amenity" v="parking"/>
  </node>
  <node id="-2523" version="0" timestamp="Fri Feb 24 10:53:34 +0100 2012" uid="1" user="" lat="49.953071" lon="7.6919433">
    <tag k="name" v="Parkplatz"/>
    <tag k="wheelchair" v="limited"/>
    <tag k="amenity" v="parking"/>
  </node>
  <node id="-2546" version="0" timestamp="Fri Feb 24 10:53:34 +0100 2012" uid="1" user="" lat="49.9541051" lon="7.7442774">
    <tag k="shop" v="supermarket"/>
    <tag k="name" v="Biomarkt Planz "/>
    <tag k="wheelchair" v="limited"/>
    <tag k="addr:city" v="Seibersbach"/>
    <tag k="addr:postcode" v="55444"/>
    <tag k="addr:street" v="Füllenbacherhof"/>
  </node>
  <node id="-2547" version="0" timestamp="Fri Feb 24 10:53:34 +0100 2012" uid="1" user="" lat="49.9634288" lon="7.7128561">
    <tag k="name" v="D.T. Finanz Service "/>
    <tag k="wheelchair" v="unknown"/>
    <tag k="addr:city" v="Seibersbach "/>
    <tag k="addr:postcode" v="55444"/>
    <tag k="addr:housenumber" v="33"/>
    <tag k="addr:street" v="Ringstraße"/>
    <tag k="amenity" v="bank"/>
  </node>
  <node id="-3419" version="0" timestamp="Fri Feb 24 10:53:35 +0100 2012" uid="1" user="" lat="49.82092" lon="7.7999319">
    <tag k="name" v="Kindergarten Zauberwind"/>
    <tag k="wheelchair" v="yes"/>
    <tag k="addr:city" v="Hüffelsheim"/>
    <tag k="addr:postcode" v="55595"/>
    <tag k="addr:housenumber" v="23"/>
    <tag k="addr:street" v="Rheingrafenstraße"/>
    <tag k="amenity" v="kindergarten"/>
    <tag k="phone" v="+ 49 671 30342"/>
  </node>
  <node id="-3731" version="0" timestamp="Fri Feb 24 10:53:35 +0100 2012" uid="1" user="" lat="49.85568" lon="7.87341">
    <tag k="name" v="start!up consulting e.K."/>
    <tag k="wheelchair" v="limited"/>
    <tag k="addr:city" v="Bad Kreuznach"/>
    <tag k="addr:postcode" v="55545"/>
    <tag k="addr:housenumber" v="2"/>
    <tag k="addr:street" v="Stromberger Straße "/>
    <tag k="wheelchair:description" v="1 Stufe im Eingangsbereich, dann Fahrstuhl und barrierefrei"/>
    <tag k="amenity" v="bank"/>
    <tag k="website" v="http://www.start-up-berater.de"/>
    <tag k="phone" v="+49 671 970508-40"/>
  </node>
  <node id="-3932" version="0" timestamp="Fri Feb 24 10:53:35 +0100 2012" uid="1" user="" lat="49.8715336" lon="7.8665607">
    <tag k="shop" v="hairdresser"/>
    <tag k="name" v="Friseur im Hofgut"/>
    <tag k="wheelchair" v="limited"/>
    <tag k="addr:city" v="Winzenheim"/>
    <tag k="addr:postcode" v="55545"/>
    <tag k="wheelchair:description" v="Zugang gut, keine Toilette"/>
    <tag k="phone" v="+49 671 43420"/>
  </node>
  <node id="-4006" version="0" timestamp="Fri Feb 24 10:53:36 +0100 2012" uid="1" user="" lat="49.8209011" lon="7.8196048">
    <tag k="name" v="Gasthaus Linn"/>
    <tag k="wheelchair" v="no"/>
    <tag k="amenity" v="restaurant"/>
  </node>
  <node id="-4007" version="0" timestamp="Fri Feb 24 10:53:36 +0100 2012" uid="1" user="" lat="49.8209" lon="7.8196">
    <tag k="name" v="Ev. Kirche"/>
    <tag k="wheelchair" v="no"/>
    <tag k="amenity" v="place_of_worship"/>
  </node>
  <node id="-4008" version="0" timestamp="Fri Feb 24 10:53:36 +0100 2012" uid="1" user="" lat="49.8202219" lon="7.8161069">
    <tag k="name" v="Dorfgemeinschaftshaus &quot;Alte Schule&quot;"/>
    <tag k="wheelchair" v="no"/>
  </node>
  <node id="-4009" version="0" timestamp="Fri Feb 24 10:53:36 +0100 2012" uid="1" user="" lat="49.8211331" lon="7.8363228">
    <tag k="name" v="Gaststätte &quot;Zur Bastei&quot;"/>
    <tag k="wheelchair" v="no"/>
    <tag k="wheelchair:description" v="Biergarten ebenerdig erreichbar"/>
    <tag k="amenity" v="restaurant"/>
  </node>
  <node id="-4189" version="0" timestamp="Fri Feb 24 10:53:36 +0100 2012" uid="1" user="" lat="49.84766" lon="7.85991">
    <tag k="name" v="start-up-berater.de"/>
    <tag k="wheelchair" v="limited"/>
    <tag k="addr:city" v="Bad Kreuznach"/>
    <tag k="addr:postcode" v="55545"/>
    <tag k="addr:housenumber" v="2"/>
    <tag k="addr:street" v="Stromberger Str. "/>
    <tag k="wheelchair:description" v="Steiler Anstieg, im Gebäude selbst befindet sich ein Aufzug"/>
    <tag k="amenity" v="bank"/>
    <tag k="website" v="http://www.start-up-berater.de"/>
    <tag k="phone" v="0671-9705084-0"/>
  </node>
  <node id="-5717" version="0" timestamp="Fri Feb 24 10:53:37 +0100 2012" uid="1" user="" lat="49.8664703" lon="7.7459624">
    <tag k="name" v="Gasthaus Zur Linde"/>
    <tag k="wheelchair" v="no"/>
    <tag k="addr:city" v="Braunweiler"/>
    <tag k="addr:postcode" v="55595"/>
    <tag k="addr:housenumber" v="17"/>
    <tag k="addr:street" v="Heegwaldstraße"/>
    <tag k="wheelchair:description" v="Treppe am Eingang, Biergarten zugänglich"/>
    <tag k="amenity" v="restaurant"/>
    <tag k="website" v="http://www.linde-braunweiler.de/"/>
    <tag k="phone" v="+49 6706 345"/>
  </node>
  <node id="-5721" version="0" timestamp="Fri Feb 24 10:53:37 +0100 2012" uid="1" user="" lat="49.8333" lon="7.8667">
    <tag k="name" v="Oranienhof"/>
    <tag k="wheelchair" v="yes"/>
    <tag k="addr:city" v="Bad Kreuznach"/>
    <tag k="addr:postcode" v="55543"/>
    <tag k="addr:street" v="Oranienstraße"/>
    <tag k="wheelchair:description" v="Behindertengerechte Toilette im Park"/>
    <tag k="amenity" v="restaurant"/>
  </node>
</osm>
