<?xml version='1.0' encoding='UTF-8'?>
<osm version="0.6" generator="Osmosis 0.39">
  <node id="-2568" version="0" timestamp="Fri Feb 24 10:53:34 +0100 2012" uid="1" user="" lat="50.1440987" lon="7.2288356">
    <tag k="name" v="Weingut Leo Klaus"/>
    <tag k="wheelchair" v="yes"/>
    <tag k="addr:city" v="Ernst"/>
    <tag k="addr:postcode" v="56814"/>
    <tag k="tourism" v="bed_and_breakfast"/>
    <tag k="wheelchair:description" v="barrierefreie Ferienwohnung"/>
    <tag k="website" v="http://www.weingut-klaus.de"/>
    <tag k="phone" v="02671 / 7140"/>
  </node>
  <node id="-3291" version="0" timestamp="Fri Feb 24 10:53:35 +0100 2012" uid="1" user="" lat="50.23335" lon="7.1491">
    <tag k="name" v="mobility &amp; race systems gmbh"/>
    <tag k="wheelchair" v="yes"/>
    <tag k="addr:city" v="Kaisersesch"/>
    <tag k="addr:postcode" v="56759"/>
    <tag k="addr:housenumber" v="2"/>
    <tag k="addr:street" v="Am Römerturm "/>
    <tag k="wheelchair:description" v="fahrzeugspezifischer KFZ-Umbau"/>
    <tag k="amenity" v="car_rental"/>
    <tag k="website" v="http://www.mrsgroup.de"/>
    <tag k="phone" v="02653 9115960"/>
  </node>
  <node id="-4005" version="0" timestamp="Fri Feb 24 10:53:36 +0100 2012" uid="1" user="" lat="50.1651336" lon="7.2035432">
    <tag k="name" v="Imbiss - Bistro »Haus Moselschiefer«"/>
    <tag k="wheelchair" v="yes"/>
    <tag k="amenity" v="restaurant"/>
  </node>
  <node id="-5037" version="0" timestamp="Fri Feb 24 10:53:36 +0100 2012" uid="1" user="" lat="50.0705943" lon="7.0395466">
    <tag k="name" v="DaySpa - Das Kosmetikstudio mit den gewissen Extras"/>
    <tag k="wheelchair" v="yes"/>
    <tag k="addr:city" v="Bad Bertrich"/>
    <tag k="addr:postcode" v="56864"/>
    <tag k="addr:housenumber" v="1"/>
    <tag k="addr:street" v="Am Römerkessel"/>
    <tag k="wheelchair:description" v="Sie erreichen uns barierefrei über den Wohnpark Residenz Römerkessel"/>
    <tag k="amenity" v="social_facility"/>
    <tag k="phone" v="02674913653"/>
  </node>
</osm>
