<?xml version='1.0' encoding='UTF-8'?>
<osm version="0.6" generator="Osmosis 0.39">
  <node id="-46" version="0" timestamp="Fri Feb 24 10:53:32 +0100 2012" uid="1" user="" lat="50.1377162" lon="6.3484859">
    <tag k="name" v="Pfarrheim St. Gertrud"/>
    <tag k="wheelchair" v="yes"/>
    <tag k="addr:city" v="Lünebach"/>
    <tag k="addr:postcode" v="54597"/>
    <tag k="addr:street" v="Helenenberg"/>
    <tag k="phone" v="06556 7532"/>
  </node>
  <node id="-47" version="0" timestamp="Fri Feb 24 10:53:32 +0100 2012" uid="1" user="" lat="50.139854" lon="6.3484903">
    <tag k="name" v="ehemalige Grundschule"/>
    <tag k="wheelchair" v="no"/>
    <tag k="addr:city" v="Lünebach"/>
    <tag k="addr:postcode" v="54597"/>
    <tag k="addr:street" v="Alte Lay"/>
  </node>
  <node id="-48" version="0" timestamp="Fri Feb 24 10:53:32 +0100 2012" uid="1" user="" lat="50.1384449" lon="6.3476278">
    <tag k="name" v="Kreissparkasse"/>
    <tag k="wheelchair" v="limited"/>
    <tag k="addr:city" v="Lünebach"/>
    <tag k="addr:postcode" v="54597"/>
    <tag k="amenity" v="bank"/>
  </node>
  <node id="-49" version="0" timestamp="Fri Feb 24 10:53:32 +0100 2012" uid="1" user="" lat="50.1370516" lon="6.3478956">
    <tag k="name" v="Gasthaus Schröder"/>
    <tag k="wheelchair" v="limited"/>
    <tag k="amenity" v="pub"/>
  </node>
  <node id="-50" version="0" timestamp="Fri Feb 24 10:53:32 +0100 2012" uid="1" user="" lat="50.1389802" lon="6.3482926">
    <tag k="name" v="Gasthaus Dennenwaldt"/>
    <tag k="wheelchair" v="limited"/>
    <tag k="amenity" v="restaurant"/>
  </node>
  <node id="-51" version="0" timestamp="Fri Feb 24 10:53:32 +0100 2012" uid="1" user="" lat="50.1382965" lon="6.3447215">
    <tag k="name" v="Cafe 1900"/>
    <tag k="wheelchair" v="limited"/>
    <tag k="amenity" v="cafe"/>
  </node>
  <node id="-1572" version="0" timestamp="Fri Feb 24 10:53:33 +0100 2012" uid="1" user="" lat="50.0929286" lon="6.5522742">
    <tag k="shop" v="supermarket"/>
    <tag k="name" v="Spar Markt &amp; Bäckerei"/>
    <tag k="wheelchair" v="limited"/>
    <tag k="addr:street" v="Densbornerstraße"/>
  </node>
  <node id="-1574" version="0" timestamp="Fri Feb 24 10:53:33 +0100 2012" uid="1" user="" lat="50.0935936" lon="6.5470375">
    <tag k="name" v="Friedhof"/>
    <tag k="wheelchair" v="unknown"/>
    <tag k="amenity" v="place_of_worship"/>
  </node>
  <node id="-1576" version="0" timestamp="Fri Feb 24 10:53:33 +0100 2012" uid="1" user="" lat="50.0915962" lon="6.5519952">
    <tag k="name" v="Geldautomat der Sparkasse"/>
    <tag k="wheelchair" v="unknown"/>
    <tag k="addr:housenumber" v="1"/>
    <tag k="addr:street" v="Densbornerstraße"/>
    <tag k="amenity" v="atm"/>
  </node>
</osm>
