<?xml version='1.0' encoding='UTF-8'?>
<osm version="0.6" generator="Osmosis 0.39">
  <node id="-2424" version="0" timestamp="Fri Feb 24 10:53:34 +0100 2012" uid="1" user="" lat="49.5463958" lon="8.3510387">
    <tag k="name" v="Restaurant d&apos;accord"/>
    <tag k="wheelchair" v="yes"/>
    <tag k="addr:city" v="Frankenthal"/>
    <tag k="addr:postcode" v="67227"/>
    <tag k="addr:housenumber" v="109"/>
    <tag k="addr:street" v="Wormser StraÃŸe"/>
    <tag k="amenity" v="restaurant"/>
    <tag k="website" v="http://www.daccord-frankenthal.de/"/>
    <tag k="phone" v="0 62 33 4 59 19 31"/>
  </node>
  <node id="-2428" version="0" timestamp="Fri Feb 24 10:53:34 +0100 2012" uid="1" user="" lat="49.542049" lon="8.3604489">
    <tag k="name" v="Weinhotel Wagner"/>
    <tag k="wheelchair" v="limited"/>
    <tag k="addr:city" v="Frankenthal"/>
    <tag k="addr:postcode" v="67227"/>
    <tag k="addr:housenumber" v="14"/>
    <tag k="addr:street" v="Schlachthausweg"/>
    <tag k="wheelchair:description" v="Zugang zu den Toiletten sehr eng"/>
    <tag k="amenity" v="restaurant"/>
    <tag k="website" v="http://weinhotel-wagner.de/"/>
    <tag k="phone" v="06233 36880"/>
  </node>
  <node id="-5540" version="0" timestamp="Fri Feb 24 10:53:37 +0100 2012" uid="1" user="" lat="49.5464125" lon="8.3508596">
    <tag k="name" v="Theater Alte Werkstatt"/>
    <tag k="wheelchair" v="limited"/>
    <tag k="addr:city" v="Frankenthal"/>
    <tag k="addr:postcode" v="67227"/>
    <tag k="addr:housenumber" v="109"/>
    <tag k="addr:street" v="Wormser Strasse"/>
    <tag k="amenity" v="theatre"/>
  </node>
</osm>
