<?xml version='1.0' encoding='UTF-8'?>
<osm version="0.6" generator="Osmosis 0.39">
  <node id="-2937" version="0" timestamp="Fri Feb 24 10:53:34 +0100 2012" uid="1" user="" lat="49.2268309" lon="8.373937">
    <tag k="shop" v="furniture"/>
    <tag k="name" v="PLANA Küchenland"/>
    <tag k="wheelchair" v="yes"/>
    <tag k="addr:city" v="Germersheim"/>
    <tag k="addr:postcode" v="76726"/>
    <tag k="addr:housenumber" v="8"/>
    <tag k="addr:street" v="Münchener Straße"/>
    <tag k="website" v="http://www.plana.de"/>
  </node>
  <node id="-4297" version="0" timestamp="Fri Feb 24 10:53:36 +0100 2012" uid="1" user="" lat="49.0942062" lon="8.2738687">
    <tag k="name" v="Verbandsgemeindeverwaltung Jockgrim"/>
    <tag k="wheelchair" v="yes"/>
    <tag k="addr:city" v="Jockgrim"/>
    <tag k="addr:postcode" v="76751"/>
    <tag k="addr:housenumber" v="22"/>
    <tag k="addr:street" v="Untere Buchstraße"/>
    <tag k="website" v="http://www.vg-jockgrim.de"/>
    <tag k="phone" v="+49 72715990"/>
    <tag k="office" v="company"/>
  </node>
  <node id="-4298" version="0" timestamp="Fri Feb 24 10:53:36 +0100 2012" uid="1" user="" lat="49.0935324" lon="8.2734982">
    <tag k="name" v="Bürgerhaus"/>
    <tag k="wheelchair" v="yes"/>
    <tag k="addr:city" v="Jockgrim"/>
    <tag k="addr:postcode" v="76751"/>
    <tag k="addr:housenumber" v="24"/>
    <tag k="addr:street" v="Untere Buchstraße"/>
    <tag k="amenity" v="townhall"/>
  </node>
  <node id="-5533" version="0" timestamp="Fri Feb 24 10:53:37 +0100 2012" uid="1" user="" lat="49.0765062" lon="8.1901668">
    <tag k="name" v="Bienwaldhalle Kandel"/>
    <tag k="wheelchair" v="limited"/>
    <tag k="addr:city" v="Kandel"/>
    <tag k="addr:postcode" v="76870"/>
    <tag k="addr:housenumber" v="28"/>
    <tag k="addr:street" v="Schubertstraße"/>
    <tag k="wheelchair:description" v="Alle Räume im Erdgeschoss stufenlos. Rollstuhl-WC vorhanden. Räume im Obergeschoss nur per Treppe erreichbar."/>
    <tag k="amenity" v="theatre"/>
  </node>
</osm>
