<?xml version='1.0' encoding='UTF-8'?>
<osm version="0.6" generator="Osmosis 0.39">
  <node id="-585" version="0" timestamp="Fri Feb 24 10:53:32 +0100 2012" uid="1" user="" lat="49.4469" lon="7.7698158">
    <tag k="name" v="Pfalztheater"/>
    <tag k="wheelchair" v="yes"/>
    <tag k="amenity" v="theatre"/>
  </node>
  <node id="-586" version="0" timestamp="Fri Feb 24 10:53:32 +0100 2012" uid="1" user="" lat="49.4472648" lon="7.7744187">
    <tag k="name" v="Rossini"/>
    <tag k="wheelchair" v="no"/>
    <tag k="wheelchair:description" v="Viele Stufen am Eingang, sehr eng!"/>
    <tag k="amenity" v="restaurant"/>
  </node>
  <node id="-588" version="0" timestamp="Fri Feb 24 10:53:32 +0100 2012" uid="1" user="" lat="49.4474077" lon="7.7746451">
    <tag k="name" v="JUZ Kaiserslautern"/>
    <tag k="wheelchair" v="no"/>
    <tag k="wheelchair:description" v="Stufen am Eingang und innen drinnen"/>
    <tag k="amenity" v="nightclub"/>
  </node>
  <node id="-949" version="0" timestamp="Fri Feb 24 10:53:33 +0100 2012" uid="1" user="" lat="49.4360858" lon="7.7654534">
    <tag k="shop" v="mall"/>
    <tag k="name" v="TEDI"/>
    <tag k="wheelchair" v="yes"/>
  </node>
  <node id="-950" version="0" timestamp="Fri Feb 24 10:53:33 +0100 2012" uid="1" user="" lat="49.4344419" lon="7.7651813">
    <tag k="shop" v="mall"/>
    <tag k="name" v="E-Center"/>
    <tag k="wheelchair" v="yes"/>
  </node>
  <node id="-1838" version="0" timestamp="Fri Feb 24 10:53:33 +0100 2012" uid="1" user="" lat="49.4511999" lon="7.7631482">
    <tag k="name" v="Fachhochschule Kaiserslautern, Standort Morlauterer Str."/>
    <tag k="wheelchair" v="no"/>
    <tag k="addr:city" v="Kaiserslautern"/>
    <tag k="addr:postcode" v="67657"/>
    <tag k="addr:housenumber" v="31"/>
    <tag k="addr:street" v="Morlauterer Str. "/>
    <tag k="wheelchair:description" v="Teilweise Stockwerke nicht erreichbar, Behinderten Toiletten vorhanden"/>
    <tag k="amenity" v="college"/>
    <tag k="website" v="http://www.fh-kl.de"/>
  </node>
  <node id="-1839" version="0" timestamp="Fri Feb 24 10:53:33 +0100 2012" uid="1" user="" lat="49.4534586" lon="7.8105308">
    <tag k="name" v="Monte MAre"/>
    <tag k="wheelchair" v="yes"/>
    <tag k="amenity" v="swimming_pool"/>
  </node>
  <node id="-2740" version="0" timestamp="Fri Feb 24 10:53:34 +0100 2012" uid="1" user="" lat="49.45447" lon="7.80968">
    <tag k="name" v="FIT FOR LIFE Fitnessclub"/>
    <tag k="wheelchair" v="yes"/>
    <tag k="addr:city" v="Kaiserslautern"/>
    <tag k="addr:postcode" v="67657"/>
    <tag k="addr:housenumber" v="1"/>
    <tag k="addr:street" v="Kopenhagener Str. "/>
    <tag k="wheelchair:description" v="Alles auf einer Ebene inkl. Behinderten-Toilette"/>
    <tag k="leisure" v="sports_centre"/>
    <tag k="website" v="http://www.fit-for-life-kl.de"/>
    <tag k="phone" v="0631 45550"/>
  </node>
  <node id="-3450" version="0" timestamp="Fri Feb 24 10:53:35 +0100 2012" uid="1" user="" lat="49.3580659" lon="7.7751298">
    <tag k="shop" v="supermarket"/>
    <tag k="name" v="Frischemarkt Karlstal"/>
    <tag k="wheelchair" v="limited"/>
  </node>
  <node id="-3451" version="0" timestamp="Fri Feb 24 10:53:35 +0100 2012" uid="1" user="" lat="49.35455" lon="7.76917">
    <tag k="name" v="Tourist Info Trippstadt"/>
    <tag k="wheelchair" v="no"/>
  </node>
  <node id="-3460" version="0" timestamp="Fri Feb 24 10:53:35 +0100 2012" uid="1" user="" lat="49.4400933" lon="7.7085066">
    <tag k="shop" v="clothes"/>
    <tag k="name" v="Esprit"/>
    <tag k="wheelchair" v="yes"/>
  </node>
</osm>
