<?xml version='1.0' encoding='UTF-8'?>
<osm version="0.6" generator="Osmosis 0.39">
  <node id="-1035" version="0" timestamp="Fri Feb 24 10:53:33 +0100 2012" uid="1" user="" lat="50.3356538" lon="7.5697379">
    <tag k="name" v="FH Koblenz"/>
    <tag k="wheelchair" v="yes"/>
    <tag k="addr:city" v="Koblenz"/>
    <tag k="addr:street" v="Konrad-Zuse-Straße"/>
    <tag k="amenity" v="college"/>
    <tag k="website" v="http://www.fh-koblenz.de"/>
  </node>
  <node id="-1788" version="0" timestamp="Fri Feb 24 10:53:33 +0100 2012" uid="1" user="" lat="50.35475" lon="7.58557">
    <tag k="name" v="Cappuccino"/>
    <tag k="wheelchair" v="yes"/>
    <tag k="addr:city" v="Koblenz"/>
    <tag k="addr:postcode" v="56068"/>
    <tag k="addr:housenumber" v="71"/>
    <tag k="addr:street" v="Kurfürstenstr. "/>
    <tag k="amenity" v="cafe"/>
  </node>
  <node id="-1789" version="0" timestamp="Fri Feb 24 10:53:33 +0100 2012" uid="1" user="" lat="50.3479269" lon="7.5940318">
    <tag k="name" v="Cappuccino"/>
    <tag k="wheelchair" v="yes"/>
    <tag k="amenity" v="cafe"/>
  </node>
  <node id="-3756" version="0" timestamp="Fri Feb 24 10:53:35 +0100 2012" uid="1" user="" lat="50.3624909" lon="7.5603728">
    <tag k="name" v="Technologiezentrum Koblenz"/>
    <tag k="wheelchair" v="yes"/>
    <tag k="addr:city" v="Koblenz"/>
    <tag k="addr:postcode" v="56070"/>
    <tag k="addr:housenumber" v="3"/>
    <tag k="addr:street" v="Universitätsstraße"/>
    <tag k="amenity" v="kindergarten"/>
    <tag k="website" v="http://www.tzk.de"/>
  </node>
  <node id="-4004" version="0" timestamp="Fri Feb 24 10:53:36 +0100 2012" uid="1" user="" lat="50.358999" lon="7.5684196">
    <tag k="name" v="Landesamt für Vermessung u. Geobasisinformation RLP"/>
    <tag k="wheelchair" v="yes"/>
  </node>
  <node id="-4637" version="0" timestamp="Fri Feb 24 10:53:36 +0100 2012" uid="1" user="" lat="50.3600352" lon="7.593942">
    <tag k="shop" v="hearing_aids"/>
    <tag k="name" v="Weinkauf&amp;Sohn SEHEN und HÖREN GmbH"/>
    <tag k="wheelchair" v="limited"/>
    <tag k="addr:city" v="Koblenz"/>
    <tag k="addr:postcode" v="56068"/>
    <tag k="addr:housenumber" v="10/12"/>
    <tag k="addr:street" v="Löhrstrasse"/>
    <tag k="wheelchair:description" v="Brillen, Hörgeräte u. Contactlinsen"/>
    <tag k="website" v="http://www.weinkaufundsohn.de"/>
    <tag k="phone" v="+49 261 15081"/>
  </node>
  <node id="-5431" version="0" timestamp="Fri Feb 24 10:53:37 +0100 2012" uid="1" user="" lat="50.35359" lon="7.59522">
    <tag k="name" v="Santander Consumer Bank"/>
    <tag k="wheelchair" v="limited"/>
    <tag k="addr:city" v="Koblenz"/>
    <tag k="addr:postcode" v="56068"/>
    <tag k="addr:housenumber" v="44"/>
    <tag k="addr:street" v="Rizzastraße"/>
    <tag k="amenity" v="bank"/>
    <tag k="website" v="http://www.santander.de"/>
  </node>
</osm>
