<?xml version='1.0' encoding='UTF-8'?>
<osm version="0.6" generator="Osmosis 0.39">
  <node id="-1560" version="0" timestamp="Fri Feb 24 10:53:33 +0100 2012" uid="1" user="" lat="49.4886024" lon="8.4151495">
    <tag k="name" v="Turmrestaurant Ebertpark"/>
    <tag k="wheelchair" v="yes"/>
    <tag k="wheelchair:description" v="Terrasse und Innenraum barrierefrei, Rollstuhl-WC viorhanden. 1. OG nur über Treppe"/>
    <tag k="amenity" v="restaurant"/>
  </node>
  <node id="-5210" version="0" timestamp="Fri Feb 24 10:53:37 +0100 2012" uid="1" user="" lat="49.4576502" lon="8.4088283">
    <tag k="name" v="Sankt Marienkrankenhaus"/>
    <tag k="wheelchair" v="yes"/>
    <tag k="amenity" v="hospital"/>
  </node>
  <node id="-5430" version="0" timestamp="Fri Feb 24 10:53:37 +0100 2012" uid="1" user="" lat="49.48401" lon="8.44365">
    <tag k="name" v="Santander Consumer Bank"/>
    <tag k="wheelchair" v="limited"/>
    <tag k="addr:city" v="Ludwigshafen"/>
    <tag k="addr:postcode" v="67059"/>
    <tag k="addr:housenumber" v="40"/>
    <tag k="addr:street" v="Ludwigstraße"/>
    <tag k="amenity" v="bank"/>
    <tag k="website" v="http://www.santander.de"/>
  </node>
  <node id="-5571" version="0" timestamp="Fri Feb 24 10:53:37 +0100 2012" uid="1" user="" lat="49.48545" lon="8.44468">
    <tag k="name" v="Present Shop"/>
    <tag k="wheelchair" v="limited"/>
    <tag k="addr:city" v="Ludwigshafen"/>
    <tag k="addr:postcode" v="67061"/>
    <tag k="addr:housenumber" v="4"/>
    <tag k="addr:street" v="Im Zollhof"/>
    <tag k="wheelchair:description" v="Gänge sind eng und voll gestelt"/>
    <tag k="amenity" v="bank"/>
    <tag k="website" v="http://www.rheingalerie-ludwigshafen.de/de/shopdetails/presentshop.php"/>
  </node>
  <node id="-5605" version="0" timestamp="Fri Feb 24 10:53:37 +0100 2012" uid="1" user="" lat="49.4910584" lon="8.3501003">
    <tag k="name" v="Schützenhaus"/>
    <tag k="wheelchair" v="yes"/>
    <tag k="addr:city" v="Ludwigshafen"/>
    <tag k="addr:postcode" v="67067"/>
    <tag k="addr:housenumber" v="5"/>
    <tag k="addr:street" v="Lambsheimer Str. "/>
    <tag k="wheelchair:description" v="Ein Rolliwc für w/m"/>
    <tag k="amenity" v="bank"/>
    <tag k="phone" v="+49621513750"/>
  </node>
  <node id="-5606" version="0" timestamp="Fri Feb 24 10:53:37 +0100 2012" uid="1" user="" lat="49.4696693" lon="8.3972599">
    <tag k="name" v="Gaststätte Gärtnertreff/Italienisch"/>
    <tag k="wheelchair" v="yes"/>
    <tag k="addr:postcode" v="67067"/>
    <tag k="addr:street" v="Kallstadter Str"/>
    <tag k="wheelchair:description" v="Toilette mit Rolli erreichbar, keine Stufen"/>
    <tag k="amenity" v="bank"/>
  </node>
  <node id="-5607" version="0" timestamp="Fri Feb 24 10:53:37 +0100 2012" uid="1" user="" lat="49.4752777" lon="8.4151622">
    <tag k="name" v="Freibadschänke"/>
    <tag k="wheelchair" v="limited"/>
    <tag k="addr:postcode" v="67067"/>
    <tag k="addr:street" v="Bliesstr"/>
    <tag k="wheelchair:description" v="Keine Stufen, aber auch kein Rolli WC"/>
    <tag k="amenity" v="bank"/>
  </node>
  <node id="-5608" version="0" timestamp="Fri Feb 24 10:53:37 +0100 2012" uid="1" user="" lat="49.4850919" lon="8.4118571">
    <tag k="name" v="Heinrich Pesch Haus"/>
    <tag k="wheelchair" v="yes"/>
    <tag k="addr:city" v="Ludwigshafen"/>
    <tag k="addr:postcode" v="676059"/>
    <tag k="addr:housenumber" v="229"/>
    <tag k="addr:street" v="Frankenthaler Str."/>
    <tag k="wheelchair:description" v="Best you can think"/>
    <tag k="amenity" v="bank"/>
    <tag k="website" v="http://www.heinrich-pesch-haus.de"/>
    <tag k="phone" v="+4962159990"/>
  </node>
  <node id="-5639" version="0" timestamp="Fri Feb 24 10:53:37 +0100 2012" uid="1" user="" lat="49.4887821" lon="8.3610801">
    <tag k="name" v="Mosaikschule, Schule mit Förderschwerpunkt motorische Entwicklung "/>
    <tag k="wheelchair" v="yes"/>
    <tag k="addr:city" v="Ludwigshafen-Oggersheim"/>
    <tag k="addr:postcode" v="67071"/>
    <tag k="addr:housenumber" v="8"/>
    <tag k="addr:street" v="Karl-Lochner-Straße"/>
    <tag k="wheelchair:description" v="Schule für Kinder mit Körperbehinderungen, barrierefreie Pflegeräume, z.T.mit Deckenlifter"/>
    <tag k="amenity" v="school"/>
    <tag k="website" v="http://www.mosaikschule-lu.de"/>
    <tag k="phone" v="062167005171"/>
  </node>
</osm>
