<?xml version='1.0' encoding='UTF-8'?>
<osm version="0.6" generator="Osmosis 0.39">
  <node id="-894" version="0" timestamp="Fri Feb 24 10:53:32 +0100 2012" uid="1" user="" lat="49.95951" lon="8.03541">
    <tag k="name" v="Bergrestaurant Waldeck"/>
    <tag k="wheelchair" v="yes"/>
    <tag k="wheelchair:description" v="Behinderten-WC, Rampe"/>
    <tag k="amenity" v="restaurant"/>
  </node>
  <node id="-899" version="0" timestamp="Fri Feb 24 10:53:32 +0100 2012" uid="1" user="" lat="49.9721" lon="8.0497">
    <tag k="shop" v="clothes"/>
    <tag k="name" v="Huf "/>
    <tag k="wheelchair" v="yes"/>
    <tag k="addr:city" v="Ingelheim am Rhein"/>
    <tag k="addr:postcode" v="55218"/>
    <tag k="addr:housenumber" v="96-98"/>
    <tag k="addr:street" v="Binger Straße"/>
    <tag k="wheelchair:description" v="Behinderten-WC, ebenerdig"/>
  </node>
  <node id="-1791" version="0" timestamp="Fri Feb 24 10:53:33 +0100 2012" uid="1" user="" lat="49.9505927" lon="7.9110222">
    <tag k="name" v="Sparkasse Rhein-Nahe"/>
    <tag k="wheelchair" v="yes"/>
    <tag k="wheelchair:description" v="Rampe zur Bank"/>
    <tag k="amenity" v="bank"/>
  </node>
  <node id="-1792" version="0" timestamp="Fri Feb 24 10:53:33 +0100 2012" uid="1" user="" lat="49.9512823" lon="7.9082053">
    <tag k="name" v="Mainzer Volksbank"/>
    <tag k="wheelchair" v="yes"/>
    <tag k="wheelchair:description" v="Rampe zur Bank"/>
    <tag k="amenity" v="bank"/>
  </node>
  <node id="-1793" version="0" timestamp="Fri Feb 24 10:53:33 +0100 2012" uid="1" user="" lat="49.9502541" lon="7.9114691">
    <tag k="name" v="Apotheke Am Römer"/>
    <tag k="wheelchair" v="yes"/>
    <tag k="wheelchair:description" v="Rampe"/>
    <tag k="amenity" v="pharmacy"/>
  </node>
  <node id="-1794" version="0" timestamp="Fri Feb 24 10:53:33 +0100 2012" uid="1" user="" lat="49.9496847" lon="7.9018638">
    <tag k="shop" v="supermarket"/>
    <tag k="name" v="DM Drogerie"/>
    <tag k="wheelchair" v="yes"/>
  </node>
  <node id="-1795" version="0" timestamp="Fri Feb 24 10:53:33 +0100 2012" uid="1" user="" lat="49.9503215" lon="7.911239">
    <tag k="name" v="Büdesheim Mitte"/>
    <tag k="wheelchair" v="yes"/>
    <tag k="wheelchair:description" v="Erhöhte Haltestelle"/>
    <tag k="amenity" v="bus_station"/>
  </node>
  <node id="-1796" version="0" timestamp="Fri Feb 24 10:53:33 +0100 2012" uid="1" user="" lat="49.9488656" lon="7.9124691">
    <tag k="shop" v="supermarket"/>
    <tag k="name" v="Drogerie Schlecker"/>
    <tag k="wheelchair" v="no"/>
    <tag k="wheelchair:description" v="Absätze am Eingang, eng gebaut, 1.OG nicht erreichbar"/>
  </node>
  <node id="-1799" version="0" timestamp="Fri Feb 24 10:53:33 +0100 2012" uid="1" user="" lat="49.9675732" lon="7.8945168">
    <tag k="name" v="Alte Wache"/>
    <tag k="wheelchair" v="limited"/>
    <tag k="wheelchair:description" v="Keller und 1.OG nur über Treppe erreichbar"/>
    <tag k="amenity" v="cafe"/>
  </node>
  <node id="-1800" version="0" timestamp="Fri Feb 24 10:53:33 +0100 2012" uid="1" user="" lat="49.9675787" lon="7.8941533">
    <tag k="name" v="Kochlöffel"/>
    <tag k="wheelchair" v="limited"/>
    <tag k="wheelchair:description" v="Keine behindertengerechte Toilette"/>
    <tag k="amenity" v="fast_food"/>
  </node>
  <node id="-1801" version="0" timestamp="Fri Feb 24 10:53:33 +0100 2012" uid="1" user="" lat="49.9675474" lon="7.8945546">
    <tag k="name" v="Mekong China-Restaurant"/>
    <tag k="wheelchair" v="no"/>
    <tag k="wheelchair:description" v="Hohe Stufe am Eingang, keine Toilette"/>
    <tag k="amenity" v="restaurant"/>
  </node>
  <node id="-1802" version="0" timestamp="Fri Feb 24 10:53:33 +0100 2012" uid="1" user="" lat="49.9674355" lon="7.8938765">
    <tag k="shop" v="clothes"/>
    <tag k="name" v="s.Oliver Store"/>
    <tag k="wheelchair" v="limited"/>
    <tag k="addr:city" v="Bingen am Rhein"/>
    <tag k="addr:postcode" v="55411"/>
    <tag k="addr:housenumber" v="5"/>
    <tag k="addr:street" v="Basilikastraße"/>
    <tag k="wheelchair:description" v="keine passende Umkleide"/>
  </node>
  <node id="-1803" version="0" timestamp="Fri Feb 24 10:53:33 +0100 2012" uid="1" user="" lat="49.9691559" lon="7.905454">
    <tag k="name" v="Zulassungstelle Mainz-Bingen"/>
    <tag k="wheelchair" v="no"/>
    <tag k="wheelchair:description" v="1.OG Führerscheinstelle nicht erreichbar"/>
  </node>
  <node id="-1804" version="0" timestamp="Fri Feb 24 10:53:33 +0100 2012" uid="1" user="" lat="49.9692246" lon="7.8990401">
    <tag k="name" v="Tourist-Info"/>
    <tag k="wheelchair" v="yes"/>
  </node>
  <node id="-1805" version="0" timestamp="Fri Feb 24 10:53:33 +0100 2012" uid="1" user="" lat="49.96907" lon="7.8969496">
    <tag k="name" v="Hospitalstraße"/>
    <tag k="wheelchair" v="yes"/>
    <tag k="amenity" v="bus_station"/>
    <tag k="website" v="http://www.rnn.info"/>
  </node>
  <node id="-1809" version="0" timestamp="Fri Feb 24 10:53:33 +0100 2012" uid="1" user="" lat="49.9662201" lon="7.8942105">
    <tag k="shop" v="books"/>
    <tag k="name" v="Buchhandlung Schweikhard"/>
    <tag k="wheelchair" v="limited"/>
    <tag k="addr:city" v="Bingen am Rhein"/>
    <tag k="addr:postcode" v="55411"/>
    <tag k="addr:housenumber" v="33-35"/>
    <tag k="addr:street" v="Schmittstraße"/>
    <tag k="wheelchair:description" v="1.UG nicht erreichbar, Personal jedoch sehr Hilfsbereit"/>
    <tag k="website" v="http://www.schweikhard.shop-asp.de"/>
    <tag k="phone" v="+49672114787"/>
  </node>
  <node id="-1811" version="0" timestamp="Fri Feb 24 10:53:33 +0100 2012" uid="1" user="" lat="49.9675676" lon="7.8971212">
    <tag k="name" v="Bürgerbüro"/>
    <tag k="wheelchair" v="yes"/>
    <tag k="wheelchair:description" v="Rollstuhl Rampe"/>
  </node>
  <node id="-1812" version="0" timestamp="Fri Feb 24 10:53:33 +0100 2012" uid="1" user="" lat="49.9464498" lon="7.9055683">
    <tag k="name" v="Rochus-Realschule Bingen"/>
    <tag k="wheelchair" v="yes"/>
    <tag k="wheelchair:description" v="Lift im Gebäude, barrierefreie Toilette"/>
    <tag k="amenity" v="school"/>
  </node>
  <node id="-1813" version="0" timestamp="Fri Feb 24 10:53:33 +0100 2012" uid="1" user="" lat="49.9476501" lon="7.9068857">
    <tag k="name" v="Rundsporthalle"/>
    <tag k="wheelchair" v="no"/>
    <tag k="wheelchair:description" v="Tribüne nicht erreichbar,nur Treppen"/>
    <tag k="leisure" v="stadium"/>
  </node>
  <node id="-1814" version="0" timestamp="Fri Feb 24 10:53:33 +0100 2012" uid="1" user="" lat="49.9467822" lon="7.9045374">
    <tag k="name" v="Sporthalle Rochus-Realschule"/>
    <tag k="wheelchair" v="yes"/>
    <tag k="amenity" v="school"/>
  </node>
  <node id="-1816" version="0" timestamp="Fri Feb 24 10:53:33 +0100 2012" uid="1" user="" lat="49.9459082" lon="7.9163447">
    <tag k="name" v="Ärtzliche Gemeinschaftspraxis Fesser, Albert-Gansera und Schiefer; Allgemeinmedizin"/>
    <tag k="wheelchair" v="yes"/>
    <tag k="addr:city" v="Bingen am Rhein"/>
    <tag k="addr:postcode" v="55411"/>
    <tag k="addr:housenumber" v="29B"/>
    <tag k="addr:street" v="Dromersheimer Chaussee"/>
    <tag k="amenity" v="doctors"/>
    <tag k="phone" v="+49672141854"/>
  </node>
  <node id="-1817" version="0" timestamp="Fri Feb 24 10:53:33 +0100 2012" uid="1" user="" lat="49.949087" lon="7.9017131">
    <tag k="shop" v="supermarket"/>
    <tag k="name" v="ALDI Süd"/>
    <tag k="wheelchair" v="yes"/>
  </node>
  <node id="-1819" version="0" timestamp="Fri Feb 24 10:53:33 +0100 2012" uid="1" user="" lat="49.9486482" lon="7.902622">
    <tag k="name" v="Tierärztliche Gemeinschaftspraxis Bingen Dr.Dornhauser u. Dr. Schöneberger"/>
    <tag k="wheelchair" v="unknown"/>
    <tag k="addr:city" v="Bingen am Rhein"/>
    <tag k="addr:postcode" v="55411 "/>
    <tag k="addr:housenumber" v="45"/>
    <tag k="addr:street" v="Hitchinstraße"/>
    <tag k="amenity" v="veterinary"/>
    <tag k="website" v="http://www.tierarztpraxis-bingen.de"/>
    <tag k="phone" v="+4967 21 99 13 93"/>
  </node>
  <node id="-3233" version="0" timestamp="Fri Feb 24 10:53:35 +0100 2012" uid="1" user="" lat="49.96789" lon="7.89689">
    <tag k="name" v="Cafè Solé"/>
    <tag k="wheelchair" v="yes"/>
    <tag k="addr:city" v="Bingen"/>
    <tag k="addr:postcode" v="55411"/>
    <tag k="addr:housenumber" v="19"/>
    <tag k="addr:street" v="Kapuzinerstr. "/>
    <tag k="wheelchair:description" v="4. Etage mit Aufzug"/>
    <tag k="amenity" v="cafe"/>
    <tag k="website" v="http://www.cafe-sole.de"/>
    <tag k="phone" v="06721/907899"/>
  </node>
</osm>
