<?xml version='1.0' encoding='UTF-8'?>
<osm version="0.6" generator="Osmosis 0.39">
  <node id="-292" version="0" timestamp="Fri Feb 24 10:53:32 +0100 2012" uid="1" user="" lat="49.9902" lon="8.2386">
    <tag k="name" v="Botanischer Garten"/>
    <tag k="wheelchair" v="yes"/>
    <tag k="tourism" v="viewpoint"/>
  </node>
  <node id="-293" version="0" timestamp="Fri Feb 24 10:53:32 +0100 2012" uid="1" user="" lat="49.99029" lon="8.23861">
    <tag k="name" v="Botanischer Garten"/>
    <tag k="wheelchair" v="yes"/>
    <tag k="tourism" v="viewpoint"/>
  </node>
  <node id="-610" version="0" timestamp="Fri Feb 24 10:53:32 +0100 2012" uid="1" user="" lat="50.00772" lon="8.20824">
    <tag k="name" v="Hallenbad und Freibad Am Großen Sand"/>
    <tag k="wheelchair" v="yes"/>
    <tag k="wheelchair:description" v="Rampe am Eingang, Dusche und Toilettenkabine innerhalb der Schwimmhalle, Hebevorrichtung um ins Wasser gelassen zu werden vorhanden und ok.  "/>
    <tag k="amenity" v="swimming_pool"/>
  </node>
  <node id="-956" version="0" timestamp="Fri Feb 24 10:53:33 +0100 2012" uid="1" user="" lat="50.0127" lon="8.22025">
    <tag k="name" v="Hallenbad Am Großen Sand"/>
    <tag k="wheelchair" v="yes"/>
    <tag k="wheelchair:description" v="Rampe am Eingang, Dusche und Toilette Rollstuhlgerecht in der Schwimmhalle"/>
    <tag k="amenity" v="swimming_pool"/>
  </node>
  <node id="-957" version="0" timestamp="Fri Feb 24 10:53:33 +0100 2012" uid="1" user="" lat="50.00977" lon="8.21761">
    <tag k="shop" v="supermarket"/>
    <tag k="name" v="Aldi"/>
    <tag k="wheelchair" v="limited"/>
    <tag k="wheelchair:description" v="manche Regale zu hoch. "/>
  </node>
  <node id="-958" version="0" timestamp="Fri Feb 24 10:53:33 +0100 2012" uid="1" user="" lat="50.0100878" lon="8.2148359">
    <tag k="name" v="KfZ-Zulassungsstelle"/>
    <tag k="wheelchair" v="limited"/>
    <tag k="wheelchair:description" v="Erdgeschoss rollstuhlgerecht, Führerscheinstelle im ersten Stock nicht erreichbar"/>
  </node>
  <node id="-959" version="0" timestamp="Fri Feb 24 10:53:33 +0100 2012" uid="1" user="" lat="50.007741" lon="8.2088446">
    <tag k="shop" v="beverages"/>
    <tag k="name" v="Rewe-Getränkemarkt"/>
    <tag k="wheelchair" v="yes"/>
    <tag k="wheelchair:description" v="ebenerdig zugänglich, auch vom Parkplatz aus, Kundentoilette nicht rollstuhgerecht"/>
  </node>
  <node id="-1712" version="0" timestamp="Fri Feb 24 10:53:33 +0100 2012" uid="1" user="" lat="50.0015803" lon="8.2631721">
    <tag k="shop" v="clothes"/>
    <tag k="name" v="Gothic, Mittelalter-, Barock- und Brautmode"/>
    <tag k="wheelchair" v="yes"/>
    <tag k="addr:city" v="Mainz"/>
    <tag k="addr:postcode" v="55116"/>
    <tag k="addr:housenumber" v="16"/>
    <tag k="addr:street" v="Gärtnergasse"/>
    <tag k="wheelchair:description" v="Kein WC"/>
    <tag k="website" v="http://www.lady-cecilia.de"/>
    <tag k="phone" v="+49 06131 8934950"/>
  </node>
  <node id="-1897" version="0" timestamp="Fri Feb 24 10:53:33 +0100 2012" uid="1" user="" lat="49.98539" lon="8.25112">
    <tag k="name" v="Finanzamt Mainz-Mitte"/>
    <tag k="wheelchair" v="yes"/>
    <tag k="addr:city" v="Mainz"/>
    <tag k="addr:housenumber" v="13"/>
    <tag k="addr:street" v="Schillerstraße"/>
    <tag k="wheelchair:description" v="Barrierefreier Eingang mit Türöffner"/>
  </node>
  <node id="-2196" version="0" timestamp="Fri Feb 24 10:53:34 +0100 2012" uid="1" user="" lat="50.0067827" lon="8.2701829">
    <tag k="name" v="Kurfürstliches Schloss"/>
    <tag k="wheelchair" v="yes"/>
    <tag k="website" v="http://www.ccmainz.de/index.php?id=26"/>
    <tag k="historic" v="castle"/>
  </node>
  <node id="-2198" version="0" timestamp="Fri Feb 24 10:53:34 +0100 2012" uid="1" user="" lat="49.9970124" lon="8.2739186">
    <tag k="name" v="Frankfurter Hof"/>
    <tag k="wheelchair" v="yes"/>
    <tag k="amenity" v="townhall"/>
    <tag k="website" v="http://www.frankfurter-hof-mainz.de/"/>
  </node>
  <node id="-2255" version="0" timestamp="Fri Feb 24 10:53:34 +0100 2012" uid="1" user="" lat="49.9789151" lon="8.1923142">
    <tag k="name" v="Ristorante Classico"/>
    <tag k="wheelchair" v="yes"/>
    <tag k="addr:city" v="Mainz-Drais"/>
    <tag k="addr:postcode" v="55127"/>
    <tag k="addr:housenumber" v="37"/>
    <tag k="addr:street" v="Daniel-Brendel-Strasse"/>
    <tag k="wheelchair:description" v="Keinerlei Barrieren. Alles ebenerdig ohne Stufen oder Schwellen. Rolligerechte Toilette, eventuell etwas schmal/klein für sehr breite Rollstühle. Personal ist sehr zuvorkommend und an Rollifahrer gewöhnt. Es werden sofort Stühle weggenommen."/>
    <tag k="amenity" v="restaurant"/>
    <tag k="website" v="http://www.ristorante-classico.com"/>
    <tag k="phone" v="+49 6131 / 8 50 00"/>
  </node>
  <node id="-3286" version="0" timestamp="Fri Feb 24 10:53:35 +0100 2012" uid="1" user="" lat="49.9851274" lon="8.1788545">
    <tag k="name" v="Bürgerhaus Finthen"/>
    <tag k="wheelchair" v="yes"/>
    <tag k="addr:city" v="Mainz"/>
    <tag k="addr:postcode" v="55126 Mainz-Finthen"/>
    <tag k="addr:housenumber" v="24"/>
    <tag k="addr:street" v="Am Obstmarkt "/>
    <tag k="website" v="http://www.ccmainz.de/83.html"/>
  </node>
  <node id="-3430" version="0" timestamp="Fri Feb 24 10:53:35 +0100 2012" uid="1" user="" lat="50.01475" lon="8.24134">
    <tag k="name" v="Alte Lokhalle"/>
    <tag k="wheelchair" v="yes"/>
    <tag k="addr:city" v="Mombach"/>
    <tag k="addr:postcode" v="55122"/>
    <tag k="addr:housenumber" v="78"/>
    <tag k="addr:street" v="Mombacher Straße"/>
    <tag k="amenity" v="nightclub"/>
  </node>
  <node id="-5412" version="0" timestamp="Fri Feb 24 10:53:37 +0100 2012" uid="1" user="" lat="50.00203" lon="8.26417">
    <tag k="name" v="Santander Consumer Bank"/>
    <tag k="wheelchair" v="limited"/>
    <tag k="addr:city" v="Mainz"/>
    <tag k="addr:postcode" v="55116"/>
    <tag k="addr:housenumber" v="23"/>
    <tag k="addr:street" v="Große Bleiche"/>
    <tag k="amenity" v="bank"/>
    <tag k="website" v="http://www.santander.de"/>
  </node>
  <node id="-5591" version="0" timestamp="Fri Feb 24 10:53:37 +0100 2012" uid="1" user="" lat="49.9914756" lon="8.2441191">
    <tag k="name" v="Sporthalle Uni Mainz, AHS"/>
    <tag k="wheelchair" v="yes"/>
    <tag k="wheelchair:description" v="Barriefrei, Parkplatz und Beh.-WC vorhanden"/>
    <tag k="amenity" v="university"/>
  </node>
  <node id="-5713" version="0" timestamp="Fri Feb 24 10:53:37 +0100 2012" uid="1" user="" lat="50.0002669" lon="8.2556523">
    <tag k="name" v="Taubertbergbad"/>
    <tag k="wheelchair" v="yes"/>
    <tag k="addr:city" v="Mainz"/>
    <tag k="wheelchair:description" v="Umkleide, Dusche, Klo, Bezahlen, nette Bademeister, Therme, Fahrstuhl"/>
    <tag k="amenity" v="swimming_pool"/>
    <tag k="website" v="http://www.taubertsbergbad.de"/>
  </node>
  <node id="-5714" version="0" timestamp="Fri Feb 24 10:53:37 +0100 2012" uid="1" user="" lat="50.01022" lon="8.2636">
    <tag k="name" v="Grüne Brücke"/>
    <tag k="wheelchair" v="limited"/>
    <tag k="addr:city" v="Mainz"/>
    <tag k="tourism" v="attraction"/>
    <tag k="wheelchair:description" v="Übergang über die Straße via Rampe, mehr als 6%"/>
  </node>
  <node id="-5715" version="0" timestamp="Fri Feb 24 10:53:37 +0100 2012" uid="1" user="" lat="49.9734664" lon="8.1454932">
    <tag k="name" v="Studio-Works"/>
    <tag k="wheelchair" v="limited"/>
    <tag k="addr:city" v="Mainz"/>
    <tag k="addr:postcode" v="55126"/>
    <tag k="addr:housenumber" v="5821"/>
    <tag k="addr:street" v="Am Finther Wald "/>
    <tag k="wheelchair:description" v="Rampe vorhanden, Räume ok, nur Toilette schwierig, geht aber"/>
    <tag k="website" v="http://www.studio-works.de"/>
    <tag k="phone" v="06131-9721422"/>
    <tag k="office" v="company"/>
  </node>
</osm>
