<?xml version='1.0' encoding='UTF-8'?>
<osm version="0.6" generator="Osmosis 0.39">
  <node id="-307" version="0" timestamp="Fri Feb 24 10:53:32 +0100 2012" uid="1" user="" lat="50.3791729" lon="7.4156126">
    <tag k="name" v="Von-der-Leyen-Halle"/>
    <tag k="wheelchair" v="yes"/>
    <tag k="amenity" v="townhall"/>
  </node>
  <node id="-308" version="0" timestamp="Fri Feb 24 10:53:32 +0100 2012" uid="1" user="" lat="50.4323225" lon="7.4067073">
    <tag k="name" v="Kapelle St. Michael"/>
    <tag k="wheelchair" v="unknown"/>
    <tag k="amenity" v="place_of_worship"/>
  </node>
  <node id="-309" version="0" timestamp="Fri Feb 24 10:53:32 +0100 2012" uid="1" user="" lat="50.4317177" lon="7.4066103">
    <tag k="name" v="St. Albert"/>
    <tag k="wheelchair" v="unknown"/>
    <tag k="amenity" v="place_of_worship"/>
  </node>
  <node id="-310" version="0" timestamp="Fri Feb 24 10:53:32 +0100 2012" uid="1" user="" lat="50.4318468" lon="7.405507">
    <tag k="name" v="Kurfürst-Salentin-Gymnasium"/>
    <tag k="wheelchair" v="unknown"/>
    <tag k="amenity" v="school"/>
  </node>
  <node id="-311" version="0" timestamp="Fri Feb 24 10:53:32 +0100 2012" uid="1" user="" lat="50.431487" lon="7.4043787">
    <tag k="name" v="Geschwister-Scholl-Realschule plus"/>
    <tag k="wheelchair" v="unknown"/>
    <tag k="amenity" v="school"/>
  </node>
  <node id="-312" version="0" timestamp="Fri Feb 24 10:53:32 +0100 2012" uid="1" user="" lat="50.4327318" lon="7.4062741">
    <tag k="name" v="St. Thomas-Realschule plus"/>
    <tag k="wheelchair" v="unknown"/>
    <tag k="amenity" v="school"/>
  </node>
  <node id="-376" version="0" timestamp="Fri Feb 24 10:53:32 +0100 2012" uid="1" user="" lat="50.4318697" lon="7.4055564">
    <tag k="name" v="Kurfürst-Salentin-Gymnasium"/>
    <tag k="wheelchair" v="unknown"/>
    <tag k="amenity" v="school"/>
  </node>
  <node id="-2279" version="0" timestamp="Fri Feb 24 10:53:34 +0100 2012" uid="1" user="" lat="50.3955573" lon="7.5254826">
    <tag k="shop" v="supermarket"/>
    <tag k="name" v="REAL"/>
    <tag k="wheelchair" v="yes"/>
    <tag k="addr:housenumber" v="4"/>
    <tag k="addr:street" v="Industriestr."/>
  </node>
  <node id="-3130" version="0" timestamp="Fri Feb 24 10:53:35 +0100 2012" uid="1" user="" lat="50.43905" lon="7.40185">
    <tag k="name" v="Öffentliche Toilette"/>
    <tag k="wheelchair" v="yes"/>
    <tag k="addr:city" v="Andernach"/>
    <tag k="addr:postcode" v="56626"/>
    <tag k="addr:housenumber" v="45"/>
    <tag k="addr:street" v="Am Stadtgrben "/>
    <tag k="amenity" v="toilets"/>
  </node>
  <node id="-3131" version="0" timestamp="Fri Feb 24 10:53:35 +0100 2012" uid="1" user="" lat="50.44074" lon="7.40335">
    <tag k="name" v="Öffentliche Toilette"/>
    <tag k="wheelchair" v="yes"/>
    <tag k="addr:street" v="Konrad-Adenauer-Allee"/>
    <tag k="amenity" v="toilets"/>
  </node>
  <node id="-3133" version="0" timestamp="Fri Feb 24 10:53:35 +0100 2012" uid="1" user="" lat="50.44099" lon="7.40745">
    <tag k="name" v="Öffentliche Toilette"/>
    <tag k="wheelchair" v="yes"/>
    <tag k="addr:street" v="Konrad-Adenauer-Allee"/>
    <tag k="amenity" v="toilets"/>
  </node>
  <node id="-3134" version="0" timestamp="Fri Feb 24 10:53:35 +0100 2012" uid="1" user="" lat="50.43999" lon="7.40232">
    <tag k="name" v="Stiftshospital"/>
    <tag k="wheelchair" v="yes"/>
    <tag k="addr:city" v="Andernach"/>
    <tag k="addr:postcode" v="56626"/>
    <tag k="addr:housenumber" v="1"/>
    <tag k="addr:street" v="Hindenburgwall "/>
    <tag k="amenity" v="toilets"/>
  </node>
  <node id="-4598" version="0" timestamp="Fri Feb 24 10:53:36 +0100 2012" uid="1" user="" lat="50.2261974" lon="7.3469223">
    <tag k="name" v="Marien Kapele"/>
    <tag k="wheelchair" v="limited"/>
    <tag k="amenity" v="place_of_worship"/>
  </node>
  <node id="-4599" version="0" timestamp="Fri Feb 24 10:53:36 +0100 2012" uid="1" user="" lat="50.2260118" lon="7.3474513">
    <tag k="name" v="Gemeindehaus "/>
    <tag k="wheelchair" v="limited"/>
    <tag k="amenity" v="townhall"/>
  </node>
  <node id="-4600" version="0" timestamp="Fri Feb 24 10:53:36 +0100 2012" uid="1" user="" lat="50.2256504" lon="7.3511027">
    <tag k="name" v="Dorfplatz"/>
    <tag k="wheelchair" v="yes"/>
    <tag k="amenity" v="community_center"/>
  </node>
  <node id="-4601" version="0" timestamp="Fri Feb 24 10:53:36 +0100 2012" uid="1" user="" lat="50.2305513" lon="7.3521531">
    <tag k="name" v="Spotplatz Wierschem"/>
    <tag k="wheelchair" v="yes"/>
    <tag k="leisure" v="stadium"/>
  </node>
  <node id="-4602" version="0" timestamp="Fri Feb 24 10:53:36 +0100 2012" uid="1" user="" lat="50.225608" lon="7.3510933">
    <tag k="name" v="Jugendtreff Wierschem"/>
    <tag k="wheelchair" v="no"/>
    <tag k="leisure" v="playground"/>
  </node>
  <node id="-4603" version="0" timestamp="Fri Feb 24 10:53:36 +0100 2012" uid="1" user="" lat="50.226155" lon="7.3503111">
    <tag k="name" v="Bushaltestelle Wierschem"/>
    <tag k="wheelchair" v="yes"/>
    <tag k="amenity" v="bus_station"/>
  </node>
  <node id="-5461" version="0" timestamp="Fri Feb 24 10:53:37 +0100 2012" uid="1" user="" lat="50.40355" lon="7.63029">
    <tag k="name" v="Pilgerkirche"/>
    <tag k="wheelchair" v="yes"/>
    <tag k="addr:city" v="Vallendar - Schünstatt"/>
    <tag k="addr:street" v="Hillscheider Straße"/>
    <tag k="amenity" v="place_of_worship"/>
  </node>
  <node id="-5463" version="0" timestamp="Fri Feb 24 10:53:37 +0100 2012" uid="1" user="" lat="50.4022195" lon="7.6262445">
    <tag k="name" v="Wallfahrtskirche der Pallotiner"/>
    <tag k="wheelchair" v="yes"/>
    <tag k="addr:city" v="Vallendar - Schönstatt"/>
    <tag k="addr:street" v="Pallottistraße"/>
    <tag k="amenity" v="place_of_worship"/>
  </node>
</osm>
