<?xml version='1.0' encoding='UTF-8'?>
<osm version="0.6" generator="Osmosis 0.39">
  <node id="-1929" version="0" timestamp="Fri Feb 24 10:53:33 +0100 2012" uid="1" user="" lat="50.567672" lon="7.2802008">
    <tag k="name" v="Große-Meininghaus Schmerztherapie"/>
    <tag k="wheelchair" v="yes"/>
    <tag k="addr:city" v="Linz"/>
    <tag k="addr:street" v="Im Rosengarten"/>
    <tag k="amenity" v="doctors"/>
  </node>
  <node id="-2651" version="0" timestamp="Fri Feb 24 10:53:34 +0100 2012" uid="1" user="" lat="50.6174569" lon="7.2298832">
    <tag k="name" v="-Müll Gammler-"/>
    <tag k="wheelchair" v="yes"/>
    <tag k="wheelchair:description" v="Mit Rampen Ausgestattet"/>
    <tag k="amenity" v="place_of_worship"/>
  </node>
  <node id="-2652" version="0" timestamp="Fri Feb 24 10:53:34 +0100 2012" uid="1" user="" lat="50.6188353" lon="7.2301671">
    <tag k="name" v="Volksbank"/>
    <tag k="wheelchair" v="yes"/>
    <tag k="wheelchair:description" v="Schwer aufzugrigende Türen"/>
    <tag k="amenity" v="bank"/>
  </node>
  <node id="-2654" version="0" timestamp="Fri Feb 24 10:53:34 +0100 2012" uid="1" user="" lat="50.6197021" lon="7.2312222">
    <tag k="name" v="-Müll Gammler-"/>
    <tag k="wheelchair" v="limited"/>
    <tag k="wheelchair:description" v="Eine Stufe zuüberwinden"/>
    <tag k="amenity" v="pharmacy"/>
  </node>
  <node id="-2655" version="0" timestamp="Fri Feb 24 10:53:34 +0100 2012" uid="1" user="" lat="50.6179091" lon="7.2291043">
    <tag k="name" v="-Müll Gammler-"/>
    <tag k="wheelchair" v="limited"/>
    <tag k="wheelchair:description" v="Sparkasse"/>
    <tag k="amenity" v="bank"/>
  </node>
  <node id="-3663" version="0" timestamp="Fri Feb 24 10:53:35 +0100 2012" uid="1" user="" lat="50.43891" lon="7.49">
    <tag k="shop" v="doityourself"/>
    <tag k="name" v="BAUHAUS"/>
    <tag k="wheelchair" v="yes"/>
    <tag k="wheelchair:description" v="Rolli-WC in Ecke mit Wand rechts, Haltegriff links hochklappbar"/>
  </node>
  <node id="-3664" version="0" timestamp="Fri Feb 24 10:53:35 +0100 2012" uid="1" user="" lat="50.43482" lon="7.4658">
    <tag k="name" v="VHS - Volkshochschule"/>
    <tag k="wheelchair" v="yes"/>
    <tag k="addr:city" v="Neuwied"/>
    <tag k="addr:postcode" v="56564"/>
    <tag k="addr:housenumber" v="33"/>
    <tag k="addr:street" v="HEDDESDORFER STR"/>
    <tag k="wheelchair:description" v="Rolli-WC in Ecke mit Wand rechts, Haltegriff links hochklappbar"/>
    <tag k="amenity" v="school"/>
  </node>
  <node id="-3665" version="0" timestamp="Fri Feb 24 10:53:35 +0100 2012" uid="1" user="" lat="50.43482" lon="7.4658">
    <tag k="name" v="Kreis-Museum "/>
    <tag k="wheelchair" v="yes"/>
    <tag k="addr:city" v="Neuwied"/>
    <tag k="addr:postcode" v="56564"/>
    <tag k="addr:housenumber" v="1a"/>
    <tag k="tourism" v="museum"/>
    <tag k="addr:street" v="Raiffeisenplatz"/>
    <tag k="wheelchair:description" v="Rolli-WC, Fahrstuhl"/>
    <tag k="phone" v="02631-803-239"/>
  </node>
  <node id="-3666" version="0" timestamp="Fri Feb 24 10:53:35 +0100 2012" uid="1" user="" lat="50.43482" lon="7.4658">
    <tag k="shop" v="supermarket"/>
    <tag k="name" v="Naturhaus Bioladen"/>
    <tag k="wheelchair" v="limited"/>
    <tag k="addr:city" v="Neuwied"/>
    <tag k="addr:postcode" v="56564"/>
    <tag k="addr:housenumber" v="170"/>
    <tag k="addr:street" v="Langendorfer Str"/>
    <tag k="wheelchair:description" v="Rollirampe von hinten im Hof"/>
    <tag k="phone" v="02631-21801"/>
  </node>
  <node id="-3718" version="0" timestamp="Fri Feb 24 10:53:35 +0100 2012" uid="1" user="" lat="50.42889" lon="7.45954">
    <tag k="name" v="VHS - Volkshochschule"/>
    <tag k="wheelchair" v="yes"/>
    <tag k="addr:city" v="Neuwied"/>
    <tag k="addr:postcode" v="56564"/>
    <tag k="addr:housenumber" v="33"/>
    <tag k="addr:street" v="HEDDESDORFER STR"/>
    <tag k="wheelchair:description" v="Extra Rolli-Eingang ebenerdig beim Bistro"/>
    <tag k="amenity" v="school"/>
  </node>
  <node id="-3719" version="0" timestamp="Fri Feb 24 10:53:35 +0100 2012" uid="1" user="" lat="50.42889" lon="7.45954">
    <tag k="name" v="VHS - Volkshochschule"/>
    <tag k="wheelchair" v="yes"/>
    <tag k="addr:city" v="Neuwied"/>
    <tag k="addr:postcode" v="56564"/>
    <tag k="addr:housenumber" v="33"/>
    <tag k="addr:street" v="HEDDESDORFER STR"/>
    <tag k="wheelchair:description" v="Extra Rolli-Eingang ebenerdig beim Bistro"/>
    <tag k="amenity" v="school"/>
  </node>
  <node id="-3726" version="0" timestamp="Fri Feb 24 10:53:35 +0100 2012" uid="1" user="" lat="50.4294478" lon="7.4720278">
    <tag k="name" v="Kreis-Museum "/>
    <tag k="wheelchair" v="yes"/>
    <tag k="addr:city" v="Neuwied"/>
    <tag k="addr:postcode" v="56564"/>
    <tag k="addr:housenumber" v="1a"/>
    <tag k="tourism" v="museum"/>
    <tag k="addr:street" v="Raiffeisenplatz"/>
    <tag k="phone" v="02631-803-379"/>
  </node>
  <node id="-3728" version="0" timestamp="Fri Feb 24 10:53:35 +0100 2012" uid="1" user="" lat="50.4294478" lon="7.4720278">
    <tag k="name" v="Kreis-Museum "/>
    <tag k="wheelchair" v="yes"/>
    <tag k="addr:city" v="Neuwied"/>
    <tag k="addr:postcode" v="56564"/>
    <tag k="addr:housenumber" v="1a"/>
    <tag k="tourism" v="museum"/>
    <tag k="addr:street" v="Raiffeisenplatz"/>
    <tag k="phone" v="02631-803-379"/>
  </node>
  <node id="-3729" version="0" timestamp="Fri Feb 24 10:53:35 +0100 2012" uid="1" user="" lat="50.43069" lon="7.46428">
    <tag k="name" v="Deutsche Post"/>
    <tag k="wheelchair" v="limited"/>
    <tag k="addr:city" v="Neuwied"/>
    <tag k="addr:postcode" v="56564"/>
    <tag k="addr:housenumber" v="52"/>
    <tag k="addr:street" v="Pfarrstr"/>
    <tag k="wheelchair:description" v="Rollirampe zum Geldautomat + Tür"/>
    <tag k="amenity" v="post_office"/>
  </node>
  <node id="-3815" version="0" timestamp="Fri Feb 24 10:53:35 +0100 2012" uid="1" user="" lat="50.43522" lon="7.47264">
    <tag k="name" v="GESUNDHEITSAMT"/>
    <tag k="wheelchair" v="yes"/>
    <tag k="addr:city" v="Neuwied"/>
    <tag k="addr:postcode" v="56564"/>
    <tag k="addr:housenumber" v="70"/>
    <tag k="addr:street" v="Ringstr."/>
    <tag k="wheelchair:description" v="ist geschlossen"/>
    <tag k="phone" v="+49-2631-803-0"/>
  </node>
  <node id="-3816" version="0" timestamp="Fri Feb 24 10:53:35 +0100 2012" uid="1" user="" lat="50.43568" lon="7.47008">
    <tag k="name" v="GESCHWISTER-SCHOLL-GRUNDSCHULE"/>
    <tag k="wheelchair" v="limited"/>
    <tag k="addr:city" v="Neuwied"/>
    <tag k="addr:postcode" v="56564"/>
    <tag k="addr:housenumber" v="2"/>
    <tag k="addr:street" v="Wallstr"/>
    <tag k="wheelchair:description" v="neue Rollirampe am Eingang"/>
    <tag k="amenity" v="school"/>
    <tag k="phone" v="+49-2631-23372"/>
  </node>
  <node id="-4331" version="0" timestamp="Fri Feb 24 10:53:36 +0100 2012" uid="1" user="" lat="50.4297272" lon="7.4594405">
    <tag k="name" v="CityZahnärzte Elena Wolf &amp; Paul Peter Baum"/>
    <tag k="wheelchair" v="limited"/>
    <tag k="addr:city" v="Neuwied"/>
    <tag k="addr:postcode" v="56564"/>
    <tag k="addr:housenumber" v="111"/>
    <tag k="addr:street" v="Langendorfer Str"/>
    <tag k="wheelchair:description" v="Nur Toilette nicht ganz rollstuhlgerecht aber extra breit"/>
    <tag k="amenity" v="bank"/>
    <tag k="website" v="http://CityZahnaerzte.de"/>
    <tag k="phone" v="+49 2631 969696"/>
  </node>
  <node id="-4789" version="0" timestamp="Fri Feb 24 10:53:36 +0100 2012" uid="1" user="" lat="50.5995913" lon="7.6114993">
    <tag k="name" v="Gaststätte Weber"/>
    <tag k="wheelchair" v="yes"/>
    <tag k="addr:city" v="Puderbach"/>
    <tag k="addr:postcode" v="56305"/>
    <tag k="addr:housenumber" v="18"/>
    <tag k="addr:street" v="Hauptstraße"/>
    <tag k="amenity" v="bar"/>
  </node>
  <node id="-5083" version="0" timestamp="Fri Feb 24 10:53:37 +0100 2012" uid="1" user="" lat="50.647336" lon="7.6004835">
    <tag k="shop" v="furniture"/>
    <tag k="name" v="Möbel Hoffmann"/>
    <tag k="wheelchair" v="yes"/>
    <tag k="addr:city" v="Niederwambach"/>
    <tag k="addr:postcode" v="57614"/>
    <tag k="addr:housenumber" v="16"/>
    <tag k="addr:street" v="Auf der Rotbitz"/>
    <tag k="wheelchair:description" v="mit Ausstellung zu barrierefreien Einrichtungen"/>
    <tag k="website" v="http://www.moebel-hoffmann.de/"/>
    <tag k="phone" v="02681-95620"/>
  </node>
</osm>
