<?xml version='1.0' encoding='UTF-8'?>
<osm version="0.6" generator="Osmosis 0.39">
  <node id="-2266" version="0" timestamp="Fri Feb 24 10:53:34 +0100 2012" uid="1" user="" lat="49.9868722" lon="7.6411013">
    <tag k="shop" v="hardware"/>
    <tag k="name" v="H.P. Koch &amp; Söhne GmbH Heizung-Lüftung-Sanitär"/>
    <tag k="wheelchair" v="limited"/>
    <tag k="addr:city" v="Ellern"/>
    <tag k="addr:postcode" v="55497"/>
    <tag k="addr:housenumber" v="1"/>
    <tag k="addr:street" v="Rheinböllener Straße"/>
  </node>
  <node id="-2321" version="0" timestamp="Fri Feb 24 10:53:34 +0100 2012" uid="1" user="" lat="49.9310753" lon="7.6476595">
    <tag k="name" v="Freizeitanlage Opelwiese"/>
    <tag k="wheelchair" v="limited"/>
    <tag k="tourism" v="attraction"/>
  </node>
  <node id="-2322" version="0" timestamp="Fri Feb 24 10:53:34 +0100 2012" uid="1" user="" lat="49.9307113" lon="7.6483829">
    <tag k="name" v="Opelwiese"/>
    <tag k="wheelchair" v="no"/>
    <tag k="amenity" v="toilets"/>
  </node>
  <node id="-2323" version="0" timestamp="Fri Feb 24 10:53:34 +0100 2012" uid="1" user="" lat="49.9331449" lon="7.6432396">
    <tag k="name" v="Opelwiese"/>
    <tag k="wheelchair" v="no"/>
    <tag k="amenity" v="toilets"/>
  </node>
  <node id="-2324" version="0" timestamp="Fri Feb 24 10:53:34 +0100 2012" uid="1" user="" lat="49.9354095" lon="7.6392223">
    <tag k="name" v="Glashütter Wiese"/>
    <tag k="wheelchair" v="limited"/>
    <tag k="amenity" v="parking"/>
  </node>
  <node id="-2327" version="0" timestamp="Fri Feb 24 10:53:34 +0100 2012" uid="1" user="" lat="49.933253" lon="7.640871">
    <tag k="name" v="Eichenlagerplatz"/>
    <tag k="wheelchair" v="limited"/>
    <tag k="amenity" v="parking"/>
  </node>
  <node id="-2328" version="0" timestamp="Fri Feb 24 10:53:34 +0100 2012" uid="1" user="" lat="49.9328672" lon="7.6429999">
    <tag k="name" v="Opelwiese"/>
    <tag k="wheelchair" v="limited"/>
    <tag k="amenity" v="parking"/>
  </node>
  <node id="-2329" version="0" timestamp="Fri Feb 24 10:53:34 +0100 2012" uid="1" user="" lat="49.9556389" lon="7.6428504">
    <tag k="name" v="Thiergarten"/>
    <tag k="wheelchair" v="limited"/>
    <tag k="amenity" v="parking"/>
  </node>
  <node id="-2346" version="0" timestamp="Fri Feb 24 10:53:34 +0100 2012" uid="1" user="" lat="49.9812652" lon="7.5467351">
    <tag k="shop" v="supermarket"/>
    <tag k="name" v="Globus"/>
    <tag k="wheelchair" v="yes"/>
    <tag k="addr:city" v="Simmern"/>
    <tag k="addr:housenumber" v="5"/>
    <tag k="addr:street" v="Argenthaler Straße "/>
  </node>
  <node id="-2347" version="0" timestamp="Fri Feb 24 10:53:34 +0100 2012" uid="1" user="" lat="49.9822709" lon="7.5463219">
    <tag k="shop" v="electronics"/>
    <tag k="name" v="Alpha Tecc"/>
    <tag k="wheelchair" v="yes"/>
  </node>
  <node id="-2348" version="0" timestamp="Fri Feb 24 10:53:34 +0100 2012" uid="1" user="" lat="49.9823845" lon="7.5453897">
    <tag k="shop" v="beverages"/>
    <tag k="name" v="Getränkemarkt"/>
    <tag k="wheelchair" v="yes"/>
  </node>
  <node id="-2349" version="0" timestamp="Fri Feb 24 10:53:34 +0100 2012" uid="1" user="" lat="49.9824535" lon="7.550071">
    <tag k="shop" v="doityourself"/>
    <tag k="name" v="Baumarkt"/>
    <tag k="wheelchair" v="yes"/>
  </node>
  <node id="-2350" version="0" timestamp="Fri Feb 24 10:53:34 +0100 2012" uid="1" user="" lat="49.9818434" lon="7.5411055">
    <tag k="shop" v="department_store"/>
    <tag k="name" v="Herbstreuter GmbH &amp; Co KG"/>
    <tag k="wheelchair" v="yes"/>
  </node>
  <node id="-2524" version="0" timestamp="Fri Feb 24 10:53:34 +0100 2012" uid="1" user="" lat="49.9853243" lon="7.5455484">
    <tag k="shop" v="beverages"/>
    <tag k="name" v="Trinx Getränkemarkt"/>
    <tag k="wheelchair" v="yes"/>
    <tag k="addr:city" v="Simmern"/>
    <tag k="addr:postcode" v="55469"/>
    <tag k="addr:housenumber" v="22"/>
    <tag k="addr:street" v="Johann-Philipp-Reis-Straße"/>
  </node>
  <node id="-2525" version="0" timestamp="Fri Feb 24 10:53:34 +0100 2012" uid="1" user="" lat="49.9849344" lon="7.5459269">
    <tag k="shop" v="supermarket"/>
    <tag k="name" v="Paoletti Restpostenmarkt "/>
    <tag k="wheelchair" v="yes"/>
    <tag k="addr:city" v="Simmern"/>
    <tag k="addr:postcode" v="55469"/>
    <tag k="addr:housenumber" v="16"/>
    <tag k="addr:street" v="Johann-Philipp-Reis-Straße"/>
  </node>
  <node id="-2526" version="0" timestamp="Fri Feb 24 10:53:34 +0100 2012" uid="1" user="" lat="49.9841538" lon="7.5462536">
    <tag k="shop" v="books"/>
    <tag k="name" v="Vdeoland Videothek "/>
    <tag k="wheelchair" v="no"/>
  </node>
  <node id="-2527" version="0" timestamp="Fri Feb 24 10:53:34 +0100 2012" uid="1" user="" lat="49.9826958" lon="7.5400541">
    <tag k="shop" v="bakery"/>
    <tag k="name" v="Backbetriebe H. Jung"/>
    <tag k="wheelchair" v="yes"/>
    <tag k="addr:city" v="Simmern"/>
    <tag k="addr:postcode" v="55469"/>
    <tag k="addr:housenumber" v="43"/>
    <tag k="addr:street" v="Wildburgstraße"/>
  </node>
  <node id="-2528" version="0" timestamp="Fri Feb 24 10:53:34 +0100 2012" uid="1" user="" lat="49.9822272" lon="7.5402415">
    <tag k="shop" v="shoes"/>
    <tag k="name" v="Schuh German "/>
    <tag k="wheelchair" v="yes"/>
    <tag k="addr:city" v="Simmern"/>
    <tag k="addr:postcode" v="55469"/>
    <tag k="addr:housenumber" v="2"/>
    <tag k="addr:street" v="Argenthaler Straße "/>
  </node>
  <node id="-2529" version="0" timestamp="Fri Feb 24 10:53:34 +0100 2012" uid="1" user="" lat="49.9821472" lon="7.540417">
    <tag k="shop" v="clothes"/>
    <tag k="name" v="Big Deal Jeans"/>
    <tag k="wheelchair" v="yes"/>
    <tag k="addr:city" v="Simmern"/>
    <tag k="addr:postcode" v="55469"/>
    <tag k="addr:housenumber" v="2"/>
    <tag k="addr:street" v="Argenthaler Straße"/>
  </node>
  <node id="-2530" version="0" timestamp="Fri Feb 24 10:53:34 +0100 2012" uid="1" user="" lat="49.9819091" lon="7.5366012">
    <tag k="shop" v="shoes"/>
    <tag k="name" v="Deichmann Schuhe"/>
    <tag k="wheelchair" v="yes"/>
    <tag k="addr:city" v="Simmern"/>
    <tag k="addr:postcode" v="55469"/>
    <tag k="addr:street" v="Sonnenhof"/>
  </node>
  <node id="-2531" version="0" timestamp="Fri Feb 24 10:53:34 +0100 2012" uid="1" user="" lat="49.9816996" lon="7.5364873">
    <tag k="shop" v="supermarket"/>
    <tag k="name" v="Norma"/>
    <tag k="wheelchair" v="yes"/>
    <tag k="addr:city" v="Simmern"/>
    <tag k="addr:postcode" v="55469"/>
    <tag k="addr:street" v="Sonnenhof"/>
  </node>
  <node id="-2532" version="0" timestamp="Fri Feb 24 10:53:34 +0100 2012" uid="1" user="" lat="49.9811826" lon="7.5361618">
    <tag k="shop" v="supermarket"/>
    <tag k="name" v="DM Drogeriemarkt"/>
    <tag k="wheelchair" v="yes"/>
    <tag k="addr:city" v="Simmern"/>
    <tag k="addr:postcode" v="55469"/>
    <tag k="addr:street" v="Sonnenhof"/>
  </node>
  <node id="-2533" version="0" timestamp="Fri Feb 24 10:53:34 +0100 2012" uid="1" user="" lat="49.9809558" lon="7.5358703">
    <tag k="shop" v="supermarket"/>
    <tag k="name" v="Fessnapf Tiermarkt "/>
    <tag k="wheelchair" v="yes"/>
    <tag k="addr:city" v="Simmern"/>
    <tag k="addr:postcode" v="55469"/>
    <tag k="addr:street" v="Sonnenhof"/>
  </node>
  <node id="-2534" version="0" timestamp="Fri Feb 24 10:53:34 +0100 2012" uid="1" user="" lat="49.984905" lon="7.5321331">
    <tag k="name" v="Hautärzte Asefi &amp; Sadjadi"/>
    <tag k="wheelchair" v="yes"/>
    <tag k="addr:city" v="Simmern"/>
    <tag k="addr:postcode" v="55469"/>
    <tag k="addr:housenumber" v="23"/>
    <tag k="addr:street" v="Bingener Straße"/>
    <tag k="amenity" v="doctors"/>
  </node>
  <node id="-2535" version="0" timestamp="Fri Feb 24 10:53:34 +0100 2012" uid="1" user="" lat="49.9850483" lon="7.5311031">
    <tag k="shop" v="supermarket"/>
    <tag k="name" v="Penny Markt"/>
    <tag k="wheelchair" v="yes"/>
  </node>
  <node id="-2536" version="0" timestamp="Fri Feb 24 10:53:34 +0100 2012" uid="1" user="" lat="49.9852757" lon="7.531655">
    <tag k="name" v="Hunsrück Apotheke"/>
    <tag k="wheelchair" v="yes"/>
    <tag k="amenity" v="pharmacy"/>
  </node>
  <node id="-2537" version="0" timestamp="Fri Feb 24 10:53:34 +0100 2012" uid="1" user="" lat="49.9836239" lon="7.5264061">
    <tag k="name" v="Mona Lisa Pizzeria"/>
    <tag k="wheelchair" v="limited"/>
    <tag k="amenity" v="restaurant"/>
  </node>
  <node id="-2538" version="0" timestamp="Fri Feb 24 10:53:34 +0100 2012" uid="1" user="" lat="49.9837545" lon="7.5270591">
    <tag k="name" v="Parkplatz"/>
    <tag k="wheelchair" v="limited"/>
    <tag k="amenity" v="parking"/>
  </node>
  <node id="-2539" version="0" timestamp="Fri Feb 24 10:53:34 +0100 2012" uid="1" user="" lat="49.9845486" lon="7.5235602">
    <tag k="shop" v="books"/>
    <tag k="name" v="Schatzinsel"/>
    <tag k="wheelchair" v="limited"/>
  </node>
  <node id="-2540" version="0" timestamp="Fri Feb 24 10:53:34 +0100 2012" uid="1" user="" lat="49.9834586" lon="7.5196239">
    <tag k="shop" v="clothes"/>
    <tag k="name" v="Messerich "/>
    <tag k="wheelchair" v="limited"/>
  </node>
  <node id="-2542" version="0" timestamp="Fri Feb 24 10:53:34 +0100 2012" uid="1" user="" lat="49.9940721" lon="7.5277309">
    <tag k="shop" v="supermarket"/>
    <tag k="name" v="Junker Landtechnik"/>
    <tag k="wheelchair" v="yes"/>
  </node>
  <node id="-2543" version="0" timestamp="Fri Feb 24 10:53:34 +0100 2012" uid="1" user="" lat="49.9736879" lon="7.516399">
    <tag k="shop" v="furniture"/>
    <tag k="name" v="Sconto"/>
    <tag k="wheelchair" v="no"/>
    <tag k="addr:city" v="Simmern"/>
    <tag k="addr:postcode" v="55469"/>
    <tag k="addr:housenumber" v="4"/>
    <tag k="addr:street" v="Holzbacher Straße"/>
  </node>
  <node id="-2544" version="0" timestamp="Fri Feb 24 10:53:34 +0100 2012" uid="1" user="" lat="49.9808701" lon="7.5230846">
    <tag k="name" v="Hallenbad Simmern"/>
    <tag k="wheelchair" v="limited"/>
    <tag k="amenity" v="swimming_pool"/>
  </node>
</osm>
