<?xml version='1.0' encoding='UTF-8'?>
<osm version="0.6" generator="Osmosis 0.39">
  <node id="-143" version="0" timestamp="Fri Feb 24 10:53:32 +0100 2012" uid="1" user="" lat="49.5121346" lon="8.2813886">
    <tag k="name" v="Gaststätte Delphi"/>
    <tag k="wheelchair" v="no"/>
    <tag k="addr:city" v="Lambsheim"/>
    <tag k="addr:postcode" v="67245"/>
    <tag k="addr:housenumber" v="14"/>
    <tag k="addr:street" v="Bahnhofstraße"/>
    <tag k="amenity" v="restaurant"/>
    <tag k="phone" v="+49 6233 50917"/>
  </node>
  <node id="-144" version="0" timestamp="Fri Feb 24 10:53:32 +0100 2012" uid="1" user="" lat="49.5169074" lon="8.2865503">
    <tag k="shop" v="supermarket"/>
    <tag k="name" v="Lidl"/>
    <tag k="wheelchair" v="yes"/>
    <tag k="addr:city" v="Lambsheim"/>
    <tag k="addr:postcode" v="67245"/>
    <tag k="addr:housenumber" v="37"/>
    <tag k="addr:street" v="Weisenheimer Straße"/>
    <tag k="website" v="http://www.lidl.de"/>
  </node>
  <node id="-145" version="0" timestamp="Fri Feb 24 10:53:32 +0100 2012" uid="1" user="" lat="49.5121424" lon="8.2814792">
    <tag k="shop" v="electronics"/>
    <tag k="name" v="Fernseh-Fachgeschäft Dobbert"/>
    <tag k="wheelchair" v="yes"/>
    <tag k="addr:city" v="Lambsheim"/>
    <tag k="addr:postcode" v="67245"/>
    <tag k="addr:housenumber" v="12"/>
    <tag k="addr:street" v="Bahnhofstraße"/>
    <tag k="website" v="http://www.ep-dobbert.de"/>
    <tag k="phone" v="+49 6233 50271"/>
  </node>
  <node id="-3432" version="0" timestamp="Fri Feb 24 10:53:35 +0100 2012" uid="1" user="" lat="49.4448967" lon="8.3592362">
    <tag k="name" v="Palatinum"/>
    <tag k="wheelchair" v="yes"/>
    <tag k="addr:city" v="Mutterstadt"/>
    <tag k="addr:postcode" v="67112"/>
    <tag k="addr:housenumber" v="1"/>
    <tag k="addr:street" v="Bohligstr."/>
    <tag k="amenity" v="restaurant"/>
    <tag k="website" v="http://www.palatinum-mutterstadt.de/palatinum_mutterstadt/Home/"/>
    <tag k="phone" v="06234 920 555"/>
  </node>
  <node id="-3443" version="0" timestamp="Fri Feb 24 10:53:35 +0100 2012" uid="1" user="" lat="49.42088" lon="8.39039">
    <tag k="shop" v="furniture"/>
    <tag k="name" v="Akzentro Gartenmöbel, Sonnenschirme, Kaminöfen"/>
    <tag k="wheelchair" v="limited"/>
    <tag k="addr:city" v="Limburgerhof"/>
    <tag k="addr:postcode" v="67117"/>
    <tag k="addr:housenumber" v="12"/>
    <tag k="addr:street" v="Jahnstraße"/>
    <tag k="wheelchair:description" v="Toiletten nicht rollstuhlgerecht"/>
    <tag k="website" v="http://www.akzentro.de"/>
    <tag k="phone" v="+49 6236 465176"/>
  </node>
  <node id="-5214" version="0" timestamp="Fri Feb 24 10:53:37 +0100 2012" uid="1" user="" lat="49.4318172" lon="8.3095703">
    <tag k="name" v="Verbandsgemeindeverwaltung"/>
    <tag k="wheelchair" v="limited"/>
    <tag k="amenity" v="community_center"/>
  </node>
  <node id="-5218" version="0" timestamp="Fri Feb 24 10:53:37 +0100 2012" uid="1" user="" lat="49.4261049" lon="8.2837615">
    <tag k="name" v="Turnerbund Assenheim"/>
    <tag k="wheelchair" v="yes"/>
    <tag k="amenity" v="townhall"/>
  </node>
  <node id="-5220" version="0" timestamp="Fri Feb 24 10:53:37 +0100 2012" uid="1" user="" lat="49.4140812" lon="8.2734775">
    <tag k="name" v="Casavita Fitness"/>
    <tag k="wheelchair" v="no"/>
    <tag k="leisure" v="sports_centre"/>
  </node>
  <node id="-5224" version="0" timestamp="Fri Feb 24 10:53:37 +0100 2012" uid="1" user="" lat="49.4329844" lon="8.3118946">
    <tag k="shop" v="supermarket"/>
    <tag k="name" v="EDEKA Neukauf"/>
    <tag k="wheelchair" v="limited"/>
  </node>
  <node id="-5225" version="0" timestamp="Fri Feb 24 10:53:37 +0100 2012" uid="1" user="" lat="49.4338454" lon="8.31648">
    <tag k="shop" v="supermarket"/>
    <tag k="name" v="Penny Markt"/>
    <tag k="wheelchair" v="limited"/>
  </node>
  <node id="-5226" version="0" timestamp="Fri Feb 24 10:53:37 +0100 2012" uid="1" user="" lat="49.4339721" lon="8.3176065">
    <tag k="shop" v="supermarket"/>
    <tag k="name" v="Lidl"/>
    <tag k="wheelchair" v="limited"/>
  </node>
  <node id="-5227" version="0" timestamp="Fri Feb 24 10:53:37 +0100 2012" uid="1" user="" lat="49.434284" lon="8.3183932">
    <tag k="shop" v="supermarket"/>
    <tag k="name" v="Aldi Süd"/>
    <tag k="wheelchair" v="limited"/>
  </node>
  <node id="-5228" version="0" timestamp="Fri Feb 24 10:53:37 +0100 2012" uid="1" user="" lat="49.4222145" lon="8.2890174">
    <tag k="shop" v="doityourself"/>
    <tag k="name" v="Mayer &amp; Ruppert GmbH"/>
    <tag k="wheelchair" v="limited"/>
  </node>
  <node id="-5229" version="0" timestamp="Fri Feb 24 10:53:37 +0100 2012" uid="1" user="" lat="49.4165252" lon="8.2721275">
    <tag k="shop" v="bakery"/>
    <tag k="name" v="Bäcker Schneider"/>
    <tag k="wheelchair" v="limited"/>
  </node>
  <node id="-5230" version="0" timestamp="Fri Feb 24 10:53:37 +0100 2012" uid="1" user="" lat="49.4169011" lon="8.2734672">
    <tag k="shop" v="hairdresser"/>
    <tag k="name" v="Friseurteam Iris Kreis"/>
    <tag k="wheelchair" v="no"/>
  </node>
  <node id="-5231" version="0" timestamp="Fri Feb 24 10:53:37 +0100 2012" uid="1" user="" lat="49.4171949" lon="8.2752392">
    <tag k="name" v="Katholische Kirche St. Peter"/>
    <tag k="wheelchair" v="limited"/>
    <tag k="amenity" v="place_of_worship"/>
  </node>
  <node id="-5232" version="0" timestamp="Fri Feb 24 10:53:37 +0100 2012" uid="1" user="" lat="49.4187701" lon="8.2808032">
    <tag k="shop" v="hairdresser"/>
    <tag k="name" v="Friseur Sebastian Wetzl"/>
    <tag k="wheelchair" v="no"/>
  </node>
  <node id="-5233" version="0" timestamp="Fri Feb 24 10:53:37 +0100 2012" uid="1" user="" lat="49.424147" lon="8.365258">
    <tag k="shop" v="supermarket"/>
    <tag k="name" v="Real"/>
    <tag k="wheelchair" v="limited"/>
  </node>
  <node id="-5234" version="0" timestamp="Fri Feb 24 10:53:37 +0100 2012" uid="1" user="" lat="49.4234653" lon="8.3645021">
    <tag k="shop" v="supermarket"/>
    <tag k="name" v="Real"/>
    <tag k="wheelchair" v="limited"/>
  </node>
  <node id="-5235" version="0" timestamp="Fri Feb 24 10:53:37 +0100 2012" uid="1" user="" lat="49.4235921" lon="8.3664151">
    <tag k="shop" v="shoes"/>
    <tag k="name" v="Bödeker Schuhmarkt"/>
    <tag k="wheelchair" v="limited"/>
  </node>
  <node id="-5236" version="0" timestamp="Fri Feb 24 10:53:37 +0100 2012" uid="1" user="" lat="49.4230352" lon="8.3666399">
    <tag k="shop" v="clothes"/>
    <tag k="name" v="Adler Modemarkt"/>
    <tag k="wheelchair" v="limited"/>
  </node>
  <node id="-5237" version="0" timestamp="Fri Feb 24 10:53:37 +0100 2012" uid="1" user="" lat="49.4247375" lon="8.3635184">
    <tag k="shop" v="doityourself"/>
    <tag k="name" v="Praktiker"/>
    <tag k="wheelchair" v="limited"/>
  </node>
  <node id="-5238" version="0" timestamp="Fri Feb 24 10:53:37 +0100 2012" uid="1" user="" lat="49.4250345" lon="8.3619814">
    <tag k="name" v="Tanzschule Nagel"/>
    <tag k="wheelchair" v="limited"/>
    <tag k="amenity" v="school"/>
  </node>
  <node id="-5239" version="0" timestamp="Fri Feb 24 10:53:37 +0100 2012" uid="1" user="" lat="49.4252568" lon="8.3626988">
    <tag k="shop" v="chemist"/>
    <tag k="name" v="dm Drogeriemarkt"/>
    <tag k="wheelchair" v="limited"/>
  </node>
  <node id="-5240" version="0" timestamp="Fri Feb 24 10:53:37 +0100 2012" uid="1" user="" lat="49.4253113" lon="8.3653949">
    <tag k="name" v="Günstig Tanken"/>
    <tag k="wheelchair" v="limited"/>
    <tag k="amenity" v="fuel"/>
  </node>
  <node id="-5242" version="0" timestamp="Fri Feb 24 10:53:37 +0100 2012" uid="1" user="" lat="49.4238581" lon="8.3608052">
    <tag k="shop" v="supermarket"/>
    <tag k="name" v="Aldi Süd"/>
    <tag k="wheelchair" v="limited"/>
  </node>
  <node id="-5243" version="0" timestamp="Fri Feb 24 10:53:37 +0100 2012" uid="1" user="" lat="49.4271626" lon="8.3595809">
    <tag k="shop" v="beverages"/>
    <tag k="name" v="Getränk Centrum Schulz"/>
    <tag k="wheelchair" v="limited"/>
  </node>
  <node id="-5244" version="0" timestamp="Fri Feb 24 10:53:37 +0100 2012" uid="1" user="" lat="49.4488637" lon="8.3604427">
    <tag k="shop" v="medical_supply"/>
    <tag k="name" v="Leuker Orthopädie-Technik"/>
    <tag k="wheelchair" v="limited"/>
  </node>
  <node id="-5246" version="0" timestamp="Fri Feb 24 10:53:37 +0100 2012" uid="1" user="" lat="49.4463982" lon="8.3600728">
    <tag k="shop" v="clothes"/>
    <tag k="name" v="Takko"/>
    <tag k="wheelchair" v="limited"/>
  </node>
  <node id="-5248" version="0" timestamp="Fri Feb 24 10:53:37 +0100 2012" uid="1" user="" lat="49.442451" lon="8.3559479">
    <tag k="name" v="Postagentur"/>
    <tag k="wheelchair" v="no"/>
    <tag k="amenity" v="post_office"/>
  </node>
  <node id="-5584" version="0" timestamp="Fri Feb 24 10:53:37 +0100 2012" uid="1" user="" lat="49.4228693" lon="8.3942268">
    <tag k="shop" v="stationery"/>
    <tag k="name" v="Horwedel Schreibwaren"/>
    <tag k="wheelchair" v="unknown"/>
    <tag k="addr:city" v="Limburgerhof"/>
    <tag k="addr:postcode" v="67117"/>
    <tag k="addr:housenumber" v="14"/>
    <tag k="addr:street" v="Burgunder Platz"/>
  </node>
  <node id="-5585" version="0" timestamp="Fri Feb 24 10:53:37 +0100 2012" uid="1" user="" lat="49.4230724" lon="8.3942836">
    <tag k="name" v="Jump In, Studio für Ballett und Jazz-Dance"/>
    <tag k="wheelchair" v="unknown"/>
    <tag k="addr:city" v="Limburgerhof"/>
    <tag k="addr:postcode" v="67117"/>
    <tag k="addr:housenumber" v="11"/>
    <tag k="addr:street" v="Burgunder Platz"/>
    <tag k="amenity" v="bank"/>
    <tag k="phone" v="+496236 / 8600"/>
  </node>
  <node id="-5586" version="0" timestamp="Fri Feb 24 10:53:37 +0100 2012" uid="1" user="" lat="49.4223456" lon="8.3930081">
    <tag k="shop" v="optician"/>
    <tag k="name" v="Brillen Neumann"/>
    <tag k="wheelchair" v="unknown"/>
    <tag k="addr:city" v="Limburgerhof"/>
    <tag k="addr:postcode" v="67117"/>
    <tag k="addr:housenumber" v="46"/>
    <tag k="addr:street" v="Speyerer Straße"/>
    <tag k="phone" v="+496236  496207"/>
  </node>
  <node id="-5587" version="0" timestamp="Fri Feb 24 10:53:37 +0100 2012" uid="1" user="" lat="49.4219123" lon="8.3935395">
    <tag k="shop" v="optician"/>
    <tag k="name" v="Augenoptik Weber und Mais"/>
    <tag k="wheelchair" v="unknown"/>
    <tag k="addr:city" v="Limburgerhof"/>
    <tag k="addr:postcode" v="67117"/>
    <tag k="addr:housenumber" v="38"/>
    <tag k="addr:street" v="Speyerer Straße"/>
    <tag k="phone" v="+496236 88545"/>
  </node>
  <node id="-5588" version="0" timestamp="Fri Feb 24 10:53:37 +0100 2012" uid="1" user="" lat="49.42191" lon="8.39354">
    <tag k="name" v="Juwelier Zickgraf"/>
    <tag k="wheelchair" v="unknown"/>
    <tag k="addr:city" v="Limburgerhof"/>
    <tag k="addr:postcode" v="67117"/>
    <tag k="addr:housenumber" v="40"/>
    <tag k="addr:street" v="Speyerer Straße"/>
    <tag k="amenity" v="bank"/>
    <tag k="website" v="http://www.juwelier-zickgraf.de/"/>
    <tag k="phone" v="+49 6236 8290"/>
  </node>
  <node id="-5593" version="0" timestamp="Fri Feb 24 10:53:37 +0100 2012" uid="1" user="" lat="49.4233705" lon="8.3912766">
    <tag k="shop" v="photo"/>
    <tag k="name" v="Foto Undi"/>
    <tag k="wheelchair" v="unknown"/>
    <tag k="addr:city" v="Limburgerhof"/>
    <tag k="addr:postcode" v="67117"/>
    <tag k="addr:housenumber" v="119"/>
    <tag k="addr:street" v="Speyerer Straße"/>
  </node>
  <node id="-5594" version="0" timestamp="Fri Feb 24 10:53:37 +0100 2012" uid="1" user="" lat="49.4232549" lon="8.3914838">
    <tag k="name" v="Zwei Freunde"/>
    <tag k="wheelchair" v="unknown"/>
    <tag k="addr:city" v="Limburgerhof"/>
    <tag k="addr:postcode" v="67117"/>
    <tag k="addr:housenumber" v="117"/>
    <tag k="addr:street" v="Speyerer Straße"/>
    <tag k="amenity" v="restaurant"/>
  </node>
  <node id="-5598" version="0" timestamp="Fri Feb 24 10:53:37 +0100 2012" uid="1" user="" lat="49.4254222" lon="8.3636867">
    <tag k="shop" v="department_store"/>
    <tag k="name" v="Fressnapf Tierbedarf"/>
    <tag k="wheelchair" v="unknown"/>
    <tag k="addr:city" v="Mutterstadt"/>
    <tag k="addr:postcode" v="67112"/>
    <tag k="addr:housenumber" v="1"/>
    <tag k="addr:street" v="Im Vorderkehr 1"/>
    <tag k="phone" v="+496234 2092"/>
  </node>
  <node id="-5599" version="0" timestamp="Fri Feb 24 10:53:37 +0100 2012" uid="1" user="" lat="49.422949" lon="8.364771">
    <tag k="shop" v="department_store"/>
    <tag k="name" v="Rofu Kinderland"/>
    <tag k="wheelchair" v="unknown"/>
    <tag k="addr:city" v="Mutterstadt"/>
    <tag k="addr:postcode" v="67112"/>
    <tag k="addr:housenumber" v="19"/>
    <tag k="addr:street" v="An der Fohlenweide"/>
    <tag k="phone" v="+49 6234 / 929336"/>
  </node>
</osm>
