<?xml version='1.0' encoding='UTF-8'?>
<osm version="0.6" generator="Osmosis 0.39">
  <node id="-3235" version="0" timestamp="Fri Feb 24 10:53:35 +0100 2012" uid="1" user="" lat="49.3106695" lon="8.4457664">
    <tag k="name" v="JumboJet"/>
    <tag k="wheelchair" v="no"/>
    <tag k="tourism" v="attraction"/>
  </node>
  <node id="-3236" version="0" timestamp="Fri Feb 24 10:53:35 +0100 2012" uid="1" user="" lat="49.3115293" lon="8.4466915">
    <tag k="name" v="Antonov"/>
    <tag k="wheelchair" v="no"/>
    <tag k="tourism" v="attraction"/>
  </node>
  <node id="-3237" version="0" timestamp="Fri Feb 24 10:53:35 +0100 2012" uid="1" user="" lat="49.311502" lon="8.447264">
    <tag k="name" v="Hausboot"/>
    <tag k="wheelchair" v="no"/>
    <tag k="tourism" v="attraction"/>
  </node>
  <node id="-3238" version="0" timestamp="Fri Feb 24 10:53:35 +0100 2012" uid="1" user="" lat="49.3115" lon="8.44726">
    <tag k="name" v="U-Boot"/>
    <tag k="wheelchair" v="no"/>
    <tag k="tourism" v="attraction"/>
  </node>
  <node id="-3239" version="0" timestamp="Fri Feb 24 10:53:35 +0100 2012" uid="1" user="" lat="49.3100781" lon="8.4465045">
    <tag k="name" v="Raumfahrthalle"/>
    <tag k="wheelchair" v="yes"/>
    <tag k="tourism" v="attraction"/>
  </node>
  <node id="-3240" version="0" timestamp="Fri Feb 24 10:53:35 +0100 2012" uid="1" user="" lat="49.3117681" lon="8.4476132">
    <tag k="name" v="U-Boot"/>
    <tag k="wheelchair" v="no"/>
    <tag k="tourism" v="attraction"/>
  </node>
  <node id="-3241" version="0" timestamp="Fri Feb 24 10:53:35 +0100 2012" uid="1" user="" lat="49.3115058" lon="8.4472431">
    <tag k="name" v="Hausboot"/>
    <tag k="wheelchair" v="no"/>
    <tag k="tourism" v="attraction"/>
  </node>
  <node id="-3242" version="0" timestamp="Fri Feb 24 10:53:35 +0100 2012" uid="1" user="" lat="49.3116475" lon="8.4455852">
    <tag k="name" v="Halle"/>
    <tag k="wheelchair" v="limited"/>
    <tag k="tourism" v="attraction"/>
  </node>
  <node id="-3821" version="0" timestamp="Fri Feb 24 10:53:35 +0100 2012" uid="1" user="" lat="49.28937" lon="8.47513">
    <tag k="shop" v="doityourself"/>
    <tag k="name" v="Wässa &amp; Schuster Farbenhandel"/>
    <tag k="wheelchair" v="yes"/>
    <tag k="addr:city" v="Speyer"/>
    <tag k="addr:postcode" v="67346"/>
    <tag k="addr:housenumber" v="13"/>
    <tag k="addr:street" v="Industriestraße"/>
    <tag k="wheelchair:description" v="WC evtl. nicht vorhanden"/>
    <tag k="website" v="http://ws-farben.de"/>
    <tag k="phone" v="+49 6232 130322"/>
  </node>
  <node id="-3984" version="0" timestamp="Fri Feb 24 10:53:35 +0100 2012" uid="1" user="" lat="49.31729" lon="8.4396">
    <tag k="name" v="Speyerer Dom"/>
    <tag k="wheelchair" v="yes"/>
    <tag k="historic" v="archaeological_site"/>
  </node>
  <node id="-4294" version="0" timestamp="Fri Feb 24 10:53:36 +0100 2012" uid="1" user="" lat="49.3164232" lon="8.4410879">
    <tag k="name" v="Landesmuseum Rheinland-Pfalz"/>
    <tag k="wheelchair" v="yes"/>
    <tag k="tourism" v="attraction"/>
  </node>
  <node id="-4295" version="0" timestamp="Fri Feb 24 10:53:36 +0100 2012" uid="1" user="" lat="49.3156921" lon="8.4414226">
    <tag k="name" v="Behindertenparkplatz"/>
    <tag k="wheelchair" v="yes"/>
    <tag k="amenity" v="parking"/>
  </node>
  <node id="-4296" version="0" timestamp="Fri Feb 24 10:53:36 +0100 2012" uid="1" user="" lat="49.3189093" lon="8.4474487">
    <tag k="name" v="SeaLife"/>
    <tag k="wheelchair" v="yes"/>
    <tag k="tourism" v="attraction"/>
  </node>
</osm>
