<?xml version='1.0' encoding='UTF-8'?>
<osm version="0.6" generator="Osmosis 0.39">
  <node id="-1491" version="0" timestamp="Fri Feb 24 10:53:33 +0100 2012" uid="1" user="" lat="49.1980388" lon="8.1177247">
    <tag k="shop" v="clothes"/>
    <tag k="name" v="Fourseasons"/>
    <tag k="wheelchair" v="limited"/>
    <tag k="addr:city" v="Landau"/>
    <tag k="addr:postcode" v="76829"/>
    <tag k="addr:housenumber" v="3"/>
    <tag k="addr:street" v="Ostbahnstraße "/>
    <tag k="wheelchair:description" v="Keine Treppe am Eingang, Erdgeschoss kein Problem, Treppe führt zum ersten Stock"/>
    <tag k="website" v="http://www.fourseasonsclothing.de"/>
    <tag k="phone" v="06341 994984"/>
  </node>
  <node id="-4787" version="0" timestamp="Fri Feb 24 10:53:36 +0100 2012" uid="1" user="" lat="49.1967973" lon="8.1167995">
    <tag k="name" v="Restaurant Vier Jahreszeiten"/>
    <tag k="wheelchair" v="limited"/>
    <tag k="addr:city" v="Landau in der Pfalz"/>
    <tag k="addr:postcode" v="76829"/>
    <tag k="addr:housenumber" v="25"/>
    <tag k="addr:street" v="Weißquatierstraße"/>
    <tag k="amenity" v="restaurant"/>
    <tag k="phone" v="+49 6341 942001"/>
  </node>
</osm>
