<?xml version='1.0' encoding='UTF-8'?>
<osm version="0.6" generator="Osmosis 0.39">
  <node id="-1889" version="0" timestamp="Fri Feb 24 10:53:33 +0100 2012" uid="1" user="" lat="49.3101944" lon="7.7166779">
    <tag k="name" v="Kuckucksnest"/>
    <tag k="wheelchair" v="yes"/>
    <tag k="addr:city" v="Heltersberg"/>
    <tag k="addr:postcode" v="67716"/>
    <tag k="addr:street" v="Schillerring"/>
    <tag k="amenity" v="restaurant"/>
  </node>
  <node id="-1890" version="0" timestamp="Fri Feb 24 10:53:33 +0100 2012" uid="1" user="" lat="49.3151369" lon="7.7207218">
    <tag k="name" v="Hembachstadion"/>
    <tag k="wheelchair" v="no"/>
    <tag k="leisure" v="arena"/>
  </node>
  <node id="-1891" version="0" timestamp="Fri Feb 24 10:53:33 +0100 2012" uid="1" user="" lat="49.3139278" lon="7.7098283">
    <tag k="name" v="Heltersberger Bürgerhaus"/>
    <tag k="wheelchair" v="yes"/>
    <tag k="addr:street" v="Hauptstraße"/>
  </node>
  <node id="-1892" version="0" timestamp="Fri Feb 24 10:53:33 +0100 2012" uid="1" user="" lat="49.3130085" lon="7.7162645">
    <tag k="name" v="Kath. Kirche"/>
    <tag k="wheelchair" v="limited"/>
    <tag k="amenity" v="place_of_worship"/>
  </node>
  <node id="-1893" version="0" timestamp="Fri Feb 24 10:53:33 +0100 2012" uid="1" user="" lat="49.3128586" lon="7.7155247">
    <tag k="name" v="Sparkasse "/>
    <tag k="wheelchair" v="yes"/>
    <tag k="amenity" v="bank"/>
  </node>
  <node id="-1894" version="0" timestamp="Fri Feb 24 10:53:33 +0100 2012" uid="1" user="" lat="49.3127232" lon="7.7123937">
    <tag k="shop" v="hairdresser"/>
    <tag k="name" v="Friseur"/>
    <tag k="wheelchair" v="yes"/>
    <tag k="addr:street" v="Hauptstraße"/>
  </node>
  <node id="-1895" version="0" timestamp="Fri Feb 24 10:53:33 +0100 2012" uid="1" user="" lat="49.3111753" lon="7.7177786">
    <tag k="shop" v="department_store"/>
    <tag k="name" v="Quelle"/>
    <tag k="wheelchair" v="limited"/>
    <tag k="addr:street" v="Hauptstraße"/>
  </node>
  <node id="-5466" version="0" timestamp="Fri Feb 24 10:53:37 +0100 2012" uid="1" user="" lat="49.2117885" lon="7.6196485">
    <tag k="name" v="Waldorfkindergarten"/>
    <tag k="wheelchair" v="limited"/>
    <tag k="addr:city" v="Pirmasens"/>
    <tag k="addr:postcode" v="66953"/>
    <tag k="addr:housenumber" v="5"/>
    <tag k="addr:street" v="Auf der Schwann "/>
    <tag k="amenity" v="kindergarten"/>
    <tag k="website" v="http://www.waldorfkindergarten-pirmasens.de/"/>
    <tag k="phone" v="06331/66826"/>
  </node>
</osm>
