<?xml version='1.0' encoding='UTF-8'?>
<osm version="0.6" generator="Osmosis 0.39">
  <node id="-369" version="0" timestamp="Fri Feb 24 10:53:32 +0100 2012" uid="1" user="" lat="49.74668" lon="6.649">
    <tag k="name" v="Hotel Blesius Garten"/>
    <tag k="wheelchair" v="no"/>
    <tag k="addr:city" v="Trier"/>
    <tag k="addr:postcode" v="54295"/>
    <tag k="addr:housenumber" v="135"/>
    <tag k="tourism" v="hotel"/>
    <tag k="addr:street" v="Olewiger Straße"/>
  </node>
  <node id="-1260" version="0" timestamp="Fri Feb 24 10:53:33 +0100 2012" uid="1" user="" lat="49.7524" lon="6.63927">
    <tag k="name" v="Weltladen Trier"/>
    <tag k="wheelchair" v="limited"/>
    <tag k="addr:city" v="Trier"/>
    <tag k="addr:postcode" v="54290"/>
    <tag k="addr:housenumber" v="1"/>
    <tag k="addr:street" v="Pfützen Str."/>
    <tag k="wheelchair:description" v="2 Stufen, aber dank Rampe problemlos überwindbar"/>
    <tag k="amenity" v="pub"/>
    <tag k="website" v="http://www.agf-trier.de"/>
    <tag k="phone" v="+49 651 9941916"/>
  </node>
  <node id="-2967" version="0" timestamp="Fri Feb 24 10:53:34 +0100 2012" uid="1" user="" lat="49.8167685" lon="6.7469881">
    <tag k="name" v="Dietrich-Bonhoeffer-Gymnasium"/>
    <tag k="wheelchair" v="yes"/>
    <tag k="addr:city" v="Schweich"/>
    <tag k="amenity" v="university"/>
  </node>
  <node id="-2968" version="0" timestamp="Fri Feb 24 10:53:34 +0100 2012" uid="1" user="" lat="49.8194819" lon="6.7477508">
    <tag k="name" v="Levanaschule"/>
    <tag k="wheelchair" v="yes"/>
    <tag k="addr:city" v="Schweich"/>
    <tag k="amenity" v="university"/>
  </node>
  <node id="-4082" version="0" timestamp="Fri Feb 24 10:53:36 +0100 2012" uid="1" user="" lat="49.7492428" lon="6.6772605">
    <tag k="shop" v="supermarket"/>
    <tag k="name" v="LIDL"/>
    <tag k="wheelchair" v="yes"/>
    <tag k="wheelchair:description" v="Ebenerdig, keine Treppenstufen, automatische Schiebetüren"/>
  </node>
</osm>
