<?xml version='1.0' encoding='UTF-8'?>
<osm version="0.6" generator="Osmosis 0.39">
  <node id="-702" version="0" timestamp="Fri Feb 24 10:53:32 +0100 2012" uid="1" user="" lat="50.4364314" lon="7.829909">
    <tag k="name" v="Zahnarztpraxis Baldus &amp; Müksch"/>
    <tag k="wheelchair" v="limited"/>
    <tag k="addr:city" v="Montabaur"/>
    <tag k="addr:postcode" v="56410"/>
    <tag k="addr:housenumber" v="9"/>
    <tag k="addr:street" v="Konrad-Adenauer-Platz "/>
    <tag k="wheelchair:description" v="Ebenerdiger Eingang, keine Stufen in der Praxis"/>
    <tag k="amenity" v="doctors"/>
    <tag k="website" v="http://www.baldus-mueksch.de"/>
    <tag k="phone" v="02602-17025"/>
  </node>
  <node id="-2051" version="0" timestamp="Fri Feb 24 10:53:34 +0100 2012" uid="1" user="" lat="50.6985867" lon="7.886412">
    <tag k="name" v="Bürgerhaus Mörlen"/>
    <tag k="wheelchair" v="yes"/>
    <tag k="addr:city" v="Mörlen"/>
    <tag k="addr:postcode" v="57583"/>
    <tag k="addr:housenumber" v="9"/>
    <tag k="addr:street" v="Schulstraße"/>
  </node>
  <node id="-2053" version="0" timestamp="Fri Feb 24 10:53:34 +0100 2012" uid="1" user="" lat="50.6526911" lon="7.9539821">
    <tag k="name" v="Stadtbücherei "/>
    <tag k="wheelchair" v="limited"/>
    <tag k="addr:city" v="Monats Marienberg "/>
    <tag k="addr:postcode" v="56470"/>
    <tag k="addr:housenumber" v="3"/>
    <tag k="addr:street" v="Büchting"/>
    <tag k="wheelchair:description" v="Kein Behinderten-WC"/>
  </node>
  <node id="-2152" version="0" timestamp="Fri Feb 24 10:53:34 +0100 2012" uid="1" user="" lat="50.6505396" lon="7.9528478">
    <tag k="name" v="Toilettenanlage"/>
    <tag k="wheelchair" v="yes"/>
    <tag k="wheelchair:description" v="Mit Euroschlüssel"/>
  </node>
  <node id="-2153" version="0" timestamp="Fri Feb 24 10:53:34 +0100 2012" uid="1" user="" lat="50.6526329" lon="7.9540162">
    <tag k="name" v="SPD Bürgerbüro Hendrik Hering,MdL"/>
    <tag k="wheelchair" v="yes"/>
    <tag k="addr:city" v="Bad Marienberg"/>
    <tag k="addr:postcode" v="56470"/>
    <tag k="addr:housenumber" v="3"/>
    <tag k="addr:street" v="Büchting"/>
    <tag k="wheelchair:description" v="Zugang zum Büro über die Stadtbücherei. Kein Behinderten-WC"/>
  </node>
  <node id="-3490" version="0" timestamp="Fri Feb 24 10:53:35 +0100 2012" uid="1" user="" lat="50.6924846" lon="7.8879685">
    <tag k="name" v="Grillhütte der Ortsgemeinde Mörlen"/>
    <tag k="wheelchair" v="limited"/>
    <tag k="wheelchair:description" v="Eine kleine Eingangsstufe, keine Behindertentoilette"/>
  </node>
  <node id="-5480" version="0" timestamp="Fri Feb 24 10:53:37 +0100 2012" uid="1" user="" lat="50.43898" lon="7.65922">
    <tag k="name" v="Dr. Lanzendörfer"/>
    <tag k="wheelchair" v="no"/>
    <tag k="addr:city" v="Höhr-Grenzhausen"/>
    <tag k="addr:postcode" v="56203"/>
    <tag k="addr:housenumber" v="5"/>
    <tag k="addr:street" v="Parkstraße"/>
    <tag k="amenity" v="doctors"/>
  </node>
  <node id="-5481" version="0" timestamp="Fri Feb 24 10:53:37 +0100 2012" uid="1" user="" lat="50.4736721" lon="7.8592455">
    <tag k="name" v="Zur Tante Anna"/>
    <tag k="wheelchair" v="unknown"/>
    <tag k="addr:city" v="Boden"/>
    <tag k="addr:postcode" v="56412"/>
    <tag k="addr:housenumber" v="28"/>
    <tag k="tourism" v="guest_house"/>
    <tag k="addr:street" v="Hauptstraße"/>
    <tag k="phone" v="+49 2602 8837"/>
  </node>
  <node id="-5482" version="0" timestamp="Fri Feb 24 10:53:37 +0100 2012" uid="1" user="" lat="50.447858" lon="7.8464807">
    <tag k="shop" v="clothes"/>
    <tag k="name" v="Takko "/>
    <tag k="wheelchair" v="limited"/>
    <tag k="addr:city" v="Heiligenroth"/>
    <tag k="addr:postcode" v="56412"/>
    <tag k="addr:housenumber" v="10"/>
    <tag k="addr:street" v="Industriestraße"/>
    <tag k="wheelchair:description" v="Eingang eben, keine Toilette"/>
    <tag k="phone" v="+49 2602 90634"/>
  </node>
  <node id="-5483" version="0" timestamp="Fri Feb 24 10:53:37 +0100 2012" uid="1" user="" lat="50.4478498" lon="7.8462547">
    <tag k="shop" v="shoes"/>
    <tag k="name" v="Deichmann"/>
    <tag k="wheelchair" v="limited"/>
    <tag k="addr:city" v="Heiligenroth"/>
    <tag k="addr:postcode" v="56412"/>
    <tag k="addr:housenumber" v="10a"/>
    <tag k="addr:street" v="Industriestraße"/>
    <tag k="wheelchair:description" v="Eingang eben, keine Toilette"/>
    <tag k="phone" v="+49 2602 90631"/>
  </node>
  <node id="-5484" version="0" timestamp="Fri Feb 24 10:53:37 +0100 2012" uid="1" user="" lat="50.44785" lon="7.84625">
    <tag k="shop" v="supermarket"/>
    <tag k="name" v="Aldi"/>
    <tag k="wheelchair" v="limited"/>
    <tag k="addr:city" v="Heiligenroth"/>
    <tag k="addr:postcode" v="56412"/>
    <tag k="addr:housenumber" v="10"/>
    <tag k="addr:street" v="Industriestraße"/>
    <tag k="wheelchair:description" v="Eingang eben, keine Toilette"/>
  </node>
</osm>
