<?xml version='1.0' encoding='UTF-8'?>
<osm version="0.6" generator="Osmosis 0.39">
  <node id="-760" version="0" timestamp="Fri Feb 24 10:53:32 +0100 2012" uid="1" user="" lat="49.606595" lon="8.3341775">
    <tag k="shop" v="supermarket"/>
    <tag k="name" v="Netto"/>
    <tag k="wheelchair" v="yes"/>
  </node>
  <node id="-761" version="0" timestamp="Fri Feb 24 10:53:32 +0100 2012" uid="1" user="" lat="49.6066348" lon="8.3343034">
    <tag k="shop" v="bakery"/>
    <tag k="name" v="Wasgau"/>
    <tag k="wheelchair" v="yes"/>
  </node>
  <node id="-2673" version="0" timestamp="Fri Feb 24 10:53:34 +0100 2012" uid="1" user="" lat="49.6326673" lon="8.3626671">
    <tag k="name" v="Violet - Eventlocation fÃ¼r Nachtaktive"/>
    <tag k="wheelchair" v="limited"/>
    <tag k="addr:city" v="Worms"/>
    <tag k="addr:postcode" v="67547"/>
    <tag k="addr:housenumber" v="5"/>
    <tag k="addr:street" v="Ludwigsplatz"/>
    <tag k="amenity" v="nightclub"/>
    <tag k="website" v="http://www.violet-worms.de"/>
    <tag k="phone" v="+49 (6241) 5061334"/>
  </node>
  <node id="-2796" version="0" timestamp="Fri Feb 24 10:53:34 +0100 2012" uid="1" user="" lat="49.6083293" lon="8.2748376">
    <tag k="name" v="Restaurant Picante"/>
    <tag k="wheelchair" v="yes"/>
    <tag k="addr:city" v="Worms-Heppenheim"/>
    <tag k="addr:postcode" v="67551"/>
    <tag k="addr:housenumber" v="8"/>
    <tag k="addr:street" v="Im Gehrchen"/>
    <tag k="amenity" v="restaurant"/>
  </node>
</osm>
