<?xml version='1.0' encoding='UTF-8'?>
<osm version="0.6" generator="Osmosis 0.39">
  <node id="-294" version="0" timestamp="Fri Feb 24 10:53:32 +0100 2012" uid="1" user="" lat="48.07175" lon="7.35012">
    <tag k="name" v="Cour d&apos;appel "/>
    <tag k="wheelchair" v="limited"/>
    <tag k="amenity" v="courthouse"/>
  </node>
  <node id="-499" version="0" timestamp="Fri Feb 24 10:53:32 +0100 2012" uid="1" user="" lat="48.07162" lon="7.35086">
    <tag k="name" v="Cour d&apos;appel de Colmar"/>
    <tag k="wheelchair" v="limited"/>
    <tag k="wheelchair:description" v="ascenceure"/>
    <tag k="amenity" v="courthouse"/>
  </node>
  <node id="-511" version="0" timestamp="Fri Feb 24 10:53:32 +0100 2012" uid="1" user="" lat="49.05112" lon="7.94243">
    <tag k="name" v="Restaurant Belvedere"/>
    <tag k="wheelchair" v="yes"/>
    <tag k="addr:city" v="Heidelberg"/>
    <tag k="addr:postcode" v="69126"/>
    <tag k="addr:housenumber" v="2"/>
    <tag k="addr:street" v="Jaspersstraße"/>
    <tag k="amenity" v="restaurant"/>
    <tag k="website" v="http://www.restaurant-belvedere-hd.de"/>
    <tag k="phone" v="06221388600"/>
  </node>
  <node id="-930" version="0" timestamp="Fri Feb 24 10:53:33 +0100 2012" uid="1" user="" lat="47.574093" lon="7.5639167">
    <tag k="name" v="Grand Casino Basel"/>
    <tag k="wheelchair" v="yes"/>
    <tag k="wheelchair:description" v="Parkplätze befinden sich Parkhaus des Casino Hotels"/>
    <tag k="amenity" v="restaurant"/>
  </node>
  <node id="-944" version="0" timestamp="Fri Feb 24 10:53:33 +0100 2012" uid="1" user="" lat="48.04302" lon="7.57243">
    <tag k="name" v="Restaurant am Rhein"/>
    <tag k="wheelchair" v="yes"/>
    <tag k="addr:city" v="Breisach"/>
    <tag k="amenity" v="bank"/>
  </node>
  <node id="-2451" version="0" timestamp="Fri Feb 24 10:53:34 +0100 2012" uid="1" user="" lat="48.04218" lon="7.57394">
    <tag k="name" v="Restaurant am Rhein"/>
    <tag k="wheelchair" v="yes"/>
    <tag k="addr:city" v="Breisach am Rhein"/>
    <tag k="addr:postcode" v="79206"/>
    <tag k="addr:housenumber" v="11"/>
    <tag k="addr:street" v="Hafenstrasse "/>
    <tag k="amenity" v="bank"/>
    <tag k="phone" v="+49 (0) 7667/ 1023"/>
  </node>
  <node id="-4892" version="0" timestamp="Fri Feb 24 10:53:36 +0100 2012" uid="1" user="" lat="47.56938" lon="7.58341">
    <tag k="name" v="Uli-Fähre"/>
    <tag k="wheelchair" v="limited"/>
    <tag k="wheelchair:description" v="eMan kommt sehr gut auf die Fähre, die bei einem Elektro könnte es wegen der Breite jenachdem schwierig werden."/>
    <tag k="amenity" v="ferry_terminal"/>
    <tag k="phone" v="+41 79 421 01 11"/>
  </node>
  <node id="-4893" version="0" timestamp="Fri Feb 24 10:53:36 +0100 2012" uid="1" user="" lat="47.5694029" lon="7.5862073">
    <tag k="name" v="Uli-Fähre"/>
    <tag k="wheelchair" v="limited"/>
    <tag k="amenity" v="ferry_terminal"/>
    <tag k="phone" v="+41 79 421 01 11"/>
  </node>
  <node id="-4894" version="0" timestamp="Fri Feb 24 10:53:36 +0100 2012" uid="1" user="" lat="47.56945" lon="7.58632">
    <tag k="name" v="Uli-Fähre"/>
    <tag k="wheelchair" v="limited"/>
    <tag k="amenity" v="ferry_terminal"/>
    <tag k="phone" v="+41 79 421 01 11"/>
  </node>
</osm>
