<?xml version='1.0' encoding='UTF-8'?>
<osm version="0.6" generator="Osmosis 0.39">
  <node id="-4964" version="0" timestamp="Fri Feb 24 10:53:36 +0100 2012" uid="1" user="" lat="48.29525" lon="4.07178">
    <tag k="name" v="Espace Argence"/>
    <tag k="wheelchair" v="yes"/>
    <tag k="addr:city" v="Troyes"/>
    <tag k="addr:postcode" v="10000"/>
    <tag k="addr:housenumber" v="20 bis"/>
    <tag k="addr:street" v="boulevard Gambetta 10000 Troyes "/>
    <tag k="amenity" v="theatre"/>
    <tag k="website" v="http://www.ville-troyes.fr/"/>
    <tag k="phone" v="+33.3. 03 25 73 05 41"/>
  </node>
  <node id="-4965" version="0" timestamp="Fri Feb 24 10:53:36 +0100 2012" uid="1" user="" lat="48.30037" lon="4.07526">
    <tag k="name" v="Théâtre de Champagne"/>
    <tag k="wheelchair" v="yes"/>
    <tag k="addr:city" v="Troyes"/>
    <tag k="addr:postcode" v="10000"/>
    <tag k="addr:street" v="Rue Louis Mony"/>
    <tag k="amenity" v="theatre"/>
    <tag k="phone" v="+33 3 25 40 15 55"/>
  </node>
  <node id="-4967" version="0" timestamp="Fri Feb 24 10:53:36 +0100 2012" uid="1" user="" lat="48.29662" lon="4.07679">
    <tag k="name" v="Clinique des Ursulines"/>
    <tag k="wheelchair" v="yes"/>
    <tag k="addr:city" v="Troyes"/>
    <tag k="addr:postcode" v="10000"/>
    <tag k="addr:street" v="Rue Raymond Poincaré"/>
    <tag k="wheelchair:description" v="Places handicapées à l&apos;intérieur de la cour."/>
    <tag k="amenity" v="hospital"/>
    <tag k="website" v="http://www.vitalia-ursulines.com"/>
    <tag k="phone" v="0826 39 99 44"/>
  </node>
</osm>
