<?xml version='1.0' encoding='UTF-8'?>
<osm version="0.6" generator="Osmosis 0.39">
  <node id="-4056" version="0" timestamp="Fri Feb 24 10:53:36 +0100 2012" uid="1" user="" lat="43.6443343" lon="1.3705022">
    <tag k="name" v="Parkplatz Centre commercial"/>
    <tag k="wheelchair" v="yes"/>
    <tag k="amenity" v="parking"/>
  </node>
  <node id="-4057" version="0" timestamp="Fri Feb 24 10:53:36 +0100 2012" uid="1" user="" lat="43.64433" lon="1.3705">
    <tag k="shop" v="department_store"/>
    <tag k="name" v="Leclerc Centre commercial"/>
    <tag k="wheelchair" v="yes"/>
    <tag k="wheelchair:description" v="einzelne Geschäfte leider etwas eng"/>
  </node>
  <node id="-4157" version="0" timestamp="Fri Feb 24 10:53:36 +0100 2012" uid="1" user="" lat="43.62206" lon="1.42798">
    <tag k="name" v="Pharmacie de la Barrière"/>
    <tag k="wheelchair" v="yes"/>
    <tag k="addr:city" v="Toulouse"/>
    <tag k="addr:postcode" v="31200"/>
    <tag k="addr:housenumber" v="10"/>
    <tag k="addr:street" v="avenue des Etats-Unis"/>
    <tag k="amenity" v="pharmacy"/>
    <tag k="phone" v="05 61 47 77 88"/>
  </node>
</osm>
