<?xml version='1.0' encoding='UTF-8'?>
<osm version="0.6" generator="Osmosis 0.39">
  <node id="-4226" version="0" timestamp="Fri Feb 24 10:53:36 +0100 2012" uid="1" user="" lat="-33.0410362" lon="-71.6247735">
    <tag k="name" v="Edificio Luis Cousiño DUOC UC"/>
    <tag k="wheelchair" v="yes"/>
    <tag k="addr:city" v="Valparaíso"/>
    <tag k="addr:housenumber" v="997"/>
    <tag k="addr:street" v="Calle Blanco"/>
    <tag k="amenity" v="college"/>
  </node>
  <node id="-4227" version="0" timestamp="Fri Feb 24 10:53:36 +0100 2012" uid="1" user="" lat="-33.0409447" lon="-71.6262565">
    <tag k="name" v="Registro Civil Valparaíso"/>
    <tag k="wheelchair" v="no"/>
    <tag k="addr:city" v="Valparaíso"/>
    <tag k="addr:housenumber" v="916"/>
    <tag k="addr:street" v="Esmeralda"/>
    <tag k="historic" v="memorial"/>
  </node>
  <node id="-4228" version="0" timestamp="Fri Feb 24 10:53:36 +0100 2012" uid="1" user="" lat="-33.4408549" lon="-70.6494518">
    <tag k="name" v="Edificio Metrópolis"/>
    <tag k="wheelchair" v="yes"/>
    <tag k="addr:city" v="Santiago"/>
    <tag k="addr:housenumber" v="920"/>
    <tag k="addr:street" v="Moneda"/>
    <tag k="office" v="company"/>
  </node>
  <node id="-4229" version="0" timestamp="Fri Feb 24 10:53:36 +0100 2012" uid="1" user="" lat="-33.4411202" lon="-70.6508635">
    <tag k="shop" v="mall"/>
    <tag k="name" v="Paris Tecnológico"/>
    <tag k="wheelchair" v="no"/>
    <tag k="addr:city" v="Santiago"/>
    <tag k="addr:housenumber" v="178"/>
    <tag k="addr:street" v="Ahumada "/>
  </node>
  <node id="-4230" version="0" timestamp="Fri Feb 24 10:53:36 +0100 2012" uid="1" user="" lat="-33.4417517" lon="-70.6465982">
    <tag k="shop" v="mall"/>
    <tag k="name" v="Galería Metropolitana"/>
    <tag k="wheelchair" v="no"/>
    <tag k="addr:housenumber" v="720"/>
    <tag k="addr:street" v="Moneda"/>
  </node>
  <node id="-4232" version="0" timestamp="Fri Feb 24 10:53:36 +0100 2012" uid="1" user="" lat="-33.4399415" lon="-70.6529998">
    <tag k="name" v="Bravissimo "/>
    <tag k="wheelchair" v="no"/>
    <tag k="addr:city" v="Santiago"/>
    <tag k="addr:housenumber" v="1162"/>
    <tag k="addr:street" v="Huérfanos "/>
    <tag k="amenity" v="restaurant"/>
  </node>
  <node id="-4233" version="0" timestamp="Fri Feb 24 10:53:36 +0100 2012" uid="1" user="" lat="-33.4400161" lon="-70.6538637">
    <tag k="name" v="Scotiabank"/>
    <tag k="wheelchair" v="no"/>
    <tag k="addr:city" v="Santiago"/>
    <tag k="addr:housenumber" v="1207"/>
    <tag k="addr:street" v="Huérfanos"/>
    <tag k="amenity" v="bank"/>
  </node>
  <node id="-4234" version="0" timestamp="Fri Feb 24 10:53:36 +0100 2012" uid="1" user="" lat="-33.4400827" lon="-70.6537366">
    <tag k="name" v="Banco Estado"/>
    <tag k="wheelchair" v="no"/>
    <tag k="addr:city" v="Santiago"/>
    <tag k="addr:housenumber" v="1202"/>
    <tag k="addr:street" v="Huérfanos "/>
    <tag k="wheelchair:description" v="Por seguridad no intentar el acceso por la rampa instalada"/>
    <tag k="amenity" v="bank"/>
  </node>
  <node id="-4283" version="0" timestamp="Fri Feb 24 10:53:36 +0100 2012" uid="1" user="" lat="-33.4390197" lon="-70.6437391">
    <tag k="name" v="Ascensor Santa Lucía"/>
    <tag k="wheelchair" v="no"/>
    <tag k="tourism" v="attraction"/>
    <tag k="addr:street" v="Santa Lucía esq. Huérfanos"/>
    <tag k="wheelchair:description" v="Ascensor hacia la cumbre pero preceden varios peldaños"/>
  </node>
  <node id="-4284" version="0" timestamp="Fri Feb 24 10:53:36 +0100 2012" uid="1" user="" lat="-33.44168" lon="-70.64906">
    <tag k="name" v="Iglesia San Agustín"/>
    <tag k="wheelchair" v="limited"/>
    <tag k="wheelchair:description" v="Rampa pronunciada más un pldaño en el acceso"/>
    <tag k="amenity" v="place_of_worship"/>
  </node>
  <node id="-4517" version="0" timestamp="Fri Feb 24 10:53:36 +0100 2012" uid="1" user="" lat="-33.3899606" lon="-70.5733666">
    <tag k="name" v="Restaurant Gourmat"/>
    <tag k="wheelchair" v="limited"/>
    <tag k="addr:city" v="Santiago"/>
    <tag k="addr:housenumber" v="1732 Vitacura"/>
    <tag k="addr:street" v="Av. Manquehue Norte"/>
    <tag k="amenity" v="restaurant"/>
  </node>
  <node id="-5516" version="0" timestamp="Fri Feb 24 10:53:37 +0100 2012" uid="1" user="" lat="-41.3283472" lon="-72.9609464">
    <tag k="name" v="La Marca Restaurant"/>
    <tag k="wheelchair" v="yes"/>
    <tag k="addr:city" v="Puerto Varas"/>
    <tag k="addr:housenumber" v="s/n"/>
    <tag k="addr:street" v="Vicente Perez Rosales, Pto. Varas (Strip Center Capitanía de Puerto)"/>
    <tag k="amenity" v="restaurant"/>
  </node>
  <node id="-5517" version="0" timestamp="Fri Feb 24 10:53:37 +0100 2012" uid="1" user="" lat="-41.3172012" lon="-72.98318">
    <tag k="shop" v="department_store"/>
    <tag k="name" v="Vicki Johnson"/>
    <tag k="wheelchair" v="no"/>
    <tag k="addr:city" v="Puerto varas"/>
    <tag k="addr:housenumber" v="318"/>
    <tag k="addr:street" v="Santa Rosa"/>
  </node>
  <node id="-5518" version="0" timestamp="Fri Feb 24 10:53:37 +0100 2012" uid="1" user="" lat="-41.3139442" lon="-72.9812969">
    <tag k="name" v="Miraolas Restaurant"/>
    <tag k="wheelchair" v="no"/>
    <tag k="addr:city" v="Puerto Varas, Chile"/>
    <tag k="addr:housenumber" v="040 | Costanera"/>
    <tag k="addr:street" v="Santa Rosa "/>
    <tag k="amenity" v="restaurant"/>
  </node>
  <node id="-5619" version="0" timestamp="Fri Feb 24 10:53:37 +0100 2012" uid="1" user="" lat="-33.483441" lon="-70.6840264">
    <tag k="shop" v="mall"/>
    <tag k="name" v="central de abastecimiento &quot;lo valledor&quot;"/>
    <tag k="wheelchair" v="yes"/>
  </node>
  <node id="-5620" version="0" timestamp="Fri Feb 24 10:53:37 +0100 2012" uid="1" user="" lat="-33.5383751" lon="-70.6634421">
    <tag k="shop" v="mall"/>
    <tag k="name" v="intermodal la cisterna"/>
    <tag k="wheelchair" v="yes"/>
  </node>
  <node id="-5621" version="0" timestamp="Fri Feb 24 10:53:37 +0100 2012" uid="1" user="" lat="-33.5765193" lon="-70.5781384">
    <tag k="name" v="cft santo tomas"/>
    <tag k="wheelchair" v="limited"/>
    <tag k="amenity" v="college"/>
  </node>
  <node id="-5622" version="0" timestamp="Fri Feb 24 10:53:37 +0100 2012" uid="1" user="" lat="-33.5066671" lon="-70.6059603">
    <tag k="name" v="zorrera infectada de sida"/>
    <tag k="wheelchair" v="no"/>
    <tag k="leisure" v="stadium"/>
  </node>
  <node id="-5623" version="0" timestamp="Fri Feb 24 10:53:37 +0100 2012" uid="1" user="" lat="-33.484778" lon="-70.6209641">
    <tag k="name" v="ip chile "/>
    <tag k="wheelchair" v="no"/>
    <tag k="amenity" v="college"/>
  </node>
  <node id="-5624" version="0" timestamp="Fri Feb 24 10:53:37 +0100 2012" uid="1" user="" lat="-33.4644504" lon="-70.6107537">
    <tag k="name" v="estadio nacional"/>
    <tag k="wheelchair" v="limited"/>
    <tag k="leisure" v="stadium"/>
  </node>
</osm>
