<?xml version='1.0' encoding='UTF-8'?>
<osm version="0.6" generator="Osmosis 0.39">
  <node id="-2674" version="0" timestamp="Fri Feb 24 10:53:34 +0100 2012" uid="1" user="" lat="35.7641572" lon="139.6316838">
    <tag k="name" v="hikarigaoka park public lavatory"/>
    <tag k="wheelchair" v="yes"/>
    <tag k="amenity" v="toilets"/>
  </node>
  <node id="-2675" version="0" timestamp="Fri Feb 24 10:53:34 +0100 2012" uid="1" user="" lat="35.7394207" lon="139.6539123">
    <tag k="name" v="練馬文化センター"/>
    <tag k="wheelchair" v="limited"/>
    <tag k="website" v="http://www.neribun.or.jp/nerima.html"/>
  </node>
  <node id="-2676" version="0" timestamp="Fri Feb 24 10:53:34 +0100 2012" uid="1" user="" lat="35.7541739" lon="139.6287803">
    <tag k="name" v="練馬区立夏の雲公園公衆トイレ"/>
    <tag k="wheelchair" v="yes"/>
    <tag k="amenity" v="toilets"/>
  </node>
  <node id="-2677" version="0" timestamp="Fri Feb 24 10:53:34 +0100 2012" uid="1" user="" lat="35.7564306" lon="139.6314826">
    <tag k="name" v="練馬区立夏の雲公園公衆トイレ"/>
    <tag k="wheelchair" v="yes"/>
    <tag k="amenity" v="toilets"/>
  </node>
  <node id="-2678" version="0" timestamp="Fri Feb 24 10:53:34 +0100 2012" uid="1" user="" lat="35.7539277" lon="139.6244807">
    <tag k="name" v="練馬区立春の風公園公衆トイレ"/>
    <tag k="wheelchair" v="yes"/>
    <tag k="amenity" v="toilets"/>
  </node>
  <node id="-2679" version="0" timestamp="Fri Feb 24 10:53:34 +0100 2012" uid="1" user="" lat="35.76243" lon="139.63505">
    <tag k="name" v="練馬区立秋の陽公園公衆トイレ"/>
    <tag k="wheelchair" v="yes"/>
    <tag k="amenity" v="toilets"/>
  </node>
  <node id="-2693" version="0" timestamp="Fri Feb 24 10:53:34 +0100 2012" uid="1" user="" lat="35.7770715" lon="139.6326171">
    <tag k="name" v="成増駅前公衆トイレ"/>
    <tag k="wheelchair" v="yes"/>
    <tag k="amenity" v="toilets"/>
  </node>
  <node id="-2694" version="0" timestamp="Fri Feb 24 10:53:34 +0100 2012" uid="1" user="" lat="35.7768218" lon="139.6313603">
    <tag k="name" v="東京メトロ有楽町線地下鉄成増駅改札行エレベーター"/>
    <tag k="wheelchair" v="unknown"/>
    <tag k="railway" v="subway_entrance"/>
  </node>
  <node id="-2695" version="0" timestamp="Fri Feb 24 10:53:34 +0100 2012" uid="1" user="" lat="35.769461" lon="139.6450968">
    <tag k="name" v="東京メトロ有楽町線地下鉄赤塚駅改札行エレベーター"/>
    <tag k="wheelchair" v="unknown"/>
    <tag k="railway" v="subway_entrance"/>
  </node>
</osm>
