<?xml version='1.0' encoding='UTF-8'?>
<osm version="0.6" generator="Osmosis 0.39">
  <node id="-726" version="0" timestamp="Fri Feb 24 10:53:32 +0100 2012" uid="1" user="" lat="51.5484301" lon="-0.0744109">
    <tag k="name" v="Public toilet"/>
    <tag k="wheelchair" v="yes"/>
    <tag k="addr:street" v="Birkbeck Road"/>
    <tag k="wheelchair:description" v="Radar key operated"/>
    <tag k="amenity" v="toilets"/>
  </node>
  <node id="-728" version="0" timestamp="Fri Feb 24 10:53:32 +0100 2012" uid="1" user="" lat="51.5481133" lon="-0.0755418">
    <tag k="name" v="Dalston Kingsland railway train station"/>
    <tag k="wheelchair" v="no"/>
    <tag k="addr:street" v="Kingsland High Street"/>
    <tag k="wheelchair:description" v="Long flights of steep steps, no help points"/>
    <tag k="railway" v="platform"/>
  </node>
  <node id="-730" version="0" timestamp="Fri Feb 24 10:53:32 +0100 2012" uid="1" user="" lat="51.5470567" lon="-0.0420554">
    <tag k="name" v="Homerton railway train station"/>
    <tag k="wheelchair" v="limited"/>
    <tag k="addr:street" v="Barnabas Street"/>
    <tag k="wheelchair:description" v="fully step free but steep ramps, no toilet.  Apart from Dalston Junction, the only step free station in Hackney."/>
    <tag k="railway" v="platform"/>
  </node>
  <node id="-1535" version="0" timestamp="Fri Feb 24 10:53:33 +0100 2012" uid="1" user="" lat="52.771" lon="-1.20635">
    <tag k="name" v="HSBC"/>
    <tag k="wheelchair" v="yes"/>
    <tag k="addr:city" v="Loughborough"/>
    <tag k="addr:street" v="Market Place"/>
    <tag k="amenity" v="bank"/>
  </node>
  <node id="-1536" version="0" timestamp="Fri Feb 24 10:53:33 +0100 2012" uid="1" user="" lat="52.7716896" lon="-1.2066381">
    <tag k="name" v="Boots"/>
    <tag k="wheelchair" v="yes"/>
    <tag k="addr:city" v="Loughborough"/>
    <tag k="addr:street" v="Market Place"/>
    <tag k="amenity" v="pharmacy"/>
  </node>
  <node id="-1537" version="0" timestamp="Fri Feb 24 10:53:33 +0100 2012" uid="1" user="" lat="52.7716558" lon="-1.2071897">
    <tag k="shop" v="bakery"/>
    <tag k="name" v="Birds"/>
    <tag k="wheelchair" v="yes"/>
    <tag k="addr:city" v="Loughborough"/>
  </node>
  <node id="-1538" version="0" timestamp="Fri Feb 24 10:53:33 +0100 2012" uid="1" user="" lat="52.76545" lon="-1.22276">
    <tag k="name" v="Loughborough Design School"/>
    <tag k="wheelchair" v="yes"/>
    <tag k="addr:city" v="Loughborough"/>
    <tag k="addr:postcode" v="LE11 3TU"/>
    <tag k="wheelchair:description" v="Loughborough University Building"/>
    <tag k="amenity" v="university"/>
  </node>
  <node id="-1540" version="0" timestamp="Fri Feb 24 10:53:33 +0100 2012" uid="1" user="" lat="52.7711163" lon="-1.2070094">
    <tag k="name" v="Costa"/>
    <tag k="wheelchair" v="limited"/>
    <tag k="addr:city" v="Loughborough"/>
    <tag k="amenity" v="cafe"/>
  </node>
  <node id="-1541" version="0" timestamp="Fri Feb 24 10:53:33 +0100 2012" uid="1" user="" lat="52.768802" lon="-1.2080275">
    <tag k="name" v="The Orange Tree"/>
    <tag k="wheelchair" v="no"/>
    <tag k="addr:city" v="Loughborough"/>
    <tag k="wheelchair:description" v="Not too bad inside, but step to get in and no disabled toilet"/>
    <tag k="amenity" v="pub"/>
  </node>
  <node id="-1542" version="0" timestamp="Fri Feb 24 10:53:33 +0100 2012" uid="1" user="" lat="52.7735769" lon="-1.2101318">
    <tag k="name" v="The Swan In The Rushes"/>
    <tag k="wheelchair" v="unknown"/>
    <tag k="addr:city" v="Loughborough"/>
    <tag k="wheelchair:description" v="Step to get in, no ramp, steps on the inside and no disabled toilet"/>
    <tag k="amenity" v="pub"/>
  </node>
  <node id="-1544" version="0" timestamp="Fri Feb 24 10:53:33 +0100 2012" uid="1" user="" lat="52.7743182" lon="-1.2082364">
    <tag k="shop" v="supermarket"/>
    <tag k="name" v="Tesco"/>
    <tag k="wheelchair" v="yes"/>
    <tag k="addr:city" v="Loughborough"/>
  </node>
  <node id="-1545" version="0" timestamp="Fri Feb 24 10:53:33 +0100 2012" uid="1" user="" lat="52.7735566" lon="-1.2101397">
    <tag k="name" v="The Swan In The Rushes"/>
    <tag k="wheelchair" v="no"/>
    <tag k="addr:city" v="Loughborough"/>
    <tag k="wheelchair:description" v="Step to get in, no ramp, steps on the inside and no disabled toilet"/>
    <tag k="amenity" v="pub"/>
  </node>
  <node id="-1546" version="0" timestamp="Fri Feb 24 10:53:33 +0100 2012" uid="1" user="" lat="52.7632414" lon="-1.2372639">
    <tag k="name" v="Loughborough University Library"/>
    <tag k="wheelchair" v="yes"/>
    <tag k="addr:city" v="Loughborough"/>
    <tag k="wheelchair:description" v="University Library"/>
    <tag k="amenity" v="library"/>
  </node>
  <node id="-1547" version="0" timestamp="Fri Feb 24 10:53:33 +0100 2012" uid="1" user="" lat="52.7721753" lon="-1.2060531">
    <tag k="name" v="McDonalds"/>
    <tag k="wheelchair" v="limited"/>
    <tag k="addr:city" v="Loughborough"/>
    <tag k="addr:street" v="Swan Street"/>
    <tag k="wheelchair:description" v="No access to top floor, but 100% fine downstairs"/>
    <tag k="amenity" v="fast_food"/>
  </node>
  <node id="-2450" version="0" timestamp="Fri Feb 24 10:53:34 +0100 2012" uid="1" user="" lat="55.06472" lon="-3.60639">
    <tag k="name" v="greens sports bar"/>
    <tag k="wheelchair" v="limited"/>
    <tag k="addr:city" v="Dumfries"/>
    <tag k="addr:postcode" v="DG1 2QB"/>
    <tag k="addr:housenumber" v="57-59"/>
    <tag k="addr:street" v="St Michaels street"/>
    <tag k="wheelchair:description" v="has access but the disabled toilet is very small not easy to use with a wheelchair"/>
    <tag k="amenity" v="pub"/>
  </node>
  <node id="-3089" version="0" timestamp="Fri Feb 24 10:53:35 +0100 2012" uid="1" user="" lat="51.4183318" lon="-0.4112244">
    <tag k="name" v="Sunbury Methodist Church"/>
    <tag k="wheelchair" v="yes"/>
    <tag k="addr:postcode" v="TW16 5AD"/>
    <tag k="addr:street" v="Staines Road East"/>
    <tag k="amenity" v="place_of_worship"/>
    <tag k="website" v="http://www.sunbury.tmcc.org.uk/"/>
  </node>
  <node id="-3667" version="0" timestamp="Fri Feb 24 10:53:35 +0100 2012" uid="1" user="" lat="50.4346151" lon="-3.7112634">
    <tag k="shop" v="convenience"/>
    <tag k="name" v="Follaton Store"/>
    <tag k="wheelchair" v="limited"/>
    <tag k="wheelchair:description" v="Narrow entrance and narrow isles"/>
  </node>
  <node id="-3668" version="0" timestamp="Fri Feb 24 10:53:35 +0100 2012" uid="1" user="" lat="50.43155" lon="-3.7082">
    <tag k="name" v="South Hams Council"/>
    <tag k="wheelchair" v="yes"/>
    <tag k="amenity" v="townhall"/>
  </node>
  <node id="-3669" version="0" timestamp="Fri Feb 24 10:53:35 +0100 2012" uid="1" user="" lat="50.4373879" lon="-3.5570566">
    <tag k="name" v="Paignton Pier"/>
    <tag k="wheelchair" v="yes"/>
    <tag k="tourism" v="attraction"/>
  </node>
  <node id="-3670" version="0" timestamp="Fri Feb 24 10:53:35 +0100 2012" uid="1" user="" lat="50.4313295" lon="-3.5892153">
    <tag k="shop" v="convenience"/>
    <tag k="name" v="Spar"/>
    <tag k="wheelchair" v="yes"/>
    <tag k="wheelchair:description" v="Narrow entrance and narrow isles"/>
  </node>
  <node id="-3671" version="0" timestamp="Fri Feb 24 10:53:35 +0100 2012" uid="1" user="" lat="50.480489" lon="-3.5485879">
    <tag k="shop" v="supermarket"/>
    <tag k="name" v="Asda"/>
    <tag k="wheelchair" v="yes"/>
  </node>
  <node id="-3672" version="0" timestamp="Fri Feb 24 10:53:35 +0100 2012" uid="1" user="" lat="50.4831356" lon="-3.5479855">
    <tag k="shop" v="department_store"/>
    <tag k="name" v="Pets At Home"/>
    <tag k="wheelchair" v="yes"/>
  </node>
  <node id="-3673" version="0" timestamp="Fri Feb 24 10:53:35 +0100 2012" uid="1" user="" lat="50.4890155" lon="-3.5525581">
    <tag k="shop" v="department_store"/>
    <tag k="name" v="Mothercare"/>
    <tag k="wheelchair" v="yes"/>
  </node>
  <node id="-3674" version="0" timestamp="Fri Feb 24 10:53:35 +0100 2012" uid="1" user="" lat="50.3908672" lon="-4.0721463">
    <tag k="name" v="The Unicorn"/>
    <tag k="wheelchair" v="yes"/>
    <tag k="amenity" v="restaurant"/>
  </node>
  <node id="-4058" version="0" timestamp="Fri Feb 24 10:53:36 +0100 2012" uid="1" user="" lat="53.8011269" lon="-9.5282506">
    <tag k="name" v="Hotel Westport"/>
    <tag k="wheelchair" v="yes"/>
    <tag k="tourism" v="hotel"/>
  </node>
  <node id="-4070" version="0" timestamp="Fri Feb 24 10:53:36 +0100 2012" uid="1" user="" lat="53.8003213" lon="-9.5236046">
    <tag k="name" v="Westport Tourist Office"/>
    <tag k="wheelchair" v="yes"/>
    <tag k="wheelchair:description" v="Down lane at right, lift to ground level"/>
    <tag k="leisure" v="beach_resort"/>
  </node>
  <node id="-4109" version="0" timestamp="Fri Feb 24 10:53:36 +0100 2012" uid="1" user="" lat="53.8862294" lon="-9.5469854">
    <tag k="name" v="Hotel Newport"/>
    <tag k="wheelchair" v="unknown"/>
    <tag k="tourism" v="hotel"/>
  </node>
  <node id="-4122" version="0" timestamp="Fri Feb 24 10:53:36 +0100 2012" uid="1" user="" lat="53.7996065" lon="-9.5497471">
    <tag k="name" v="Atlantic Coast Hotel"/>
    <tag k="wheelchair" v="yes"/>
    <tag k="tourism" v="hotel"/>
    <tag k="wheelchair:description" v="Leisure Centre and spa not accessible"/>
  </node>
  <node id="-4192" version="0" timestamp="Fri Feb 24 10:53:36 +0100 2012" uid="1" user="" lat="53.2601979" lon="-6.1610984">
    <tag k="name" v="Cabenteely Tea Rooms"/>
    <tag k="wheelchair" v="unknown"/>
    <tag k="amenity" v="cafe"/>
  </node>
  <node id="-4326" version="0" timestamp="Fri Feb 24 10:53:36 +0100 2012" uid="1" user="" lat="54.1025452" lon="-2.6088708">
    <tag k="name" v="Wray Institute"/>
    <tag k="wheelchair" v="yes"/>
    <tag k="addr:city" v="wray"/>
    <tag k="addr:postcode" v="la2 8qf"/>
    <tag k="addr:street" v="main street"/>
    <tag k="wheelchair:description" v="excellent"/>
    <tag k="amenity" v="community_center"/>
    <tag k="website" v="http://www.wrayvillage.co.uk"/>
    <tag k="phone" v="01524222311"/>
  </node>
  <node id="-4370" version="0" timestamp="Fri Feb 24 10:53:36 +0100 2012" uid="1" user="" lat="53.3438591" lon="-6.2672415">
    <tag k="name" v="Dublin City Hall"/>
    <tag k="wheelchair" v="yes"/>
    <tag k="addr:city" v="Dublin"/>
    <tag k="wheelchair:description" v="Fully Accessuble"/>
    <tag k="amenity" v="townhall"/>
    <tag k="website" v="http://www.dublincity.ie"/>
  </node>
  <node id="-4412" version="0" timestamp="Fri Feb 24 10:53:36 +0100 2012" uid="1" user="" lat="53.2747385" lon="-6.1522178">
    <tag k="name" v="Irish Wheelchair Association"/>
    <tag k="wheelchair" v="yes"/>
    <tag k="amenity" v="social_facility"/>
  </node>
  <node id="-4413" version="0" timestamp="Fri Feb 24 10:53:36 +0100 2012" uid="1" user="" lat="53.2750512" lon="-6.1508038">
    <tag k="name" v="Spinal Injuries Association"/>
    <tag k="wheelchair" v="unknown"/>
    <tag k="amenity" v="social_facility"/>
  </node>
  <node id="-5143" version="0" timestamp="Fri Feb 24 10:53:37 +0100 2012" uid="1" user="" lat="51.8785202" lon="-0.5027097">
    <tag k="shop" v="supermarket"/>
    <tag k="name" v="Sainsbury"/>
    <tag k="wheelchair" v="yes"/>
  </node>
  <node id="-5522" version="0" timestamp="Fri Feb 24 10:53:37 +0100 2012" uid="1" user="" lat="51.4263367" lon="-0.563237">
    <tag k="name" v="Bourne Laboratories Entrance"/>
    <tag k="wheelchair" v="yes"/>
    <tag k="wheelchair:description" v="Automatic doors."/>
    <tag k="amenity" v="university"/>
  </node>
  <node id="-5523" version="0" timestamp="Fri Feb 24 10:53:37 +0100 2012" uid="1" user="" lat="51.4266477" lon="-0.5628645">
    <tag k="name" v="Munro Fox Entrance"/>
    <tag k="wheelchair" v="limited"/>
    <tag k="wheelchair:description" v="Accessible only through Bourne Laboratories"/>
    <tag k="amenity" v="university"/>
  </node>
  <node id="-5524" version="0" timestamp="Fri Feb 24 10:53:37 +0100 2012" uid="1" user="" lat="51.424798" lon="-0.5660485">
    <tag k="name" v="Quad Entrance/Exit"/>
    <tag k="wheelchair" v="no"/>
    <tag k="wheelchair:description" v="Side doors into the North and South Quad are not accessible via a wheelchair or mobility impaired people due to steps only no ramp."/>
    <tag k="amenity" v="university"/>
  </node>
  <node id="-5525" version="0" timestamp="Fri Feb 24 10:53:37 +0100 2012" uid="1" user="" lat="51.424917" lon="-0.5658706">
    <tag k="name" v="Side Entrance to Founders"/>
    <tag k="wheelchair" v="yes"/>
    <tag k="wheelchair:description" v="Ramp and electric door. Very accessible."/>
    <tag k="amenity" v="university"/>
  </node>
  <node id="-5526" version="0" timestamp="Fri Feb 24 10:53:37 +0100 2012" uid="1" user="" lat="51.4247768" lon="-0.5674445">
    <tag k="name" v="Quad Entrance/Exit"/>
    <tag k="wheelchair" v="no"/>
    <tag k="wheelchair:description" v="Side entrances to North and South Quads are not accessible to wheelchair or mobility impaired people. Access here is by steps only."/>
    <tag k="amenity" v="university"/>
  </node>
  <node id="-5527" version="0" timestamp="Fri Feb 24 10:53:37 +0100 2012" uid="1" user="" lat="51.4252249" lon="-0.5666997">
    <tag k="name" v="Quad Entrance/Exit"/>
    <tag k="wheelchair" v="no"/>
    <tag k="wheelchair:description" v="Side entrances to North and South Quads are not accessible to wheelchair or mobility impaired people. Access here is by steps only."/>
    <tag k="amenity" v="university"/>
  </node>
  <node id="-5528" version="0" timestamp="Fri Feb 24 10:53:37 +0100 2012" uid="1" user="" lat="51.42457" lon="-0.567">
    <tag k="name" v="Quad Entrance/Exit"/>
    <tag k="wheelchair" v="no"/>
    <tag k="wheelchair:description" v="Side entrances to North and South Quads are not accessible to wheelchair or mobility impaired people. Access here is by steps only."/>
    <tag k="amenity" v="university"/>
  </node>
  <node id="-5529" version="0" timestamp="Fri Feb 24 10:53:37 +0100 2012" uid="1" user="" lat="51.42525" lon="-0.56624">
    <tag k="name" v="Founder&apos;s Main Entrance"/>
    <tag k="wheelchair" v="no"/>
    <tag k="wheelchair:description" v="Not accessible by wheelchair or mobility impaired people. Steps only."/>
    <tag k="amenity" v="university"/>
  </node>
</osm>
