<?xml version='1.0' encoding='UTF-8'?>
<osm version="0.6" generator="Osmosis 0.39">
  <node id="-4142" version="0" timestamp="Fri Feb 24 10:53:36 +0100 2012" uid="1" user="" lat="42.69038" lon="23.32578">
    <tag k="name" v="Lubimoto"/>
    <tag k="wheelchair" v="limited"/>
    <tag k="amenity" v="restaurant"/>
  </node>
  <node id="-4143" version="0" timestamp="Fri Feb 24 10:53:36 +0100 2012" uid="1" user="" lat="42.69038" lon="23.32578">
    <tag k="name" v="Lubimoto"/>
    <tag k="wheelchair" v="limited"/>
    <tag k="addr:city" v="Sofia"/>
    <tag k="addr:street" v="Luben Karavelov"/>
    <tag k="amenity" v="restaurant"/>
  </node>
  <node id="-4144" version="0" timestamp="Fri Feb 24 10:53:36 +0100 2012" uid="1" user="" lat="42.6897057" lon="23.3302486">
    <tag k="name" v="Lubimoto"/>
    <tag k="wheelchair" v="limited"/>
    <tag k="amenity" v="restaurant"/>
  </node>
  <node id="-4145" version="0" timestamp="Fri Feb 24 10:53:36 +0100 2012" uid="1" user="" lat="42.6953641" lon="23.3303251">
    <tag k="name" v="Tobacco"/>
    <tag k="wheelchair" v="limited"/>
    <tag k="amenity" v="bar"/>
  </node>
  <node id="-4146" version="0" timestamp="Fri Feb 24 10:53:36 +0100 2012" uid="1" user="" lat="42.6939446" lon="23.3297828">
    <tag k="name" v="Kristal"/>
    <tag k="wheelchair" v="limited"/>
    <tag k="amenity" v="bar"/>
  </node>
  <node id="-4147" version="0" timestamp="Fri Feb 24 10:53:36 +0100 2012" uid="1" user="" lat="42.6896498" lon="23.3303041">
    <tag k="name" v="Pizza Parma"/>
    <tag k="wheelchair" v="limited"/>
    <tag k="amenity" v="restaurant"/>
  </node>
</osm>
