<?xml version='1.0' encoding='UTF-8'?>
<osm version="0.6" generator="Osmosis 0.39">
  <node id="-674" version="0" timestamp="Fri Feb 24 10:53:32 +0100 2012" uid="1" user="" lat="55.7440138" lon="8.1742311">
    <tag k="name" v="Café Stranden"/>
    <tag k="wheelchair" v="limited"/>
    <tag k="amenity" v="cafe"/>
  </node>
  <node id="-3929" version="0" timestamp="Fri Feb 24 10:53:35 +0100 2012" uid="1" user="" lat="56.394474" lon="10.9188733">
    <tag k="name" v="Dronningens Ferieby"/>
    <tag k="wheelchair" v="yes"/>
    <tag k="addr:city" v="Grenaa"/>
    <tag k="addr:postcode" v="8500"/>
    <tag k="tourism" v="chalet"/>
    <tag k="addr:street" v="Kystvej"/>
    <tag k="wheelchair:description" v="Feriendorf / Holiday Village / Ferieby"/>
    <tag k="website" v="http://www.dronningensferieby.dk/de"/>
    <tag k="phone" v="+45 87 58 36 50"/>
  </node>
  <node id="-5245" version="0" timestamp="Fri Feb 24 10:53:37 +0100 2012" uid="1" user="" lat="55.6913575" lon="12.5599423">
    <tag k="name" v="Global Copenhagen - World Music Venue"/>
    <tag k="wheelchair" v="limited"/>
    <tag k="addr:city" v="København N"/>
    <tag k="addr:postcode" v="2200"/>
    <tag k="addr:housenumber" v="7"/>
    <tag k="addr:street" v="Nørre Allé"/>
    <tag k="wheelchair:description" v="They got a steep folding ramp to lay over the two entry steps (of 20 cm each). Wheelchair toilet."/>
    <tag k="leisure" v="arena"/>
    <tag k="website" v="http://www.globalcph.dk"/>
    <tag k="phone" v="+45 50 58 08 41"/>
  </node>
  <node id="-5275" version="0" timestamp="Fri Feb 24 10:53:37 +0100 2012" uid="1" user="" lat="55.66661" lon="12.56453">
    <tag k="name" v="sticks &amp; sushi"/>
    <tag k="wheelchair" v="yes"/>
    <tag k="addr:city" v="København"/>
    <tag k="addr:postcode" v="1577"/>
    <tag k="addr:housenumber" v="2"/>
    <tag k="addr:street" v="Arni Magnussons Gade "/>
    <tag k="wheelchair:description" v="No grib by toilet. From Parking House via elevator to the top at Tivoli Hotel. (Find P between Tivoli Hotel and Hotel Wakeup. Max high for cars:2 m."/>
    <tag k="amenity" v="restaurant"/>
    <tag k="website" v="http://www.sushi.dk"/>
    <tag k="phone" v="+45 8832 9595"/>
  </node>
</osm>
