<?xml version='1.0' encoding='UTF-8'?>
<osm version="0.6" generator="Osmosis 0.39">
  <node id="-4564" version="0" timestamp="Fri Feb 24 10:53:36 +0100 2012" uid="1" user="" lat="62.24242" lon="25.74714">
    <tag k="name" v="Tanssisali Lutakko Rock Club"/>
    <tag k="wheelchair" v="yes"/>
    <tag k="addr:city" v="JYVÄSKYLÄ"/>
    <tag k="addr:postcode" v="40100"/>
    <tag k="addr:housenumber" v="3"/>
    <tag k="addr:street" v="Messukatu / Schaumaninikatu"/>
    <tag k="wheelchair:description" v="Access via ramp through backdoor and lift. Staff sometimes needed"/>
    <tag k="amenity" v="community_center"/>
    <tag k="website" v="http://www.jelmu.net/"/>
  </node>
  <node id="-4565" version="0" timestamp="Fri Feb 24 10:53:36 +0100 2012" uid="1" user="" lat="62.2392294" lon="25.7546515">
    <tag k="name" v="Kahvila Lutakko"/>
    <tag k="wheelchair" v="yes"/>
    <tag k="addr:city" v="JYVÄSKYLÄ"/>
    <tag k="addr:postcode" v="40100"/>
    <tag k="addr:housenumber" v="3"/>
    <tag k="addr:street" v="Messukatu / SDchaumaninkatu"/>
    <tag k="wheelchair:description" v="Access via ramp through backdoor and reheasal room"/>
    <tag k="amenity" v="cafe"/>
    <tag k="website" v="http://www.jelmu.net/kahvila/"/>
  </node>
  <node id="-4566" version="0" timestamp="Fri Feb 24 10:53:36 +0100 2012" uid="1" user="" lat="62.2393368" lon="25.7548165">
    <tag k="name" v="Tanssisali Lutakko Rock Club"/>
    <tag k="wheelchair" v="yes"/>
    <tag k="addr:city" v="JYVÄSKYLÄ"/>
    <tag k="addr:postcode" v="40100"/>
    <tag k="addr:housenumber" v="3"/>
    <tag k="addr:street" v="Messukatu / Schaumaninikatu"/>
    <tag k="wheelchair:description" v="access via ramp through backdoor and lift. Staff smetimes needed"/>
    <tag k="amenity" v="community_center"/>
    <tag k="website" v="http://www.jelmu.net/"/>
  </node>
  <node id="-4569" version="0" timestamp="Fri Feb 24 10:53:36 +0100 2012" uid="1" user="" lat="62.240212" lon="25.7582342">
    <tag k="name" v="Messukeskus Fair Centre"/>
    <tag k="wheelchair" v="yes"/>
    <tag k="addr:city" v="JYVÄSKYLÄ"/>
    <tag k="addr:street" v="Messukatu / Piippukatu"/>
    <tag k="leisure" v="arena"/>
  </node>
  <node id="-4570" version="0" timestamp="Fri Feb 24 10:53:36 +0100 2012" uid="1" user="" lat="62.2415724" lon="25.7615537">
    <tag k="name" v="Bobi Chef"/>
    <tag k="wheelchair" v="yes"/>
    <tag k="addr:city" v="JYVÄSKYLÄ"/>
    <tag k="addr:street" v="Blomstedtinkatu"/>
    <tag k="amenity" v="restaurant"/>
  </node>
  <node id="-4571" version="0" timestamp="Fri Feb 24 10:53:36 +0100 2012" uid="1" user="" lat="62.2411278" lon="25.7613569">
    <tag k="name" v="Pizza Best"/>
    <tag k="wheelchair" v="yes"/>
    <tag k="addr:city" v="JYVÄSKYLÄ"/>
    <tag k="addr:street" v="Schaumanin puistotie"/>
    <tag k="amenity" v="fast_food"/>
  </node>
  <node id="-4572" version="0" timestamp="Fri Feb 24 10:53:36 +0100 2012" uid="1" user="" lat="62.2412299" lon="25.7614673">
    <tag k="shop" v="supermarket"/>
    <tag k="name" v="Siwa Lutakko"/>
    <tag k="wheelchair" v="yes"/>
    <tag k="addr:city" v="40100"/>
    <tag k="addr:street" v="Schaumanin puistokatu"/>
  </node>
  <node id="-4573" version="0" timestamp="Fri Feb 24 10:53:36 +0100 2012" uid="1" user="" lat="62.2366907" lon="25.756314">
    <tag k="name" v="Satama"/>
    <tag k="wheelchair" v="limited"/>
    <tag k="addr:city" v="JYVÄSKYLÄ"/>
    <tag k="addr:street" v="Satamakatu"/>
    <tag k="waterway" v="boatyard"/>
  </node>
  <node id="-4574" version="0" timestamp="Fri Feb 24 10:53:36 +0100 2012" uid="1" user="" lat="62.2400283" lon="25.7470832">
    <tag k="name" v="Jyväskylän Kaupunginteatteri"/>
    <tag k="wheelchair" v="yes"/>
    <tag k="addr:city" v="JYVÄSKYLÄ"/>
    <tag k="addr:street" v="Vapaudenkatu"/>
    <tag k="wheelchair:description" v="Ask guidance"/>
    <tag k="amenity" v="theatre"/>
  </node>
  <node id="-4575" version="0" timestamp="Fri Feb 24 10:53:36 +0100 2012" uid="1" user="" lat="62.2386501" lon="25.7401325">
    <tag k="name" v="Teatteri Vakiopaine"/>
    <tag k="wheelchair" v="no"/>
    <tag k="addr:city" v="JYVÄSKYLÄ"/>
    <tag k="amenity" v="theatre"/>
  </node>
  <node id="-4576" version="0" timestamp="Fri Feb 24 10:53:36 +0100 2012" uid="1" user="" lat="62.238735" lon="25.7399637">
    <tag k="name" v="Vakiopaine"/>
    <tag k="wheelchair" v="no"/>
    <tag k="wheelchair:description" v="With assistance entering possible"/>
    <tag k="amenity" v="bar"/>
  </node>
  <node id="-4577" version="0" timestamp="Fri Feb 24 10:53:36 +0100 2012" uid="1" user="" lat="62.2388574" lon="25.7403033">
    <tag k="name" v="Pizzeria Maria"/>
    <tag k="wheelchair" v="limited"/>
    <tag k="addr:city" v="JYVÄSKYLÄ"/>
    <tag k="addr:street" v="Kauppakatu"/>
    <tag k="amenity" v="restaurant"/>
  </node>
  <node id="-4578" version="0" timestamp="Fri Feb 24 10:53:36 +0100 2012" uid="1" user="" lat="62.2392148" lon="25.7408901">
    <tag k="shop" v="supermarket"/>
    <tag k="name" v="K-Market 10"/>
    <tag k="wheelchair" v="yes"/>
    <tag k="addr:city" v="JYVÄSKYLÄ"/>
    <tag k="addr:housenumber" v="10"/>
    <tag k="addr:street" v="Kauppakatu"/>
  </node>
  <node id="-4580" version="0" timestamp="Fri Feb 24 10:53:36 +0100 2012" uid="1" user="" lat="62.2374745" lon="25.7374811">
    <tag k="name" v="Lounaispuiston Grilli 21"/>
    <tag k="wheelchair" v="yes"/>
    <tag k="amenity" v="fast_food"/>
  </node>
  <node id="-4581" version="0" timestamp="Fri Feb 24 10:53:36 +0100 2012" uid="1" user="" lat="62.2377798" lon="25.736155">
    <tag k="name" v="University Library"/>
    <tag k="wheelchair" v="yes"/>
    <tag k="addr:city" v="JYVÄSKYLÄ"/>
    <tag k="amenity" v="library"/>
  </node>
  <node id="-4582" version="0" timestamp="Fri Feb 24 10:53:36 +0100 2012" uid="1" user="" lat="62.2371322" lon="25.7367895">
    <tag k="name" v="University Directorary"/>
    <tag k="wheelchair" v="yes"/>
    <tag k="addr:city" v="JYVÄSKYLÄ"/>
    <tag k="addr:street" v="Seminaarinkatu"/>
    <tag k="amenity" v="university"/>
  </node>
  <node id="-4583" version="0" timestamp="Fri Feb 24 10:53:36 +0100 2012" uid="1" user="" lat="62.2363123" lon="25.7323186">
    <tag k="name" v="University Maiin Building"/>
    <tag k="wheelchair" v="yes"/>
    <tag k="addr:city" v="JYVÄSKYLÄ"/>
    <tag k="amenity" v="university"/>
  </node>
  <node id="-4584" version="0" timestamp="Fri Feb 24 10:53:36 +0100 2012" uid="1" user="" lat="62.2361774" lon="25.7278386">
    <tag k="name" v="Aalto Alvari"/>
    <tag k="wheelchair" v="limited"/>
    <tag k="addr:city" v="JYVÄSKYLÄ"/>
    <tag k="amenity" v="swimming_pool"/>
  </node>
  <node id="-4585" version="0" timestamp="Fri Feb 24 10:53:36 +0100 2012" uid="1" user="" lat="62.23457" lon="25.73037">
    <tag k="name" v="Unversity Student Faculty"/>
    <tag k="wheelchair" v="yes"/>
    <tag k="addr:city" v="JYVÄSKYLÄ"/>
    <tag k="amenity" v="social_facility"/>
  </node>
  <node id="-4586" version="0" timestamp="Fri Feb 24 10:53:36 +0100 2012" uid="1" user="" lat="62.2371797" lon="25.7309385">
    <tag k="name" v="Normaalikoulun ala-aste"/>
    <tag k="wheelchair" v="yes"/>
    <tag k="addr:city" v="JYVÄSKYLÄ"/>
    <tag k="amenity" v="school"/>
  </node>
  <node id="-4587" version="0" timestamp="Fri Feb 24 10:53:36 +0100 2012" uid="1" user="" lat="62.2386279" lon="25.7645474">
    <tag k="natural" v="beach"/>
    <tag k="name" v="Lutsakonranta"/>
    <tag k="wheelchair" v="limited"/>
    <tag k="addr:city" v="JYVÄSKYLÄ"/>
  </node>
  <node id="-4588" version="0" timestamp="Fri Feb 24 10:53:36 +0100 2012" uid="1" user="" lat="62.2396045" lon="25.7630265">
    <tag k="name" v="Lutakonpuisto"/>
    <tag k="wheelchair" v="yes"/>
    <tag k="addr:city" v="JYVÄSKYLÄ"/>
    <tag k="leisure" v="playground"/>
  </node>
  <node id="-5678" version="0" timestamp="Fri Feb 24 10:53:37 +0100 2012" uid="1" user="" lat="61.562778" lon="25.186945">
    <tag k="name" v="Gasthof Sahanranta"/>
    <tag k="wheelchair" v="limited"/>
    <tag k="amenity" v="restaurant"/>
  </node>
</osm>
