<?xml version='1.0' encoding='UTF-8'?>
<osm version="0.6" generator="Osmosis 0.39">
  <node id="-4058" version="0" timestamp="Fri Feb 24 10:53:36 +0100 2012" uid="1" user="" lat="53.8011269" lon="-9.5282506">
    <tag k="name" v="Hotel Westport"/>
    <tag k="wheelchair" v="yes"/>
    <tag k="tourism" v="hotel"/>
  </node>
  <node id="-4070" version="0" timestamp="Fri Feb 24 10:53:36 +0100 2012" uid="1" user="" lat="53.8003213" lon="-9.5236046">
    <tag k="name" v="Westport Tourist Office"/>
    <tag k="wheelchair" v="yes"/>
    <tag k="wheelchair:description" v="Down lane at right, lift to ground level"/>
    <tag k="leisure" v="beach_resort"/>
  </node>
  <node id="-4109" version="0" timestamp="Fri Feb 24 10:53:36 +0100 2012" uid="1" user="" lat="53.8862294" lon="-9.5469854">
    <tag k="name" v="Hotel Newport"/>
    <tag k="wheelchair" v="unknown"/>
    <tag k="tourism" v="hotel"/>
  </node>
  <node id="-4122" version="0" timestamp="Fri Feb 24 10:53:36 +0100 2012" uid="1" user="" lat="53.7996065" lon="-9.5497471">
    <tag k="name" v="Atlantic Coast Hotel"/>
    <tag k="wheelchair" v="yes"/>
    <tag k="tourism" v="hotel"/>
    <tag k="wheelchair:description" v="Leisure Centre and spa not accessible"/>
  </node>
  <node id="-4192" version="0" timestamp="Fri Feb 24 10:53:36 +0100 2012" uid="1" user="" lat="53.2601979" lon="-6.1610984">
    <tag k="name" v="Cabenteely Tea Rooms"/>
    <tag k="wheelchair" v="unknown"/>
    <tag k="amenity" v="cafe"/>
  </node>
  <node id="-4370" version="0" timestamp="Fri Feb 24 10:53:36 +0100 2012" uid="1" user="" lat="53.3438591" lon="-6.2672415">
    <tag k="name" v="Dublin City Hall"/>
    <tag k="wheelchair" v="yes"/>
    <tag k="addr:city" v="Dublin"/>
    <tag k="wheelchair:description" v="Fully Accessuble"/>
    <tag k="amenity" v="townhall"/>
    <tag k="website" v="http://www.dublincity.ie"/>
  </node>
  <node id="-4412" version="0" timestamp="Fri Feb 24 10:53:36 +0100 2012" uid="1" user="" lat="53.2747385" lon="-6.1522178">
    <tag k="name" v="Irish Wheelchair Association"/>
    <tag k="wheelchair" v="yes"/>
    <tag k="amenity" v="social_facility"/>
  </node>
  <node id="-4413" version="0" timestamp="Fri Feb 24 10:53:36 +0100 2012" uid="1" user="" lat="53.2750512" lon="-6.1508038">
    <tag k="name" v="Spinal Injuries Association"/>
    <tag k="wheelchair" v="unknown"/>
    <tag k="amenity" v="social_facility"/>
  </node>
</osm>
