<?xml version='1.0' encoding='UTF-8'?>
<osm version="0.6" generator="Osmosis 0.39">
  <node id="-382" version="0" timestamp="Fri Feb 24 10:53:32 +0100 2012" uid="1" user="" lat="38.1773252" lon="13.2976099">
    <tag k="name" v="Villa de Cordova"/>
    <tag k="wheelchair" v="no"/>
    <tag k="addr:city" v="Palermo"/>
    <tag k="addr:postcode" v="90147"/>
    <tag k="addr:housenumber" v="80"/>
    <tag k="addr:street" v="Via Tommaso Natale "/>
    <tag k="wheelchair:description" v="You may see the villa just from the bottom - service is bad anyway, food nothing special"/>
    <tag k="amenity" v="restaurant"/>
  </node>
  <node id="-419" version="0" timestamp="Fri Feb 24 10:53:32 +0100 2012" uid="1" user="" lat="45.5472858" lon="8.5451042">
    <tag k="name" v="Ristorante &quot;Da Ciccio&quot;"/>
    <tag k="wheelchair" v="yes"/>
    <tag k="addr:city" v="Novara "/>
    <tag k="addr:postcode" v="28100"/>
    <tag k="addr:housenumber" v="140"/>
    <tag k="addr:street" v="corso Risorgimento "/>
    <tag k="wheelchair:description" v="ottima"/>
    <tag k="amenity" v="restaurant"/>
    <tag k="website" v="http://www.ristorantedaciccio.it"/>
    <tag k="phone" v="+39 0321 679480"/>
  </node>
  <node id="-421" version="0" timestamp="Fri Feb 24 10:53:32 +0100 2012" uid="1" user="" lat="45.4677502" lon="8.6153265">
    <tag k="name" v="Ristorante &quot;Da Ciccio&quot;"/>
    <tag k="wheelchair" v="yes"/>
    <tag k="addr:city" v="Novara "/>
    <tag k="addr:postcode" v="28100"/>
    <tag k="addr:housenumber" v="140"/>
    <tag k="addr:street" v="Risorgimento"/>
    <tag k="wheelchair:description" v="ottima"/>
    <tag k="amenity" v="restaurant"/>
    <tag k="website" v="http://www.ristorantedaciccio.it"/>
    <tag k="phone" v="+39 0321 679480"/>
  </node>
  <node id="-469" version="0" timestamp="Fri Feb 24 10:53:32 +0100 2012" uid="1" user="" lat="46.4889479" lon="11.3239922">
    <tag k="name" v="Banca Popolare - Volksbank"/>
    <tag k="wheelchair" v="yes"/>
    <tag k="amenity" v="bank"/>
  </node>
  <node id="-1274" version="0" timestamp="Fri Feb 24 10:53:33 +0100 2012" uid="1" user="" lat="46.4371019" lon="11.2490618">
    <tag k="name" v="Hotel Masatsch"/>
    <tag k="wheelchair" v="yes"/>
    <tag k="addr:city" v="Kaltern"/>
    <tag k="addr:postcode" v="39052"/>
    <tag k="tourism" v="hotel"/>
    <tag k="addr:street" v="Oberplanitzing"/>
    <tag k="wheelchair:description" v="Hotel Masatsch Bistró - Restaurant  Schwimmbad"/>
    <tag k="website" v="http://www.masatsch.it"/>
  </node>
  <node id="-1381" version="0" timestamp="Fri Feb 24 10:53:33 +0100 2012" uid="1" user="" lat="46.48637" lon="11.3399">
    <tag k="name" v="Lebenshilfe für Menschen mit Behinderung"/>
    <tag k="wheelchair" v="yes"/>
    <tag k="addr:city" v="Bozen"/>
    <tag k="addr:postcode" v="39100"/>
    <tag k="addr:housenumber" v="4/c"/>
    <tag k="addr:street" v="Galileo Galilei "/>
    <tag k="website" v="http://www.lebenshilfe.it"/>
  </node>
  <node id="-1382" version="0" timestamp="Fri Feb 24 10:53:33 +0100 2012" uid="1" user="" lat="46.6274911" lon="10.7780366">
    <tag k="name" v="Lebenhilfe Zentrum Schlanders"/>
    <tag k="wheelchair" v="yes"/>
    <tag k="addr:city" v="Schlanders"/>
    <tag k="addr:postcode" v="39028"/>
    <tag k="addr:housenumber" v="12"/>
    <tag k="addr:street" v="Dr. Karl Tinzl"/>
    <tag k="website" v="http://www.lebenshilfe.it"/>
  </node>
  <node id="-2195" version="0" timestamp="Fri Feb 24 10:53:34 +0100 2012" uid="1" user="" lat="41.9063954" lon="12.481787">
    <tag k="name" v="WC"/>
    <tag k="wheelchair" v="yes"/>
    <tag k="wheelchair:description" v="Fahrstuhl zur Behindertentoilette"/>
    <tag k="amenity" v="toilets"/>
  </node>
  <node id="-2233" version="0" timestamp="Fri Feb 24 10:53:34 +0100 2012" uid="1" user="" lat="40.8349722" lon="14.252827">
    <tag k="name" v="Lega Navale Italiana (pontile)"/>
    <tag k="wheelchair" v="yes"/>
    <tag k="addr:city" v="Napoli"/>
    <tag k="addr:postcode" v="80133"/>
    <tag k="addr:street" v="Porticciolo del Molosiglio"/>
    <tag k="leisure" v="sports_centre"/>
    <tag k="website" v="http://www.lninapoli.it"/>
    <tag k="phone" v="+39 081 5511806"/>
  </node>
  <node id="-2234" version="0" timestamp="Fri Feb 24 10:53:34 +0100 2012" uid="1" user="" lat="40.8350512" lon="14.2529534">
    <tag k="name" v="Lega Navale Italiana (fabbricato)"/>
    <tag k="wheelchair" v="limited"/>
    <tag k="addr:city" v="Napoli"/>
    <tag k="addr:postcode" v="80133"/>
    <tag k="addr:street" v="Porticciolo del Molosiglio"/>
    <tag k="wheelchair:description" v="Ingresso e piano terra accessibili; inaccessibile il piano superiore. Servizi igienici presenti al piano terra ma non attrezzati per disabilità"/>
    <tag k="leisure" v="sports_centre"/>
    <tag k="website" v="http://www.lninapoli.it"/>
    <tag k="phone" v="+39 081 5511806"/>
  </node>
  <node id="-2384" version="0" timestamp="Fri Feb 24 10:53:34 +0100 2012" uid="1" user="" lat="40.8357018" lon="14.2376573">
    <tag k="name" v="Hotel Majestic"/>
    <tag k="wheelchair" v="yes"/>
    <tag k="tourism" v="hotel"/>
  </node>
  <node id="-2411" version="0" timestamp="Fri Feb 24 10:53:34 +0100 2012" uid="1" user="" lat="40.8524861" lon="14.2595426">
    <tag k="name" v="Duomo di Napoli"/>
    <tag k="wheelchair" v="limited"/>
    <tag k="amenity" v="place_of_worship"/>
  </node>
  <node id="-2492" version="0" timestamp="Fri Feb 24 10:53:34 +0100 2012" uid="1" user="" lat="40.8300289" lon="14.2481997">
    <tag k="name" v="Grand Hotel Vesuvio"/>
    <tag k="wheelchair" v="yes"/>
    <tag k="tourism" v="hotel"/>
    <tag k="addr:street" v="Via Partenope, 45"/>
  </node>
  <node id="-2658" version="0" timestamp="Fri Feb 24 10:53:34 +0100 2012" uid="1" user="" lat="45.4809079" lon="9.4395985">
    <tag k="name" v="Locale 111"/>
    <tag k="wheelchair" v="yes"/>
    <tag k="wheelchair:description" v="Il locale è completamente accessibile, sia il parcheggio, abbastanza spazioso, sia il locale, tutto su un piano senza nemmeno un gradino. E&apos; accessibile anche il bagno per disabili."/>
    <tag k="amenity" v="bar"/>
  </node>
  <node id="-2659" version="0" timestamp="Fri Feb 24 10:53:34 +0100 2012" uid="1" user="" lat="45.4809213" lon="9.4396">
    <tag k="name" v="Locale 111"/>
    <tag k="wheelchair" v="yes"/>
    <tag k="wheelchair:description" v="Il locale è completamente accessibile, sia il parcheggio, abbastanza spazioso, sia il locale, tutto su un piano senza nemmeno un gradino. E&apos; accessibile anche il bagno per disabili. Il menù del locale è vastissimo, birra, pizze, coktail, patatine ec.."/>
    <tag k="amenity" v="drinking_water"/>
  </node>
  <node id="-2724" version="0" timestamp="Fri Feb 24 10:53:34 +0100 2012" uid="1" user="" lat="46.1371528" lon="9.3683813">
    <tag k="name" v="Hotel Risi"/>
    <tag k="wheelchair" v="yes"/>
    <tag k="addr:city" v="Colico"/>
    <tag k="addr:postcode" v="23823"/>
    <tag k="addr:housenumber" v="1"/>
    <tag k="tourism" v="hotel"/>
    <tag k="addr:street" v="Via Lungolago Polti "/>
    <tag k="website" v="http://www.hotelrisi.it"/>
    <tag k="phone" v="+39 341 933089"/>
  </node>
  <node id="-2727" version="0" timestamp="Fri Feb 24 10:53:34 +0100 2012" uid="1" user="" lat="46.1407637" lon="9.4169533">
    <tag k="shop" v="supermarket"/>
    <tag k="name" v="Iperal"/>
    <tag k="wheelchair" v="unknown"/>
  </node>
  <node id="-2964" version="0" timestamp="Fri Feb 24 10:53:34 +0100 2012" uid="1" user="" lat="46.66854" lon="11.16251">
    <tag k="name" v="urania meran"/>
    <tag k="wheelchair" v="yes"/>
    <tag k="addr:city" v="Meran"/>
    <tag k="addr:postcode" v="39012"/>
    <tag k="addr:housenumber" v="6"/>
    <tag k="addr:street" v="Ortweinstr."/>
    <tag k="amenity" v="school"/>
    <tag k="website" v="http://urania-meran.it/"/>
  </node>
  <node id="-2969" version="0" timestamp="Fri Feb 24 10:53:35 +0100 2012" uid="1" user="" lat="44.65101" lon="10.78176">
    <tag k="name" v="CEPDI"/>
    <tag k="wheelchair" v="yes"/>
    <tag k="addr:city" v="PARMA"/>
    <tag k="addr:postcode" v="43121"/>
    <tag k="addr:housenumber" v="4"/>
    <tag k="addr:street" v="STIRONE"/>
    <tag k="amenity" v="library"/>
    <tag k="phone" v="+390521257283"/>
  </node>
  <node id="-2971" version="0" timestamp="Fri Feb 24 10:53:35 +0100 2012" uid="1" user="" lat="44.7916086" lon="10.3168673">
    <tag k="name" v="Centro Provinciale di Documentazione per l&apos;Integrazione (CePDI)"/>
    <tag k="wheelchair" v="yes"/>
    <tag k="addr:city" v="parma"/>
    <tag k="addr:postcode" v="43100"/>
    <tag k="addr:housenumber" v="4"/>
    <tag k="addr:street" v="stirone"/>
    <tag k="amenity" v="library"/>
  </node>
  <node id="-3023" version="0" timestamp="Fri Feb 24 10:53:35 +0100 2012" uid="1" user="" lat="40.8373501" lon="14.2499037">
    <tag k="name" v="Teatro San Carlo - Opernhaus"/>
    <tag k="wheelchair" v="limited"/>
    <tag k="amenity" v="theatre"/>
    <tag k="website" v="http://www.teatrosancarlo.it"/>
  </node>
  <node id="-3024" version="0" timestamp="Fri Feb 24 10:53:35 +0100 2012" uid="1" user="" lat="40.83861" lon="14.2478">
    <tag k="name" v="Galleria Umberto I"/>
    <tag k="wheelchair" v="limited"/>
    <tag k="tourism" v="attraction"/>
    <tag k="wheelchair:description" v="Eingang von Via Toledo aus stufenlos. Drinnen gibt es diverse Läden, Bars, Cafés usw."/>
  </node>
  <node id="-3287" version="0" timestamp="Fri Feb 24 10:53:35 +0100 2012" uid="1" user="" lat="40.918303" lon="9.4954666">
    <tag k="name" v="Banca"/>
    <tag k="wheelchair" v="no"/>
    <tag k="amenity" v="drinking_water"/>
  </node>
  <node id="-3288" version="0" timestamp="Fri Feb 24 10:53:35 +0100 2012" uid="1" user="" lat="40.9183363" lon="9.4955331">
    <tag k="name" v="Bar"/>
    <tag k="wheelchair" v="no"/>
    <tag k="amenity" v="cafe"/>
  </node>
  <node id="-3356" version="0" timestamp="Fri Feb 24 10:53:35 +0100 2012" uid="1" user="" lat="40.83524" lon="14.24734">
    <tag k="name" v="Contaminarte"/>
    <tag k="wheelchair" v="yes"/>
    <tag k="addr:city" v="napoli"/>
    <tag k="addr:postcode" v="80126"/>
    <tag k="addr:street" v="Epomeo"/>
    <tag k="wheelchair:description" v="scivolo un pò ripido posto innanzi l&apos;ingresso della chiesa"/>
    <tag k="amenity" v="place_of_worship"/>
  </node>
  <node id="-3378" version="0" timestamp="Fri Feb 24 10:53:35 +0100 2012" uid="1" user="" lat="46.8052795" lon="11.8389417">
    <tag k="name" v="Hotel Pustertalerhof"/>
    <tag k="wheelchair" v="yes"/>
    <tag k="tourism" v="hotel"/>
    <tag k="wheelchair:description" v="Aufzug vorhanden/Lift available"/>
  </node>
  <node id="-3379" version="0" timestamp="Fri Feb 24 10:53:35 +0100 2012" uid="1" user="" lat="46.8092073" lon="11.8426202">
    <tag k="name" v="St. Peter und Paul"/>
    <tag k="wheelchair" v="unknown"/>
    <tag k="amenity" v="place_of_worship"/>
  </node>
  <node id="-3380" version="0" timestamp="Fri Feb 24 10:53:35 +0100 2012" uid="1" user="" lat="40.83505" lon="14.24734">
    <tag k="name" v="Contaminarte"/>
    <tag k="wheelchair" v="yes"/>
    <tag k="addr:city" v="napoli"/>
    <tag k="addr:postcode" v="80126"/>
    <tag k="addr:housenumber" v="17"/>
    <tag k="addr:street" v="filippo bottazzi"/>
    <tag k="wheelchair:description" v="due gradini con scivolo da richiedere"/>
    <tag k="amenity" v="place_of_worship"/>
  </node>
  <node id="-3381" version="0" timestamp="Fri Feb 24 10:53:35 +0100 2012" uid="1" user="" lat="40.84396" lon="14.20053">
    <tag k="name" v="The space multisala cinema"/>
    <tag k="wheelchair" v="yes"/>
    <tag k="addr:city" v="napoli"/>
    <tag k="addr:postcode" v="80125"/>
    <tag k="addr:street" v="via giochi del mediterraneo"/>
    <tag k="wheelchair:description" v="totalmente accessibile"/>
    <tag k="amenity" v="cinema"/>
    <tag k="website" v="http://thespacecinema.it"/>
  </node>
  <node id="-3382" version="0" timestamp="Fri Feb 24 10:53:35 +0100 2012" uid="1" user="" lat="40.84377" lon="14.20053">
    <tag k="name" v="Chiesa di Montevergine"/>
    <tag k="wheelchair" v="unknown"/>
    <tag k="addr:postcode" v="80126"/>
    <tag k="addr:street" v="via dell&apos;epomeo"/>
    <tag k="wheelchair:description" v="scivolo un pò ripido posto innanzi l&apos;ingresso della chiesa"/>
    <tag k="amenity" v="place_of_worship"/>
  </node>
  <node id="-3383" version="0" timestamp="Fri Feb 24 10:53:35 +0100 2012" uid="1" user="" lat="40.84377" lon="14.20053">
    <tag k="name" v="Chiesa dei SS Pietro e Paolo"/>
    <tag k="wheelchair" v="yes"/>
    <tag k="addr:city" v="napoli"/>
    <tag k="addr:postcode" v="80126"/>
    <tag k="addr:housenumber" v="17"/>
    <tag k="addr:street" v="filippo bottazzi"/>
    <tag k="wheelchair:description" v="tre gradini con scivolo"/>
    <tag k="amenity" v="place_of_worship"/>
  </node>
  <node id="-3384" version="0" timestamp="Fri Feb 24 10:53:35 +0100 2012" uid="1" user="" lat="40.84377" lon="14.20053">
    <tag k="name" v="Chiesa di Montevergine"/>
    <tag k="wheelchair" v="yes"/>
    <tag k="addr:city" v="napoli"/>
    <tag k="addr:postcode" v="80126"/>
    <tag k="addr:street" v="via dell&apos;epomeo"/>
    <tag k="wheelchair:description" v="scivolo un pò ripido posto innanzi l&apos;ingresso della chiesa"/>
    <tag k="amenity" v="place_of_worship"/>
  </node>
  <node id="-3654" version="0" timestamp="Fri Feb 24 10:53:35 +0100 2012" uid="1" user="" lat="43.951" lon="12.45807">
    <tag k="name" v="Sede Comitato Paralimpico Sammarinese"/>
    <tag k="wheelchair" v="yes"/>
    <tag k="addr:city" v="Domagnano"/>
    <tag k="addr:postcode" v="47895"/>
    <tag k="addr:housenumber" v="16"/>
    <tag k="addr:street" v="Ornera"/>
    <tag k="website" v="http://www.paralympic.sm"/>
  </node>
  <node id="-3655" version="0" timestamp="Fri Feb 24 10:53:35 +0100 2012" uid="1" user="" lat="43.9537823" lon="12.4672036">
    <tag k="name" v="Sede Comitato Paralimpico Sammarinese"/>
    <tag k="wheelchair" v="yes"/>
    <tag k="addr:city" v="Domagnano"/>
    <tag k="addr:postcode" v="47895"/>
    <tag k="addr:housenumber" v="16"/>
    <tag k="addr:street" v="Ornera"/>
    <tag k="website" v="http://www.paralympic.sm"/>
  </node>
  <node id="-4065" version="0" timestamp="Fri Feb 24 10:53:36 +0100 2012" uid="1" user="" lat="46.8155318" lon="11.7360933">
    <tag k="name" v="Hotel Lodenwirt"/>
    <tag k="wheelchair" v="yes"/>
    <tag k="addr:city" v="Vintl"/>
    <tag k="addr:postcode" v="I-39030"/>
    <tag k="addr:housenumber" v="1"/>
    <tag k="tourism" v="hotel"/>
    <tag k="addr:street" v="Pustertaler Straße"/>
    <tag k="wheelchair:description" v="stufenloser Zugang zum Hotel und Restaurant, rollstuhlgerechtes Zimmer vorhanden, Zugang zum Wellness möglich, jedoch Stufen zum Whirlpool"/>
    <tag k="website" v="http://www.lodenwirt.com"/>
    <tag k="phone" v="+39 0472 867000"/>
  </node>
  <node id="-4130" version="0" timestamp="Fri Feb 24 10:53:36 +0100 2012" uid="1" user="" lat="45.5244632" lon="10.2075677">
    <tag k="name" v="Piscina Lamarmora"/>
    <tag k="wheelchair" v="yes"/>
    <tag k="addr:city" v="Brescia"/>
    <tag k="addr:street" v="Via Rodi"/>
    <tag k="amenity" v="swimming_pool"/>
  </node>
  <node id="-4285" version="0" timestamp="Fri Feb 24 10:53:36 +0100 2012" uid="1" user="" lat="46.66983" lon="11.15322">
    <tag k="name" v="Youth Hostel Merano"/>
    <tag k="wheelchair" v="yes"/>
    <tag k="addr:city" v="Merano"/>
    <tag k="addr:housenumber" v="77"/>
    <tag k="tourism" v="hostel"/>
    <tag k="addr:street" v="Via Carducci"/>
    <tag k="website" v="http://merano.ostello.bz"/>
  </node>
  <node id="-4286" version="0" timestamp="Fri Feb 24 10:53:36 +0100 2012" uid="1" user="" lat="46.6560315" lon="11.1678659">
    <tag k="shop" v="supermarket"/>
    <tag k="name" v="Interspar"/>
    <tag k="wheelchair" v="limited"/>
    <tag k="addr:housenumber" v="276"/>
    <tag k="addr:street" v="Via Roma"/>
  </node>
  <node id="-4299" version="0" timestamp="Fri Feb 24 10:53:36 +0100 2012" uid="1" user="" lat="46.6730458" lon="11.1543652">
    <tag k="name" v="Bar Mignon"/>
    <tag k="wheelchair" v="limited"/>
    <tag k="amenity" v="cafe"/>
  </node>
  <node id="-5171" version="0" timestamp="Fri Feb 24 10:53:37 +0100 2012" uid="1" user="" lat="38.1592" lon="13.32384">
    <tag k="name" v="Cityplex Metropolitan"/>
    <tag k="wheelchair" v="yes"/>
    <tag k="addr:city" v="Palermo"/>
    <tag k="addr:housenumber" v="358"/>
    <tag k="addr:street" v="strasburgo"/>
    <tag k="amenity" v="cinema"/>
    <tag k="website" v="http://www.cityplexmetropolitan.it"/>
  </node>
  <node id="-5172" version="0" timestamp="Fri Feb 24 10:53:37 +0100 2012" uid="1" user="" lat="38.20298" lon="13.32741">
    <tag k="natural" v="beach"/>
    <tag k="name" v="Spiaggia Mondello"/>
    <tag k="wheelchair" v="no"/>
  </node>
  <node id="-5173" version="0" timestamp="Fri Feb 24 10:53:37 +0100 2012" uid="1" user="" lat="38.15236" lon="13.3281">
    <tag k="shop" v="clothes"/>
    <tag k="name" v="Oviesse"/>
    <tag k="wheelchair" v="yes"/>
    <tag k="addr:housenumber" v="196"/>
    <tag k="addr:street" v="strasburgo"/>
  </node>
  <node id="-5174" version="0" timestamp="Fri Feb 24 10:53:37 +0100 2012" uid="1" user="" lat="38.15606" lon="13.32924">
    <tag k="name" v="Liceo Ginnasio G. Meli"/>
    <tag k="wheelchair" v="yes"/>
    <tag k="addr:street" v="aldisio"/>
    <tag k="amenity" v="school"/>
  </node>
  <node id="-5175" version="0" timestamp="Fri Feb 24 10:53:37 +0100 2012" uid="1" user="" lat="38.11461" lon="13.29551">
    <tag k="name" v="Frati Minori Rinnovati"/>
    <tag k="wheelchair" v="yes"/>
    <tag k="addr:street" v="alla Falconara"/>
    <tag k="amenity" v="place_of_worship"/>
    <tag k="website" v="http://www.fratiminoririnnovati.it/"/>
  </node>
  <node id="-5176" version="0" timestamp="Fri Feb 24 10:53:37 +0100 2012" uid="1" user="" lat="38.14619" lon="13.33293">
    <tag k="name" v="Pay one (Cuba Libre)"/>
    <tag k="wheelchair" v="no"/>
    <tag k="addr:housenumber" v="55"/>
    <tag k="addr:street" v="Via Dei Nebrodi "/>
    <tag k="amenity" v="nightclub"/>
  </node>
  <node id="-5177" version="0" timestamp="Fri Feb 24 10:53:37 +0100 2012" uid="1" user="" lat="38.12308" lon="13.33114">
    <tag k="name" v="Pacinotti&apos;s"/>
    <tag k="wheelchair" v="limited"/>
    <tag k="addr:city" v="Palermo"/>
    <tag k="addr:street" v="pacinotti"/>
    <tag k="amenity" v="pub"/>
  </node>
  <node id="-5178" version="0" timestamp="Fri Feb 24 10:53:37 +0100 2012" uid="1" user="" lat="38.12315" lon="13.33111">
    <tag k="name" v="Qvivi"/>
    <tag k="wheelchair" v="limited"/>
    <tag k="addr:city" v="Palermo"/>
    <tag k="addr:housenumber" v="5"/>
    <tag k="addr:street" v="Piazza Della Rivoluzione"/>
    <tag k="amenity" v="pub"/>
  </node>
  <node id="-5272" version="0" timestamp="Fri Feb 24 10:53:37 +0100 2012" uid="1" user="" lat="41.3194909" lon="16.2917314">
    <tag k="name" v="La bacchetta magica"/>
    <tag k="wheelchair" v="yes"/>
    <tag k="addr:city" v="Barletta"/>
    <tag k="addr:postcode" v="76121"/>
    <tag k="addr:housenumber" v="22 - 30"/>
    <tag k="addr:street" v="R. M. Mauro"/>
    <tag k="amenity" v="kindergarten"/>
    <tag k="phone" v="0883884069"/>
  </node>
  <node id="-5273" version="0" timestamp="Fri Feb 24 10:53:37 +0100 2012" uid="1" user="" lat="41.31962" lon="16.29069">
    <tag k="shop" v="mall"/>
    <tag k="name" v="Mongolfiera"/>
    <tag k="wheelchair" v="yes"/>
  </node>
  <node id="-5274" version="0" timestamp="Fri Feb 24 10:53:37 +0100 2012" uid="1" user="" lat="41.3186531" lon="16.2938872">
    <tag k="shop" v="mall"/>
    <tag k="name" v="Mongolfiera"/>
    <tag k="wheelchair" v="yes"/>
  </node>
  <node id="-5277" version="0" timestamp="Fri Feb 24 10:53:37 +0100 2012" uid="1" user="" lat="41.8818089" lon="12.354884">
    <tag k="name" v="Associazione Parent Project Onlus"/>
    <tag k="wheelchair" v="yes"/>
    <tag k="addr:city" v="Roma"/>
    <tag k="addr:postcode" v="00166"/>
    <tag k="addr:housenumber" v="1299"/>
    <tag k="addr:street" v="Aurelia"/>
    <tag k="amenity" v="drinking_water"/>
    <tag k="website" v="http://www.parentproject.it"/>
    <tag k="phone" v="800943333  +39 06 66182811"/>
  </node>
  <node id="-5278" version="0" timestamp="Fri Feb 24 10:53:37 +0100 2012" uid="1" user="" lat="41.8817123" lon="12.3550075">
    <tag k="name" v="Associazione Parent Project Onlus - Genitori contro la distrofia muscolare di Duchenne e Becker"/>
    <tag k="wheelchair" v="yes"/>
    <tag k="addr:city" v="Roma"/>
    <tag k="addr:postcode" v="00166"/>
    <tag k="addr:housenumber" v="1299"/>
    <tag k="addr:street" v="Aurelia"/>
    <tag k="amenity" v="social_facility"/>
    <tag k="website" v="http://www.parentproject.it"/>
    <tag k="phone" v="800943333  +39 06 66182811"/>
  </node>
  <node id="-5307" version="0" timestamp="Fri Feb 24 10:53:37 +0100 2012" uid="1" user="" lat="45.79897" lon="8.80062">
    <tag k="name" v="COSP - Università degli Studi di Milano"/>
    <tag k="wheelchair" v="yes"/>
    <tag k="addr:city" v="Milano"/>
    <tag k="addr:postcode" v="20122"/>
    <tag k="addr:housenumber" v="9/1"/>
    <tag k="addr:street" v="Santa Sofia"/>
    <tag k="wheelchair:description" v="Totale"/>
    <tag k="amenity" v="university"/>
    <tag k="website" v="http://www.cosp.unimi.it/"/>
  </node>
  <node id="-5345" version="0" timestamp="Fri Feb 24 10:53:37 +0100 2012" uid="1" user="" lat="41.8519289" lon="12.3778209">
    <tag k="shop" v="car_repair"/>
    <tag k="name" v="FordStore Carpoint"/>
    <tag k="wheelchair" v="yes"/>
    <tag k="addr:city" v="roma"/>
    <tag k="addr:housenumber" v="1"/>
    <tag k="addr:street" v="via G.G.Gizzi"/>
    <tag k="website" v="http://www.carpoint.it"/>
    <tag k="phone" v="06/517622883"/>
  </node>
  <node id="-5346" version="0" timestamp="Fri Feb 24 10:53:37 +0100 2012" uid="1" user="" lat="41.7363165" lon="12.3683823">
    <tag k="shop" v="supermarket"/>
    <tag k="name" v="Carrefour"/>
    <tag k="wheelchair" v="yes"/>
  </node>
  <node id="-5347" version="0" timestamp="Fri Feb 24 10:53:37 +0100 2012" uid="1" user="" lat="41.7492764" lon="12.3674551">
    <tag k="shop" v="photo"/>
    <tag k="name" v="Tuttufficio"/>
    <tag k="wheelchair" v="limited"/>
    <tag k="addr:city" v="Roma"/>
    <tag k="addr:postcode" v="00124"/>
    <tag k="addr:housenumber" v="107"/>
    <tag k="addr:street" v="Pietro Romani "/>
  </node>
  <node id="-5348" version="0" timestamp="Fri Feb 24 10:53:37 +0100 2012" uid="1" user="" lat="41.752506" lon="12.3727302">
    <tag k="shop" v="books"/>
    <tag k="name" v="Edicola"/>
    <tag k="wheelchair" v="yes"/>
  </node>
  <node id="-5349" version="0" timestamp="Fri Feb 24 10:53:37 +0100 2012" uid="1" user="" lat="41.73834" lon="12.37125">
    <tag k="name" v="Chiesa di &quot;San Tommaso&quot;"/>
    <tag k="wheelchair" v="limited"/>
    <tag k="amenity" v="place_of_worship"/>
  </node>
  <node id="-5350" version="0" timestamp="Fri Feb 24 10:53:37 +0100 2012" uid="1" user="" lat="41.7519419" lon="12.3860658">
    <tag k="name" v="Centro Sportivo &quot;Babel&quot;"/>
    <tag k="wheelchair" v="yes"/>
    <tag k="leisure" v="sports_centre"/>
  </node>
  <node id="-5351" version="0" timestamp="Fri Feb 24 10:53:37 +0100 2012" uid="1" user="" lat="41.7575738" lon="12.3606507">
    <tag k="name" v="Carabinieri"/>
    <tag k="wheelchair" v="unknown"/>
    <tag k="amenity" v="police"/>
  </node>
  <node id="-5352" version="0" timestamp="Fri Feb 24 10:53:37 +0100 2012" uid="1" user="" lat="41.7471116" lon="12.3706878">
    <tag k="name" v="Ufficio Postale"/>
    <tag k="wheelchair" v="yes"/>
    <tag k="addr:city" v="Roma"/>
    <tag k="addr:postcode" v="00124"/>
    <tag k="addr:street" v="Pitro Romani"/>
    <tag k="amenity" v="post_office"/>
  </node>
  <node id="-5353" version="0" timestamp="Fri Feb 24 10:53:37 +0100 2012" uid="1" user="" lat="41.7453894" lon="12.3630459">
    <tag k="name" v="CHIESA ANNESSA SANTA MARIA DEI PELLEGRINI E  SANT’ARISTIDE"/>
    <tag k="wheelchair" v="limited"/>
    <tag k="addr:city" v="Roma"/>
    <tag k="addr:postcode" v="00124"/>
    <tag k="addr:housenumber" v="34"/>
    <tag k="addr:street" v="Via Bernardo Pasquini "/>
    <tag k="amenity" v="place_of_worship"/>
    <tag k="phone" v="+39 06 50911313"/>
  </node>
  <node id="-5354" version="0" timestamp="Fri Feb 24 10:53:37 +0100 2012" uid="1" user="" lat="41.7402535" lon="12.3827483">
    <tag k="name" v="Fontanella"/>
    <tag k="wheelchair" v="unknown"/>
    <tag k="amenity" v="drinking_water"/>
  </node>
  <node id="-5355" version="0" timestamp="Fri Feb 24 10:53:37 +0100 2012" uid="1" user="" lat="41.7489524" lon="12.3746346">
    <tag k="name" v="Scuola Elementare"/>
    <tag k="wheelchair" v="yes"/>
    <tag k="addr:city" v="Roma"/>
    <tag k="addr:postcode" v="00124"/>
    <tag k="addr:housenumber" v="269"/>
    <tag k="addr:street" v="Cilea"/>
    <tag k="amenity" v="school"/>
    <tag k="phone" v="+39 06 50913962"/>
  </node>
  <node id="-5357" version="0" timestamp="Fri Feb 24 10:53:37 +0100 2012" uid="1" user="" lat="41.7510661" lon="12.3740898">
    <tag k="name" v="Scuola Materna"/>
    <tag k="wheelchair" v="yes"/>
    <tag k="addr:city" v="Roma"/>
    <tag k="addr:postcode" v="00124"/>
    <tag k="addr:housenumber" v="11"/>
    <tag k="addr:street" v="E. De Falla "/>
    <tag k="amenity" v="kindergarten"/>
    <tag k="phone" v="+39 06 50932665"/>
  </node>
  <node id="-5358" version="0" timestamp="Fri Feb 24 10:53:37 +0100 2012" uid="1" user="" lat="41.7377857" lon="12.3597428">
    <tag k="name" v="Scuola calcio"/>
    <tag k="wheelchair" v="unknown"/>
    <tag k="leisure" v="sports_centre"/>
  </node>
  <node id="-5359" version="0" timestamp="Fri Feb 24 10:53:37 +0100 2012" uid="1" user="" lat="41.7567758" lon="12.3675627">
    <tag k="name" v="Unicredit"/>
    <tag k="wheelchair" v="unknown"/>
    <tag k="amenity" v="atm"/>
  </node>
  <node id="-5360" version="0" timestamp="Fri Feb 24 10:53:37 +0100 2012" uid="1" user="" lat="41.7544138" lon="12.3701672">
    <tag k="name" v="Fontanella"/>
    <tag k="wheelchair" v="unknown"/>
    <tag k="amenity" v="drinking_water"/>
  </node>
  <node id="-5362" version="0" timestamp="Fri Feb 24 10:53:37 +0100 2012" uid="1" user="" lat="41.7549941" lon="12.3692272">
    <tag k="name" v="Fontanella"/>
    <tag k="wheelchair" v="unknown"/>
    <tag k="amenity" v="drinking_water"/>
  </node>
  <node id="-5363" version="0" timestamp="Fri Feb 24 10:53:37 +0100 2012" uid="1" user="" lat="41.756538" lon="12.373017">
    <tag k="shop" v="supermarket"/>
    <tag k="name" v="Elite"/>
    <tag k="wheelchair" v="unknown"/>
  </node>
  <node id="-5365" version="0" timestamp="Fri Feb 24 10:53:37 +0100 2012" uid="1" user="" lat="41.751962" lon="12.3718323">
    <tag k="name" v="Bar"/>
    <tag k="wheelchair" v="unknown"/>
    <tag k="amenity" v="cafe"/>
  </node>
  <node id="-5366" version="0" timestamp="Fri Feb 24 10:53:37 +0100 2012" uid="1" user="" lat="41.7526821" lon="12.3729048">
    <tag k="name" v="Bar"/>
    <tag k="wheelchair" v="unknown"/>
    <tag k="amenity" v="cafe"/>
  </node>
  <node id="-5368" version="0" timestamp="Fri Feb 24 10:53:37 +0100 2012" uid="1" user="" lat="41.7514939" lon="12.3741229">
    <tag k="name" v="Bar"/>
    <tag k="wheelchair" v="unknown"/>
    <tag k="amenity" v="cafe"/>
  </node>
  <node id="-5369" version="0" timestamp="Fri Feb 24 10:53:37 +0100 2012" uid="1" user="" lat="41.7481819" lon="12.3752179">
    <tag k="name" v="Bar"/>
    <tag k="wheelchair" v="unknown"/>
    <tag k="amenity" v="cafe"/>
  </node>
  <node id="-5374" version="0" timestamp="Fri Feb 24 10:53:37 +0100 2012" uid="1" user="" lat="41.7478379" lon="12.3752193">
    <tag k="shop" v="supermarket"/>
    <tag k="name" v="Todis"/>
    <tag k="wheelchair" v="unknown"/>
  </node>
  <node id="-5376" version="0" timestamp="Fri Feb 24 10:53:37 +0100 2012" uid="1" user="" lat="41.7345842" lon="12.3599019">
    <tag k="shop" v="hardware"/>
    <tag k="name" v="Natale"/>
    <tag k="wheelchair" v="unknown"/>
  </node>
  <node id="-5377" version="0" timestamp="Fri Feb 24 10:53:37 +0100 2012" uid="1" user="" lat="41.7342361" lon="12.3603243">
    <tag k="name" v="BAR - PIZZERIA"/>
    <tag k="wheelchair" v="unknown"/>
    <tag k="amenity" v="cafe"/>
  </node>
  <node id="-5442" version="0" timestamp="Fri Feb 24 10:53:37 +0100 2012" uid="1" user="" lat="43.8519791" lon="13.020707">
    <tag k="name" v="Marina dei Cesari, Porto Turistico di Fano"/>
    <tag k="wheelchair" v="yes"/>
    <tag k="addr:city" v="Fano"/>
    <tag k="addr:postcode" v="61032"/>
    <tag k="addr:housenumber" v="26"/>
    <tag k="tourism" v="attraction"/>
    <tag k="addr:street" v="Lungomare Mediterraneo "/>
    <tag k="wheelchair:description" v="ottima accessibilità a tutte le strutture del porto"/>
    <tag k="website" v="http://www.marinadeicesari.it"/>
  </node>
  <node id="-5443" version="0" timestamp="Fri Feb 24 10:53:37 +0100 2012" uid="1" user="" lat="43.1646383" lon="13.8078287">
    <tag k="name" v="Marina di Porto San Giorgio"/>
    <tag k="wheelchair" v="no"/>
    <tag k="tourism" v="attraction"/>
    <tag k="wheelchair:description" v="non esistono toilette per disabili nel porto"/>
  </node>
  <node id="-5509" version="0" timestamp="Fri Feb 24 10:53:37 +0100 2012" uid="1" user="" lat="41.7274479" lon="12.3401931">
    <tag k="name" v="Bar"/>
    <tag k="wheelchair" v="unknown"/>
    <tag k="amenity" v="cafe"/>
  </node>
  <node id="-5510" version="0" timestamp="Fri Feb 24 10:53:37 +0100 2012" uid="1" user="" lat="38.9120568" lon="17.0871632">
    <tag k="name" v="Baia del Sorriso"/>
    <tag k="wheelchair" v="yes"/>
    <tag k="addr:city" v="Isola di Capo Rizzuto"/>
    <tag k="addr:postcode" v="88841"/>
    <tag k="addr:street" v="Capo Piccolo"/>
    <tag k="wheelchair:description" v="La struttura si trova direttamente sul mare, nel cuore della Riserva Marina Capo Rizzuto. Costruita per essere il più agibile possibile, offre passerelle a vari dislivelli in modo che le carrozzine possano raggiungere la spiaggia da sole."/>
    <tag k="leisure" v="beach_resort"/>
    <tag k="phone" v="0962-799629"/>
  </node>
  <node id="-5520" version="0" timestamp="Fri Feb 24 10:53:37 +0100 2012" uid="1" user="" lat="41.8974" lon="12.47838">
    <tag k="name" v="Ristorante &quot;Er faciolaro&quot;"/>
    <tag k="wheelchair" v="limited"/>
    <tag k="addr:city" v="Roma"/>
    <tag k="addr:postcode" v="00186"/>
    <tag k="addr:housenumber" v="122"/>
    <tag k="addr:street" v="Via dei Pastini"/>
    <tag k="amenity" v="restaurant"/>
    <tag k="phone" v="06 6783896"/>
  </node>
  <node id="-5536" version="0" timestamp="Fri Feb 24 10:53:37 +0100 2012" uid="1" user="" lat="41.8518885" lon="12.3779872">
    <tag k="shop" v="car_repair"/>
    <tag k="name" v="Ford Store Carpoint"/>
    <tag k="wheelchair" v="yes"/>
    <tag k="addr:street" v="via della Pisana"/>
  </node>
  <node id="-5561" version="0" timestamp="Fri Feb 24 10:53:37 +0100 2012" uid="1" user="" lat="40.9970339" lon="9.6017183">
    <tag k="name" v="Hotel-Residence Baia Caddinas"/>
    <tag k="wheelchair" v="unknown"/>
    <tag k="leisure" v="beach_resort"/>
    <tag k="website" v="http://marina.hotelbaiacaddinas.it/"/>
    <tag k="phone" v="0461 984010"/>
  </node>
  <node id="-5562" version="0" timestamp="Fri Feb 24 10:53:37 +0100 2012" uid="1" user="" lat="40.9964956" lon="9.603104">
    <tag k="name" v="Marina di Baia Caddinas"/>
    <tag k="wheelchair" v="unknown"/>
    <tag k="tourism" v="attraction"/>
    <tag k="website" v="http://marina.hotelbaiacaddinas.it/"/>
    <tag k="phone" v="0461 984010"/>
  </node>
  <node id="-5617" version="0" timestamp="Fri Feb 24 10:53:37 +0100 2012" uid="1" user="" lat="41.9313814" lon="15.8887409">
    <tag k="name" v="Marina di Rodi Garganico"/>
    <tag k="wheelchair" v="yes"/>
    <tag k="addr:city" v="Rodi Garganico (FG)"/>
    <tag k="addr:postcode" v="71012"/>
    <tag k="tourism" v="attraction"/>
    <tag k="addr:street" v="Scalo Marittimo snc"/>
    <tag k="website" v="http://www.marinadirodigarganico.it/"/>
    <tag k="phone" v="0884.965294"/>
  </node>
  <node id="-5690" version="0" timestamp="Fri Feb 24 10:53:37 +0100 2012" uid="1" user="" lat="45.05" lon="7.6667">
    <tag k="name" v="Servizio Passepartout - Comune di Torino"/>
    <tag k="wheelchair" v="yes"/>
    <tag k="addr:postcode" v="101"/>
    <tag k="addr:housenumber" v="10"/>
    <tag k="addr:street" v="san marino"/>
    <tag k="amenity" v="townhall"/>
  </node>
  <node id="-5700" version="0" timestamp="Fri Feb 24 10:53:37 +0100 2012" uid="1" user="" lat="45.0630006" lon="9.4379257">
    <tag k="shop" v="medical_supply"/>
    <tag k="name" v="Pubblica Assistenza &quot;Val Tidone - Val Luretta"/>
    <tag k="wheelchair" v="yes"/>
    <tag k="addr:city" v="Castel San Giovanni"/>
    <tag k="addr:postcode" v="29015"/>
    <tag k="addr:housenumber" v="16/E"/>
    <tag k="addr:street" v="Morselli"/>
    <tag k="website" v="http://www.pavaltidone.it/Contatti.html"/>
    <tag k="phone" v="O523 842229"/>
  </node>
  <node id="-5705" version="0" timestamp="Fri Feb 24 10:53:37 +0100 2012" uid="1" user="" lat="44.8875492" lon="8.6154882">
    <tag k="shop" v="car_repair"/>
    <tag k="name" v="HANDISIMPLEX"/>
    <tag k="wheelchair" v="yes"/>
    <tag k="addr:city" v="Alessandria"/>
    <tag k="addr:postcode" v="15121"/>
    <tag k="addr:housenumber" v="23"/>
    <tag k="addr:street" v="Via del Lavoro"/>
    <tag k="website" v="http://www.handisimplex.it"/>
    <tag k="phone" v="0131223017"/>
  </node>
  <node id="-5709" version="0" timestamp="Fri Feb 24 10:53:37 +0100 2012" uid="1" user="" lat="45.0616263" lon="9.4346905">
    <tag k="name" v="Distributore di acqua potabile pubblico"/>
    <tag k="wheelchair" v="yes"/>
    <tag k="addr:city" v="Castel San Giovanni"/>
    <tag k="addr:postcode" v="29015"/>
    <tag k="addr:street" v="Primo Maggio"/>
    <tag k="amenity" v="drinking_water"/>
  </node>
  <node id="-5710" version="0" timestamp="Fri Feb 24 10:53:37 +0100 2012" uid="1" user="" lat="42.75979" lon="11.11192">
    <tag k="name" v="13 Gobbi"/>
    <tag k="wheelchair" v="no"/>
    <tag k="addr:city" v="Grossseto"/>
    <tag k="addr:postcode" v="58100"/>
    <tag k="addr:housenumber" v="106"/>
    <tag k="addr:street" v="Mazzini Giuseppe "/>
    <tag k="wheelchair:description" v="Il locale si presenta su piani diversi, con molte scale anche in entrata. Non c&apos;è bagno accessibile."/>
    <tag k="amenity" v="pub"/>
  </node>
  <node id="-5711" version="0" timestamp="Fri Feb 24 10:53:37 +0100 2012" uid="1" user="" lat="42.75979" lon="11.11192">
    <tag k="shop" v="department_store"/>
    <tag k="name" v="Profumeria Severi"/>
    <tag k="wheelchair" v="limited"/>
    <tag k="addr:city" v="Grossseto"/>
    <tag k="addr:postcode" v="58100"/>
    <tag k="addr:housenumber" v="25"/>
    <tag k="addr:street" v="Dante"/>
    <tag k="wheelchair:description" v="Si può entrare con un piccolo scalino, il locale presenta una parte del locale raggiungibile solo con scale. Non vi è il bagno a norma."/>
  </node>
  <node id="-5712" version="0" timestamp="Fri Feb 24 10:53:37 +0100 2012" uid="1" user="" lat="42.75947" lon="11.11244">
    <tag k="name" v="BIRRERIA KULMBACHER PLATZ"/>
    <tag k="wheelchair" v="limited"/>
    <tag k="addr:city" v="Grossseto"/>
    <tag k="addr:postcode" v="58100"/>
    <tag k="addr:housenumber" v="50"/>
    <tag k="addr:street" v="Strada Provinciale La Trappola."/>
    <tag k="wheelchair:description" v="il locale è difficilmente raggiungibile perchè sul suolo del parcheggio di fronte alla sua entrata vi è la ghiaia. All&apos;entrata del locale vi è un piccolo scalino, ma il suo interno è accessibile. "/>
    <tag k="amenity" v="restaurant"/>
  </node>
  <node id="-5716" version="0" timestamp="Fri Feb 24 10:53:37 +0100 2012" uid="1" user="" lat="39.3257503" lon="16.2443994">
    <tag k="name" v="Bar San Paolo"/>
    <tag k="wheelchair" v="limited"/>
    <tag k="addr:city" v="Rende"/>
    <tag k="addr:postcode" v="87036"/>
    <tag k="addr:housenumber" v="10"/>
    <tag k="addr:street" v="viale Kennedy"/>
    <tag k="amenity" v="cafe"/>
  </node>
</osm>
