<?xml version='1.0' encoding='UTF-8'?>
<osm version="0.6" generator="Osmosis 0.39">
  <node id="-1023" version="0" timestamp="Fri Feb 24 10:53:33 +0100 2012" uid="1" user="" lat="52.3039" lon="6.75812">
    <tag k="name" v="&apos;t Dijkhuis"/>
    <tag k="wheelchair" v="yes"/>
    <tag k="addr:city" v="Borne"/>
    <tag k="addr:postcode" v="7622 CM"/>
    <tag k="website" v="http://www.gezondheidscentrumdijkhuis.nl/home"/>
  </node>
  <node id="-1026" version="0" timestamp="Fri Feb 24 10:53:33 +0100 2012" uid="1" user="" lat="52.3701515" lon="5.7838031">
    <tag k="name" v="Transferium Nunspeet"/>
    <tag k="wheelchair" v="yes"/>
    <tag k="wheelchair:description" v="WC"/>
    <tag k="amenity" v="toilets"/>
  </node>
  <node id="-1027" version="0" timestamp="Fri Feb 24 10:53:33 +0100 2012" uid="1" user="" lat="52.3690921" lon="5.7840414">
    <tag k="name" v="Bezoekerszentrum Veluwe-Nord"/>
    <tag k="wheelchair" v="yes"/>
    <tag k="tourism" v="attraction"/>
    <tag k="wheelchair:description" v="incl. WC"/>
  </node>
  <node id="-1276" version="0" timestamp="Fri Feb 24 10:53:33 +0100 2012" uid="1" user="" lat="52.0873213" lon="5.1214508">
    <tag k="name" v="Tivoli"/>
    <tag k="wheelchair" v="yes"/>
    <tag k="addr:city" v="Utrecht"/>
    <tag k="addr:postcode" v="3511 NL"/>
    <tag k="addr:housenumber" v="245"/>
    <tag k="addr:street" v="Oudegracht"/>
    <tag k="wheelchair:description" v="Inkl. Behindertentoiletten"/>
    <tag k="amenity" v="nightclub"/>
    <tag k="website" v="http://www.tivoli.nl"/>
    <tag k="phone" v="+31 30 231 3499"/>
  </node>
  <node id="-1277" version="0" timestamp="Fri Feb 24 10:53:33 +0100 2012" uid="1" user="" lat="52.076909" lon="5.1217732">
    <tag k="name" v="Tivoli de Helling"/>
    <tag k="wheelchair" v="yes"/>
    <tag k="addr:city" v="Utrecht"/>
    <tag k="addr:postcode" v="3523 CB"/>
    <tag k="addr:housenumber" v="7"/>
    <tag k="addr:street" v="Helling"/>
    <tag k="amenity" v="nightclub"/>
    <tag k="website" v="http://www.tivoli.nl/info/tivoli-de-helling"/>
  </node>
  <node id="-1285" version="0" timestamp="Fri Feb 24 10:53:33 +0100 2012" uid="1" user="" lat="52.0886789" lon="5.1217092">
    <tag k="name" v="Brasserie Bresson"/>
    <tag k="wheelchair" v="yes"/>
    <tag k="addr:city" v="Utrecht"/>
    <tag k="addr:postcode" v="3511 NS"/>
    <tag k="addr:housenumber" v="214"/>
    <tag k="addr:street" v="Oudegracht"/>
    <tag k="amenity" v="restaurant"/>
    <tag k="website" v="http://www.brasseriebresson.nl/"/>
    <tag k="phone" v="+31 30 232 2623 ‎ "/>
  </node>
  <node id="-1287" version="0" timestamp="Fri Feb 24 10:53:33 +0100 2012" uid="1" user="" lat="52.06107" lon="5.10972">
    <tag k="name" v="Santander Consumer Finance Benelux B.V."/>
    <tag k="wheelchair" v="yes"/>
    <tag k="addr:city" v="Utrecht"/>
    <tag k="addr:postcode" v="3526 KV"/>
    <tag k="addr:housenumber" v="171"/>
    <tag k="addr:street" v="Winthontlaan"/>
    <tag k="amenity" v="bank"/>
    <tag k="website" v="http://www.santander.nl"/>
    <tag k="phone" v="+31 (0)30 63 80"/>
  </node>
  <node id="-1896" version="0" timestamp="Fri Feb 24 10:53:33 +0100 2012" uid="1" user="" lat="53.1564028" lon="4.8715222">
    <tag k="name" v="&apos;t Bikkelement‎"/>
    <tag k="wheelchair" v="yes"/>
    <tag k="addr:city" v="De Cocksdorp"/>
    <tag k="addr:postcode" v="1795"/>
    <tag k="addr:housenumber" v="19"/>
    <tag k="addr:street" v="Kikkertstraat"/>
    <tag k="amenity" v="restaurant"/>
    <tag k="website" v="http://www.bikkelement.nl/"/>
    <tag k="phone" v="+31 222 316547"/>
  </node>
  <node id="-1899" version="0" timestamp="Fri Feb 24 10:53:33 +0100 2012" uid="1" user="" lat="53.0586817" lon="4.7626041">
    <tag k="name" v="Boerderij-Restaurant Catharinahoeve"/>
    <tag k="wheelchair" v="yes"/>
    <tag k="addr:city" v="Den Burg"/>
    <tag k="addr:postcode" v="1791 PC"/>
    <tag k="addr:housenumber" v="17"/>
    <tag k="addr:street" v="Rozendijk"/>
    <tag k="amenity" v="restaurant"/>
    <tag k="website" v="http://www.catharinahoeve-texel.nl/"/>
    <tag k="phone" v="+31 222 312156"/>
  </node>
  <node id="-1900" version="0" timestamp="Fri Feb 24 10:53:33 +0100 2012" uid="1" user="" lat="53.054332" lon="4.7971209">
    <tag k="name" v="Toilet Den Burg"/>
    <tag k="wheelchair" v="yes"/>
    <tag k="amenity" v="toilets"/>
  </node>
  <node id="-1902" version="0" timestamp="Fri Feb 24 10:53:33 +0100 2012" uid="1" user="" lat="53.0405074" lon="4.8500607">
    <tag k="name" v="Toilet Haven Oudeschild"/>
    <tag k="wheelchair" v="yes"/>
    <tag k="amenity" v="toilets"/>
  </node>
  <node id="-1906" version="0" timestamp="Fri Feb 24 10:53:33 +0100 2012" uid="1" user="" lat="53.0212082" lon="4.7111685">
    <tag k="name" v="Strandpaviljoen Paal 9"/>
    <tag k="wheelchair" v="yes"/>
    <tag k="addr:city" v="DEN HOORN"/>
    <tag k="addr:postcode" v="1797 RT"/>
    <tag k="addr:housenumber" v="8"/>
    <tag k="addr:street" v="Hoornderslag"/>
    <tag k="amenity" v="cafe"/>
    <tag k="website" v="http://www.paal9.nl/"/>
    <tag k="phone" v="+32 222 319309"/>
  </node>
  <node id="-2160" version="0" timestamp="Fri Feb 24 10:53:34 +0100 2012" uid="1" user="" lat="51.8094022" lon="3.9333572">
    <tag k="name" v="Parkplatz"/>
    <tag k="wheelchair" v="limited"/>
    <tag k="wheelchair:description" v="Dienstags und Donnerstags ist der Rollstuhlparkplatz wegen des Markst gesperrt."/>
    <tag k="amenity" v="parking"/>
  </node>
  <node id="-2161" version="0" timestamp="Fri Feb 24 10:53:34 +0100 2012" uid="1" user="" lat="51.8118085" lon="3.9328773">
    <tag k="name" v="Westernrestaurant"/>
    <tag k="wheelchair" v="limited"/>
    <tag k="wheelchair:description" v="Enge Tür, welche aber geöffnet werden kann. Parkplatz Schotter, ein wenig uneben."/>
    <tag k="amenity" v="restaurant"/>
  </node>
  <node id="-2586" version="0" timestamp="Fri Feb 24 10:53:34 +0100 2012" uid="1" user="" lat="52.2171854" lon="5.9583996">
    <tag k="name" v="De babbel"/>
    <tag k="wheelchair" v="no"/>
    <tag k="wheelchair:description" v=" step to enter. Also in the bar many steps."/>
    <tag k="amenity" v="cafe"/>
  </node>
  <node id="-2643" version="0" timestamp="Fri Feb 24 10:53:34 +0100 2012" uid="1" user="" lat="52.4500817" lon="6.2219366">
    <tag k="name" v="Bungalowpark Landgoed Old Heino"/>
    <tag k="wheelchair" v="yes"/>
    <tag k="addr:city" v="Heino"/>
    <tag k="addr:postcode" v="NL-8141 EA "/>
    <tag k="addr:housenumber" v="71a"/>
    <tag k="addr:street" v="Zwolseweg"/>
    <tag k="website" v="http://www.peoos.eu"/>
    <tag k="phone" v="+ 31  38 3323904"/>
  </node>
  <node id="-3797" version="0" timestamp="Fri Feb 24 10:53:35 +0100 2012" uid="1" user="" lat="51.58388" lon="4.9237889">
    <tag k="shop" v="bicycle"/>
    <tag k="name" v="TNS revalidatie service"/>
    <tag k="wheelchair" v="yes"/>
  </node>
  <node id="-3808" version="0" timestamp="Fri Feb 24 10:53:35 +0100 2012" uid="1" user="" lat="51.4326237" lon="5.4850298">
    <tag k="name" v="Coffeeshop NEW WAVE"/>
    <tag k="wheelchair" v="limited"/>
    <tag k="wheelchair:description" v="barrierefrei, aber zu kleines WC"/>
    <tag k="amenity" v="bank"/>
  </node>
  <node id="-3809" version="0" timestamp="Fri Feb 24 10:53:35 +0100 2012" uid="1" user="" lat="51.4340782" lon="5.4881056">
    <tag k="name" v="Coffeeshop Euro-Garden"/>
    <tag k="wheelchair" v="limited"/>
    <tag k="amenity" v="cafe"/>
  </node>
  <node id="-3810" version="0" timestamp="Fri Feb 24 10:53:35 +0100 2012" uid="1" user="" lat="51.4325998" lon="5.4850507">
    <tag k="name" v="Coffeeshop NEW WAVE"/>
    <tag k="wheelchair" v="limited"/>
    <tag k="amenity" v="cafe"/>
  </node>
  <node id="-3811" version="0" timestamp="Fri Feb 24 10:53:35 +0100 2012" uid="1" user="" lat="51.3603564" lon="6.0838178">
    <tag k="name" v="TRIAL Crossway"/>
    <tag k="wheelchair" v="limited"/>
    <tag k="tourism" v="attraction"/>
  </node>
  <node id="-4327" version="0" timestamp="Fri Feb 24 10:53:36 +0100 2012" uid="1" user="" lat="51.5910998" lon="4.7627589">
    <tag k="name" v="NHTV IGAD"/>
    <tag k="wheelchair" v="limited"/>
    <tag k="addr:city" v="Breda"/>
    <tag k="addr:postcode" v="4814DC"/>
    <tag k="addr:housenumber" v="41"/>
    <tag k="addr:street" v="Reduitlaan"/>
    <tag k="amenity" v="college"/>
    <tag k="website" v="http://made.nhtv.nl"/>
  </node>
  <node id="-4794" version="0" timestamp="Fri Feb 24 10:53:36 +0100 2012" uid="1" user="" lat="51.4699534" lon="6.0570256">
    <tag k="name" v="Parkplatz"/>
    <tag k="wheelchair" v="unknown"/>
    <tag k="amenity" v="parking"/>
  </node>
  <node id="-5676" version="0" timestamp="Fri Feb 24 10:53:37 +0100 2012" uid="1" user="" lat="52.270226" lon="4.7468775">
    <tag k="name" v="Hotel Aalsmeer"/>
    <tag k="wheelchair" v="yes"/>
    <tag k="addr:city" v="Aalsmeer "/>
    <tag k="addr:postcode" v="1431 CA "/>
    <tag k="addr:housenumber" v="15"/>
    <tag k="tourism" v="hotel"/>
    <tag k="addr:street" v="Dorpsstraat "/>
    <tag k="website" v="http://www.hotelaalsmeer.nl/hotel/index.php"/>
    <tag k="phone" v="(31) 0297-385500 "/>
  </node>
</osm>
