<?xml version='1.0' encoding='UTF-8'?>
<osm version="0.6" generator="Osmosis 0.39">
  <node id="-427" version="0" timestamp="Fri Feb 24 10:53:32 +0100 2012" uid="1" user="" lat="58.85405" lon="5.73769">
    <tag k="name" v="PLANK arkitekter AS"/>
    <tag k="wheelchair" v="yes"/>
    <tag k="addr:city" v="Sandnes"/>
    <tag k="addr:postcode" v="4306"/>
    <tag k="addr:housenumber" v="59"/>
    <tag k="addr:street" v="Langgata"/>
    <tag k="wheelchair:description" v="WC i kjelleren (heis)"/>
    <tag k="amenity" v="atm"/>
    <tag k="website" v="http://www.plank-arkitekter.no"/>
  </node>
  <node id="-2480" version="0" timestamp="Fri Feb 24 10:53:34 +0100 2012" uid="1" user="" lat="59.1386412" lon="10.2415489">
    <tag k="shop" v="supermarket"/>
    <tag k="name" v="REMY Supermarkt"/>
    <tag k="wheelchair" v="yes"/>
    <tag k="wheelchair:description" v="normaler Norwegischer Supermarkt, "/>
  </node>
  <node id="-2481" version="0" timestamp="Fri Feb 24 10:53:34 +0100 2012" uid="1" user="" lat="59.1329014" lon="10.226396">
    <tag k="name" v="ICA Supermark"/>
    <tag k="wheelchair" v="yes"/>
    <tag k="wheelchair:description" v="Zum Eingang führt eine Rampe, normaler Parkplatz"/>
    <tag k="amenity" v="bank"/>
  </node>
  <node id="-2482" version="0" timestamp="Fri Feb 24 10:53:34 +0100 2012" uid="1" user="" lat="59.1327935" lon="10.2263663">
    <tag k="shop" v="supermarket"/>
    <tag k="name" v="ICA Supermark"/>
    <tag k="wheelchair" v="yes"/>
    <tag k="wheelchair:description" v="Zum Eingang führt eine Rampe, normaler Parkplatz"/>
  </node>
  <node id="-2483" version="0" timestamp="Fri Feb 24 10:53:34 +0100 2012" uid="1" user="" lat="59.1300058" lon="10.2269315">
    <tag k="shop" v="mall"/>
    <tag k="name" v="Einkaufszentrum"/>
    <tag k="wheelchair" v="yes"/>
  </node>
  <node id="-5200" version="0" timestamp="Fri Feb 24 10:53:37 +0100 2012" uid="1" user="" lat="60.3911" lon="5.3247">
    <tag k="name" v="Kystmuseet i Øygarden"/>
    <tag k="wheelchair" v="yes"/>
    <tag k="addr:city" v="Rong"/>
    <tag k="addr:postcode" v="5337"/>
    <tag k="tourism" v="attraction"/>
    <tag k="addr:street" v="Museumsvegen"/>
  </node>
  <node id="-5201" version="0" timestamp="Fri Feb 24 10:53:37 +0100 2012" uid="1" user="" lat="60.3899364" lon="5.3253491">
    <tag k="name" v="Stenersen"/>
    <tag k="wheelchair" v="yes"/>
    <tag k="addr:city" v="Bergen"/>
    <tag k="addr:postcode" v="5015"/>
    <tag k="addr:housenumber" v="3"/>
    <tag k="addr:street" v="Rasmus Meyers alle "/>
    <tag k="amenity" v="artwork"/>
  </node>
  <node id="-5202" version="0" timestamp="Fri Feb 24 10:53:37 +0100 2012" uid="1" user="" lat="60.3895065" lon="5.3274806">
    <tag k="name" v="Rasmus Meyers samlinger"/>
    <tag k="wheelchair" v="yes"/>
    <tag k="addr:city" v="Bergen"/>
    <tag k="addr:postcode" v="5015"/>
    <tag k="addr:housenumber" v="7"/>
    <tag k="addr:street" v="Rasmus Meyers alle"/>
    <tag k="amenity" v="artwork"/>
  </node>
  <node id="-5203" version="0" timestamp="Fri Feb 24 10:53:37 +0100 2012" uid="1" user="" lat="60.3892661" lon="5.328864">
    <tag k="name" v="Bergen Kunstmusem Lysverket"/>
    <tag k="wheelchair" v="yes"/>
    <tag k="addr:city" v="Bergen"/>
    <tag k="addr:postcode" v="5015"/>
    <tag k="addr:housenumber" v="9"/>
    <tag k="addr:street" v="Rasmus Meyers alle"/>
    <tag k="amenity" v="artwork"/>
  </node>
  <node id="-5204" version="0" timestamp="Fri Feb 24 10:53:37 +0100 2012" uid="1" user="" lat="60.5656532" lon="4.8645428">
    <tag k="name" v="Kystmuseet i Øygarden"/>
    <tag k="wheelchair" v="yes"/>
    <tag k="addr:city" v="Rong"/>
    <tag k="addr:postcode" v="5337"/>
    <tag k="tourism" v="attraction"/>
    <tag k="addr:street" v="Museumsvegen"/>
  </node>
  <node id="-5207" version="0" timestamp="Fri Feb 24 10:53:37 +0100 2012" uid="1" user="" lat="60.3983399" lon="5.3223474">
    <tag k="name" v="Bryggen Museum"/>
    <tag k="wheelchair" v="yes"/>
    <tag k="addr:city" v="Bergen"/>
    <tag k="addr:postcode" v="5835"/>
    <tag k="addr:housenumber" v="3"/>
    <tag k="tourism" v="museum"/>
    <tag k="addr:street" v="Dreggsallmenning"/>
  </node>
  <node id="-5209" version="0" timestamp="Fri Feb 24 10:53:37 +0100 2012" uid="1" user="" lat="60.4001418" lon="5.3200648">
    <tag k="name" v="Bergenhus Festningsmuseum"/>
    <tag k="wheelchair" v="yes"/>
    <tag k="addr:city" v="Bergen"/>
    <tag k="addr:postcode" v="5003"/>
    <tag k="tourism" v="attraction"/>
    <tag k="addr:street" v="Bergenhus"/>
    <tag k="website" v="http://forsvaretsmuseer.no/nor/Bergenhus"/>
  </node>
  <node id="-5211" version="0" timestamp="Fri Feb 24 10:53:37 +0100 2012" uid="1" user="" lat="60.3906729" lon="5.3242829">
    <tag k="name" v="Vestlandske Kunstindustrimuseum"/>
    <tag k="wheelchair" v="yes"/>
    <tag k="addr:city" v="Bergen"/>
    <tag k="addr:postcode" v="5014"/>
    <tag k="addr:housenumber" v="9"/>
    <tag k="tourism" v="attraction"/>
    <tag k="addr:street" v="Nordahl Bruns gate"/>
  </node>
  <node id="-5212" version="0" timestamp="Fri Feb 24 10:53:37 +0100 2012" uid="1" user="" lat="60.3908281" lon="5.3239214">
    <tag k="name" v="Zupperia"/>
    <tag k="wheelchair" v="yes"/>
    <tag k="addr:city" v="Bergen"/>
    <tag k="addr:postcode" v="5014"/>
    <tag k="addr:housenumber" v="9"/>
    <tag k="addr:street" v="Nordahl Bruns gate"/>
    <tag k="amenity" v="restaurant"/>
    <tag k="website" v="http://www.zupperia.no/"/>
  </node>
  <node id="-5213" version="0" timestamp="Fri Feb 24 10:53:37 +0100 2012" uid="1" user="" lat="60.3900607" lon="5.3253415">
    <tag k="name" v="Smakverket"/>
    <tag k="wheelchair" v="yes"/>
    <tag k="addr:city" v="Bergen"/>
    <tag k="addr:postcode" v="5015"/>
    <tag k="addr:housenumber" v="3"/>
    <tag k="addr:street" v="Rasmus Meyers alle"/>
    <tag k="amenity" v="cafe"/>
    <tag k="website" v="http://www.smakverket.no/"/>
  </node>
  <node id="-5215" version="0" timestamp="Fri Feb 24 10:53:37 +0100 2012" uid="1" user="" lat="60.3868375" lon="5.3188799">
    <tag k="name" v="Bergen Sjøfartsmuseum"/>
    <tag k="wheelchair" v="yes"/>
    <tag k="addr:city" v="Bergen"/>
    <tag k="addr:postcode" v="5007"/>
    <tag k="addr:housenumber" v="15"/>
    <tag k="tourism" v="attraction"/>
    <tag k="addr:street" v="Haakon Shetelings plass"/>
    <tag k="website" v="http://www.bsj.uib.no/"/>
  </node>
  <node id="-5216" version="0" timestamp="Fri Feb 24 10:53:37 +0100 2012" uid="1" user="" lat="60.3899541" lon="5.3317414">
    <tag k="name" v="Bergen offentlige Bibliotek"/>
    <tag k="wheelchair" v="yes"/>
    <tag k="addr:city" v="Bergen"/>
    <tag k="addr:postcode" v="5015"/>
    <tag k="addr:housenumber" v="6"/>
    <tag k="addr:street" v="Strømgaten"/>
    <tag k="amenity" v="library"/>
    <tag k="website" v="http://bergenbibliotek.no/"/>
  </node>
  <node id="-5217" version="0" timestamp="Fri Feb 24 10:53:37 +0100 2012" uid="1" user="" lat="60.3670485" lon="5.357503">
    <tag k="name" v="Brann Stadion"/>
    <tag k="wheelchair" v="yes"/>
    <tag k="addr:city" v="Bergen"/>
    <tag k="addr:postcode" v="5063"/>
    <tag k="addr:street" v="Kniksens plass 1"/>
    <tag k="leisure" v="stadium"/>
    <tag k="website" v="http://www.brann.no/"/>
  </node>
  <node id="-5219" version="0" timestamp="Fri Feb 24 10:53:37 +0100 2012" uid="1" user="" lat="60.3066697" lon="5.3229751">
    <tag k="shop" v="mall"/>
    <tag k="name" v="Kilden Senter"/>
    <tag k="wheelchair" v="yes"/>
    <tag k="addr:city" v="Rådal"/>
    <tag k="addr:postcode" v="5235"/>
    <tag k="addr:street" v="Smøråshøgda 9"/>
    <tag k="website" v="http://kilden-senter.no/"/>
  </node>
  <node id="-5241" version="0" timestamp="Fri Feb 24 10:53:37 +0100 2012" uid="1" user="" lat="59.3781177" lon="5.3066149">
    <tag k="shop" v="mall"/>
    <tag k="name" v="Oasen storsenter"/>
    <tag k="wheelchair" v="yes"/>
    <tag k="addr:city" v="Karmøy"/>
    <tag k="addr:postcode" v="5542"/>
    <tag k="addr:housenumber" v="Karmsund"/>
    <tag k="addr:street" v="Austbøveien 16 "/>
    <tag k="wheelchair:description" v="Utlån av rullestoler og elektriske handlevogner"/>
    <tag k="website" v="http://www.thonshopping.no/oasen"/>
    <tag k="phone" v="(+)47 52 83 10 89."/>
  </node>
  <node id="-5247" version="0" timestamp="Fri Feb 24 10:53:37 +0100 2012" uid="1" user="" lat="59.3797158" lon="5.3088579">
    <tag k="name" v="Norheim Kirke"/>
    <tag k="wheelchair" v="yes"/>
    <tag k="addr:city" v="Karmøy"/>
    <tag k="addr:postcode" v="5542"/>
    <tag k="addr:housenumber" v="Karmsund"/>
    <tag k="addr:street" v="Norheimsveien"/>
    <tag k="wheelchair:description" v="Norsk Kirke 2 HC parkering"/>
    <tag k="amenity" v="community_center"/>
    <tag k="website" v="http://www.norheimkirke.no/"/>
    <tag k="phone" v="(+) 47  52 81 20 40"/>
  </node>
  <node id="-5249" version="0" timestamp="Fri Feb 24 10:53:37 +0100 2012" uid="1" user="" lat="59.37895" lon="5.30581">
    <tag k="name" v="McDonald&apos;s Norheim"/>
    <tag k="wheelchair" v="yes"/>
    <tag k="addr:city" v="Karmøy"/>
    <tag k="addr:postcode" v="5542"/>
    <tag k="addr:housenumber" v="Karmsund"/>
    <tag k="addr:street" v="Vormedalveien 20"/>
    <tag k="amenity" v="fast_food"/>
    <tag k="website" v="http://www.mcdonalds.no/no.html"/>
    <tag k="phone" v="(+) 47 40 00 33 88"/>
  </node>
  <node id="-5251" version="0" timestamp="Fri Feb 24 10:53:37 +0100 2012" uid="1" user="" lat="60.2972357" lon="5.3304408">
    <tag k="shop" v="mall"/>
    <tag k="name" v="Lagunen Storsenter"/>
    <tag k="wheelchair" v="yes"/>
    <tag k="addr:city" v="Rådal"/>
    <tag k="addr:postcode" v="5239"/>
    <tag k="addr:street" v="Laguneveien 1"/>
    <tag k="website" v="http://www.thonshopping.no/lagunen"/>
  </node>
  <node id="-5252" version="0" timestamp="Fri Feb 24 10:53:37 +0100 2012" uid="1" user="" lat="60.2975333" lon="5.3235883">
    <tag k="name" v="Nordahl Grieg Videregående skole"/>
    <tag k="wheelchair" v="yes"/>
    <tag k="addr:city" v="Rådal"/>
    <tag k="addr:postcode" v="5239"/>
    <tag k="addr:street" v="Steinsvikvegen 430"/>
    <tag k="amenity" v="school"/>
    <tag k="website" v="http://ngv.hfk.no/templates/ExtensionSchoolFrontPage.aspx?id=29399"/>
  </node>
  <node id="-5253" version="0" timestamp="Fri Feb 24 10:53:37 +0100 2012" uid="1" user="" lat="60.2708294" lon="5.3258368">
    <tag k="name" v="Hordamuseet"/>
    <tag k="wheelchair" v="yes"/>
    <tag k="addr:city" v="Fana"/>
    <tag k="addr:postcode" v="5244"/>
    <tag k="tourism" v="attraction"/>
    <tag k="addr:street" v="Hordnesvegen 24"/>
    <tag k="website" v="http://www.bymuseet.no/?vis=249"/>
  </node>
  <node id="-5254" version="0" timestamp="Fri Feb 24 10:53:37 +0100 2012" uid="1" user="" lat="60.2582558" lon="4.9911555">
    <tag k="name" v="Nordsjøfartmuseet Telavåg"/>
    <tag k="wheelchair" v="yes"/>
    <tag k="addr:city" v="Telavåg"/>
    <tag k="addr:postcode" v="5380"/>
    <tag k="tourism" v="attraction"/>
    <tag k="website" v="http://www.museumvest.no/index.php?action=static&amp;id=5"/>
  </node>
  <node id="-5255" version="0" timestamp="Fri Feb 24 10:53:37 +0100 2012" uid="1" user="" lat="60.5664609" lon="4.9570319">
    <tag k="name" v="Herdla Museum"/>
    <tag k="wheelchair" v="yes"/>
    <tag k="addr:city" v="Herdla"/>
    <tag k="addr:postcode" v="5315"/>
    <tag k="tourism" v="attraction"/>
    <tag k="website" v="http://www.museumvest.no/index.php?action=static&amp;id=2"/>
  </node>
  <node id="-5256" version="0" timestamp="Fri Feb 24 10:53:37 +0100 2012" uid="1" user="" lat="60.3257327" lon="5.0833082">
    <tag k="name" v="Fjell Festning"/>
    <tag k="wheelchair" v="yes"/>
    <tag k="addr:city" v="Fjell"/>
    <tag k="addr:postcode" v="5357"/>
    <tag k="tourism" v="attraction"/>
    <tag k="addr:street" v="Festningsvegen"/>
    <tag k="website" v="http://www.museumvest.no/index.php?action=static&amp;id=48"/>
  </node>
  <node id="-5259" version="0" timestamp="Fri Feb 24 10:53:37 +0100 2012" uid="1" user="" lat="60.396184" lon="5.3158105">
    <tag k="name" v="Chilli Bar &amp; Restaurant"/>
    <tag k="wheelchair" v="yes"/>
    <tag k="addr:city" v="Bergen"/>
    <tag k="addr:postcode" v="5004"/>
    <tag k="addr:street" v="Strandgaten 190"/>
    <tag k="amenity" v="restaurant"/>
    <tag k="website" v="http://chillicatering.com/"/>
  </node>
  <node id="-5260" version="0" timestamp="Fri Feb 24 10:53:37 +0100 2012" uid="1" user="" lat="60.3955886" lon="5.3201727">
    <tag k="name" v="Clarion Hotel Admiral Restaurant &amp; Bar"/>
    <tag k="wheelchair" v="yes"/>
    <tag k="addr:city" v="Bergen"/>
    <tag k="addr:postcode" v="5004"/>
    <tag k="addr:street" v="C.Sundtsgate 9"/>
    <tag k="amenity" v="restaurant"/>
    <tag k="website" v="http://www.clarionadmiral.no/restaurant_bergen.aspx"/>
  </node>
  <node id="-5261" version="0" timestamp="Fri Feb 24 10:53:37 +0100 2012" uid="1" user="" lat="60.3953488" lon="5.3251524">
    <tag k="name" v="Zachariasbryggen as"/>
    <tag k="wheelchair" v="yes"/>
    <tag k="addr:city" v="Bergen"/>
    <tag k="addr:postcode" v="5014"/>
    <tag k="addr:street" v="Torget 2"/>
    <tag k="amenity" v="restaurant"/>
    <tag k="website" v="http://www.zb.no/"/>
  </node>
  <node id="-5262" version="0" timestamp="Fri Feb 24 10:53:37 +0100 2012" uid="1" user="" lat="60.3956548" lon="5.3262315">
    <tag k="name" v="Egon Kjøttbasaren"/>
    <tag k="wheelchair" v="yes"/>
    <tag k="addr:city" v="Bergen"/>
    <tag k="addr:postcode" v="5014"/>
    <tag k="addr:street" v="Vetrelidsallmenningen 2"/>
    <tag k="amenity" v="restaurant"/>
    <tag k="website" v="http://www.egon.no/"/>
  </node>
  <node id="-5263" version="0" timestamp="Fri Feb 24 10:53:37 +0100 2012" uid="1" user="" lat="60.2963329" lon="5.3304378">
    <tag k="name" v="Egon Lagunen"/>
    <tag k="wheelchair" v="yes"/>
    <tag k="addr:city" v="Rådal"/>
    <tag k="addr:postcode" v="5235"/>
    <tag k="addr:street" v="Laguneveien 1"/>
    <tag k="amenity" v="restaurant"/>
    <tag k="website" v="http://www.egon.no/"/>
  </node>
  <node id="-5264" version="0" timestamp="Fri Feb 24 10:53:37 +0100 2012" uid="1" user="" lat="60.3964556" lon="5.3259721">
    <tag k="name" v="First Hotel Marin"/>
    <tag k="wheelchair" v="yes"/>
    <tag k="addr:city" v="Bergen"/>
    <tag k="addr:postcode" v="5003"/>
    <tag k="tourism" v="hotel"/>
    <tag k="addr:street" v="Rosenkrantzgaten 8"/>
    <tag k="website" v="http://www.firsthotels.no/Vare-Hotell/Hotell-i-Norge/Bergen/First-Hotel-Marin/"/>
  </node>
  <node id="-5265" version="0" timestamp="Fri Feb 24 10:53:37 +0100 2012" uid="1" user="" lat="60.3963748" lon="5.3261498">
    <tag k="name" v="Beyer&apos;en Restaurant og Bar"/>
    <tag k="wheelchair" v="yes"/>
    <tag k="addr:city" v="Bergen"/>
    <tag k="addr:postcode" v="5003"/>
    <tag k="addr:street" v="Rosenkrantzgaten 8"/>
    <tag k="amenity" v="restaurant"/>
    <tag k="website" v="http://www.firsthotels.no/Vare-Hotell/Hotell-i-Norge/Bergen/First-Hotel-Marin/Restaurant--bar/Beyeren-Restaurant/#tabtop"/>
  </node>
  <node id="-5266" version="0" timestamp="Fri Feb 24 10:53:37 +0100 2012" uid="1" user="" lat="61.4526764" lon="5.8557113">
    <tag k="name" v="Rica Sunnfjord Hotel"/>
    <tag k="wheelchair" v="yes"/>
    <tag k="addr:city" v="Førde"/>
    <tag k="addr:postcode" v="6800"/>
    <tag k="tourism" v="hotel"/>
    <tag k="addr:street" v="Storehagen 2"/>
    <tag k="website" v="https://www.rica.no/Hoteller/Rica-Sunnfjord-Hotel/"/>
  </node>
  <node id="-5268" version="0" timestamp="Fri Feb 24 10:53:37 +0100 2012" uid="1" user="" lat="61.4526774" lon="5.8560587">
    <tag k="name" v="Restaurant Laxen Sunnfjord Hotel"/>
    <tag k="wheelchair" v="yes"/>
    <tag k="addr:city" v="Førde"/>
    <tag k="addr:postcode" v="6800"/>
    <tag k="addr:street" v="Storehagen 2"/>
    <tag k="amenity" v="restaurant"/>
    <tag k="website" v="https://www.rica.no/hoteller/rica-sunnfjord-hotel/mat-og-drikke/"/>
  </node>
  <node id="-5269" version="0" timestamp="Fri Feb 24 10:53:37 +0100 2012" uid="1" user="" lat="61.1045855" lon="5.5099366">
    <tag k="name" v="Lavik Fjordhotell"/>
    <tag k="wheelchair" v="yes"/>
    <tag k="addr:city" v="Lavik"/>
    <tag k="addr:postcode" v="6947"/>
    <tag k="amenity" v="restaurant"/>
    <tag k="website" v="http://www.lavikfjordhotell.no/norsk/"/>
  </node>
  <node id="-5270" version="0" timestamp="Fri Feb 24 10:53:37 +0100 2012" uid="1" user="" lat="60.3995502" lon="5.3045902">
    <tag k="name" v="Akvariet i Bergen"/>
    <tag k="wheelchair" v="yes"/>
    <tag k="addr:city" v="Bergen"/>
    <tag k="addr:postcode" v="5005"/>
    <tag k="tourism" v="attraction"/>
    <tag k="addr:street" v="Nordnesbakken 4"/>
    <tag k="website" v="http://www.akvariet.no/"/>
  </node>
  <node id="-5283" version="0" timestamp="Fri Feb 24 10:53:37 +0100 2012" uid="1" user="" lat="60.3890028" lon="5.3309266">
    <tag k="shop" v="supermarket"/>
    <tag k="name" v="Global Food"/>
    <tag k="wheelchair" v="unknown"/>
    <tag k="addr:city" v="Bergen"/>
    <tag k="addr:postcode" v="5008"/>
    <tag k="addr:housenumber" v="1"/>
    <tag k="addr:street" v="Vestre Strømkaien"/>
    <tag k="wheelchair:description" v="Exotic Food"/>
    <tag k="phone" v="55 55 86 00"/>
  </node>
  <node id="-5284" version="0" timestamp="Fri Feb 24 10:53:37 +0100 2012" uid="1" user="" lat="60.389317" lon="5.331832">
    <tag k="shop" v="mall"/>
    <tag k="name" v="Bergen Storsenter"/>
    <tag k="wheelchair" v="yes"/>
    <tag k="addr:city" v="Bergen"/>
    <tag k="addr:postcode" v="5015"/>
    <tag k="addr:housenumber" v="8"/>
    <tag k="addr:street" v="Strømgaten"/>
    <tag k="website" v="http://www.thonshopping.no/bergenstorsenter"/>
    <tag k="phone" v="55 21 24 60"/>
  </node>
  <node id="-5311" version="0" timestamp="Fri Feb 24 10:53:37 +0100 2012" uid="1" user="" lat="60.3906876" lon="5.3217109">
    <tag k="name" v="Salsa"/>
    <tag k="wheelchair" v="no"/>
    <tag k="addr:city" v="Bergen"/>
    <tag k="addr:postcode" v="5001"/>
    <tag k="addr:housenumber" v="26"/>
    <tag k="addr:street" v="Neumanns gate"/>
    <tag k="wheelchair:description" v="Basement restaurant"/>
    <tag k="amenity" v="restaurant"/>
    <tag k="website" v="http://isalsa.no/?page_id=159"/>
  </node>
  <node id="-5324" version="0" timestamp="Fri Feb 24 10:53:37 +0100 2012" uid="1" user="" lat="59.92096" lon="10.75">
    <tag k="shop" v="mall"/>
    <tag k="name" v="Storo Storsenter"/>
    <tag k="wheelchair" v="yes"/>
    <tag k="addr:city" v="Oslo"/>
    <tag k="addr:postcode" v="0485"/>
    <tag k="addr:housenumber" v="7-9"/>
    <tag k="addr:street" v="Vitaminveien"/>
    <tag k="phone" v="+4722890020"/>
  </node>
  <node id="-5457" version="0" timestamp="Fri Feb 24 10:53:37 +0100 2012" uid="1" user="" lat="60.5081429" lon="5.2706374">
    <tag k="name" v="Norsk Trikotasjemuseum"/>
    <tag k="wheelchair" v="yes"/>
    <tag k="addr:city" v="Salhus"/>
    <tag k="addr:postcode" v="5107"/>
    <tag k="tourism" v="attraction"/>
    <tag k="addr:street" v="Salhusvegen 201"/>
    <tag k="website" v="http://www.muho.no/salhus-trikotasjefabrikk/"/>
  </node>
  <node id="-5458" version="0" timestamp="Fri Feb 24 10:53:37 +0100 2012" uid="1" user="" lat="60.6952191" lon="5.1085053">
    <tag k="name" v="Lyngheisenteret Lygra"/>
    <tag k="wheelchair" v="yes"/>
    <tag k="addr:city" v="Seim"/>
    <tag k="addr:postcode" v="5912"/>
    <tag k="tourism" v="attraction"/>
    <tag k="addr:street" v="Ytre Lygra"/>
    <tag k="website" v="http://www.muho.no/lyngheisenteret/"/>
  </node>
  <node id="-5459" version="0" timestamp="Fri Feb 24 10:53:37 +0100 2012" uid="1" user="" lat="60.1809231" lon="5.4665077">
    <tag k="name" v="Oseana Kunst- og Kultursenter"/>
    <tag k="wheelchair" v="yes"/>
    <tag k="addr:city" v="Os"/>
    <tag k="addr:postcode" v="5200"/>
    <tag k="addr:street" v="Mobergsbakken 20"/>
    <tag k="amenity" v="arts_centre"/>
    <tag k="website" v="http://www.oseana.no/"/>
  </node>
  <node id="-5460" version="0" timestamp="Fri Feb 24 10:53:37 +0100 2012" uid="1" user="" lat="60.365928" lon="6.1474396">
    <tag k="name" v="Hardanger Fartøyvernsenter"/>
    <tag k="wheelchair" v="yes"/>
    <tag k="addr:city" v="Nordheimsund"/>
    <tag k="addr:postcode" v="5600"/>
    <tag k="tourism" v="attraction"/>
    <tag k="addr:street" v="Sandvenvegen 37"/>
    <tag k="website" v="http://www.hardangerogvossmuseum.no/hardanger-fartoeyvernsenter/norsk/aktuelt.aspx"/>
  </node>
  <node id="-5485" version="0" timestamp="Fri Feb 24 10:53:37 +0100 2012" uid="1" user="" lat="60.3563372" lon="5.3596085">
    <tag k="shop" v="mall"/>
    <tag k="name" v="Sletten Senter"/>
    <tag k="wheelchair" v="yes"/>
    <tag k="addr:city" v="Bergen"/>
    <tag k="addr:postcode" v="5081"/>
    <tag k="addr:street" v="Vilhelm Bjerknesvei 4-10"/>
    <tag k="website" v="http://www.slettensenter.no/index.htm"/>
  </node>
  <node id="-5486" version="0" timestamp="Fri Feb 24 10:53:37 +0100 2012" uid="1" user="" lat="60.3167644" lon="5.3543099">
    <tag k="shop" v="mall"/>
    <tag k="name" v="Nesttun Senter"/>
    <tag k="wheelchair" v="yes"/>
    <tag k="addr:city" v="Nesttun"/>
    <tag k="addr:postcode" v="5221"/>
    <tag k="addr:street" v="Østre Nesttunvei 16"/>
    <tag k="website" v="http://nesttunsenteret.no/"/>
  </node>
  <node id="-5487" version="0" timestamp="Fri Feb 24 10:53:37 +0100 2012" uid="1" user="" lat="60.3494802" lon="5.2895338">
    <tag k="shop" v="mall"/>
    <tag k="name" v="Oasen Senter"/>
    <tag k="wheelchair" v="yes"/>
    <tag k="addr:city" v="Fyllingsdalen"/>
    <tag k="addr:postcode" v="5147"/>
    <tag k="addr:street" v="Folke Bernadottesvei 52"/>
    <tag k="website" v="http://www.oasen-senter.no/"/>
  </node>
  <node id="-5682" version="0" timestamp="Fri Feb 24 10:53:37 +0100 2012" uid="1" user="" lat="59.9561486" lon="11.0476372">
    <tag k="name" v="Fratelli"/>
    <tag k="wheelchair" v="yes"/>
    <tag k="wheelchair:description" v="No stairs. Large hc wc"/>
    <tag k="amenity" v="restaurant"/>
  </node>
</osm>
