<?xml version='1.0' encoding='UTF-8'?>
<osm version="0.6" generator="Osmosis 0.39">
  <node id="-1183" version="0" timestamp="Fri Feb 24 10:53:33 +0100 2012" uid="1" user="" lat="53.9331502" lon="14.4515566">
    <tag k="name" v="Hotel Nautilus"/>
    <tag k="wheelchair" v="no"/>
    <tag k="addr:city" v="Misdroy"/>
    <tag k="addr:postcode" v="72-500"/>
    <tag k="addr:housenumber" v="8"/>
    <tag k="tourism" v="hotel"/>
    <tag k="addr:street" v="Promenada Gwiazd"/>
    <tag k="website" v="http://www.hotel-nautilus.pl/zramki/kontakt_n.htm"/>
  </node>
  <node id="-2100" version="0" timestamp="Fri Feb 24 10:53:34 +0100 2012" uid="1" user="" lat="52.3434505" lon="14.5578406">
    <tag k="name" v="Odertraining"/>
    <tag k="wheelchair" v="yes"/>
    <tag k="addr:city" v="Frankfurt/Oder"/>
    <tag k="addr:postcode" v="15230"/>
    <tag k="addr:housenumber" v="3"/>
    <tag k="addr:street" v="Uferstraße "/>
    <tag k="wheelchair:description" v="Beh.toilette im Haus"/>
    <tag k="leisure" v="sports_centre"/>
    <tag k="website" v="http://www.rehalinksderoder.de"/>
    <tag k="phone" v="033550080238"/>
  </node>
  <node id="-2927" version="0" timestamp="Fri Feb 24 10:53:34 +0100 2012" uid="1" user="" lat="52.4262854" lon="14.5332493">
    <tag k="name" v="Sparkasse"/>
    <tag k="wheelchair" v="limited"/>
    <tag k="wheelchair:description" v="barrierefreier Zugang"/>
    <tag k="amenity" v="bank"/>
  </node>
  <node id="-2928" version="0" timestamp="Fri Feb 24 10:53:34 +0100 2012" uid="1" user="" lat="52.4261281" lon="14.5332694">
    <tag k="shop" v="supermarket"/>
    <tag k="name" v="Schlecker Markt"/>
    <tag k="wheelchair" v="limited"/>
    <tag k="wheelchair:description" v="barrierefreier Zugang"/>
  </node>
  <node id="-2929" version="0" timestamp="Fri Feb 24 10:53:34 +0100 2012" uid="1" user="" lat="52.4177906" lon="14.5295637">
    <tag k="shop" v="bakery"/>
    <tag k="name" v="Bäcker Dreißig"/>
    <tag k="wheelchair" v="limited"/>
    <tag k="wheelchair:description" v="barrierefreier Zugang"/>
  </node>
  <node id="-3007" version="0" timestamp="Fri Feb 24 10:53:35 +0100 2012" uid="1" user="" lat="52.3437975" lon="14.5509274">
    <tag k="name" v="Behindertenparkplatz"/>
    <tag k="wheelchair" v="yes"/>
    <tag k="wheelchair:description" v="Behindertenparkplatz"/>
    <tag k="amenity" v="parking"/>
  </node>
  <node id="-3009" version="0" timestamp="Fri Feb 24 10:53:35 +0100 2012" uid="1" user="" lat="52.3437869" lon="14.5512143">
    <tag k="name" v="Behindertenparkplatz"/>
    <tag k="wheelchair" v="yes"/>
    <tag k="wheelchair:description" v="Behindertenparkplatz"/>
    <tag k="amenity" v="parking"/>
  </node>
  <node id="-3010" version="0" timestamp="Fri Feb 24 10:53:35 +0100 2012" uid="1" user="" lat="52.34278" lon="14.5534">
    <tag k="name" v="Behindertenparkplatz"/>
    <tag k="wheelchair" v="yes"/>
    <tag k="wheelchair:description" v="Behindertenparkplatz"/>
    <tag k="amenity" v="parking"/>
  </node>
  <node id="-3012" version="0" timestamp="Fri Feb 24 10:53:35 +0100 2012" uid="1" user="" lat="52.3428815" lon="14.5543262">
    <tag k="name" v="Behindertenparkplatz"/>
    <tag k="wheelchair" v="yes"/>
    <tag k="wheelchair:description" v="Behindertenparkplatz"/>
    <tag k="amenity" v="parking"/>
  </node>
  <node id="-3014" version="0" timestamp="Fri Feb 24 10:53:35 +0100 2012" uid="1" user="" lat="52.3431088" lon="14.5573685">
    <tag k="name" v="Behindertenparkplatz"/>
    <tag k="wheelchair" v="yes"/>
    <tag k="wheelchair:description" v="Behindertenparkplatz"/>
    <tag k="amenity" v="parking"/>
  </node>
  <node id="-3022" version="0" timestamp="Fri Feb 24 10:53:35 +0100 2012" uid="1" user="" lat="52.5860756" lon="14.6492531">
    <tag k="shop" v="supermarket"/>
    <tag k="name" v="Intermarche"/>
    <tag k="wheelchair" v="limited"/>
    <tag k="wheelchair:description" v="barierefreier Zugang"/>
  </node>
  <node id="-3812" version="0" timestamp="Fri Feb 24 10:53:35 +0100 2012" uid="1" user="" lat="52.332555" lon="14.5562085">
    <tag k="name" v="Stadion der Freundschaft"/>
    <tag k="wheelchair" v="no"/>
    <tag k="leisure" v="stadium"/>
  </node>
  <node id="-4853" version="0" timestamp="Fri Feb 24 10:53:36 +0100 2012" uid="1" user="" lat="51.1123" lon="17.03294">
    <tag k="name" v="Galeria Italiana"/>
    <tag k="wheelchair" v="limited"/>
    <tag k="addr:city" v="Wrocław"/>
    <tag k="addr:housenumber" v="21"/>
    <tag k="addr:street" v="Więzienna "/>
    <tag k="amenity" v="restaurant"/>
  </node>
  <node id="-5056" version="0" timestamp="Fri Feb 24 10:53:37 +0100 2012" uid="1" user="" lat="51.759081" lon="19.4580237">
    <tag k="name" v="Telefon"/>
    <tag k="wheelchair" v="yes"/>
    <tag k="historic" v="memorial"/>
  </node>
  <node id="-5267" version="0" timestamp="Fri Feb 24 10:53:37 +0100 2012" uid="1" user="" lat="51.7508222" lon="19.4394849">
    <tag k="name" v="Apteka Dbam o Zdrowie"/>
    <tag k="wheelchair" v="limited"/>
    <tag k="amenity" v="pharmacy"/>
  </node>
  <node id="-5511" version="0" timestamp="Fri Feb 24 10:53:37 +0100 2012" uid="1" user="" lat="52.3310365" lon="14.5546573">
    <tag k="name" v="Physiotherapie"/>
    <tag k="wheelchair" v="yes"/>
    <tag k="amenity" v="doctors"/>
  </node>
  <node id="-5512" version="0" timestamp="Fri Feb 24 10:53:37 +0100 2012" uid="1" user="" lat="52.3452313" lon="14.5842236">
    <tag k="shop" v="mall"/>
    <tag k="name" v="Polenmarkt"/>
    <tag k="wheelchair" v="yes"/>
  </node>
  <node id="-5513" version="0" timestamp="Fri Feb 24 10:53:37 +0100 2012" uid="1" user="" lat="52.3492103" lon="14.5821816">
    <tag k="name" v="Nightclub Sarah"/>
    <tag k="wheelchair" v="limited"/>
    <tag k="wheelchair:description" v="ein Zimmer barrierefrei, Toilette nur für schmale, wendige Rollstühle"/>
    <tag k="amenity" v="brothel"/>
  </node>
  <node id="-5514" version="0" timestamp="Fri Feb 24 10:53:37 +0100 2012" uid="1" user="" lat="52.3748878" lon="14.5752317">
    <tag k="name" v="Nightclub Annabell"/>
    <tag k="wheelchair" v="limited"/>
    <tag k="wheelchair:description" v="Hotelzimmer barrierefrei, Stundenzimmer mit zwei Stufen, Toilettensituation schwierig"/>
    <tag k="amenity" v="brothel"/>
  </node>
</osm>
