<?xml version='1.0' encoding='UTF-8'?>
<osm version="0.6" generator="Osmosis 0.39">
  <node id="-3033" version="0" timestamp="Fri Feb 24 10:53:35 +0100 2012" uid="1" user="" lat="37.1396104" lon="-8.5425993">
    <tag k="shop" v="mall"/>
    <tag k="name" v="Mercado "/>
    <tag k="wheelchair" v="yes"/>
  </node>
  <node id="-3034" version="0" timestamp="Fri Feb 24 10:53:35 +0100 2012" uid="1" user="" lat="37.138362" lon="-8.5336741">
    <tag k="name" v="Public Toilet"/>
    <tag k="wheelchair" v="yes"/>
    <tag k="amenity" v="toilets"/>
  </node>
  <node id="-3035" version="0" timestamp="Fri Feb 24 10:53:35 +0100 2012" uid="1" user="" lat="37.1187916" lon="-8.527198">
    <tag k="name" v="Restaurant Deck"/>
    <tag k="wheelchair" v="yes"/>
    <tag k="amenity" v="restaurant"/>
  </node>
  <node id="-3036" version="0" timestamp="Fri Feb 24 10:53:35 +0100 2012" uid="1" user="" lat="37.1188028" lon="-8.5290078">
    <tag k="name" v="Hotel Tivoli Marina Portimao"/>
    <tag k="wheelchair" v="yes"/>
    <tag k="amenity" v="bank"/>
  </node>
  <node id="-3037" version="0" timestamp="Fri Feb 24 10:53:35 +0100 2012" uid="1" user="" lat="37.1156538" lon="-8.5273083">
    <tag k="name" v="Public Toilet"/>
    <tag k="wheelchair" v="yes"/>
    <tag k="amenity" v="toilets"/>
  </node>
  <node id="-3038" version="0" timestamp="Fri Feb 24 10:53:35 +0100 2012" uid="1" user="" lat="37.1160652" lon="-8.5301874">
    <tag k="name" v="Public Toilet beside Beach Restaurant"/>
    <tag k="wheelchair" v="yes"/>
    <tag k="amenity" v="toilets"/>
  </node>
  <node id="-3039" version="0" timestamp="Fri Feb 24 10:53:35 +0100 2012" uid="1" user="" lat="37.11607" lon="-8.53019">
    <tag k="name" v="Restaurant"/>
    <tag k="wheelchair" v="yes"/>
    <tag k="amenity" v="restaurant"/>
  </node>
  <node id="-3040" version="0" timestamp="Fri Feb 24 10:53:35 +0100 2012" uid="1" user="" lat="37.1164379" lon="-8.5314854">
    <tag k="name" v="Restaurant"/>
    <tag k="wheelchair" v="yes"/>
    <tag k="amenity" v="restaurant"/>
  </node>
  <node id="-3041" version="0" timestamp="Fri Feb 24 10:53:35 +0100 2012" uid="1" user="" lat="37.1165042" lon="-8.5316509">
    <tag k="name" v="Public Toilet beside Beach Restaurant"/>
    <tag k="wheelchair" v="yes"/>
    <tag k="amenity" v="toilets"/>
  </node>
  <node id="-3042" version="0" timestamp="Fri Feb 24 10:53:35 +0100 2012" uid="1" user="" lat="37.11739" lon="-8.5359">
    <tag k="name" v="Restaurant"/>
    <tag k="wheelchair" v="yes"/>
    <tag k="amenity" v="restaurant"/>
  </node>
  <node id="-3043" version="0" timestamp="Fri Feb 24 10:53:35 +0100 2012" uid="1" user="" lat="37.1177065" lon="-8.5370641">
    <tag k="name" v="Public Toilet beside Beach Restaurant"/>
    <tag k="wheelchair" v="yes"/>
    <tag k="amenity" v="toilets"/>
  </node>
  <node id="-3044" version="0" timestamp="Fri Feb 24 10:53:35 +0100 2012" uid="1" user="" lat="37.1189512" lon="-8.5365629">
    <tag k="name" v="Tourist INFO"/>
    <tag k="wheelchair" v="yes"/>
  </node>
  <node id="-3045" version="0" timestamp="Fri Feb 24 10:53:35 +0100 2012" uid="1" user="" lat="37.11895" lon="-8.5364152">
    <tag k="name" v="Public Toilet beside Tourist INFO"/>
    <tag k="wheelchair" v="yes"/>
    <tag k="amenity" v="bank"/>
  </node>
  <node id="-3046" version="0" timestamp="Fri Feb 24 10:53:35 +0100 2012" uid="1" user="" lat="37.1599988" lon="-8.5564875">
    <tag k="shop" v="mall"/>
    <tag k="name" v="Continente Portimao Retail Park"/>
    <tag k="wheelchair" v="yes"/>
  </node>
  <node id="-3047" version="0" timestamp="Fri Feb 24 10:53:35 +0100 2012" uid="1" user="" lat="37.3179165" lon="-8.5567041">
    <tag k="name" v="Public Toilet"/>
    <tag k="wheelchair" v="yes"/>
    <tag k="amenity" v="toilets"/>
  </node>
  <node id="-3048" version="0" timestamp="Fri Feb 24 10:53:35 +0100 2012" uid="1" user="" lat="37.0231844" lon="-8.9961329">
    <tag k="name" v="Public Toilet"/>
    <tag k="wheelchair" v="yes"/>
    <tag k="amenity" v="toilets"/>
  </node>
  <node id="-3050" version="0" timestamp="Fri Feb 24 10:53:35 +0100 2012" uid="1" user="" lat="37.0881623" lon="-8.2523601">
    <tag k="name" v="Public Toilet"/>
    <tag k="wheelchair" v="yes"/>
    <tag k="amenity" v="toilets"/>
  </node>
  <node id="-3051" version="0" timestamp="Fri Feb 24 10:53:35 +0100 2012" uid="1" user="" lat="37.078618" lon="-8.1185312">
    <tag k="name" v="Public Toilet"/>
    <tag k="wheelchair" v="yes"/>
    <tag k="amenity" v="toilets"/>
  </node>
  <node id="-3052" version="0" timestamp="Fri Feb 24 10:53:35 +0100 2012" uid="1" user="" lat="37.074327" lon="-8.1201829">
    <tag k="name" v="Hotel Tivoli Marin Vilamoura"/>
    <tag k="wheelchair" v="yes"/>
    <tag k="tourism" v="hotel"/>
  </node>
  <node id="-3053" version="0" timestamp="Fri Feb 24 10:53:35 +0100 2012" uid="1" user="" lat="37.0744199" lon="-8.1205233">
    <tag k="name" v="Restaurant Peppers Steakhouse"/>
    <tag k="wheelchair" v="yes"/>
    <tag k="amenity" v="restaurant"/>
  </node>
  <node id="-3054" version="0" timestamp="Fri Feb 24 10:53:35 +0100 2012" uid="1" user="" lat="37.0169585" lon="-7.933209">
    <tag k="name" v="Restaurant Dois Irmaos"/>
    <tag k="wheelchair" v="yes"/>
    <tag k="amenity" v="restaurant"/>
  </node>
  <node id="-3055" version="0" timestamp="Fri Feb 24 10:53:35 +0100 2012" uid="1" user="" lat="37.0813565" lon="-8.6694751">
    <tag k="name" v="Public Toilet"/>
    <tag k="wheelchair" v="yes"/>
    <tag k="amenity" v="toilets"/>
  </node>
</osm>
