<?xml version='1.0' encoding='UTF-8'?>
<osm version="0.6" generator="Osmosis 0.39">
  <node id="-3" version="0" timestamp="Fri Feb 24 10:53:32 +0100 2012" uid="1" user="" lat="39.5154879" lon="2.7452914">
    <tag k="natural" v="beach"/>
    <tag k="name" v="Balneario 6"/>
    <tag k="wheelchair" v="yes"/>
  </node>
  <node id="-4" version="0" timestamp="Fri Feb 24 10:53:32 +0100 2012" uid="1" user="" lat="39.5136011" lon="2.7504017">
    <tag k="name" v="Rest. Los Torres"/>
    <tag k="wheelchair" v="yes"/>
    <tag k="amenity" v="restaurant"/>
  </node>
  <node id="-5" version="0" timestamp="Fri Feb 24 10:53:32 +0100 2012" uid="1" user="" lat="39.5136" lon="2.7504">
    <tag k="name" v="Apart. Hotel Tres Torres"/>
    <tag k="wheelchair" v="yes"/>
    <tag k="tourism" v="hotel"/>
  </node>
  <node id="-6" version="0" timestamp="Fri Feb 24 10:53:32 +0100 2012" uid="1" user="" lat="39.5135169" lon="2.7541506">
    <tag k="name" v="Grupotel Playa de Palma Suites and Spa"/>
    <tag k="wheelchair" v="yes"/>
    <tag k="tourism" v="hotel"/>
  </node>
  <node id="-8" version="0" timestamp="Fri Feb 24 10:53:32 +0100 2012" uid="1" user="" lat="39.3635014" lon="2.9557346">
    <tag k="name" v="Terrazza Cafeteria Club Nautico Sa Rapita"/>
    <tag k="wheelchair" v="yes"/>
    <tag k="amenity" v="restaurant"/>
  </node>
  <node id="-3071" version="0" timestamp="Fri Feb 24 10:53:35 +0100 2012" uid="1" user="" lat="37.3693437" lon="-5.958743">
    <tag k="name" v="ConsejerÃ­a para la Igualdad Y Bienestar Social"/>
    <tag k="wheelchair" v="yes"/>
  </node>
  <node id="-3113" version="0" timestamp="Fri Feb 24 10:53:35 +0100 2012" uid="1" user="" lat="37.3701823" lon="-5.9661143">
    <tag k="shop" v="mall"/>
    <tag k="name" v="Alcampo"/>
    <tag k="wheelchair" v="limited"/>
    <tag k="wheelchair:description" v="Hay que avisar al guardia de seguridad para que te lleve al montacargas"/>
  </node>
  <node id="-3768" version="0" timestamp="Fri Feb 24 10:53:35 +0100 2012" uid="1" user="" lat="40.4667966" lon="-3.6859452">
    <tag k="name" v="VIPS"/>
    <tag k="wheelchair" v="limited"/>
    <tag k="amenity" v="restaurant"/>
  </node>
</osm>
