<?xml version='1.0' encoding='UTF-8'?>
<osm version="0.6" generator="Osmosis 0.39">
  <node id="-65" version="0" timestamp="Fri Feb 24 10:53:32 +0100 2012" uid="1" user="" lat="46.1924455" lon="6.1438218">
    <tag k="name" v="Ephese kebab"/>
    <tag k="wheelchair" v="yes"/>
    <tag k="addr:city" v="Genève"/>
    <tag k="addr:postcode" v="1200"/>
    <tag k="addr:housenumber" v="53"/>
    <tag k="addr:street" v="Rue de Carouge "/>
    <tag k="wheelchair:description" v="WC adapté"/>
    <tag k="amenity" v="fast_food"/>
    <tag k="phone" v="022 320 13 96"/>
  </node>
  <node id="-66" version="0" timestamp="Fri Feb 24 10:53:32 +0100 2012" uid="1" user="" lat="46.1944773" lon="6.1415627">
    <tag k="name" v="Misuji sushi"/>
    <tag k="wheelchair" v="yes"/>
    <tag k="addr:city" v="Genève"/>
    <tag k="addr:postcode" v="1205"/>
    <tag k="addr:housenumber" v="49"/>
    <tag k="addr:street" v="Blvd. du pont d&apos;arve"/>
    <tag k="amenity" v="fast_food"/>
    <tag k="website" v="http://www.misuji.ch"/>
    <tag k="phone" v="022 320 70 76"/>
  </node>
  <node id="-67" version="0" timestamp="Fri Feb 24 10:53:32 +0100 2012" uid="1" user="" lat="46.1968745" lon="6.0898778">
    <tag k="name" v="Cafeteria step d&apos;Aïre"/>
    <tag k="wheelchair" v="yes"/>
    <tag k="addr:housenumber" v="17"/>
    <tag k="addr:street" v="ch. de la verseuse"/>
    <tag k="wheelchair:description" v="Cafeteria d&apos;entreprise ouverte au public toilette adaptée"/>
    <tag k="amenity" v="fast_food"/>
  </node>
  <node id="-316" version="0" timestamp="Fri Feb 24 10:53:32 +0100 2012" uid="1" user="" lat="47.48946" lon="7.58738">
    <tag k="name" v="Neuapostolische Kirche"/>
    <tag k="wheelchair" v="yes"/>
    <tag k="addr:city" v="Reinach"/>
    <tag k="addr:postcode" v="4153"/>
    <tag k="addr:housenumber" v="32"/>
    <tag k="addr:street" v="Zihlackerstrasse"/>
    <tag k="amenity" v="place_of_worship"/>
    <tag k="website" v="http://www.reinach-bl.nak.ch/"/>
  </node>
  <node id="-781" version="0" timestamp="Fri Feb 24 10:53:32 +0100 2012" uid="1" user="" lat="46.19262" lon="6.14431">
    <tag k="name" v="ephese kebab"/>
    <tag k="wheelchair" v="yes"/>
    <tag k="addr:city" v="geneve"/>
    <tag k="addr:postcode" v="1200"/>
    <tag k="addr:street" v="rue de carouge"/>
    <tag k="amenity" v="fast_food"/>
  </node>
  <node id="-782" version="0" timestamp="Fri Feb 24 10:53:32 +0100 2012" uid="1" user="" lat="46.19446" lon="6.1415522">
    <tag k="name" v="Misuji sushi"/>
    <tag k="wheelchair" v="limited"/>
    <tag k="amenity" v="fast_food"/>
  </node>
  <node id="-783" version="0" timestamp="Fri Feb 24 10:53:32 +0100 2012" uid="1" user="" lat="46.1968578" lon="6.0899485">
    <tag k="name" v="Step d&apos;Aïre cafeteria"/>
    <tag k="wheelchair" v="yes"/>
    <tag k="addr:city" v="vernier"/>
    <tag k="addr:postcode" v="1219"/>
    <tag k="addr:housenumber" v="17"/>
    <tag k="addr:street" v="ch. de la verseuse "/>
    <tag k="amenity" v="restaurant"/>
  </node>
  <node id="-784" version="0" timestamp="Fri Feb 24 10:53:32 +0100 2012" uid="1" user="" lat="46.19683" lon="6.090287">
    <tag k="name" v="Step d&apos;Aïre"/>
    <tag k="wheelchair" v="yes"/>
    <tag k="addr:city" v="vernier"/>
    <tag k="addr:postcode" v="1219"/>
    <tag k="addr:housenumber" v="17"/>
    <tag k="addr:street" v="ch. de la verseuse "/>
  </node>
  <node id="-785" version="0" timestamp="Fri Feb 24 10:53:32 +0100 2012" uid="1" user="" lat="46.2066555" lon="6.1040806">
    <tag k="name" v="SIG"/>
    <tag k="wheelchair" v="yes"/>
  </node>
  <node id="-786" version="0" timestamp="Fri Feb 24 10:53:32 +0100 2012" uid="1" user="" lat="46.2003727" lon="6.1346635">
    <tag k="name" v="Le caveau"/>
    <tag k="wheelchair" v="yes"/>
    <tag k="addr:housenumber" v="9"/>
    <tag k="addr:street" v="Avenue de Sainte-Clotilde"/>
    <tag k="amenity" v="theatre"/>
  </node>
  <node id="-857" version="0" timestamp="Fri Feb 24 10:53:32 +0100 2012" uid="1" user="" lat="46.7949817" lon="9.8196341">
    <tag k="name" v="Bistro Guggerzyt"/>
    <tag k="wheelchair" v="yes"/>
    <tag k="addr:city" v="Davos Platz"/>
    <tag k="addr:postcode" v="7270"/>
    <tag k="addr:housenumber" v="20"/>
    <tag k="addr:street" v="Obere Strasse"/>
    <tag k="amenity" v="restaurant"/>
    <tag k="website" v="http://www.guggerbach.ch/angebote/"/>
    <tag k="phone" v="+41 81 4152515"/>
  </node>
  <node id="-930" version="0" timestamp="Fri Feb 24 10:53:33 +0100 2012" uid="1" user="" lat="47.574093" lon="7.5639167">
    <tag k="name" v="Grand Casino Basel"/>
    <tag k="wheelchair" v="yes"/>
    <tag k="wheelchair:description" v="Parkplätze befinden sich Parkhaus des Casino Hotels"/>
    <tag k="amenity" v="restaurant"/>
  </node>
  <node id="-932" version="0" timestamp="Fri Feb 24 10:53:33 +0100 2012" uid="1" user="" lat="47.5514757" lon="7.5886909">
    <tag k="name" v="Restaurant Felini"/>
    <tag k="wheelchair" v="yes"/>
    <tag k="wheelchair:description" v="Rollstuhltoilette vorhanden"/>
    <tag k="amenity" v="restaurant"/>
  </node>
  <node id="-934" version="0" timestamp="Fri Feb 24 10:53:33 +0100 2012" uid="1" user="" lat="47.5307739" lon="7.6145645">
    <tag k="name" v="Restaurant Seegarten"/>
    <tag k="wheelchair" v="yes"/>
    <tag k="amenity" v="restaurant"/>
  </node>
  <node id="-1534" version="0" timestamp="Fri Feb 24 10:53:33 +0100 2012" uid="1" user="" lat="47.6379366" lon="8.6927976">
    <tag k="shop" v="supermarket"/>
    <tag k="name" v="Volg"/>
    <tag k="wheelchair" v="yes"/>
    <tag k="addr:city" v="Trüllikon"/>
    <tag k="addr:postcode" v="8466"/>
    <tag k="addr:housenumber" v="2"/>
    <tag k="addr:street" v="Diesenhoferstrasse"/>
    <tag k="website" v="http://wylandnet.ch/volg/laden/laden.htm"/>
    <tag k="phone" v="052 319 14 56"/>
  </node>
  <node id="-1543" version="0" timestamp="Fri Feb 24 10:53:33 +0100 2012" uid="1" user="" lat="47.6380095" lon="8.6924168">
    <tag k="name" v="Restaurant Morgensonne"/>
    <tag k="wheelchair" v="yes"/>
    <tag k="addr:city" v="Trüllikon"/>
    <tag k="addr:postcode" v="8466"/>
    <tag k="addr:housenumber" v="2"/>
    <tag k="addr:street" v="Andelfingerstrasse "/>
    <tag k="amenity" v="restaurant"/>
    <tag k="phone" v="052 319 14 61"/>
  </node>
  <node id="-1853" version="0" timestamp="Fri Feb 24 10:53:33 +0100 2012" uid="1" user="" lat="47.56313" lon="7.5822">
    <tag k="name" v="UKBB"/>
    <tag k="wheelchair" v="yes"/>
    <tag k="amenity" v="hospital"/>
  </node>
  <node id="-1860" version="0" timestamp="Fri Feb 24 10:53:33 +0100 2012" uid="1" user="" lat="46.1324949" lon="8.7352911">
    <tag k="name" v="Isole di Brissago"/>
    <tag k="wheelchair" v="no"/>
    <tag k="addr:city" v="Isole di Brissago"/>
    <tag k="addr:postcode" v="6614"/>
    <tag k="tourism" v="attraction"/>
    <tag k="wheelchair:description" v="Die Gärten sind schlecht bis gar nicht zugänglich. Das Restaurant hat ein einziges WC, das zwar zugänglich ist mit Rollstuhl, aber für alle Gäste gilt, d.h. Schlange stehen."/>
    <tag k="website" v="http://www.isolebrissago.ch"/>
    <tag k="phone" v="+ 41 91 791 4361"/>
  </node>
  <node id="-3148" version="0" timestamp="Fri Feb 24 10:53:35 +0100 2012" uid="1" user="" lat="47.27838" lon="7.9292975">
    <tag k="name" v="Rest. Frohsinn"/>
    <tag k="wheelchair" v="yes"/>
    <tag k="amenity" v="restaurant"/>
  </node>
  <node id="-3820" version="0" timestamp="Fri Feb 24 10:53:35 +0100 2012" uid="1" user="" lat="47" lon="8">
    <tag k="name" v="Motel One"/>
    <tag k="wheelchair" v="yes"/>
    <tag k="addr:city" v="Berlin"/>
    <tag k="addr:postcode" v="10117"/>
    <tag k="addr:housenumber" v="50"/>
    <tag k="tourism" v="hotel"/>
    <tag k="addr:street" v="Leipzigerstraße"/>
    <tag k="wheelchair:description" v="Top für aktive Rollstuhlfahrer, leider nur Einzelbett "/>
    <tag k="phone" v="+49/30/201 43 63-0 "/>
  </node>
  <node id="-4197" version="0" timestamp="Fri Feb 24 10:53:36 +0100 2012" uid="1" user="" lat="47.08735" lon="8.2577">
    <tag k="name" v="Bauernhaus Panoramablick"/>
    <tag k="wheelchair" v="yes"/>
    <tag k="addr:city" v="Rothenburg"/>
    <tag k="addr:postcode" v="6023"/>
    <tag k="addr:housenumber" v="2"/>
    <tag k="tourism" v="guest_house"/>
    <tag k="addr:street" v="Huoben"/>
    <tag k="wheelchair:description" v="Rollstuhlgängige Gruppenunterkunft auf dem Bauernhof"/>
    <tag k="website" v="http://www.bauernhaus-panoramablick.ch/rollstuhlgaengige-gruppenunterkunft/rothenburg/luzern/rollstuhlgaengig.html"/>
    <tag k="phone" v="+41 (0)41 281 08 80"/>
  </node>
  <node id="-4320" version="0" timestamp="Fri Feb 24 10:53:36 +0100 2012" uid="1" user="" lat="47.36335" lon="7.36036">
    <tag k="name" v="Artionet Web Agency"/>
    <tag k="wheelchair" v="yes"/>
    <tag k="addr:city" v="Delémont"/>
    <tag k="addr:postcode" v="2800"/>
    <tag k="addr:housenumber" v="109"/>
    <tag k="addr:street" v="Rte de Moutier"/>
    <tag k="website" v="http://www.artionet.ch"/>
    <tag k="phone" v="+41 32 424 4800"/>
    <tag k="office" v="company"/>
  </node>
  <node id="-4892" version="0" timestamp="Fri Feb 24 10:53:36 +0100 2012" uid="1" user="" lat="47.56938" lon="7.58341">
    <tag k="name" v="Uli-Fähre"/>
    <tag k="wheelchair" v="limited"/>
    <tag k="wheelchair:description" v="eMan kommt sehr gut auf die Fähre, die bei einem Elektro könnte es wegen der Breite jenachdem schwierig werden."/>
    <tag k="amenity" v="ferry_terminal"/>
    <tag k="phone" v="+41 79 421 01 11"/>
  </node>
  <node id="-4893" version="0" timestamp="Fri Feb 24 10:53:36 +0100 2012" uid="1" user="" lat="47.5694029" lon="7.5862073">
    <tag k="name" v="Uli-Fähre"/>
    <tag k="wheelchair" v="limited"/>
    <tag k="amenity" v="ferry_terminal"/>
    <tag k="phone" v="+41 79 421 01 11"/>
  </node>
  <node id="-4894" version="0" timestamp="Fri Feb 24 10:53:36 +0100 2012" uid="1" user="" lat="47.56945" lon="7.58632">
    <tag k="name" v="Uli-Fähre"/>
    <tag k="wheelchair" v="limited"/>
    <tag k="amenity" v="ferry_terminal"/>
    <tag k="phone" v="+41 79 421 01 11"/>
  </node>
  <node id="-5022" version="0" timestamp="Fri Feb 24 10:53:36 +0100 2012" uid="1" user="" lat="47.3429108" lon="8.0562045">
    <tag k="name" v="Schweizer Paraplegiker-Vereinigung"/>
    <tag k="wheelchair" v="yes"/>
    <tag k="addr:city" v="Muhen"/>
    <tag k="addr:postcode" v="5037"/>
    <tag k="addr:housenumber" v="20"/>
    <tag k="addr:street" v="Suhrgasse"/>
    <tag k="wheelchair:description" v="Autom. Türe, Aufzug, Rollstuhl-WC, stufenlos"/>
    <tag k="phone" v="+41627374000"/>
    <tag k="office" v="company"/>
  </node>
  <node id="-5023" version="0" timestamp="Fri Feb 24 10:53:36 +0100 2012" uid="1" user="" lat="46.71897" lon="9.41721">
    <tag k="name" v="Kapelle"/>
    <tag k="wheelchair" v="no"/>
    <tag k="addr:city" v="Tartar"/>
    <tag k="addr:postcode" v="7422"/>
    <tag k="wheelchair:description" v="Stufe am Eingang, kein WC"/>
    <tag k="amenity" v="place_of_worship"/>
  </node>
  <node id="-5086" version="0" timestamp="Fri Feb 24 10:53:37 +0100 2012" uid="1" user="" lat="47.5811079" lon="7.8132416">
    <tag k="name" v="Evangelische Bildungsstätte Beuggen"/>
    <tag k="wheelchair" v="yes"/>
    <tag k="addr:city" v="Rheinfelden"/>
    <tag k="addr:postcode" v="79618"/>
    <tag k="addr:housenumber" v="11"/>
    <tag k="addr:street" v="Schloss"/>
    <tag k="wheelchair:description" v="Tagungshaus voll rollstuhlgerecht, Kapelle mit 3 Stufen"/>
    <tag k="amenity" v="place_of_worship"/>
    <tag k="website" v="http://www.schloss-beuggen.de/"/>
    <tag k="phone" v="+49 (7623) 7519-0"/>
  </node>
  <node id="-5089" version="0" timestamp="Fri Feb 24 10:53:37 +0100 2012" uid="1" user="" lat="47.5819885" lon="7.8133683">
    <tag k="name" v="Biblischer Garten"/>
    <tag k="wheelchair" v="yes"/>
    <tag k="tourism" v="attraction"/>
    <tag k="wheelchair:description" v="Zugang über ebenes Wiesenstück"/>
  </node>
</osm>
