<?xml version='1.0' encoding='UTF-8'?>
<osm version="0.6" generator="Osmosis 0.39">
  <node id="-370" version="0" timestamp="Fri Feb 24 10:53:32 +0100 2012" uid="1" user="" lat="49.4763597" lon="6.6230036">
    <tag k="name" v="VdK Hotel Sonnenwald"/>
    <tag k="wheelchair" v="yes"/>
    <tag k="addr:city" v="Merzig-Besseringen"/>
    <tag k="tourism" v="hotel"/>
    <tag k="addr:street" v="Zum Sonnenwald"/>
  </node>
  <node id="-1762" version="0" timestamp="Fri Feb 24 10:53:33 +0100 2012" uid="1" user="" lat="49.4871688" lon="6.8395545">
    <tag k="name" v="Arztpraxis Thomas Rehlinger, Allgemeinmedizin"/>
    <tag k="wheelchair" v="yes"/>
    <tag k="addr:city" v="Wadern"/>
    <tag k="addr:postcode" v="66687"/>
    <tag k="addr:housenumber" v="4"/>
    <tag k="addr:street" v="Im Selling"/>
    <tag k="wheelchair:description" v="barrierefrei, WC für Behinderte, Aufzug"/>
    <tag k="amenity" v="doctors"/>
    <tag k="website" v="http://www.rehlinger.de"/>
    <tag k="phone" v="+49 6874 555"/>
  </node>
  <node id="-1807" version="0" timestamp="Fri Feb 24 10:53:33 +0100 2012" uid="1" user="" lat="49.5053324" lon="6.7470925">
    <tag k="name" v="Eisenbahnhalle"/>
    <tag k="wheelchair" v="yes"/>
    <tag k="addr:city" v="Losheim am See"/>
    <tag k="addr:postcode" v="66679"/>
    <tag k="addr:housenumber" v="3"/>
    <tag k="tourism" v="museum"/>
    <tag k="addr:street" v="Streifstr"/>
    <tag k="website" v="http://www.losheim-stausee.de/veranstaltungen/eisenbahnhalle.html"/>
  </node>
  <node id="-1808" version="0" timestamp="Fri Feb 24 10:53:33 +0100 2012" uid="1" user="" lat="49.5072719" lon="6.7455861">
    <tag k="name" v="VersicherungsCenter / Sozialbüro"/>
    <tag k="wheelchair" v="limited"/>
    <tag k="addr:city" v="Losheim am See"/>
    <tag k="addr:postcode" v="66679 "/>
    <tag k="addr:housenumber" v="2"/>
    <tag k="addr:street" v="Am Carl-Dewes-Platz "/>
    <tag k="wheelchair:description" v="Abwicklung aller gesetzlichen u. privaten Versicherungs- und Anträge"/>
    <tag k="amenity" v="bank"/>
    <tag k="phone" v="0687292230"/>
  </node>
  <node id="-1836" version="0" timestamp="Fri Feb 24 10:53:33 +0100 2012" uid="1" user="" lat="49.4933882" lon="6.7822575">
    <tag k="name" v="Schützenhaus"/>
    <tag k="wheelchair" v="yes"/>
    <tag k="addr:city" v="Losheim am See"/>
    <tag k="addr:postcode" v="66679 "/>
    <tag k="addr:street" v="Zum Sportplatz"/>
    <tag k="leisure" v="stadium"/>
  </node>
  <node id="-1995" version="0" timestamp="Fri Feb 24 10:53:34 +0100 2012" uid="1" user="" lat="49.5272841" lon="6.8189669">
    <tag k="name" v="Kirche Maria Königin"/>
    <tag k="wheelchair" v="yes"/>
    <tag k="addr:city" v="Weiskirchen"/>
    <tag k="addr:postcode" v="66709"/>
    <tag k="addr:street" v="Dorfstr"/>
    <tag k="amenity" v="place_of_worship"/>
    <tag k="website" v="http://weiskirchen.digital-bandits.de/index.php?id=565"/>
  </node>
  <node id="-2313" version="0" timestamp="Fri Feb 24 10:53:34 +0100 2012" uid="1" user="" lat="49.50789" lon="6.74429">
    <tag k="name" v="Rathaus "/>
    <tag k="wheelchair" v="yes"/>
    <tag k="addr:city" v="Losheim"/>
    <tag k="addr:postcode" v="66679"/>
    <tag k="addr:housenumber" v="3"/>
    <tag k="addr:street" v="Merziger Str."/>
    <tag k="website" v="http://www.Losheim.de"/>
    <tag k="phone" v="+49 6872 6090"/>
  </node>
  <node id="-2314" version="0" timestamp="Fri Feb 24 10:53:34 +0100 2012" uid="1" user="" lat="49.5110956" lon="6.7412658">
    <tag k="name" v="Pizzeria Capri"/>
    <tag k="wheelchair" v="limited"/>
    <tag k="wheelchair:description" v="wenige Stufen, aber Toilette im Keller"/>
    <tag k="amenity" v="restaurant"/>
  </node>
  <node id="-2315" version="0" timestamp="Fri Feb 24 10:53:34 +0100 2012" uid="1" user="" lat="49.5090887" lon="6.7447106">
    <tag k="name" v="Saalbau Losheim"/>
    <tag k="wheelchair" v="yes"/>
    <tag k="wheelchair:description" v="eigener Aufzug, danach Stufenfrei befahrbar "/>
    <tag k="amenity" v="townhall"/>
  </node>
  <node id="-2320" version="0" timestamp="Fri Feb 24 10:53:34 +0100 2012" uid="1" user="" lat="49.5076429" lon="6.7449452">
    <tag k="name" v="Zwentibold"/>
    <tag k="wheelchair" v="limited"/>
    <tag k="wheelchair:description" v="ebenerdig befahrbar, aber Toilette im Keller"/>
    <tag k="amenity" v="pub"/>
  </node>
  <node id="-2325" version="0" timestamp="Fri Feb 24 10:53:34 +0100 2012" uid="1" user="" lat="49.5219607" lon="6.7338961">
    <tag k="name" v="Garten der Vierjahreszeiten mit Bistro"/>
    <tag k="wheelchair" v="yes"/>
    <tag k="wheelchair:description" v="Garten, aber durch lockere Wege nur schlecht befahrbar"/>
    <tag k="amenity" v="bank"/>
  </node>
  <node id="-2326" version="0" timestamp="Fri Feb 24 10:53:34 +0100 2012" uid="1" user="" lat="49.5219607" lon="6.7338961">
    <tag k="name" v="Garten der Vierjahreszeiten mit Bistro"/>
    <tag k="wheelchair" v="yes"/>
    <tag k="wheelchair:description" v="Garten, aber durch lockere Wege nur schlecht befahrbar"/>
    <tag k="amenity" v="bank"/>
  </node>
  <node id="-2378" version="0" timestamp="Fri Feb 24 10:53:34 +0100 2012" uid="1" user="" lat="49.50799" lon="6.74413">
    <tag k="shop" v="books"/>
    <tag k="name" v="Buchhandlung Rote Zora"/>
    <tag k="wheelchair" v="yes"/>
    <tag k="wheelchair:description" v="Kundentoilette im Erdgeschoss"/>
  </node>
</osm>
