<?xml version='1.0' encoding='UTF-8'?>
<osm version="0.6" generator="Osmosis 0.39">
  <node id="-137" version="0" timestamp="Fri Feb 24 10:53:32 +0100 2012" uid="1" user="" lat="49.33628" lon="7.18178">
    <tag k="shop" v="supermarket"/>
    <tag k="name" v="REWE"/>
    <tag k="wheelchair" v="unknown"/>
    <tag k="wheelchair:description" v="Barrierefrei"/>
  </node>
  <node id="-2749" version="0" timestamp="Fri Feb 24 10:53:34 +0100 2012" uid="1" user="" lat="49.3778818" lon="7.0500555">
    <tag k="name" v="Dr.Krämer"/>
    <tag k="wheelchair" v="yes"/>
    <tag k="addr:city" v="Illingen"/>
    <tag k="addr:postcode" v="66557"/>
    <tag k="addr:housenumber" v="54"/>
    <tag k="addr:street" v="Hauptstraße"/>
    <tag k="wheelchair:description" v="behindertengerechter Eingang,Aufzug im Haus,Parkplätze im Gebäude, Schwerbehindertenparkplatz hinterm Gebäude, behindertengerechte Toilette"/>
    <tag k="amenity" v="doctors"/>
    <tag k="phone" v="06825/42055"/>
  </node>
  <node id="-2750" version="0" timestamp="Fri Feb 24 10:53:34 +0100 2012" uid="1" user="" lat="49.37788" lon="7.05006">
    <tag k="name" v="St. Stephanus-Apotheke"/>
    <tag k="wheelchair" v="yes"/>
    <tag k="addr:city" v="Illingen"/>
    <tag k="addr:postcode" v="66557"/>
    <tag k="addr:housenumber" v="54"/>
    <tag k="addr:street" v="Hauptstraße"/>
    <tag k="wheelchair:description" v="behindertengerechter Eingang,Parkplätze am Gebäude, Schwerbehindertenparkplatz hinterm Gebäude"/>
    <tag k="amenity" v="pharmacy"/>
    <tag k="phone" v="06825/48151"/>
  </node>
  <node id="-2751" version="0" timestamp="Fri Feb 24 10:53:34 +0100 2012" uid="1" user="" lat="49.3778946" lon="7.0499944">
    <tag k="name" v="Dr. Kotterbach, O.Piatezki"/>
    <tag k="wheelchair" v="yes"/>
    <tag k="addr:city" v="Illingen"/>
    <tag k="addr:postcode" v="66557"/>
    <tag k="addr:housenumber" v="54"/>
    <tag k="addr:street" v="Hauptstraße"/>
    <tag k="wheelchair:description" v="Eingang hinterm Gebäude ebenerdig, Aufzug im Haus, Parkplätze am Gebäude, Schwerbehindertenparkplatz hinterm Gebäude, behindertenfreundliche Toilette"/>
    <tag k="amenity" v="doctors"/>
    <tag k="phone" v="06825/403690"/>
  </node>
  <node id="-2752" version="0" timestamp="Fri Feb 24 10:53:34 +0100 2012" uid="1" user="" lat="49.3778441" lon="7.0500973">
    <tag k="name" v="Dr. Braun"/>
    <tag k="wheelchair" v="yes"/>
    <tag k="addr:city" v="Illingen"/>
    <tag k="addr:postcode" v="66557"/>
    <tag k="addr:housenumber" v="54"/>
    <tag k="addr:street" v="Hauptstraße"/>
    <tag k="wheelchair:description" v="ebenerdiger Eingang, Aufzug im Haus, Parkplätze am Gebäude, Schwerbehindertenparkplatz am Gebäude"/>
    <tag k="amenity" v="doctors"/>
    <tag k="phone" v="06825/2053"/>
  </node>
  <node id="-2753" version="0" timestamp="Fri Feb 24 10:53:34 +0100 2012" uid="1" user="" lat="49.3786608" lon="7.0494402">
    <tag k="name" v="Gelenkzentrum Saar"/>
    <tag k="wheelchair" v="yes"/>
    <tag k="addr:city" v="Illingen"/>
    <tag k="addr:postcode" v="66557"/>
    <tag k="addr:housenumber" v="12"/>
    <tag k="addr:street" v="Rathausstraße"/>
    <tag k="wheelchair:description" v="Ebenerdiger Eingang hinterm Haus, Aufzug im Haus, Parkplätze hinterm Haus, behindertengerechte Toilette"/>
    <tag k="amenity" v="doctors"/>
    <tag k="phone" v="06825/942950"/>
  </node>
  <node id="-2754" version="0" timestamp="Fri Feb 24 10:53:34 +0100 2012" uid="1" user="" lat="49.3786216" lon="7.0494615">
    <tag k="name" v="Dr. Junk, Dr. Hoppstädter"/>
    <tag k="wheelchair" v="yes"/>
    <tag k="addr:city" v="Illingen"/>
    <tag k="addr:postcode" v="66557"/>
    <tag k="addr:housenumber" v="12"/>
    <tag k="addr:street" v="Rathausstraße"/>
    <tag k="wheelchair:description" v="Behindertengerechter Eingang, Aufzug im Haus, behindertengerechte Toilette, Parkplätze am Gebäude"/>
    <tag k="amenity" v="doctors"/>
    <tag k="phone" v="06825/952950"/>
  </node>
  <node id="-2755" version="0" timestamp="Fri Feb 24 10:53:34 +0100 2012" uid="1" user="" lat="49.3783581" lon="7.0502057">
    <tag k="name" v="Chirugisch-Orthopädisches Zentrum"/>
    <tag k="wheelchair" v="yes"/>
    <tag k="addr:city" v="Illingen"/>
    <tag k="addr:postcode" v="66557"/>
    <tag k="addr:housenumber" v="2"/>
    <tag k="addr:street" v="Rathausstraße"/>
    <tag k="wheelchair:description" v="ebenerdiger Eingang, Parkplätze am Gebäude, behindertenfreundliche Toilette"/>
    <tag k="amenity" v="doctors"/>
    <tag k="phone" v="06825/44402"/>
  </node>
  <node id="-2756" version="0" timestamp="Fri Feb 24 10:53:34 +0100 2012" uid="1" user="" lat="49.3774532" lon="7.0505135">
    <tag k="name" v="Bank 1 Saar"/>
    <tag k="wheelchair" v="limited"/>
    <tag k="addr:city" v="Illingen"/>
    <tag k="addr:postcode" v="66557"/>
    <tag k="addr:street" v="Am Alten Markt"/>
    <tag k="wheelchair:description" v="ebenerdiger Eingang, im Gebäude Treppenstufen,Parkplatz am Gebäude, Schwerbehindertenparkplatz am Gebäude"/>
    <tag k="amenity" v="bank"/>
    <tag k="phone" v="06825/9429820"/>
  </node>
  <node id="-2757" version="0" timestamp="Fri Feb 24 10:53:34 +0100 2012" uid="1" user="" lat="49.3769226" lon="7.0518457">
    <tag k="name" v="Sparkasse Illingen"/>
    <tag k="wheelchair" v="yes"/>
    <tag k="addr:city" v="Illingen"/>
    <tag k="addr:postcode" v="66557"/>
    <tag k="addr:housenumber" v="37"/>
    <tag k="addr:street" v="Hauptstraße"/>
    <tag k="wheelchair:description" v="ebenerdiger Eingang, Parkplätze am Gebäude, Schwerbehindertenparkplatz am Gebäude"/>
    <tag k="amenity" v="bank"/>
    <tag k="phone" v="06825/942790"/>
  </node>
  <node id="-2759" version="0" timestamp="Fri Feb 24 10:53:34 +0100 2012" uid="1" user="" lat="49.3786453" lon="7.0481915">
    <tag k="name" v="Gemeindebücherei Illingen"/>
    <tag k="wheelchair" v="limited"/>
    <tag k="addr:city" v="Illingen"/>
    <tag k="addr:postcode" v="66557"/>
    <tag k="addr:housenumber" v="82"/>
    <tag k="addr:street" v="Hauptstraße"/>
    <tag k="wheelchair:description" v="behindertengerechter Eingang,teilweise Barrierefrei, Parkplatz am Gebäude, Schwerbehindertenparkplatz in direkter Nähe"/>
    <tag k="amenity" v="library"/>
    <tag k="phone" v="06825/4060291"/>
  </node>
  <node id="-2760" version="0" timestamp="Fri Feb 24 10:53:34 +0100 2012" uid="1" user="" lat="49.3756324" lon="7.0518807">
    <tag k="name" v="Jugendzentrum Illingen"/>
    <tag k="wheelchair" v="yes"/>
    <tag k="addr:city" v="Illingen"/>
    <tag k="addr:postcode" v="66557"/>
    <tag k="addr:housenumber" v="5"/>
    <tag k="addr:street" v="Poststraße "/>
    <tag k="wheelchair:description" v="behindertengerechter Eingang, barrierefreies Erdgeschoss, behindertengerechte Toilette, Parkplätze in der Nähe"/>
  </node>
  <node id="-2765" version="0" timestamp="Fri Feb 24 10:53:34 +0100 2012" uid="1" user="" lat="49.3799608" lon="7.0533284">
    <tag k="name" v="Vera Post"/>
    <tag k="wheelchair" v="yes"/>
    <tag k="addr:city" v="Illingen"/>
    <tag k="addr:postcode" v="66557"/>
    <tag k="addr:housenumber" v="1"/>
    <tag k="addr:street" v="Krankenhausstraße"/>
    <tag k="wheelchair:description" v="behindertengerechter Eingang, Aufzug im Haus, Parkplätze am Gebäude"/>
    <tag k="amenity" v="bank"/>
    <tag k="phone" v="06825/497370"/>
  </node>
  <node id="-2766" version="0" timestamp="Fri Feb 24 10:53:34 +0100 2012" uid="1" user="" lat="49.3792509" lon="7.0488873">
    <tag k="name" v="Bürgerbüro"/>
    <tag k="wheelchair" v="yes"/>
    <tag k="addr:city" v="Illingen"/>
    <tag k="addr:postcode" v="66557"/>
    <tag k="addr:housenumber" v="14"/>
    <tag k="addr:street" v="Rathausstraße"/>
    <tag k="wheelchair:description" v="ebenerdiger Eingang, Parkplätze am Gebäude, Schwerbehindertenparkplätze am Gebäude, behindertengerechte Toilette"/>
    <tag k="phone" v="^06825/4090150"/>
  </node>
  <node id="-2768" version="0" timestamp="Fri Feb 24 10:53:34 +0100 2012" uid="1" user="" lat="49.3788379" lon="7.0478815">
    <tag k="name" v="DSI"/>
    <tag k="wheelchair" v="yes"/>
    <tag k="addr:city" v="Illingen"/>
    <tag k="addr:postcode" v="66557"/>
    <tag k="addr:housenumber" v="84"/>
    <tag k="addr:street" v="Hauptstraße"/>
    <tag k="wheelchair:description" v="behindertengerechter Eingang, Parkplätze am Gebäude, Schwerbehindertenparkplatz beim Nebengebäude, behindertengerechte Toilette, Behinterdenlift im Erdgeschoss"/>
    <tag k="phone" v="06825/409210"/>
  </node>
  <node id="-2769" version="0" timestamp="Fri Feb 24 10:53:34 +0100 2012" uid="1" user="" lat="49.3762974" lon="7.053518">
    <tag k="name" v="Marien-Apotheke"/>
    <tag k="wheelchair" v="yes"/>
    <tag k="addr:city" v="Illingen"/>
    <tag k="addr:postcode" v="66557"/>
    <tag k="addr:housenumber" v="12-15"/>
    <tag k="addr:street" v="Hauptstraße"/>
    <tag k="wheelchair:description" v="ebenerdiger Eingang, Parkplätze am Gebäude"/>
    <tag k="amenity" v="pharmacy"/>
    <tag k="phone" v="06825/41450"/>
  </node>
  <node id="-2771" version="0" timestamp="Fri Feb 24 10:53:34 +0100 2012" uid="1" user="" lat="49.3764467" lon="7.0536112">
    <tag k="name" v="Schwanen-Apotheke"/>
    <tag k="wheelchair" v="yes"/>
    <tag k="addr:city" v="Illingen"/>
    <tag k="addr:postcode" v="66557"/>
    <tag k="addr:housenumber" v="14"/>
    <tag k="addr:street" v="Hauptstraße "/>
    <tag k="wheelchair:description" v="behindertengerechter Eingang, Parkplätze am Gebäude"/>
    <tag k="amenity" v="pharmacy"/>
    <tag k="phone" v="06825/410110"/>
  </node>
  <node id="-2773" version="0" timestamp="Fri Feb 24 10:53:34 +0100 2012" uid="1" user="" lat="49.3765059" lon="7.0540713">
    <tag k="name" v="Dr. Köhler"/>
    <tag k="wheelchair" v="yes"/>
    <tag k="addr:city" v="Illingen"/>
    <tag k="addr:postcode" v="66557"/>
    <tag k="addr:housenumber" v="10"/>
    <tag k="addr:street" v="Hauptstraße"/>
    <tag k="wheelchair:description" v="ebenerdiger Eingang, Aufzug im Haus, Parkplätze am Gebäude"/>
    <tag k="amenity" v="doctors"/>
    <tag k="phone" v="06825/2251"/>
  </node>
  <node id="-2774" version="0" timestamp="Fri Feb 24 10:53:34 +0100 2012" uid="1" user="" lat="49.37651" lon="7.05407">
    <tag k="name" v="Dr. Leist"/>
    <tag k="wheelchair" v="yes"/>
    <tag k="addr:housenumber" v="20"/>
    <tag k="addr:street" v="Hauptstraße"/>
    <tag k="wheelchair:description" v="ebenerdiger Eingang, Fahrstuhl im Gebäude, Parkplätze am Gebäude"/>
    <tag k="amenity" v="doctors"/>
  </node>
  <node id="-2776" version="0" timestamp="Fri Feb 24 10:53:34 +0100 2012" uid="1" user="" lat="49.3764716" lon="7.0485715">
    <tag k="name" v="Margit Wilhelms Logopädie"/>
    <tag k="wheelchair" v="yes"/>
    <tag k="addr:city" v="Illingen"/>
    <tag k="addr:postcode" v="66557"/>
    <tag k="addr:housenumber" v="6"/>
    <tag k="addr:street" v="Schillerstraße"/>
    <tag k="wheelchair:description" v="Eingang mit Treppen, bei Mobilitätseinschränkung kostenloser Hausbesuch, Parkplätze am Gebäude, behindertenfreundliche Toilette"/>
    <tag k="leisure" v="sports_centre"/>
    <tag k="phone" v="06825/2103"/>
  </node>
  <node id="-2777" version="0" timestamp="Fri Feb 24 10:53:34 +0100 2012" uid="1" user="" lat="49.3776475" lon="7.0508802">
    <tag k="name" v="Vera Tillmann"/>
    <tag k="wheelchair" v="limited"/>
    <tag k="addr:city" v="Illingen"/>
    <tag k="addr:postcode" v="66557"/>
    <tag k="addr:housenumber" v="38"/>
    <tag k="addr:street" v="Hauptstraße"/>
    <tag k="wheelchair:description" v="ebenerdiger Eingang, Aufzug im Gebäude, Parkplätze an der Straße"/>
    <tag k="amenity" v="doctors"/>
    <tag k="phone" v="0171/7131511"/>
  </node>
  <node id="-2779" version="0" timestamp="Fri Feb 24 10:53:34 +0100 2012" uid="1" user="" lat="49.3766686" lon="7.0544473">
    <tag k="name" v="Burg Kerpen"/>
    <tag k="wheelchair" v="yes"/>
    <tag k="addr:city" v="Illingen"/>
    <tag k="addr:postcode" v="66557"/>
    <tag k="addr:housenumber" v="5"/>
    <tag k="addr:street" v="Burgweg"/>
    <tag k="wheelchair:description" v="ebenerdiger Eingang, Parkplätze am Gebäude, Schwerbehindertenparkplätze am Gebäude, behindertengerechte Toilette"/>
    <tag k="phone" v="06825/942930"/>
    <tag k="historic" v="castle"/>
  </node>
  <node id="-2782" version="0" timestamp="Fri Feb 24 10:53:34 +0100 2012" uid="1" user="" lat="49.3768202" lon="7.052846">
    <tag k="name" v="Brasserie LÀubergine"/>
    <tag k="wheelchair" v="yes"/>
    <tag k="addr:city" v="Illingen"/>
    <tag k="addr:postcode" v="66557"/>
    <tag k="addr:housenumber" v="2"/>
    <tag k="addr:street" v="Burgweg"/>
    <tag k="wheelchair:description" v="ebenerdiger Eingang, Parkplätze am Gebäude, Schwerbehindertenparkplätze am Gebäude, behindertengerechte Toilette"/>
    <tag k="amenity" v="restaurant"/>
    <tag k="phone" v="06825/499354"/>
  </node>
  <node id="-2785" version="0" timestamp="Fri Feb 24 10:53:34 +0100 2012" uid="1" user="" lat="49.3768689" lon="7.0491754">
    <tag k="name" v="La Rotonda"/>
    <tag k="wheelchair" v="yes"/>
    <tag k="addr:city" v="Illingen"/>
    <tag k="addr:postcode" v="66557"/>
    <tag k="addr:housenumber" v="6"/>
    <tag k="addr:street" v="Eisenbahnstraße"/>
    <tag k="wheelchair:description" v="ebenerdiger Eingang, Parkplätze am Gebäude"/>
    <tag k="amenity" v="cafe"/>
    <tag k="phone" v="06825/403232"/>
  </node>
  <node id="-2787" version="0" timestamp="Fri Feb 24 10:53:34 +0100 2012" uid="1" user="" lat="49.3772717" lon="7.0503012">
    <tag k="name" v="China-Imbiss Peking"/>
    <tag k="wheelchair" v="yes"/>
    <tag k="addr:city" v="Illingen"/>
    <tag k="addr:postcode" v="66557"/>
    <tag k="addr:housenumber" v="2"/>
    <tag k="addr:street" v="Am Alten Markt"/>
    <tag k="wheelchair:description" v="ebenerdiger Eingang, Parkplätze am Gebäude, Schwerbehindertenparkplätze am Gebäude"/>
    <tag k="amenity" v="fast_food"/>
    <tag k="phone" v="06825/497408"/>
  </node>
  <node id="-2788" version="0" timestamp="Fri Feb 24 10:53:34 +0100 2012" uid="1" user="" lat="49.3775913" lon="7.0550851">
    <tag k="name" v="Burg Kerpen"/>
    <tag k="wheelchair" v="yes"/>
    <tag k="addr:city" v="Illingen"/>
    <tag k="addr:postcode" v="66557"/>
    <tag k="addr:housenumber" v="5"/>
    <tag k="tourism" v="hotel"/>
    <tag k="addr:street" v="Burgweg"/>
    <tag k="wheelchair:description" v="ebenerdiger Eingang, Schwerbehindertenparkplätze a´m Gebäude, ebenerdiger Zugang ins Restaurant, behindertengerechte Toilette, Zimmer für Rollstuhlfahrer nicht erreichbar"/>
    <tag k="phone" v="06825/942930"/>
  </node>
  <node id="-2789" version="0" timestamp="Fri Feb 24 10:53:34 +0100 2012" uid="1" user="" lat="49.3870261" lon="7.0421564">
    <tag k="name" v="Hotel Suleder"/>
    <tag k="wheelchair" v="yes"/>
    <tag k="addr:city" v="Illingen"/>
    <tag k="addr:postcode" v="66557"/>
    <tag k="addr:housenumber" v="101"/>
    <tag k="tourism" v="hotel"/>
    <tag k="addr:street" v="Illinger Straße"/>
    <tag k="wheelchair:description" v="ebenerdiger Eingang, Parkplätze am Gebäude, ebenerdiger zugang ins Restaurant, behindertenfreundliche Toilette, Behindertenzimmer"/>
    <tag k="phone" v="06825/93070"/>
  </node>
  <node id="-2790" version="0" timestamp="Fri Feb 24 10:53:34 +0100 2012" uid="1" user="" lat="49.3660359" lon="7.0405502">
    <tag k="name" v="Hallenbad Illingen"/>
    <tag k="wheelchair" v="yes"/>
    <tag k="addr:city" v="Illingen"/>
    <tag k="addr:postcode" v="66557"/>
    <tag k="addr:street" v="Im Fahren"/>
    <tag k="wheelchair:description" v="behindertengerechter Eingang, Parkplätze in direkter Nähe, Schwerbehindertenparkplatz in direkter Nähe, Behindertenlift ins Schwimmbecken, behindertengerechte Toilette sowie Dusche und Umkleide, Rollstuhl vor Ort"/>
    <tag k="amenity" v="swimming_pool"/>
    <tag k="phone" v="06825/43535"/>
  </node>
  <node id="-2792" version="0" timestamp="Fri Feb 24 10:53:34 +0100 2012" uid="1" user="" lat="49.3661518" lon="7.0408611">
    <tag k="name" v="Cafeteria am Hallenbad"/>
    <tag k="wheelchair" v="yes"/>
    <tag k="addr:city" v="Illingen"/>
    <tag k="addr:postcode" v="66557"/>
    <tag k="addr:housenumber" v="1"/>
    <tag k="addr:street" v="Am Schwarzen Weg"/>
    <tag k="wheelchair:description" v="ebenerdiger Eingang, Parkplätze am Gebäude, Schwerbehindertenparkplätze am Gebäude, behindertengerechte Toilette"/>
    <tag k="amenity" v="cafe"/>
    <tag k="phone" v="06825/4060059"/>
  </node>
  <node id="-2794" version="0" timestamp="Fri Feb 24 10:53:34 +0100 2012" uid="1" user="" lat="49.3897463" lon="7.0730077">
    <tag k="name" v="Sparkasse Hüttigweiler"/>
    <tag k="wheelchair" v="yes"/>
    <tag k="addr:city" v="Illingen"/>
    <tag k="addr:postcode" v="66557"/>
    <tag k="addr:housenumber" v="2"/>
    <tag k="addr:street" v="Neunkircher Straße"/>
    <tag k="wheelchair:description" v="ebenerdiger Eingang, Parkplätze im Gebäude, Schwerbehindertenparkplatz am Gebäude"/>
    <tag k="amenity" v="bank"/>
    <tag k="phone" v="06825/9429800"/>
  </node>
  <node id="-2795" version="0" timestamp="Fri Feb 24 10:53:34 +0100 2012" uid="1" user="" lat="49.3845243" lon="7.0742235">
    <tag k="name" v="Papadopoulos Barbara"/>
    <tag k="wheelchair" v="yes"/>
    <tag k="addr:city" v="Illingen"/>
    <tag k="addr:postcode" v="66557"/>
    <tag k="addr:street" v="Pfarrstraße"/>
    <tag k="wheelchair:description" v="behindertengerechter Eingang, Parkplätze am Gebäude, 2 Behindertenparkplätze am Gebäude, behindertengerechte Toilette"/>
    <tag k="amenity" v="restaurant"/>
    <tag k="phone" v="06825/42222"/>
  </node>
  <node id="-2801" version="0" timestamp="Fri Feb 24 10:53:34 +0100 2012" uid="1" user="" lat="49.3846562" lon="7.0743917">
    <tag k="name" v="Illtalhalle"/>
    <tag k="wheelchair" v="yes"/>
    <tag k="addr:city" v="Illingen"/>
    <tag k="addr:postcode" v="66557"/>
    <tag k="addr:street" v="Pfarrstraße"/>
    <tag k="wheelchair:description" v="behindertengerechter Eingang, Parkplätze am Gebäude, 2 Behindertenparkplätze am Gebäude, behindertengerechte Toilette und Dusche"/>
    <tag k="leisure" v="stadium"/>
  </node>
  <node id="-2802" version="0" timestamp="Fri Feb 24 10:53:34 +0100 2012" uid="1" user="" lat="49.4012858" lon="7.0771946">
    <tag k="name" v="Dorwaldhalle"/>
    <tag k="wheelchair" v="yes"/>
    <tag k="addr:city" v="Illingen"/>
    <tag k="addr:postcode" v="66557"/>
    <tag k="addr:street" v="Leiweiserstraße"/>
    <tag k="wheelchair:description" v="behindertengerechter Seiteneingang, Parkplätze am Gebäude, behindertengerechte Toilette"/>
    <tag k="leisure" v="arena"/>
  </node>
  <node id="-2803" version="0" timestamp="Fri Feb 24 10:53:34 +0100 2012" uid="1" user="" lat="49.4004761" lon="7.0775015">
    <tag k="name" v="Veronika-Viktoria Fuchs Logopädie"/>
    <tag k="wheelchair" v="yes"/>
    <tag k="addr:city" v="Illingen"/>
    <tag k="addr:postcode" v="66557"/>
    <tag k="addr:housenumber" v="2"/>
    <tag k="addr:street" v="Birkenweg"/>
    <tag k="wheelchair:description" v="ebenerdiger Eingang, Treppe mit Geländer im Haus, Parkplatz am Gebäude, Praxisbesonderheit: Therapiebegleithund &amp; Hausbesuche"/>
    <tag k="amenity" v="doctors"/>
    <tag k="phone" v="06825/410625"/>
  </node>
  <node id="-2804" version="0" timestamp="Fri Feb 24 10:53:34 +0100 2012" uid="1" user="" lat="49.3958926" lon="7.0910827">
    <tag k="name" v="Welschbachhalle"/>
    <tag k="wheelchair" v="yes"/>
    <tag k="addr:city" v="Illingen"/>
    <tag k="addr:postcode" v="66557"/>
    <tag k="wheelchair:description" v="ebenerdiger Eingang, Parkplätze am Gebäude, Schwerbehindertenparkplatz am Gebäude, behindertengerechte Toilette"/>
    <tag k="leisure" v="arena"/>
  </node>
  <node id="-2806" version="0" timestamp="Fri Feb 24 10:53:34 +0100 2012" uid="1" user="" lat="49.3959501" lon="7.0909674">
    <tag k="name" v="Cafeteria Welschbachhalle"/>
    <tag k="wheelchair" v="yes"/>
    <tag k="addr:city" v="Illingen"/>
    <tag k="addr:postcode" v="66557"/>
    <tag k="addr:street" v="Querstraße"/>
    <tag k="wheelchair:description" v="Eingang ebenerdig, Parkplätze am Gebäude, Schwerbehindertenparkplatz am Gebäude, behindertengerechte Toilette"/>
    <tag k="amenity" v="cafe"/>
  </node>
  <node id="-2807" version="0" timestamp="Fri Feb 24 10:53:34 +0100 2012" uid="1" user="" lat="49.3980773" lon="7.0856207">
    <tag k="name" v="Katholische Kirche"/>
    <tag k="wheelchair" v="limited"/>
    <tag k="addr:city" v="Illingen"/>
    <tag k="addr:postcode" v="66557"/>
    <tag k="wheelchair:description" v="Zugang für Rollstuhlfahrer möglich, Behindertenparkplatz in direkter Nähe"/>
    <tag k="amenity" v="place_of_worship"/>
  </node>
  <node id="-2823" version="0" timestamp="Fri Feb 24 10:53:34 +0100 2012" uid="1" user="" lat="49.3857127" lon="7.0733033">
    <tag k="name" v="Katholische Kirche Hüttigweiler"/>
    <tag k="wheelchair" v="limited"/>
    <tag k="addr:city" v="Illingen"/>
    <tag k="addr:postcode" v="66557"/>
    <tag k="addr:street" v="Pfarrstraße"/>
    <tag k="wheelchair:description" v="Zugang für Rollstuhlfahrer möglich, Behindertenparkplatz in direkter Nähe"/>
    <tag k="amenity" v="place_of_worship"/>
  </node>
  <node id="-2827" version="0" timestamp="Fri Feb 24 10:53:34 +0100 2012" uid="1" user="" lat="49.3986987" lon="7.0382382">
    <tag k="name" v="Katholische Kirche "/>
    <tag k="wheelchair" v="limited"/>
    <tag k="addr:city" v="Illingen"/>
    <tag k="addr:postcode" v="66557"/>
    <tag k="addr:street" v="Pastor-Schulz-Straße"/>
    <tag k="wheelchair:description" v="Zugang für Rollstuhlfahrer möglich, Behindertenparkplatz in direkter Nähe"/>
    <tag k="amenity" v="place_of_worship"/>
  </node>
  <node id="-2832" version="0" timestamp="Fri Feb 24 10:53:34 +0100 2012" uid="1" user="" lat="49.3777838" lon="7.0195933">
    <tag k="name" v="Sparkasse Uchtelfangen"/>
    <tag k="wheelchair" v="yes"/>
    <tag k="addr:city" v="Illingen"/>
    <tag k="addr:postcode" v="66557"/>
    <tag k="addr:housenumber" v="6"/>
    <tag k="addr:street" v="Hirtenbergstraße"/>
    <tag k="wheelchair:description" v="ebenerdiger Eingang, Parkplätze am Gebäude, Schwerbehindertenparkplatz am Gebäude"/>
    <tag k="amenity" v="bank"/>
    <tag k="phone" v="06825/93290"/>
  </node>
  <node id="-2833" version="0" timestamp="Fri Feb 24 10:53:34 +0100 2012" uid="1" user="" lat="49.3729462" lon="7.0172032">
    <tag k="name" v="Offener Treff Uchtelfangen"/>
    <tag k="wheelchair" v="yes"/>
    <tag k="addr:city" v="Illingen"/>
    <tag k="addr:postcode" v="66557"/>
    <tag k="addr:housenumber" v="14"/>
    <tag k="addr:street" v="Johannesstraße"/>
    <tag k="wheelchair:description" v="Eingang rollstuhlgerecht, barrierefreies Erdgeschoss, Parkplätze in der nähe, erhöhtes Gefälle"/>
  </node>
  <node id="-3193" version="0" timestamp="Fri Feb 24 10:53:35 +0100 2012" uid="1" user="" lat="49.34409" lon="7.17175">
    <tag k="name" v="Ärztehaus Boxberg"/>
    <tag k="wheelchair" v="yes"/>
    <tag k="addr:city" v="Neunkirchen"/>
    <tag k="addr:postcode" v="66538"/>
    <tag k="addr:street" v="Boxbergweg"/>
    <tag k="wheelchair:description" v="Lift "/>
    <tag k="amenity" v="doctors"/>
  </node>
  <node id="-3194" version="0" timestamp="Fri Feb 24 10:53:35 +0100 2012" uid="1" user="" lat="49.34752" lon="7.1737">
    <tag k="shop" v="mall"/>
    <tag k="name" v="Saarparkcenter"/>
    <tag k="wheelchair" v="yes"/>
    <tag k="wheelchair:description" v="Aufzug, Behindertentoilette"/>
  </node>
  <node id="-3210" version="0" timestamp="Fri Feb 24 10:53:35 +0100 2012" uid="1" user="" lat="49.3363107" lon="7.1756699">
    <tag k="name" v="Annelies"/>
    <tag k="wheelchair" v="limited"/>
    <tag k="addr:city" v="Neunkirchen/Saar "/>
    <tag k="addr:postcode" v="66538"/>
    <tag k="addr:housenumber" v="21"/>
    <tag k="addr:street" v="Spieser Straße"/>
    <tag k="wheelchair:description" v="Zugang über Rückseite vom Parkplatz"/>
    <tag k="amenity" v="restaurant"/>
    <tag k="phone" v="+49 6821 9516633"/>
  </node>
  <node id="-3211" version="0" timestamp="Fri Feb 24 10:53:35 +0100 2012" uid="1" user="" lat="49.3099071" lon="7.1688524">
    <tag k="name" v="CFK - Centrum für Freizeit und Kommunikation der Lebenshilfe gGmbH"/>
    <tag k="wheelchair" v="yes"/>
    <tag k="addr:city" v="Spiesen-Elversberg "/>
    <tag k="addr:postcode" v="66583"/>
    <tag k="addr:housenumber" v="1"/>
    <tag k="tourism" v="hotel"/>
    <tag k="addr:street" v="Zum Nassenwald"/>
    <tag k="website" v="http://www.cfk-freizeitcentrum.de/"/>
    <tag k="phone" v="+49 6821 95979 0"/>
  </node>
  <node id="-3212" version="0" timestamp="Fri Feb 24 10:53:35 +0100 2012" uid="1" user="" lat="49.309854" lon="7.1690217">
    <tag k="name" v="CFK - Centrum für Freizeit und Kommunikation der Lebenshilfe gGmbH"/>
    <tag k="wheelchair" v="yes"/>
    <tag k="addr:city" v="Spiesen-Elversberg "/>
    <tag k="addr:postcode" v="66583"/>
    <tag k="addr:housenumber" v="1"/>
    <tag k="addr:street" v="Zum Nassenwald"/>
    <tag k="amenity" v="restaurant"/>
    <tag k="website" v="http://www.cfk-freizeitcentrum.de/"/>
    <tag k="phone" v="+49 6821 95979 0"/>
  </node>
  <node id="-4758" version="0" timestamp="Fri Feb 24 10:53:36 +0100 2012" uid="1" user="" lat="49.3294979" lon="7.1840688">
    <tag k="shop" v="supermarket"/>
    <tag k="name" v="Kaufland"/>
    <tag k="wheelchair" v="yes"/>
    <tag k="addr:city" v="Neunkirchen"/>
    <tag k="addr:postcode" v="66538"/>
    <tag k="addr:housenumber" v="50"/>
    <tag k="addr:street" v="Kirkeler Straße"/>
    <tag k="wheelchair:description" v="Rollstuhlgeeignete Einkaufswagen vorhanden"/>
    <tag k="website" v="http://www.kaufland.de"/>
    <tag k="phone" v="+49682198210"/>
  </node>
</osm>
