<?xml version='1.0' encoding='UTF-8'?>
<osm version="0.6" generator="Osmosis 0.39">
  <node id="-546" version="0" timestamp="Fri Feb 24 10:53:32 +0100 2012" uid="1" user="" lat="49.2337709" lon="6.9881188">
    <tag k="name" v="Kaffee Kolonial"/>
    <tag k="wheelchair" v="yes"/>
    <tag k="addr:city" v="Saarbrücken"/>
    <tag k="addr:postcode" v="66117"/>
    <tag k="addr:housenumber" v="15"/>
    <tag k="addr:street" v="Eisenbahnstraße / Ecke Stengelstraße"/>
    <tag k="wheelchair:description" v="Zugang zum Café, sowie zu den behindertengerechten Toiletten sind barrierefrei "/>
    <tag k="amenity" v="cafe"/>
    <tag k="phone" v="0681 - 3039612"/>
  </node>
  <node id="-907" version="0" timestamp="Fri Feb 24 10:53:33 +0100 2012" uid="1" user="" lat="49.22493" lon="7.00001">
    <tag k="shop" v="kiosk"/>
    <tag k="name" v="Tabak-&amp; Presse Papasodaro"/>
    <tag k="wheelchair" v="yes"/>
    <tag k="addr:city" v="Saarbrücken"/>
    <tag k="addr:postcode" v="66117"/>
    <tag k="addr:housenumber" v="65"/>
    <tag k="addr:street" v="Talstraße "/>
    <tag k="phone" v="06815959234"/>
  </node>
  <node id="-1417" version="0" timestamp="Fri Feb 24 10:53:33 +0100 2012" uid="1" user="" lat="49.28504" lon="7.04229">
    <tag k="name" v="HKV-Clubhaus"/>
    <tag k="wheelchair" v="limited"/>
    <tag k="addr:city" v="Dudweiler"/>
    <tag k="addr:postcode" v="66125"/>
    <tag k="addr:housenumber" v="6"/>
    <tag k="addr:street" v="Rehbachpfad"/>
    <tag k="amenity" v="pub"/>
  </node>
  <node id="-1704" version="0" timestamp="Fri Feb 24 10:53:33 +0100 2012" uid="1" user="" lat="49.2939798" lon="6.9535193">
    <tag k="name" v="S-Bahn Haltestelle Riegelsberg Süd"/>
    <tag k="wheelchair" v="yes"/>
    <tag k="railway" v="platform"/>
  </node>
  <node id="-1710" version="0" timestamp="Fri Feb 24 10:53:33 +0100 2012" uid="1" user="" lat="49.3227159" lon="6.9391518">
    <tag k="shop" v="supermarket"/>
    <tag k="name" v="Kaufland"/>
    <tag k="wheelchair" v="yes"/>
    <tag k="wheelchair:description" v="Alles Breit und groß ausgebaut !"/>
  </node>
  <node id="-1711" version="0" timestamp="Fri Feb 24 10:53:33 +0100 2012" uid="1" user="" lat="49.3228331" lon="6.9388009">
    <tag k="name" v="Salon Figaro Dupré GmbH "/>
    <tag k="wheelchair" v="yes"/>
    <tag k="wheelchair:description" v="Im Kaufland alles gut zu erreichen "/>
    <tag k="amenity" v="bank"/>
    <tag k="phone" v="(06806) 490 602"/>
  </node>
  <node id="-1717" version="0" timestamp="Fri Feb 24 10:53:33 +0100 2012" uid="1" user="" lat="49.3336915" lon="6.9266745">
    <tag k="shop" v="doityourself"/>
    <tag k="name" v="Hela Baumarkt "/>
    <tag k="wheelchair" v="yes"/>
    <tag k="addr:city" v="Heusweiler"/>
    <tag k="addr:postcode" v="66265"/>
    <tag k="addr:housenumber" v="13"/>
    <tag k="addr:street" v="Am Bahnhof "/>
    <tag k="website" v="http://www.hela.de/"/>
    <tag k="phone" v="06806/9513129"/>
  </node>
  <node id="-1718" version="0" timestamp="Fri Feb 24 10:53:33 +0100 2012" uid="1" user="" lat="49.3333209" lon="6.925018">
    <tag k="name" v="Hausweiler Schulzentum "/>
    <tag k="wheelchair" v="yes"/>
    <tag k="railway" v="platform"/>
  </node>
  <node id="-1719" version="0" timestamp="Fri Feb 24 10:53:33 +0100 2012" uid="1" user="" lat="49.3267574" lon="6.9222496">
    <tag k="name" v="Mühlengartenstraße "/>
    <tag k="wheelchair" v="yes"/>
    <tag k="wheelchair:description" v="Auf der eine Seite eine Steile auffahrt mir 10% steigung/gefälle "/>
    <tag k="railway" v="platform"/>
  </node>
  <node id="-1720" version="0" timestamp="Fri Feb 24 10:53:33 +0100 2012" uid="1" user="" lat="49.3370422" lon="6.9302414">
    <tag k="name" v="Heuseiler Markt "/>
    <tag k="wheelchair" v="yes"/>
    <tag k="railway" v="platform"/>
  </node>
  <node id="-1723" version="0" timestamp="Fri Feb 24 10:53:33 +0100 2012" uid="1" user="" lat="49.3381481" lon="6.9283968">
    <tag k="name" v="Allgemeinmediziner Dinh Huu Han"/>
    <tag k="wheelchair" v="no"/>
    <tag k="addr:city" v="Heusweiler"/>
    <tag k="addr:postcode" v="66265 "/>
    <tag k="addr:housenumber" v="4"/>
    <tag k="addr:street" v="Saarbrücker Str. "/>
    <tag k="amenity" v="doctors"/>
    <tag k="website" v="http://www.dinh-huu-han.de/"/>
    <tag k="phone" v="(0)6806-7 72 71"/>
  </node>
  <node id="-1724" version="0" timestamp="Fri Feb 24 10:53:33 +0100 2012" uid="1" user="" lat="49.3223004" lon="6.9189813">
    <tag k="name" v="Walpersthofen Mitte"/>
    <tag k="wheelchair" v="yes"/>
    <tag k="railway" v="platform"/>
  </node>
  <node id="-1729" version="0" timestamp="Fri Feb 24 10:53:33 +0100 2012" uid="1" user="" lat="49.3018689" lon="6.9434626">
    <tag k="name" v="Parkplatz Am Markt "/>
    <tag k="wheelchair" v="yes"/>
    <tag k="wheelchair:description" v="Zugang zu allen Geschäften einige extra Behindertenparkplätzen "/>
    <tag k="amenity" v="parking"/>
  </node>
  <node id="-1731" version="0" timestamp="Fri Feb 24 10:53:33 +0100 2012" uid="1" user="" lat="49.3020169" lon="6.9433742">
    <tag k="name" v="Pizzeria La Piazza"/>
    <tag k="wheelchair" v="limited"/>
    <tag k="addr:city" v="Riegelsberg"/>
    <tag k="addr:postcode" v="66292"/>
    <tag k="addr:housenumber" v="3"/>
    <tag k="addr:street" v="Am Markt "/>
    <tag k="wheelchair:description" v="Keine Möglichkeit auf WC zu gehen da es nur eine lange Treppe gibt! "/>
    <tag k="amenity" v="bank"/>
    <tag k="phone" v="(06806) 3839"/>
  </node>
  <node id="-1732" version="0" timestamp="Fri Feb 24 10:53:33 +0100 2012" uid="1" user="" lat="49.3013511" lon="6.9435788">
    <tag k="name" v="Bank u. Sparkasse Riegelsberg"/>
    <tag k="wheelchair" v="yes"/>
    <tag k="amenity" v="bank"/>
  </node>
  <node id="-1733" version="0" timestamp="Fri Feb 24 10:53:33 +0100 2012" uid="1" user="" lat="49.3010807" lon="6.9437385">
    <tag k="name" v="Rathaus Riegelsberg"/>
    <tag k="wheelchair" v="yes"/>
    <tag k="website" v="http://www.riegelsberg.eu/p/dt1.asp?artikel_id=&amp;liste=202&amp;tmpl_typ=Liste&amp;lp=1002"/>
  </node>
  <node id="-1735" version="0" timestamp="Fri Feb 24 10:53:33 +0100 2012" uid="1" user="" lat="49.3024569" lon="6.9432909">
    <tag k="name" v="Markt Apotheke"/>
    <tag k="wheelchair" v="limited"/>
    <tag k="addr:housenumber" v="6"/>
    <tag k="addr:street" v="Marienstraße "/>
    <tag k="wheelchair:description" v="Kleine Stufe die aber zu überwinden ist"/>
    <tag k="amenity" v="pharmacy"/>
    <tag k="phone" v="(6806) 2540"/>
  </node>
  <node id="-1737" version="0" timestamp="Fri Feb 24 10:53:33 +0100 2012" uid="1" user="" lat="49.3029321" lon="6.9443276">
    <tag k="name" v="Posfiliale "/>
    <tag k="wheelchair" v="yes"/>
    <tag k="addr:housenumber" v="86a"/>
    <tag k="addr:street" v="Saarbrücker Str "/>
    <tag k="amenity" v="post_office"/>
    <tag k="phone" v="http://standorte.deutschepost.de/Standortsuche"/>
  </node>
  <node id="-1739" version="0" timestamp="Fri Feb 24 10:53:33 +0100 2012" uid="1" user="" lat="49.302923" lon="6.9443622">
    <tag k="shop" v="supermarket"/>
    <tag k="name" v="Leckerli Lädchen (Tierbedarf)"/>
    <tag k="wheelchair" v="yes"/>
  </node>
  <node id="-1741" version="0" timestamp="Fri Feb 24 10:53:33 +0100 2012" uid="1" user="" lat="49.3025631" lon="6.9441548">
    <tag k="shop" v="garden_centre"/>
    <tag k="name" v="Raiffeisen-Markt "/>
    <tag k="wheelchair" v="yes"/>
  </node>
  <node id="-1743" version="0" timestamp="Fri Feb 24 10:53:33 +0100 2012" uid="1" user="" lat="49.2356231" lon="6.9951526">
    <tag k="name" v="Gemeinschaftspraxis - Endoskopiezentrum M. Hasenstein / Dr. W. Mohl"/>
    <tag k="wheelchair" v="limited"/>
    <tag k="addr:housenumber" v="2a"/>
    <tag k="addr:street" v="Dudweilerstr"/>
    <tag k="wheelchair:description" v="Aufzug vorhanden !"/>
    <tag k="amenity" v="bank"/>
    <tag k="website" v="http://www.hasenstein-mohl.de/"/>
    <tag k="phone" v=" 0681-33646"/>
  </node>
  <node id="-1744" version="0" timestamp="Fri Feb 24 10:53:33 +0100 2012" uid="1" user="" lat="49.2356231" lon="6.9951526">
    <tag k="name" v="Gemeinschaftspraxis - Endoskopiezentrum M. Hasenstein / Dr. W. Mohl"/>
    <tag k="wheelchair" v="yes"/>
    <tag k="addr:housenumber" v="2a"/>
    <tag k="addr:street" v="Dudweilerstr"/>
    <tag k="wheelchair:description" v="Aufzug vorhanden !"/>
    <tag k="amenity" v="doctors"/>
    <tag k="website" v="http://www.hasenstein-mohl.de/"/>
    <tag k="phone" v=" 0681-33646"/>
  </node>
  <node id="-3197" version="0" timestamp="Fri Feb 24 10:53:35 +0100 2012" uid="1" user="" lat="49.25947" lon="6.86382">
    <tag k="shop" v="supermarket"/>
    <tag k="name" v="Lidl"/>
    <tag k="wheelchair" v="limited"/>
    <tag k="addr:city" v="Völklingen"/>
    <tag k="addr:postcode" v="66333"/>
    <tag k="addr:street" v="Neptunstraße"/>
  </node>
  <node id="-3199" version="0" timestamp="Fri Feb 24 10:53:35 +0100 2012" uid="1" user="" lat="49.2487368" lon="6.8492648">
    <tag k="name" v="Bahnhof Völklingen"/>
    <tag k="wheelchair" v="no"/>
    <tag k="addr:city" v="Völklingen"/>
    <tag k="addr:postcode" v="66333"/>
    <tag k="addr:street" v="Rathausstraße"/>
    <tag k="wheelchair:description" v="Nur Bahnsteig 1 rollstuhlgerecht, andere nur durch Treppen erreichbar. Rollstuhlfahrer müssen sich im Vorfeld anmelden."/>
    <tag k="railway" v="platform"/>
  </node>
  <node id="-3766" version="0" timestamp="Fri Feb 24 10:53:35 +0100 2012" uid="1" user="" lat="49.2395503" lon="6.9892779">
    <tag k="name" v="Amadeus"/>
    <tag k="wheelchair" v="yes"/>
    <tag k="addr:city" v="Saarbrücken"/>
    <tag k="addr:postcode" v="66111"/>
    <tag k="addr:street" v="Trierer Straße"/>
    <tag k="amenity" v="restaurant"/>
  </node>
  <node id="-4667" version="0" timestamp="Fri Feb 24 10:53:36 +0100 2012" uid="1" user="" lat="49.2350478" lon="6.9927506">
    <tag k="name" v="Fachärzte für Urologie"/>
    <tag k="wheelchair" v="no"/>
    <tag k="addr:city" v="saarbrücken"/>
    <tag k="addr:postcode" v="66111"/>
    <tag k="addr:housenumber" v="15"/>
    <tag k="addr:street" v="Berliner Promenade "/>
    <tag k="wheelchair:description" v="1 sehr hohe Stufe (15-20cm)"/>
    <tag k="amenity" v="doctors"/>
    <tag k="website" v="http://www.urologe-saar.de/"/>
  </node>
  <node id="-4772" version="0" timestamp="Fri Feb 24 10:53:36 +0100 2012" uid="1" user="" lat="49.2310081" lon="6.9956045">
    <tag k="name" v="Saarländisches Staatstheater "/>
    <tag k="wheelchair" v="yes"/>
    <tag k="addr:city" v="Saarbrücken"/>
    <tag k="addr:postcode" v=" 66111"/>
    <tag k="addr:housenumber" v="1 "/>
    <tag k="addr:street" v="Schillerplatz "/>
    <tag k="wheelchair:description" v="innen sind doch nicht alle ebene ereichbar, aber sons so gut wie alle"/>
    <tag k="amenity" v="theatre"/>
    <tag k="website" v="http://www.theater-saarbruecken.de/nc/start.html"/>
  </node>
  <node id="-4993" version="0" timestamp="Fri Feb 24 10:53:36 +0100 2012" uid="1" user="" lat="49.236682" lon="6.9947876">
    <tag k="name" v="Landesvereinigung SELBSTHILFE |KISS| Bündniss gegen Depression"/>
    <tag k="wheelchair" v="yes"/>
    <tag k="addr:city" v="Saarbrücken"/>
    <tag k="addr:postcode" v="66111 "/>
    <tag k="addr:housenumber" v="27"/>
    <tag k="addr:street" v="Futterstraße"/>
    <tag k="wheelchair:description" v="1 barrierfreier Aufzug, 1barrierfrei Toilette, breite Gänge"/>
    <tag k="amenity" v="social_facility"/>
    <tag k="website" v="http://www.selbsthilfe-im-saarland.de"/>
    <tag k="phone" v="0681 910 24 23"/>
  </node>
  <node id="-5475" version="0" timestamp="Fri Feb 24 10:53:37 +0100 2012" uid="1" user="" lat="49.3289846" lon="6.9327423">
    <tag k="name" v="Ristorante-Pizzeria Taormina"/>
    <tag k="wheelchair" v="limited"/>
    <tag k="addr:city" v="Heusweiler"/>
    <tag k="addr:postcode" v="66265"/>
    <tag k="addr:housenumber" v="88"/>
    <tag k="addr:street" v="Saarbrücker Straße"/>
    <tag k="wheelchair:description" v="1 Stufe am Eingang, Herrentoilette barrierefrei aber ohne Haltegriffe"/>
    <tag k="amenity" v="restaurant"/>
    <tag k="phone" v="+49 6806 74 52"/>
  </node>
</osm>
