<?xml version='1.0' encoding='UTF-8'?>
<osm version="0.6" generator="Osmosis 0.39">
  <node id="-729" version="0" timestamp="Fri Feb 24 10:53:32 +0100 2012" uid="1" user="" lat="49.4642655" lon="7.1911969">
    <tag k="name" v="Missionsmuseum der Steyler Missionare in St. Wendel"/>
    <tag k="wheelchair" v="no"/>
    <tag k="addr:city" v="St. Wendel"/>
    <tag k="addr:postcode" v="66606"/>
    <tag k="addr:housenumber" v="50"/>
    <tag k="tourism" v="museum"/>
    <tag k="addr:street" v="Missionshausstraße"/>
    <tag k="wheelchair:description" v="Zum Museum geht es über eine Treppe."/>
    <tag k="website" v="http://www.steyler.de/svd/mission-weltweit/missionsmuseen/museum-st-wendel.php"/>
    <tag k="phone" v="+49 (0 68 51) 805 330"/>
  </node>
  <node id="-731" version="0" timestamp="Fri Feb 24 10:53:32 +0100 2012" uid="1" user="" lat="49.4637679" lon="7.1925733">
    <tag k="name" v="Arnold-Janssen-Gymnasium St. Wendel"/>
    <tag k="wheelchair" v="yes"/>
    <tag k="addr:city" v="St. Wendel"/>
    <tag k="addr:postcode" v="66606"/>
    <tag k="addr:housenumber" v="50"/>
    <tag k="addr:street" v="Missionshausstraße"/>
    <tag k="wheelchair:description" v="Fast sämtliche schulische Einrichtungen sind ebenerdig, über Rampen oder mit Aufzug erreichbar."/>
    <tag k="amenity" v="school"/>
    <tag k="website" v="http://www.ajg-wnd.de"/>
    <tag k="phone" v="+49 (0) 68 51 - 80 53 00"/>
  </node>
  <node id="-5156" version="0" timestamp="Fri Feb 24 10:53:37 +0100 2012" uid="1" user="" lat="49.5684683" lon="7.0572576">
    <tag k="name" v="Donna Anna"/>
    <tag k="wheelchair" v="unknown"/>
    <tag k="addr:city" v="Nohfelden"/>
    <tag k="addr:postcode" v="66625"/>
    <tag k="addr:housenumber" v="2"/>
    <tag k="addr:street" v="Im Hirzenbruch"/>
    <tag k="amenity" v="restaurant"/>
    <tag k="phone" v="06852 991130"/>
  </node>
</osm>
