<?xml version='1.0' encoding='UTF-8'?>
<osm version="0.6" generator="Osmosis 0.39">
  <node id="-36" version="0" timestamp="Fri Feb 24 10:53:32 +0100 2012" uid="1" user="" lat="51.3581954" lon="7.4791929">
    <tag k="name" v="CVJM Hagen"/>
    <tag k="wheelchair" v="limited"/>
    <tag k="addr:city" v="Hagen"/>
    <tag k="addr:postcode" v="58097"/>
    <tag k="addr:housenumber" v="101"/>
    <tag k="addr:street" v="Märkischer Ring"/>
  </node>
  <node id="-37" version="0" timestamp="Fri Feb 24 10:53:32 +0100 2012" uid="1" user="" lat="51.3601566" lon="7.4770338">
    <tag k="name" v="Finanzamt Hagen"/>
    <tag k="wheelchair" v="unknown"/>
  </node>
  <node id="-38" version="0" timestamp="Fri Feb 24 10:53:32 +0100 2012" uid="1" user="" lat="51.3570966" lon="7.4684691">
    <tag k="name" v="Berufskolleg für Technik der Stadt Hagen "/>
    <tag k="wheelchair" v="yes"/>
    <tag k="addr:city" v="Hagen"/>
    <tag k="addr:postcode" v="58095"/>
    <tag k="addr:housenumber" v="2"/>
    <tag k="addr:street" v="Viktoriastr. "/>
    <tag k="amenity" v="school"/>
  </node>
  <node id="-40" version="0" timestamp="Fri Feb 24 10:53:32 +0100 2012" uid="1" user="" lat="51.3539261" lon="7.4786982">
    <tag k="name" v="Geldautomat Sparkasse"/>
    <tag k="wheelchair" v="limited"/>
    <tag k="amenity" v="atm"/>
  </node>
  <node id="-194" version="0" timestamp="Fri Feb 24 10:53:32 +0100 2012" uid="1" user="" lat="51.5969591" lon="7.6530662">
    <tag k="name" v="Mahyoub M. Krankengymnastik  "/>
    <tag k="wheelchair" v="limited"/>
    <tag k="addr:city" v="Kamen"/>
    <tag k="addr:postcode" v="59174"/>
    <tag k="addr:housenumber" v="40"/>
    <tag k="addr:street" v="Bergkamener Str."/>
    <tag k="wheelchair:description" v="Kleine treppe am Eingang, Keine Tolette für Behinderte Personen"/>
    <tag k="amenity" v="doctors"/>
    <tag k="phone" v="02307 23 41 58"/>
  </node>
  <node id="-196" version="0" timestamp="Fri Feb 24 10:53:32 +0100 2012" uid="1" user="" lat="51.59527" lon="7.6527686">
    <tag k="shop" v="bakery"/>
    <tag k="name" v="Bäckerei Braune"/>
    <tag k="wheelchair" v="yes"/>
    <tag k="wheelchair:description" v="Eng Kein WC"/>
    <tag k="website" v="http://www.baecker-braune.de/"/>
  </node>
  <node id="-197" version="0" timestamp="Fri Feb 24 10:53:32 +0100 2012" uid="1" user="" lat="51.5971533" lon="7.6674289">
    <tag k="name" v="Agentur für Arbeit Hamm Geschäftsstelle Kamen"/>
    <tag k="wheelchair" v="limited"/>
    <tag k="addr:city" v="Kamen"/>
    <tag k="addr:postcode" v="59174 "/>
    <tag k="addr:housenumber" v="19"/>
    <tag k="addr:street" v="Ostring"/>
    <tag k="website" v="http://www.arbeitsagentur.de/nn_10972/Partner/RD-NRW/Hamm/35109-Geschaeftsstelle-Kamen.html"/>
  </node>
  <node id="-352" version="0" timestamp="Fri Feb 24 10:53:32 +0100 2012" uid="1" user="" lat="50.96276" lon="7.98827">
    <tag k="name" v="Kutscherhaus"/>
    <tag k="wheelchair" v="limited"/>
    <tag k="addr:city" v="Kreuztal"/>
    <tag k="addr:postcode" v="57223"/>
    <tag k="addr:housenumber" v="30"/>
    <tag k="addr:street" v="Hagener Str."/>
    <tag k="amenity" v="restaurant"/>
    <tag k="phone" v="+49 27 32 . 55 47 47"/>
  </node>
  <node id="-475" version="0" timestamp="Fri Feb 24 10:53:32 +0100 2012" uid="1" user="" lat="51.38656" lon="7.38703">
    <tag k="shop" v="books"/>
    <tag k="name" v="Bücherstube Draht"/>
    <tag k="wheelchair" v="limited"/>
    <tag k="addr:city" v="Wetter"/>
    <tag k="addr:postcode" v="58300"/>
    <tag k="addr:housenumber" v="53"/>
    <tag k="addr:street" v="Bismarckstr."/>
    <tag k="wheelchair:description" v="Rampe vorhanden, Räumlichkeiten eng, aber hilfsbereites Personal"/>
    <tag k="phone" v="+49 2335-5600"/>
  </node>
  <node id="-496" version="0" timestamp="Fri Feb 24 10:53:32 +0100 2012" uid="1" user="" lat="51.29047" lon="7.29321">
    <tag k="name" v="Hallenbad"/>
    <tag k="wheelchair" v="yes"/>
    <tag k="addr:city" v="Schwelm"/>
    <tag k="addr:postcode" v="58332"/>
    <tag k="addr:housenumber" v="33"/>
    <tag k="addr:street" v="Mittelstr."/>
    <tag k="wheelchair:description" v="seitl. Aufzug (rechts) über Klingel ANZUFODERN"/>
    <tag k="amenity" v="swimming_pool"/>
  </node>
  <node id="-497" version="0" timestamp="Fri Feb 24 10:53:32 +0100 2012" uid="1" user="" lat="51.29004" lon="7.29463">
    <tag k="name" v="Ibachgeb. &quot;Kulturfabrik&quot;"/>
    <tag k="wheelchair" v="yes"/>
    <tag k="addr:city" v="Schwelm"/>
    <tag k="addr:postcode" v="58332"/>
    <tag k="addr:housenumber" v="41"/>
    <tag k="addr:street" v="Wilhelmstrasse"/>
    <tag k="wheelchair:description" v="ebenerdige Veranstaltungsräume &amp; Rolli WC"/>
    <tag k="amenity" v="theatre"/>
    <tag k="website" v="http://www.kulturfabrik-ibachhaus.de"/>
  </node>
  <node id="-515" version="0" timestamp="Fri Feb 24 10:53:32 +0100 2012" uid="1" user="" lat="51.35553" lon="7.47598">
    <tag k="name" v="Fotostudio Lichtbildpalast"/>
    <tag k="wheelchair" v="limited"/>
    <tag k="addr:city" v="Hagen"/>
    <tag k="addr:postcode" v="58095"/>
    <tag k="addr:housenumber" v="5"/>
    <tag k="addr:street" v="Bergischer Ring "/>
    <tag k="wheelchair:description" v="Keine Stufen, breite Durchgänge nur kein rollstuhlgerechtes WC"/>
    <tag k="amenity" v="gallery"/>
    <tag k="website" v="http://www.lichtbildpalast.de"/>
    <tag k="phone" v="+492331 3778941"/>
  </node>
  <node id="-552" version="0" timestamp="Fri Feb 24 10:53:32 +0100 2012" uid="1" user="" lat="51.33988" lon="7.28951">
    <tag k="name" v="Haus Höhmann"/>
    <tag k="wheelchair" v="yes"/>
    <tag k="addr:city" v="HASSLINGHAUSEN"/>
    <tag k="addr:postcode" v="45549"/>
    <tag k="addr:housenumber" v="64"/>
    <tag k="addr:street" v="Wittener Str."/>
    <tag k="wheelchair:description" v="Auffahrrampe, WC ebenerdig "/>
    <tag k="amenity" v="restaurant"/>
  </node>
  <node id="-553" version="0" timestamp="Fri Feb 24 10:53:32 +0100 2012" uid="1" user="" lat="51.35538" lon="7.47473">
    <tag k="name" v="Restaurant Kolpinghaus"/>
    <tag k="wheelchair" v="limited"/>
    <tag k="addr:city" v="Hagen"/>
    <tag k="addr:postcode" v="58095"/>
    <tag k="addr:housenumber" v="18"/>
    <tag k="addr:street" v="Bergischer Ring"/>
    <tag k="wheelchair:description" v="2 Eingangsstufen, normales WC ebenerdig"/>
    <tag k="amenity" v="restaurant"/>
    <tag k="phone" v="+49 2231 26577"/>
  </node>
  <node id="-554" version="0" timestamp="Fri Feb 24 10:53:32 +0100 2012" uid="1" user="" lat="51.35538" lon="7.47473">
    <tag k="name" v="See Nami (chinesisch)"/>
    <tag k="wheelchair" v="yes"/>
    <tag k="addr:city" v="Bochum"/>
    <tag k="addr:postcode" v="44801"/>
    <tag k="addr:housenumber" v="309"/>
    <tag k="addr:street" v="Hevener Str."/>
    <tag k="amenity" v="restaurant"/>
  </node>
  <node id="-555" version="0" timestamp="Fri Feb 24 10:53:32 +0100 2012" uid="1" user="" lat="51.37276" lon="7.3094">
    <tag k="name" v="Gasthof Albringhausen (Alter Bahnhof)"/>
    <tag k="wheelchair" v="yes"/>
    <tag k="addr:city" v="Wetter"/>
    <tag k="addr:postcode" v="58300"/>
    <tag k="addr:housenumber" v="38"/>
    <tag k="addr:street" v="Am Overbeck"/>
    <tag k="wheelchair:description" v="Auffahrrampe, WC ebenerdig "/>
    <tag k="amenity" v="restaurant"/>
    <tag k="phone" v="+49 2335 847133"/>
  </node>
  <node id="-557" version="0" timestamp="Fri Feb 24 10:53:32 +0100 2012" uid="1" user="" lat="50.9182149" lon="8.0144336">
    <tag k="name" v="Bürgerhaus Geisweid"/>
    <tag k="wheelchair" v="yes"/>
    <tag k="addr:city" v="Siegen"/>
    <tag k="addr:postcode" v="57078"/>
    <tag k="addr:housenumber" v="6"/>
    <tag k="addr:street" v="Obere Kaiserstr."/>
    <tag k="wheelchair:description" v="Rampe am Haupteingang, Hintereingang 1 Stufe"/>
    <tag k="website" v="http://www.geisweid.org"/>
  </node>
  <node id="-558" version="0" timestamp="Fri Feb 24 10:53:32 +0100 2012" uid="1" user="" lat="50.9183892" lon="8.0142798">
    <tag k="name" v="Haus der Vereine"/>
    <tag k="wheelchair" v="no"/>
    <tag k="addr:city" v="Siegen"/>
    <tag k="addr:postcode" v="57078"/>
    <tag k="addr:housenumber" v="6"/>
    <tag k="addr:street" v="Obere Kaiserstr."/>
    <tag k="wheelchair:description" v="Altbau, Treppen, kein Aufzug"/>
    <tag k="website" v="http://www.geisweid.org"/>
  </node>
  <node id="-559" version="0" timestamp="Fri Feb 24 10:53:32 +0100 2012" uid="1" user="" lat="50.9149082" lon="8.011836">
    <tag k="name" v="Hüttenapotheke"/>
    <tag k="wheelchair" v="yes"/>
    <tag k="amenity" v="pharmacy"/>
  </node>
  <node id="-560" version="0" timestamp="Fri Feb 24 10:53:32 +0100 2012" uid="1" user="" lat="50.9139954" lon="8.0092056">
    <tag k="name" v="Sparkasse Siegen"/>
    <tag k="wheelchair" v="yes"/>
    <tag k="amenity" v="bank"/>
  </node>
  <node id="-603" version="0" timestamp="Fri Feb 24 10:53:32 +0100 2012" uid="1" user="" lat="51.2824805" lon="7.781728">
    <tag k="name" v="Pizzeria Apulien"/>
    <tag k="wheelchair" v="limited"/>
    <tag k="addr:city" v="Neuenrade"/>
    <tag k="addr:postcode" v="58809"/>
    <tag k="addr:street" v="Zweite Strasse"/>
    <tag k="wheelchair:description" v="Vor der Pizzeria sind drei Stufen, doch der Besitzer hat eine Rampe die er bei Bedarf auslegt"/>
    <tag k="amenity" v="restaurant"/>
  </node>
  <node id="-605" version="0" timestamp="Fri Feb 24 10:53:32 +0100 2012" uid="1" user="" lat="51.2817052" lon="7.7791377">
    <tag k="shop" v="optician"/>
    <tag k="name" v="Brillenbotique Becker"/>
    <tag k="wheelchair" v="yes"/>
  </node>
  <node id="-606" version="0" timestamp="Fri Feb 24 10:53:32 +0100 2012" uid="1" user="" lat="51.2816865" lon="7.7790595">
    <tag k="name" v="Apotheke am Stadtor"/>
    <tag k="wheelchair" v="yes"/>
    <tag k="amenity" v="pharmacy"/>
  </node>
  <node id="-607" version="0" timestamp="Fri Feb 24 10:53:32 +0100 2012" uid="1" user="" lat="51.29256" lon="7.7698067">
    <tag k="name" v="Bella Viasta"/>
    <tag k="wheelchair" v="no"/>
    <tag k="amenity" v="restaurant"/>
  </node>
  <node id="-701" version="0" timestamp="Fri Feb 24 10:53:32 +0100 2012" uid="1" user="" lat="51.5149935" lon="7.4501618">
    <tag k="name" v="FZW"/>
    <tag k="wheelchair" v="yes"/>
    <tag k="addr:city" v="Dortmund"/>
    <tag k="addr:postcode" v="44137"/>
    <tag k="addr:housenumber" v="20"/>
    <tag k="addr:street" v="Ritterstraße"/>
    <tag k="amenity" v="nightclub"/>
    <tag k="website" v="http://www.fzw.de"/>
  </node>
  <node id="-708" version="0" timestamp="Fri Feb 24 10:53:32 +0100 2012" uid="1" user="" lat="51.4760203" lon="7.2299189">
    <tag k="name" v="Haus der Begegnung"/>
    <tag k="wheelchair" v="yes"/>
    <tag k="addr:city" v="Bochum"/>
    <tag k="addr:postcode" v="44147"/>
    <tag k="addr:housenumber" v="19a"/>
    <tag k="addr:street" v="Alsenstraße"/>
    <tag k="wheelchair:description" v="Behindertenparkplätze vor dem Haus (Innenhof)"/>
    <tag k="amenity" v="cafe"/>
    <tag k="website" v="http://www.hdb-bochum.de"/>
    <tag k="phone" v="+49 234 311066"/>
  </node>
  <node id="-723" version="0" timestamp="Fri Feb 24 10:53:32 +0100 2012" uid="1" user="" lat="51.5334904" lon="7.6091027">
    <tag k="shop" v="supermarket"/>
    <tag k="name" v="Edeka"/>
    <tag k="wheelchair" v="yes"/>
  </node>
  <node id="-802" version="0" timestamp="Fri Feb 24 10:53:32 +0100 2012" uid="1" user="" lat="51.6537229" lon="8.2139231">
    <tag k="shop" v="supermarket"/>
    <tag k="name" v="Netto Supermarkt"/>
    <tag k="wheelchair" v="yes"/>
  </node>
  <node id="-803" version="0" timestamp="Fri Feb 24 10:53:32 +0100 2012" uid="1" user="" lat="51.6535602" lon="8.2132977">
    <tag k="name" v="Dönneweg"/>
    <tag k="wheelchair" v="yes"/>
    <tag k="amenity" v="post_office"/>
  </node>
  <node id="-805" version="0" timestamp="Fri Feb 24 10:53:32 +0100 2012" uid="1" user="" lat="51.6526126" lon="8.2136133">
    <tag k="shop" v="hairdresser"/>
    <tag k="name" v="Marano"/>
    <tag k="wheelchair" v="yes"/>
  </node>
  <node id="-807" version="0" timestamp="Fri Feb 24 10:53:32 +0100 2012" uid="1" user="" lat="51.6543856" lon="8.2173556">
    <tag k="name" v="Volksbank"/>
    <tag k="wheelchair" v="yes"/>
    <tag k="amenity" v="bank"/>
  </node>
  <node id="-811" version="0" timestamp="Fri Feb 24 10:53:32 +0100 2012" uid="1" user="" lat="51.654593" lon="8.2174619">
    <tag k="shop" v="department_store"/>
    <tag k="name" v="Schlecker"/>
    <tag k="wheelchair" v="yes"/>
  </node>
  <node id="-843" version="0" timestamp="Fri Feb 24 10:53:32 +0100 2012" uid="1" user="" lat="51.4480159" lon="7.2590831">
    <tag k="name" v="Cafe Scudetto"/>
    <tag k="wheelchair" v="yes"/>
    <tag k="wheelchair:description" v="Super Nett und auch Hilfsbereit"/>
    <tag k="amenity" v="restaurant"/>
  </node>
  <node id="-844" version="0" timestamp="Fri Feb 24 10:53:32 +0100 2012" uid="1" user="" lat="51.4718498" lon="7.2172268">
    <tag k="name" v="Kammerspiele Bochum"/>
    <tag k="wheelchair" v="limited"/>
    <tag k="wheelchair:description" v="Man kann sich vorher anmelden, dann werden 2-3 Leute der Feuerwehr gerufen, welche einen im Rollstuhl in den Saal bringen. Ebenfalls eine kleine Treppe vor dem Haus."/>
    <tag k="amenity" v="theatre"/>
  </node>
  <node id="-845" version="0" timestamp="Fri Feb 24 10:53:32 +0100 2012" uid="1" user="" lat="51.4831662" lon="7.2147523">
    <tag k="name" v="Bochum Stadtbücherei"/>
    <tag k="wheelchair" v="limited"/>
    <tag k="wheelchair:description" v="Im unteren Stock bei den Kindern und Jugenbüchern sind ein paar Stufen. Aufzug Vorhanden, Eingang ebefalls Barrierefrei."/>
    <tag k="amenity" v="library"/>
  </node>
  <node id="-846" version="0" timestamp="Fri Feb 24 10:53:32 +0100 2012" uid="1" user="" lat="51.4831309" lon="7.2170489">
    <tag k="shop" v="clothes"/>
    <tag k="name" v="Snipes Shop Bochum"/>
    <tag k="wheelchair" v="yes"/>
    <tag k="wheelchair:description" v="Kleine Rampe am Eingang, sonst alles Ebenerdig. "/>
  </node>
  <node id="-847" version="0" timestamp="Fri Feb 24 10:53:32 +0100 2012" uid="1" user="" lat="51.4821303" lon="7.2175149">
    <tag k="name" v="Starbucks"/>
    <tag k="wheelchair" v="limited"/>
    <tag k="wheelchair:description" v="Es kam schon einmal vor, das er am Wochenende Geöffnet war, die Haupttür der Drehscheibe aber nicht, daher 3-4 Stufen um rein zu kommen. Unter der Woche und Samstags jedoch immer ohne Stufen zu erreichen."/>
    <tag k="amenity" v="cafe"/>
  </node>
  <node id="-848" version="0" timestamp="Fri Feb 24 10:53:32 +0100 2012" uid="1" user="" lat="51.4823367" lon="7.216211">
    <tag k="name" v="Geldautomat - Sparkasse"/>
    <tag k="wheelchair" v="yes"/>
    <tag k="amenity" v="atm"/>
  </node>
  <node id="-849" version="0" timestamp="Fri Feb 24 10:53:32 +0100 2012" uid="1" user="" lat="51.4812043" lon="7.217122">
    <tag k="shop" v="books"/>
    <tag k="name" v="Mayersche"/>
    <tag k="wheelchair" v="limited"/>
    <tag k="wheelchair:description" v="Um in den unteren Teil zu kommen, gibt es einen Aufzug. Hier jedoch zwei sehr STEILE Rampen. Die Rampe zu dem Pc-Büchern kann jedoch durch den Lageraufzug Umgangen werden, einfach das Personal ansprechen. "/>
  </node>
  <node id="-850" version="0" timestamp="Fri Feb 24 10:53:32 +0100 2012" uid="1" user="" lat="51.4793838" lon="7.2239655">
    <tag k="name" v="McDonald´s "/>
    <tag k="wheelchair" v="limited"/>
    <tag k="wheelchair:description" v="Bestellschalter erreichbar, jedoch keine Sitzmöglichkeiten im unteren Bereich. Aufgang nur per Treppe möglich."/>
    <tag k="amenity" v="fast_food"/>
  </node>
  <node id="-858" version="0" timestamp="Fri Feb 24 10:53:32 +0100 2012" uid="1" user="" lat="50.8361898" lon="7.9863071">
    <tag k="shop" v="supermarket"/>
    <tag k="name" v="Dornseifer"/>
    <tag k="wheelchair" v="yes"/>
  </node>
  <node id="-870" version="0" timestamp="Fri Feb 24 10:53:32 +0100 2012" uid="1" user="" lat="51.4480274" lon="7.2588351">
    <tag k="name" v="Summa cum laude"/>
    <tag k="wheelchair" v="limited"/>
    <tag k="wheelchair:description" v="An für sich Rollstuhl gerecht, Aufzug vorhanden, es kam nuer leider schon vor, dass die Tür zum Aufzug abgeschlossen war und keiner einen Schlüssel hatte."/>
    <tag k="amenity" v="restaurant"/>
  </node>
  <node id="-871" version="0" timestamp="Fri Feb 24 10:53:32 +0100 2012" uid="1" user="" lat="51.4481938" lon="7.258207">
    <tag k="name" v="Aufzug zum Summa cum Laude"/>
    <tag k="wheelchair" v="limited"/>
    <tag k="wheelchair:description" v="Es kam leider vor, dass die Tür schon abgeschlossen war und niemand einen Schlüssel hatte."/>
    <tag k="amenity" v="restaurant"/>
  </node>
  <node id="-916" version="0" timestamp="Fri Feb 24 10:53:33 +0100 2012" uid="1" user="" lat="51.6667" lon="8.35">
    <tag k="name" v="Cafè Palma"/>
    <tag k="wheelchair" v="yes"/>
    <tag k="addr:city" v="Lippstadt"/>
    <tag k="addr:postcode" v="59555"/>
    <tag k="addr:housenumber" v="4"/>
    <tag k="addr:street" v="Kahlenstraße "/>
    <tag k="amenity" v="cafe"/>
    <tag k="website" v="https://www.facebook.com/pages/Caf%C3%A9-Palma/192853347411882"/>
  </node>
  <node id="-917" version="0" timestamp="Fri Feb 24 10:53:33 +0100 2012" uid="1" user="" lat="51.3297582" lon="8.0047211">
    <tag k="shop" v="computer"/>
    <tag k="name" v="Systemahaus Hartmann GmbH &amp; Co. KG"/>
    <tag k="wheelchair" v="yes"/>
    <tag k="addr:city" v="Sundern"/>
    <tag k="addr:postcode" v="59846"/>
    <tag k="addr:housenumber" v="132"/>
    <tag k="addr:street" v="Hauptstraße"/>
    <tag k="wheelchair:description" v="Ebenerdig - Beiter Eingang ! IHR ITK Partner in Sundern"/>
    <tag k="website" v="http://www.shh-online.com"/>
    <tag k="phone" v="+49 2933 90979-0"/>
  </node>
  <node id="-979" version="0" timestamp="Fri Feb 24 10:53:33 +0100 2012" uid="1" user="" lat="51.43608" lon="7.56356">
    <tag k="shop" v="department_store"/>
    <tag k="name" v="Sanitätshaus Spanke"/>
    <tag k="wheelchair" v="yes"/>
    <tag k="addr:city" v="Schwerte"/>
    <tag k="addr:postcode" v="58239"/>
    <tag k="addr:housenumber" v="20"/>
    <tag k="addr:street" v="Bahnhofstraße"/>
    <tag k="website" v="http://www.sanitaetshaus-spanke.de"/>
    <tag k="phone" v="+49 2304 240 540"/>
  </node>
  <node id="-1029" version="0" timestamp="Fri Feb 24 10:53:33 +0100 2012" uid="1" user="" lat="51.3297544" lon="8.0047336">
    <tag k="shop" v="electronics"/>
    <tag k="name" v="Systemhaus Hartmann GmbH &amp; Co. KG"/>
    <tag k="wheelchair" v="yes"/>
    <tag k="addr:city" v="Sundern"/>
    <tag k="addr:postcode" v="59846"/>
    <tag k="addr:housenumber" v="132"/>
    <tag k="addr:street" v="Hauptstraße"/>
    <tag k="website" v="http://www.shh-online.com"/>
    <tag k="phone" v="+49 2933 90979-0"/>
  </node>
  <node id="-1104" version="0" timestamp="Fri Feb 24 10:53:33 +0100 2012" uid="1" user="" lat="51.6533533" lon="8.2139266">
    <tag k="shop" v="supermarket"/>
    <tag k="name" v="Netto"/>
    <tag k="wheelchair" v="yes"/>
  </node>
  <node id="-1142" version="0" timestamp="Fri Feb 24 10:53:33 +0100 2012" uid="1" user="" lat="51.5880766" lon="7.6621682">
    <tag k="name" v="Stadthalle"/>
    <tag k="wheelchair" v="no"/>
    <tag k="amenity" v="bus_station"/>
  </node>
  <node id="-1143" version="0" timestamp="Fri Feb 24 10:53:33 +0100 2012" uid="1" user="" lat="51.58562" lon="7.6595">
    <tag k="name" v="Polizeiwache"/>
    <tag k="wheelchair" v="no"/>
  </node>
  <node id="-1160" version="0" timestamp="Fri Feb 24 10:53:33 +0100 2012" uid="1" user="" lat="51.47647" lon="7.22988">
    <tag k="name" v="Haus der Begegnung"/>
    <tag k="wheelchair" v="yes"/>
    <tag k="wheelchair:description" v="Rollstuhl-WC, komplett rollstuhlgängig"/>
    <tag k="amenity" v="cafe"/>
    <tag k="website" v="http://www.hdb-bochum.de/"/>
  </node>
  <node id="-1161" version="0" timestamp="Fri Feb 24 10:53:33 +0100 2012" uid="1" user="" lat="51.4790265" lon="7.2230429">
    <tag k="name" v="Toilette"/>
    <tag k="wheelchair" v="yes"/>
    <tag k="amenity" v="toilets"/>
  </node>
  <node id="-1300" version="0" timestamp="Fri Feb 24 10:53:33 +0100 2012" uid="1" user="" lat="51.51137" lon="7.46517">
    <tag k="name" v="Klubhaus1249"/>
    <tag k="wheelchair" v="yes"/>
    <tag k="addr:city" v="Dortmund"/>
    <tag k="addr:postcode" v="44135"/>
    <tag k="addr:housenumber" v="37"/>
    <tag k="addr:street" v="Kleppingstrasse (in der Berswordt-Halle/ Altes Stadthaus)"/>
    <tag k="amenity" v="bar"/>
    <tag k="website" v="http://klubhaus1249.de/"/>
    <tag k="phone" v="+4923195096466"/>
  </node>
  <node id="-1301" version="0" timestamp="Fri Feb 24 10:53:33 +0100 2012" uid="1" user="" lat="51.5139373" lon="7.46459">
    <tag k="shop" v="department_store"/>
    <tag k="name" v="Karstadt"/>
    <tag k="wheelchair" v="yes"/>
    <tag k="addr:city" v="Dortmund"/>
    <tag k="addr:postcode" v="44137"/>
    <tag k="addr:housenumber" v="30-36"/>
    <tag k="addr:street" v="Westenhellweg"/>
    <tag k="website" v="http://www.karstadt.de"/>
  </node>
  <node id="-1302" version="0" timestamp="Fri Feb 24 10:53:33 +0100 2012" uid="1" user="" lat="51.5139105" lon="7.4588459">
    <tag k="shop" v="mall"/>
    <tag k="name" v="Thier Gallerie Dortmund"/>
    <tag k="wheelchair" v="yes"/>
    <tag k="addr:city" v="Dortmund"/>
    <tag k="addr:postcode" v="44137"/>
    <tag k="addr:housenumber" v="102-106"/>
    <tag k="addr:street" v="Westenhellweg"/>
    <tag k="website" v="http://www.thiergalerie.de"/>
    <tag k="phone" v="+49 (0231) 963 255-0"/>
  </node>
  <node id="-1303" version="0" timestamp="Fri Feb 24 10:53:33 +0100 2012" uid="1" user="" lat="51.51302" lon="7.4671857">
    <tag k="name" v="Dortmunder Volksbank eG."/>
    <tag k="wheelchair" v="yes"/>
    <tag k="addr:city" v="Dortmund"/>
    <tag k="addr:postcode" v="44137"/>
    <tag k="addr:housenumber" v="10"/>
    <tag k="addr:street" v="Betenstraße"/>
    <tag k="amenity" v="bank"/>
    <tag k="website" v="http://www.dovoba.de"/>
    <tag k="phone" v="+49(0)231 5402-0 "/>
  </node>
  <node id="-1304" version="0" timestamp="Fri Feb 24 10:53:33 +0100 2012" uid="1" user="" lat="51.5122008" lon="7.4671187">
    <tag k="name" v="Öffentliche Toilette"/>
    <tag k="wheelchair" v="yes"/>
    <tag k="amenity" v="toilets"/>
  </node>
  <node id="-1305" version="0" timestamp="Fri Feb 24 10:53:33 +0100 2012" uid="1" user="" lat="51.5111083" lon="7.4651459">
    <tag k="name" v="StadtGARTEN Bistro | Restaurant im Rathaus"/>
    <tag k="wheelchair" v="yes"/>
    <tag k="addr:city" v="Dortmund"/>
    <tag k="addr:postcode" v="44135"/>
    <tag k="addr:housenumber" v="1"/>
    <tag k="addr:street" v="Friedensplatz"/>
    <tag k="amenity" v="cafe"/>
    <tag k="website" v="http://www.westfalenhallen.de/restaurants/stadtgarten/index.php"/>
    <tag k="phone" v="+49(0)231 1857383"/>
  </node>
  <node id="-1306" version="0" timestamp="Fri Feb 24 10:53:33 +0100 2012" uid="1" user="" lat="51.5103763" lon="7.4693678">
    <tag k="name" v="Museum Adlerturm"/>
    <tag k="wheelchair" v="no"/>
    <tag k="tourism" v="museum"/>
    <tag k="addr:street" v="Ostwall"/>
  </node>
  <node id="-1307" version="0" timestamp="Fri Feb 24 10:53:33 +0100 2012" uid="1" user="" lat="51.5103763" lon="7.4693678">
    <tag k="name" v="Museum Adlerturm"/>
    <tag k="wheelchair" v="no"/>
    <tag k="addr:city" v="Dortmund"/>
    <tag k="addr:postcode" v="44135"/>
    <tag k="addr:housenumber" v="51"/>
    <tag k="tourism" v="museum"/>
    <tag k="addr:street" v="Ostwall"/>
    <tag k="website" v="http://www.dortmund.de/de/freizeit_und_kultur/museen/museum_adlerturm/start_adlerturm/index.html"/>
  </node>
  <node id="-1308" version="0" timestamp="Fri Feb 24 10:53:33 +0100 2012" uid="1" user="" lat="51.5090159" lon="7.4527106">
    <tag k="name" v="Deutsches Rotes Kreuz - Kreisverband Dortmund e.V."/>
    <tag k="wheelchair" v="limited"/>
    <tag k="addr:city" v="Dortmund"/>
    <tag k="addr:postcode" v="44137"/>
    <tag k="addr:housenumber" v="71"/>
    <tag k="addr:street" v="Beurhausstraße"/>
    <tag k="wheelchair:description" v="Nur das Untergeschoss, dieses aber mit Behinderten gerechte Toilette"/>
    <tag k="website" v="http://www.drk-dortmund.de/"/>
    <tag k="phone" v="+49(0)231 1810-0"/>
  </node>
  <node id="-1309" version="0" timestamp="Fri Feb 24 10:53:33 +0100 2012" uid="1" user="" lat="51.5088617" lon="7.4469258">
    <tag k="name" v="Öffentliche Toilette"/>
    <tag k="wheelchair" v="yes"/>
    <tag k="amenity" v="toilets"/>
  </node>
  <node id="-1310" version="0" timestamp="Fri Feb 24 10:53:33 +0100 2012" uid="1" user="" lat="51.5092339" lon="7.4470212">
    <tag k="name" v="Cafe Erdmann"/>
    <tag k="wheelchair" v="yes"/>
    <tag k="addr:city" v="Dortmund"/>
    <tag k="addr:postcode" v="44137"/>
    <tag k="addr:housenumber" v="40"/>
    <tag k="addr:street" v="Rittershausstraße"/>
    <tag k="amenity" v="cafe"/>
    <tag k="website" v="http://www.cafe-erdmann-dortmund.de"/>
    <tag k="phone" v="+49(0)231 160078"/>
  </node>
  <node id="-1311" version="0" timestamp="Fri Feb 24 10:53:33 +0100 2012" uid="1" user="" lat="51.5088627" lon="7.4469342">
    <tag k="name" v="Öffentliche Toilette"/>
    <tag k="wheelchair" v="yes"/>
    <tag k="amenity" v="toilets"/>
  </node>
  <node id="-1312" version="0" timestamp="Fri Feb 24 10:53:33 +0100 2012" uid="1" user="" lat="51.5088655" lon="7.4469384">
    <tag k="name" v="Öffentliche Toilette"/>
    <tag k="wheelchair" v="yes"/>
    <tag k="amenity" v="toilets"/>
  </node>
  <node id="-1313" version="0" timestamp="Fri Feb 24 10:53:33 +0100 2012" uid="1" user="" lat="51.4924967" lon="7.4802851">
    <tag k="name" v="Schürmanns im Park"/>
    <tag k="wheelchair" v="yes"/>
    <tag k="addr:city" v="Dortmund"/>
    <tag k="addr:postcode" v="44139"/>
    <tag k="addr:housenumber" v="100"/>
    <tag k="addr:street" v="An der Buschmühle"/>
    <tag k="amenity" v="restaurant"/>
    <tag k="website" v="http://www.schuermanns-im-park.de"/>
    <tag k="phone" v="+49(0)231 - 95097090"/>
  </node>
  <node id="-1314" version="0" timestamp="Fri Feb 24 10:53:33 +0100 2012" uid="1" user="" lat="51.4936969" lon="7.4841122">
    <tag k="name" v="Öffentliche Toilette"/>
    <tag k="wheelchair" v="yes"/>
    <tag k="amenity" v="toilets"/>
  </node>
  <node id="-1315" version="0" timestamp="Fri Feb 24 10:53:33 +0100 2012" uid="1" user="" lat="51.4968267" lon="7.4586437">
    <tag k="name" v="Öffentliche Toilette"/>
    <tag k="wheelchair" v="yes"/>
    <tag k="amenity" v="toilets"/>
  </node>
  <node id="-1316" version="0" timestamp="Fri Feb 24 10:53:33 +0100 2012" uid="1" user="" lat="51.4784612" lon="7.4423858">
    <tag k="name" v="Marien Hospital Dortmund "/>
    <tag k="wheelchair" v="yes"/>
    <tag k="addr:city" v="Dortmund"/>
    <tag k="addr:postcode" v="44225"/>
    <tag k="addr:housenumber" v="9"/>
    <tag k="addr:street" v="Gablonzstraße"/>
    <tag k="amenity" v="hospital"/>
    <tag k="website" v="http://www.marien-hospital-dortmund.de"/>
  </node>
  <node id="-1317" version="0" timestamp="Fri Feb 24 10:53:33 +0100 2012" uid="1" user="" lat="51.47614" lon="7.4591555">
    <tag k="name" v="Dr. med. Klaus Sprenger Facharzt für Allgemeinmedizin-Umweltmedizin"/>
    <tag k="wheelchair" v="no"/>
    <tag k="addr:city" v="Dortmund"/>
    <tag k="addr:postcode" v="44225"/>
    <tag k="addr:housenumber" v="38"/>
    <tag k="addr:street" v="Hagenerstraße"/>
    <tag k="amenity" v="doctors"/>
  </node>
  <node id="-1318" version="0" timestamp="Fri Feb 24 10:53:33 +0100 2012" uid="1" user="" lat="51.4755767" lon="7.4422826">
    <tag k="name" v="Fleming Apotheke"/>
    <tag k="wheelchair" v="yes"/>
    <tag k="addr:city" v="Dortmund"/>
    <tag k="addr:postcode" v="44225"/>
    <tag k="addr:housenumber" v="38"/>
    <tag k="addr:street" v="Harkortstraße"/>
    <tag k="amenity" v="pharmacy"/>
    <tag k="website" v="http://www.fleming-apotheke.de"/>
  </node>
  <node id="-1319" version="0" timestamp="Fri Feb 24 10:53:33 +0100 2012" uid="1" user="" lat="51.4755767" lon="7.4419528">
    <tag k="name" v="Dortmunder Volksbank"/>
    <tag k="wheelchair" v="yes"/>
    <tag k="addr:city" v="Dortmund"/>
    <tag k="addr:postcode" v="44225"/>
    <tag k="addr:housenumber" v="40"/>
    <tag k="addr:street" v="Harkortstraße"/>
    <tag k="amenity" v="bank"/>
  </node>
  <node id="-1320" version="0" timestamp="Fri Feb 24 10:53:33 +0100 2012" uid="1" user="" lat="51.5110061" lon="7.4673792">
    <tag k="name" v="Klubhaus1249"/>
    <tag k="wheelchair" v="limited"/>
    <tag k="addr:city" v="Dortmund"/>
    <tag k="addr:postcode" v="44135"/>
    <tag k="addr:housenumber" v="37"/>
    <tag k="addr:street" v="Kleppingstrasse (in der Berswordt-Halle/ Altes Stadthaus)"/>
    <tag k="amenity" v="bar"/>
    <tag k="website" v="http://klubhaus1249.de/"/>
    <tag k="phone" v="+49(0)231 95096466"/>
  </node>
  <node id="-1389" version="0" timestamp="Fri Feb 24 10:53:33 +0100 2012" uid="1" user="" lat="51.4833" lon="7.2167">
    <tag k="shop" v="computer"/>
    <tag k="name" v="KUERT Datenrettung Deutschland GmbH"/>
    <tag k="wheelchair" v="yes"/>
    <tag k="addr:city" v="Bochum"/>
    <tag k="addr:postcode" v="44787"/>
    <tag k="addr:housenumber" v="23"/>
    <tag k="addr:street" v="Südring"/>
    <tag k="wheelchair:description" v="Fahrstuhl"/>
    <tag k="website" v="http://www.kuert-datenrettung.de"/>
    <tag k="phone" v="+49 234 962 90 390"/>
  </node>
  <node id="-1581" version="0" timestamp="Fri Feb 24 10:53:33 +0100 2012" uid="1" user="" lat="51.3331921" lon="8.0011475">
    <tag k="shop" v="butcher"/>
    <tag k="name" v="Krengels Metzgerei &amp; Partyservice"/>
    <tag k="wheelchair" v="yes"/>
    <tag k="addr:city" v="Sundern"/>
    <tag k="addr:postcode" v="59846"/>
    <tag k="addr:housenumber" v="179"/>
    <tag k="addr:street" v="Hauptstraße "/>
    <tag k="website" v="http://www.krengel-sundern.de"/>
    <tag k="phone" v="+4929339026252"/>
  </node>
  <node id="-1702" version="0" timestamp="Fri Feb 24 10:53:33 +0100 2012" uid="1" user="" lat="51.478276" lon="7.1490653">
    <tag k="name" v="Pestalozzi Realschule"/>
    <tag k="wheelchair" v="limited"/>
    <tag k="addr:city" v="Bochum"/>
    <tag k="addr:postcode" v="44866"/>
    <tag k="addr:housenumber" v="40"/>
    <tag k="addr:street" v="Graf-Adolf Straße"/>
    <tag k="wheelchair:description" v="Eingang ohne Stufe, mehrstöckiges Gebäude o. Aufzug"/>
    <tag k="amenity" v="school"/>
    <tag k="website" v="http://www.pestalozzi-realschule-wattenscheid.de/"/>
    <tag k="phone" v="+49 02327 910700"/>
  </node>
  <node id="-1703" version="0" timestamp="Fri Feb 24 10:53:33 +0100 2012" uid="1" user="" lat="51.479173" lon="7.1563042">
    <tag k="name" v="Grundschule Glück-Auf (ehemals: Wattenscheider Heide)"/>
    <tag k="wheelchair" v="limited"/>
    <tag k="addr:city" v="Bochum"/>
    <tag k="addr:postcode" v="44866"/>
    <tag k="addr:street" v="Bochumer Straße"/>
    <tag k="wheelchair:description" v="mehrstöckiges Gebäude"/>
    <tag k="amenity" v="school"/>
  </node>
  <node id="-1721" version="0" timestamp="Fri Feb 24 10:53:33 +0100 2012" uid="1" user="" lat="51.5688501" lon="7.5241939">
    <tag k="name" v="Sparkasse"/>
    <tag k="wheelchair" v="yes"/>
    <tag k="addr:city" v="Dortmund"/>
    <tag k="addr:postcode" v="44329"/>
    <tag k="addr:street" v="Altendernerstraße"/>
    <tag k="amenity" v="bank"/>
  </node>
  <node id="-1722" version="0" timestamp="Fri Feb 24 10:53:33 +0100 2012" uid="1" user="" lat="51.5762634" lon="7.5229748">
    <tag k="name" v="Schellenkai Grill"/>
    <tag k="wheelchair" v="no"/>
    <tag k="addr:city" v="Dortmund"/>
    <tag k="addr:postcode" v="44329"/>
    <tag k="addr:housenumber" v="112"/>
    <tag k="addr:street" v="Im Schellenkai"/>
    <tag k="amenity" v="restaurant"/>
  </node>
  <node id="-1725" version="0" timestamp="Fri Feb 24 10:53:33 +0100 2012" uid="1" user="" lat="51.5760434" lon="7.5226897">
    <tag k="shop" v="hairdresser"/>
    <tag k="name" v="Frieseur Schlitzer"/>
    <tag k="wheelchair" v="yes"/>
    <tag k="addr:city" v="Dortmund"/>
    <tag k="addr:postcode" v="44329"/>
    <tag k="addr:housenumber" v="108"/>
    <tag k="addr:street" v="Im Schellenkai"/>
  </node>
  <node id="-1726" version="0" timestamp="Fri Feb 24 10:53:33 +0100 2012" uid="1" user="" lat="51.57492" lon="7.521022">
    <tag k="shop" v="bakery"/>
    <tag k="name" v="Bäckerei Hilgert"/>
    <tag k="wheelchair" v="yes"/>
    <tag k="addr:city" v="Dortmund"/>
    <tag k="addr:postcode" v="44329"/>
    <tag k="addr:housenumber" v="82"/>
    <tag k="addr:street" v="Im Schellenkai"/>
  </node>
  <node id="-1727" version="0" timestamp="Fri Feb 24 10:53:33 +0100 2012" uid="1" user="" lat="51.5751034" lon="7.5211101">
    <tag k="name" v="Pizzeria"/>
    <tag k="wheelchair" v="limited"/>
    <tag k="addr:city" v="Dortmund"/>
    <tag k="addr:postcode" v="44329"/>
    <tag k="addr:housenumber" v="92"/>
    <tag k="addr:street" v="Im Schellenkai"/>
    <tag k="amenity" v="fast_food"/>
  </node>
  <node id="-1728" version="0" timestamp="Fri Feb 24 10:53:33 +0100 2012" uid="1" user="" lat="51.5694001" lon="7.5168235">
    <tag k="shop" v="kiosk"/>
    <tag k="name" v="Kiosk"/>
    <tag k="wheelchair" v="no"/>
    <tag k="addr:city" v="Dortmund"/>
    <tag k="addr:postcode" v="44329"/>
    <tag k="addr:housenumber" v="58"/>
    <tag k="addr:street" v="Altendernerstraße"/>
    <tag k="wheelchair:description" v="Bei Bedarf wird es auch runter gebracht,"/>
  </node>
  <node id="-1730" version="0" timestamp="Fri Feb 24 10:53:33 +0100 2012" uid="1" user="" lat="51.5693267" lon="7.5229266">
    <tag k="name" v="Postbank"/>
    <tag k="wheelchair" v="yes"/>
    <tag k="addr:city" v="Dortmund"/>
    <tag k="addr:postcode" v="44329"/>
    <tag k="addr:housenumber" v="49"/>
    <tag k="addr:street" v="Altendernerstraße"/>
    <tag k="amenity" v="post_office"/>
  </node>
  <node id="-1734" version="0" timestamp="Fri Feb 24 10:53:33 +0100 2012" uid="1" user="" lat="51.5757967" lon="7.5222032">
    <tag k="shop" v="kiosk"/>
    <tag k="name" v="Kiosk"/>
    <tag k="wheelchair" v="no"/>
    <tag k="addr:city" v="Dortmund"/>
    <tag k="addr:postcode" v="44329"/>
    <tag k="addr:housenumber" v="102"/>
    <tag k="addr:street" v="Im Schellenkai"/>
    <tag k="wheelchair:description" v="Viele Treppen"/>
  </node>
  <node id="-1750" version="0" timestamp="Fri Feb 24 10:53:33 +0100 2012" uid="1" user="" lat="51.46971" lon="7.4388">
    <tag k="name" v="Wohnzimmer Cafebar"/>
    <tag k="wheelchair" v="limited"/>
    <tag k="addr:city" v="Dortmund"/>
    <tag k="addr:postcode" v="44139"/>
    <tag k="addr:housenumber" v="16"/>
    <tag k="addr:street" v="Neuer Graben "/>
    <tag k="wheelchair:description" v="Die Vor dem Eingang muss man eine etwa 6cm hohe Stufe hinabsteigen,Toilettenbenutzung stellt eine Herausforderung dar"/>
    <tag k="amenity" v="cafe"/>
  </node>
  <node id="-1823" version="0" timestamp="Fri Feb 24 10:53:33 +0100 2012" uid="1" user="" lat="51.51406" lon="7.49335">
    <tag k="shop" v="computer"/>
    <tag k="name" v="Das Computerhaus"/>
    <tag k="wheelchair" v="yes"/>
    <tag k="addr:city" v="Dortmund"/>
    <tag k="addr:postcode" v="44143"/>
    <tag k="addr:housenumber" v="167-169"/>
    <tag k="addr:street" v="Kaiserstraße"/>
    <tag k="website" v="http://www.das-computerhaus.com"/>
    <tag k="phone" v="0231 580 764 10"/>
  </node>
  <node id="-1825" version="0" timestamp="Fri Feb 24 10:53:33 +0100 2012" uid="1" user="" lat="51.5508279" lon="7.9072295">
    <tag k="name" v="Therapiezentrum Werl"/>
    <tag k="wheelchair" v="yes"/>
    <tag k="addr:city" v="Werl"/>
    <tag k="addr:postcode" v="59457"/>
    <tag k="addr:housenumber" v="15"/>
    <tag k="addr:street" v="Unnaerstraße"/>
    <tag k="wheelchair:description" v="Behindertenparkplatz, Rollstuhlrampe, Aufzug, behindertengerechte Toiletten"/>
    <tag k="website" v="http://www.therapiezentrum-werl.de"/>
  </node>
  <node id="-1878" version="0" timestamp="Fri Feb 24 10:53:33 +0100 2012" uid="1" user="" lat="51.691629" lon="7.7587035">
    <tag k="name" v="Kreuzkirche Bockum-Hövel"/>
    <tag k="wheelchair" v="limited"/>
    <tag k="addr:city" v="Hamm"/>
    <tag k="addr:postcode" v="59075"/>
    <tag k="addr:housenumber" v="140"/>
    <tag k="addr:street" v="Hammer Str. "/>
    <tag k="wheelchair:description" v="Der Zutritt zur Kirche ist ohne Problem möglich. Die Toiletten sind, glaube ich, nicht Rollstuhl gerecht."/>
  </node>
  <node id="-1879" version="0" timestamp="Fri Feb 24 10:53:33 +0100 2012" uid="1" user="" lat="51.6920234" lon="7.7647946">
    <tag k="name" v="Realschule Bockum-Hövel"/>
    <tag k="wheelchair" v="unknown"/>
    <tag k="addr:city" v="Hamm"/>
    <tag k="addr:postcode" v="59075 "/>
    <tag k="addr:housenumber" v="9"/>
    <tag k="addr:street" v="Werner Straße"/>
    <tag k="amenity" v="school"/>
    <tag k="website" v="http://www.rsbh.schulnetz.hamm.de/"/>
  </node>
  <node id="-1947" version="0" timestamp="Fri Feb 24 10:53:33 +0100 2012" uid="1" user="" lat="51.4802287" lon="7.1555362">
    <tag k="name" v="Treppe"/>
    <tag k="wheelchair" v="no"/>
    <tag k="addr:city" v="Bochum"/>
    <tag k="addr:postcode" v="44866"/>
    <tag k="addr:street" v="Flöz Finefrau 18/Geitlingstraße"/>
    <tag k="wheelchair:description" v="Große Treppe"/>
  </node>
  <node id="-1952" version="0" timestamp="Fri Feb 24 10:53:33 +0100 2012" uid="1" user="" lat="51.5167" lon="7.45">
    <tag k="name" v="Steakhaus Mediteran"/>
    <tag k="wheelchair" v="no"/>
    <tag k="addr:city" v="Dortmund"/>
    <tag k="addr:postcode" v="44309"/>
    <tag k="addr:housenumber" v="121"/>
    <tag k="addr:street" v="Holzwickederstr."/>
    <tag k="wheelchair:description" v="Stufen"/>
    <tag k="amenity" v="restaurant"/>
    <tag k="website" v="http://www.steakhaus-Mediteran.com"/>
    <tag k="phone" v="0231 9933547"/>
  </node>
  <node id="-2033" version="0" timestamp="Fri Feb 24 10:53:34 +0100 2012" uid="1" user="" lat="51.4931198" lon="7.4100246">
    <tag k="name" v="Maschinenbaugebäude TU Dortmund"/>
    <tag k="wheelchair" v="yes"/>
    <tag k="addr:city" v="Dortmund"/>
    <tag k="addr:postcode" v="44227"/>
    <tag k="addr:housenumber" v="5"/>
    <tag k="addr:street" v="Leonhard Euler Straße "/>
    <tag k="amenity" v="university"/>
    <tag k="website" v="http://www.mb.tu-dortmund.de"/>
  </node>
  <node id="-2044" version="0" timestamp="Fri Feb 24 10:53:34 +0100 2012" uid="1" user="" lat="51.5139006" lon="7.4751371">
    <tag k="name" v="New Islands"/>
    <tag k="wheelchair" v="no"/>
    <tag k="addr:city" v="Dortmund"/>
    <tag k="addr:postcode" v="44135"/>
    <tag k="addr:housenumber" v="24"/>
    <tag k="addr:street" v="Kaiserstraße"/>
    <tag k="amenity" v="bar"/>
    <tag k="website" v="http://www.newislands.de"/>
    <tag k="phone" v="+49(0)231 5321666"/>
  </node>
  <node id="-2045" version="0" timestamp="Fri Feb 24 10:53:34 +0100 2012" uid="1" user="" lat="51.4952432" lon="7.4583005">
    <tag k="name" v="Eissportzentrum Westfalenhallen"/>
    <tag k="wheelchair" v="no"/>
    <tag k="addr:city" v="Dortmund"/>
    <tag k="addr:postcode" v="44139"/>
    <tag k="addr:housenumber" v="32"/>
    <tag k="addr:street" v="Strobelallee"/>
    <tag k="leisure" v="stadium"/>
    <tag k="website" v="http://www.westfalenhallen.de/303.php"/>
  </node>
  <node id="-2047" version="0" timestamp="Fri Feb 24 10:53:34 +0100 2012" uid="1" user="" lat="51.493943" lon="7.4561193">
    <tag k="name" v="Helmut-Körnig-Halle Leichtathletikzentrum"/>
    <tag k="wheelchair" v="no"/>
    <tag k="addr:city" v="Dortmund"/>
    <tag k="addr:postcode" v="44139"/>
    <tag k="addr:street" v="Strobelallee"/>
    <tag k="leisure" v="arena"/>
  </node>
  <node id="-2050" version="0" timestamp="Fri Feb 24 10:53:34 +0100 2012" uid="1" user="" lat="51.5726532" lon="7.6141043">
    <tag k="name" v="SportCentrum Kamen Kaiserrau Sportschule"/>
    <tag k="wheelchair" v="yes"/>
    <tag k="addr:city" v="Kamen"/>
    <tag k="addr:postcode" v="59174"/>
    <tag k="addr:housenumber" v="2"/>
    <tag k="addr:street" v="Jakob-Koenen-Straße"/>
    <tag k="amenity" v="school"/>
    <tag k="website" v="http://www.sportcentrum-kamenkaiserau.de"/>
  </node>
  <node id="-2052" version="0" timestamp="Fri Feb 24 10:53:34 +0100 2012" uid="1" user="" lat="51.5726733" lon="7.6146847">
    <tag k="name" v="Sporthotel Kamen Kaisersau"/>
    <tag k="wheelchair" v="yes"/>
    <tag k="addr:city" v="Kamen"/>
    <tag k="addr:postcode" v="59174"/>
    <tag k="addr:housenumber" v="2"/>
    <tag k="tourism" v="hotel"/>
    <tag k="addr:street" v="Jakob-Koenen-Straße"/>
    <tag k="website" v="http://www.sportcentrum-kamenkaiserau.de/sportcentrum/sporthotel.html"/>
  </node>
  <node id="-2097" version="0" timestamp="Fri Feb 24 10:53:34 +0100 2012" uid="1" user="" lat="51.4998733" lon="7.3325406">
    <tag k="name" v="Volksbank Dortmund-Nordwest"/>
    <tag k="wheelchair" v="yes"/>
    <tag k="amenity" v="bank"/>
  </node>
  <node id="-2098" version="0" timestamp="Fri Feb 24 10:53:34 +0100 2012" uid="1" user="" lat="51.4995594" lon="7.3325078">
    <tag k="name" v="Sparkasse Dortmund"/>
    <tag k="wheelchair" v="yes"/>
    <tag k="amenity" v="bank"/>
  </node>
  <node id="-2099" version="0" timestamp="Fri Feb 24 10:53:34 +0100 2012" uid="1" user="" lat="51.5003581" lon="7.3361203">
    <tag k="name" v="Deutsche Bank"/>
    <tag k="wheelchair" v="no"/>
    <tag k="amenity" v="bank"/>
  </node>
  <node id="-2154" version="0" timestamp="Fri Feb 24 10:53:34 +0100 2012" uid="1" user="" lat="51.02932" lon="7.84902">
    <tag k="shop" v="supermarket"/>
    <tag k="name" v="Kaufland"/>
    <tag k="wheelchair" v="yes"/>
    <tag k="addr:street" v="Martinstraße"/>
  </node>
  <node id="-2155" version="0" timestamp="Fri Feb 24 10:53:34 +0100 2012" uid="1" user="" lat="51.02938" lon="7.84417">
    <tag k="name" v="Lejos Lounge"/>
    <tag k="wheelchair" v="yes"/>
    <tag k="addr:city" v="Olpe"/>
    <tag k="addr:postcode" v="57462"/>
    <tag k="addr:housenumber" v="16"/>
    <tag k="addr:street" v="Frankfurter Straße"/>
    <tag k="amenity" v="bar"/>
    <tag k="phone" v="02761/9422323 ‎ "/>
  </node>
  <node id="-2513" version="0" timestamp="Fri Feb 24 10:53:34 +0100 2012" uid="1" user="" lat="51.4331896" lon="7.758606">
    <tag k="shop" v="supermarket"/>
    <tag k="name" v="Frischmarkt Hellwig"/>
    <tag k="wheelchair" v="yes"/>
  </node>
  <node id="-2514" version="0" timestamp="Fri Feb 24 10:53:34 +0100 2012" uid="1" user="" lat="51.4331493" lon="7.7590522">
    <tag k="name" v="Heide-Apotheke"/>
    <tag k="wheelchair" v="unknown"/>
    <tag k="amenity" v="pharmacy"/>
  </node>
  <node id="-2515" version="0" timestamp="Fri Feb 24 10:53:34 +0100 2012" uid="1" user="" lat="51.4566984" lon="7.7569918">
    <tag k="name" v="Dorf-Apotheke"/>
    <tag k="wheelchair" v="yes"/>
    <tag k="amenity" v="pharmacy"/>
  </node>
  <node id="-2516" version="0" timestamp="Fri Feb 24 10:53:34 +0100 2012" uid="1" user="" lat="51.4562391" lon="7.7569929">
    <tag k="name" v="Sparkasse"/>
    <tag k="wheelchair" v="yes"/>
    <tag k="amenity" v="bank"/>
  </node>
  <node id="-2518" version="0" timestamp="Fri Feb 24 10:53:34 +0100 2012" uid="1" user="" lat="51.4327122" lon="7.8057143">
    <tag k="name" v="Asia-Imbiss"/>
    <tag k="wheelchair" v="limited"/>
    <tag k="amenity" v="fast_food"/>
  </node>
  <node id="-2519" version="0" timestamp="Fri Feb 24 10:53:34 +0100 2012" uid="1" user="" lat="51.4322164" lon="7.8020577">
    <tag k="shop" v="bakery"/>
    <tag k="name" v="Bäckerei Battenfeld"/>
    <tag k="wheelchair" v="yes"/>
  </node>
  <node id="-2520" version="0" timestamp="Fri Feb 24 10:53:34 +0100 2012" uid="1" user="" lat="51.4404732" lon="7.7909357">
    <tag k="name" v="Mendener Bank"/>
    <tag k="wheelchair" v="yes"/>
    <tag k="wheelchair:description" v="Rampe in der Kaiserstr."/>
    <tag k="amenity" v="bank"/>
  </node>
  <node id="-2521" version="0" timestamp="Fri Feb 24 10:53:34 +0100 2012" uid="1" user="" lat="51.4135899" lon="7.8320654">
    <tag k="name" v="Mendener Bank"/>
    <tag k="wheelchair" v="yes"/>
    <tag k="amenity" v="bank"/>
  </node>
  <node id="-2596" version="0" timestamp="Fri Feb 24 10:53:34 +0100 2012" uid="1" user="" lat="51.54227" lon="7.2212054">
    <tag k="name" v="Bert Groeliken  Praxis für Physiotherapie"/>
    <tag k="wheelchair" v="yes"/>
    <tag k="addr:city" v="Herne"/>
    <tag k="addr:postcode" v="44623"/>
    <tag k="addr:housenumber" v="76"/>
    <tag k="addr:street" v="Bahnhofstraße "/>
    <tag k="amenity" v="doctors"/>
    <tag k="website" v="http://www.groeliken.de"/>
    <tag k="phone" v="+ 49 2323 54545"/>
  </node>
  <node id="-2615" version="0" timestamp="Fri Feb 24 10:53:34 +0100 2012" uid="1" user="" lat="51.4160534" lon="7.8300795">
    <tag k="name" v="Pizzeria Colosseo"/>
    <tag k="wheelchair" v="limited"/>
    <tag k="amenity" v="restaurant"/>
  </node>
  <node id="-2616" version="0" timestamp="Fri Feb 24 10:53:34 +0100 2012" uid="1" user="" lat="51.4583369" lon="7.7720308">
    <tag k="name" v="Le Marron"/>
    <tag k="wheelchair" v="limited"/>
    <tag k="amenity" v="restaurant"/>
    <tag k="website" v="http://www.le-marron.de/"/>
  </node>
  <node id="-2617" version="0" timestamp="Fri Feb 24 10:53:34 +0100 2012" uid="1" user="" lat="51.4351542" lon="7.7990187">
    <tag k="name" v="Kaska-Grill"/>
    <tag k="wheelchair" v="limited"/>
    <tag k="amenity" v="fast_food"/>
  </node>
  <node id="-2618" version="0" timestamp="Fri Feb 24 10:53:34 +0100 2012" uid="1" user="" lat="51.4343973" lon="7.7995782">
    <tag k="name" v="Lindenschänke"/>
    <tag k="wheelchair" v="limited"/>
    <tag k="amenity" v="restaurant"/>
  </node>
  <node id="-2620" version="0" timestamp="Fri Feb 24 10:53:34 +0100 2012" uid="1" user="" lat="51.4362332" lon="7.7985149">
    <tag k="name" v="Kaffee Arte"/>
    <tag k="wheelchair" v="limited"/>
    <tag k="addr:city" v="Menden"/>
    <tag k="addr:housenumber" v="1A"/>
    <tag k="addr:street" v="Ostwall "/>
    <tag k="wheelchair:description" v="über Pastoratstr. ebenerdig"/>
    <tag k="amenity" v="cafe"/>
    <tag k="phone" v="02373/1780345"/>
  </node>
  <node id="-2625" version="0" timestamp="Fri Feb 24 10:53:34 +0100 2012" uid="1" user="" lat="51.4334276" lon="7.7552753">
    <tag k="name" v="Gemeinschaftspraxis Lupinenweg"/>
    <tag k="wheelchair" v="limited"/>
    <tag k="amenity" v="doctors"/>
  </node>
  <node id="-2697" version="0" timestamp="Fri Feb 24 10:53:34 +0100 2012" uid="1" user="" lat="51.4460202" lon="7.7779684">
    <tag k="name" v="Haus Slamic"/>
    <tag k="wheelchair" v="limited"/>
    <tag k="amenity" v="restaurant"/>
  </node>
  <node id="-2698" version="0" timestamp="Fri Feb 24 10:53:34 +0100 2012" uid="1" user="" lat="51.4490421" lon="7.7582598">
    <tag k="shop" v="supermarket"/>
    <tag k="name" v="Kaufland"/>
    <tag k="wheelchair" v="yes"/>
  </node>
  <node id="-2699" version="0" timestamp="Fri Feb 24 10:53:34 +0100 2012" uid="1" user="" lat="51.4497019" lon="7.7582493">
    <tag k="shop" v="supermarket"/>
    <tag k="name" v="Lidl"/>
    <tag k="wheelchair" v="yes"/>
  </node>
  <node id="-2700" version="0" timestamp="Fri Feb 24 10:53:34 +0100 2012" uid="1" user="" lat="51.4498304" lon="7.7576975">
    <tag k="name" v="Dr. Heinatsch (Neurologe)"/>
    <tag k="wheelchair" v="yes"/>
    <tag k="amenity" v="doctors"/>
  </node>
  <node id="-2908" version="0" timestamp="Fri Feb 24 10:53:34 +0100 2012" uid="1" user="" lat="51.5167" lon="7.45">
    <tag k="shop" v="electronics"/>
    <tag k="name" v="Brumberg Elektrofachmarkt"/>
    <tag k="wheelchair" v="yes"/>
    <tag k="addr:city" v="Menden"/>
    <tag k="addr:housenumber" v="1"/>
    <tag k="addr:street" v="Oesewiesen"/>
  </node>
  <node id="-2909" version="0" timestamp="Fri Feb 24 10:53:34 +0100 2012" uid="1" user="" lat="51.4068703" lon="7.8210105">
    <tag k="name" v="Zum Altten Fritz"/>
    <tag k="wheelchair" v="limited"/>
    <tag k="amenity" v="restaurant"/>
  </node>
  <node id="-3005" version="0" timestamp="Fri Feb 24 10:53:35 +0100 2012" uid="1" user="" lat="51.61078" lon="7.52804">
    <tag k="shop" v="supermarket"/>
    <tag k="name" v="Edeka Patzer"/>
    <tag k="wheelchair" v="yes"/>
  </node>
  <node id="-3015" version="0" timestamp="Fri Feb 24 10:53:35 +0100 2012" uid="1" user="" lat="51.6081452" lon="7.5264729">
    <tag k="name" v="Edeka Patzer "/>
    <tag k="wheelchair" v="yes"/>
    <tag k="amenity" v="bank"/>
  </node>
  <node id="-3019" version="0" timestamp="Fri Feb 24 10:53:35 +0100 2012" uid="1" user="" lat="51.6082952" lon="7.5263861">
    <tag k="shop" v="supermarket"/>
    <tag k="name" v="Edeka Patzer"/>
    <tag k="wheelchair" v="yes"/>
  </node>
  <node id="-3085" version="0" timestamp="Fri Feb 24 10:53:35 +0100 2012" uid="1" user="" lat="51.52796" lon="7.67305">
    <tag k="name" v="Jona-Haus"/>
    <tag k="wheelchair" v="yes"/>
    <tag k="addr:city" v="Unna"/>
    <tag k="addr:postcode" v="59423"/>
    <tag k="addr:housenumber" v="1"/>
    <tag k="addr:street" v="Einenstrasse"/>
    <tag k="amenity" v="place_of_worship"/>
  </node>
  <node id="-3163" version="0" timestamp="Fri Feb 24 10:53:35 +0100 2012" uid="1" user="" lat="51.52961" lon="7.41145">
    <tag k="name" v="Do-Dampf.de Fachgeschäft für elektrische Zigaretten und Zubehör."/>
    <tag k="wheelchair" v="limited"/>
    <tag k="addr:city" v="Dortmund"/>
    <tag k="addr:postcode" v="44369"/>
    <tag k="addr:housenumber" v="28"/>
    <tag k="tourism" v="attraction"/>
    <tag k="addr:street" v="Rahmer Strasse "/>
    <tag k="wheelchair:description" v="Eine Stufe, Personal hilft gern, Toilette zu klein :-("/>
    <tag k="website" v="http://www.do-dampf.de/"/>
    <tag k="phone" v="+49 231 188 80 116"/>
  </node>
  <node id="-3198" version="0" timestamp="Fri Feb 24 10:53:35 +0100 2012" uid="1" user="" lat="51.5379008" lon="7.6940552">
    <tag k="shop" v="computer"/>
    <tag k="name" v="AfB GgmbH"/>
    <tag k="wheelchair" v="yes"/>
    <tag k="addr:city" v="Unna"/>
    <tag k="addr:postcode" v="59423"/>
    <tag k="addr:housenumber" v="63"/>
    <tag k="addr:street" v="Bahnhofstraße"/>
    <tag k="website" v="http://www.afb24.com"/>
  </node>
  <node id="-3203" version="0" timestamp="Fri Feb 24 10:53:35 +0100 2012" uid="1" user="" lat="51.4760994" lon="7.2283083">
    <tag k="shop" v="computer"/>
    <tag k="name" v="rumpfwerk - digitale Kommunikation"/>
    <tag k="wheelchair" v="yes"/>
    <tag k="addr:city" v="Bochum"/>
    <tag k="addr:postcode" v="44789"/>
    <tag k="addr:housenumber" v="35"/>
    <tag k="addr:street" v="Düppelstr. "/>
    <tag k="website" v="http://www.rumpfwerk.de"/>
    <tag k="phone" v="0234 4145660"/>
  </node>
  <node id="-3251" version="0" timestamp="Fri Feb 24 10:53:35 +0100 2012" uid="1" user="" lat="51.3766345" lon="7.6953685">
    <tag k="name" v="Pura Luna"/>
    <tag k="wheelchair" v="limited"/>
    <tag k="addr:city" v="Iserlohn"/>
    <tag k="addr:postcode" v="58638"/>
    <tag k="addr:housenumber" v="20"/>
    <tag k="addr:street" v="Hans-Böckler-Str."/>
    <tag k="wheelchair:description" v="1 Stufe am Eingang, mobile Rampe vorhanden, WC im UG, aber eine Toilette im EG auf Vorbestellung nutzbar (ist sonst eher Lager)"/>
    <tag k="amenity" v="restaurant"/>
    <tag k="website" v="http://www.pura-luna.de"/>
    <tag k="phone" v="+49 2371 7894507"/>
  </node>
  <node id="-3252" version="0" timestamp="Fri Feb 24 10:53:35 +0100 2012" uid="1" user="" lat="51.4379331" lon="7.7961378">
    <tag k="name" v="Café fuchs+hase"/>
    <tag k="wheelchair" v="limited"/>
    <tag k="addr:city" v="Menden"/>
    <tag k="addr:postcode" v="58706"/>
    <tag k="addr:housenumber" v="1"/>
    <tag k="addr:street" v="Marktplatz "/>
    <tag k="wheelchair:description" v="Café stufenlos befahrbar, WC aber im OG"/>
    <tag k="amenity" v="cafe"/>
    <tag k="website" v="http://www.fuchsundhase-menden.de"/>
    <tag k="phone" v="+49 2373 3999853"/>
  </node>
  <node id="-3289" version="0" timestamp="Fri Feb 24 10:53:35 +0100 2012" uid="1" user="" lat="51.6833" lon="7.8">
    <tag k="name" v="Kino ahlen"/>
    <tag k="wheelchair" v="unknown"/>
    <tag k="amenity" v="bank"/>
  </node>
  <node id="-3299" version="0" timestamp="Fri Feb 24 10:53:35 +0100 2012" uid="1" user="" lat="51.55526" lon="7.91336">
    <tag k="name" v="Cafe Dreiklang"/>
    <tag k="wheelchair" v="yes"/>
    <tag k="amenity" v="cafe"/>
  </node>
  <node id="-3300" version="0" timestamp="Fri Feb 24 10:53:35 +0100 2012" uid="1" user="" lat="51.5555969" lon="7.911815">
    <tag k="shop" v="clothes"/>
    <tag k="name" v="Kaufhaus Danielmeier"/>
    <tag k="wheelchair" v="no"/>
    <tag k="wheelchair:description" v="Kein Kundenfahrstuhl"/>
  </node>
  <node id="-3301" version="0" timestamp="Fri Feb 24 10:53:35 +0100 2012" uid="1" user="" lat="51.5517699" lon="7.9138242">
    <tag k="name" v="Volkshochschule Werl"/>
    <tag k="wheelchair" v="yes"/>
    <tag k="amenity" v="school"/>
  </node>
  <node id="-3302" version="0" timestamp="Fri Feb 24 10:53:35 +0100 2012" uid="1" user="" lat="51.5521769" lon="7.9146193">
    <tag k="shop" v="books"/>
    <tag k="name" v="Buchhandlung Stein"/>
    <tag k="wheelchair" v="no"/>
    <tag k="wheelchair:description" v="Kein Fahrstuhl, Räumr nicht erreichbar"/>
  </node>
  <node id="-3303" version="0" timestamp="Fri Feb 24 10:53:35 +0100 2012" uid="1" user="" lat="51.55897" lon="7.90236">
    <tag k="name" v="Freizeitbad Werl"/>
    <tag k="wheelchair" v="yes"/>
    <tag k="amenity" v="swimming_pool"/>
  </node>
  <node id="-3304" version="0" timestamp="Fri Feb 24 10:53:35 +0100 2012" uid="1" user="" lat="51.554753" lon="7.904552">
    <tag k="name" v="Mariengymnasium Werl"/>
    <tag k="wheelchair" v="limited"/>
    <tag k="wheelchair:description" v="Fahrstuhl vorhanden, nur nach Anmeldung zu bedienen, nicht alle Räume erreichbar"/>
    <tag k="amenity" v="school"/>
  </node>
  <node id="-3392" version="0" timestamp="Fri Feb 24 10:53:35 +0100 2012" uid="1" user="" lat="51.3833" lon="7.7667">
    <tag k="name" v="Rustica-Grill Rothe"/>
    <tag k="wheelchair" v="yes"/>
    <tag k="addr:city" v="grefrath"/>
    <tag k="addr:postcode" v="47929"/>
    <tag k="addr:housenumber" v="6"/>
    <tag k="addr:street" v="hohestraße"/>
    <tag k="amenity" v="restaurant"/>
  </node>
  <node id="-3398" version="0" timestamp="Fri Feb 24 10:53:35 +0100 2012" uid="1" user="" lat="51.3956478" lon="7.181732">
    <tag k="name" v="Egal"/>
    <tag k="wheelchair" v="unknown"/>
    <tag k="addr:city" v="Hattingen"/>
    <tag k="addr:postcode" v="45525"/>
    <tag k="addr:street" v="Bruchstrasse"/>
    <tag k="amenity" v="pub"/>
  </node>
  <node id="-3454" version="0" timestamp="Fri Feb 24 10:53:35 +0100 2012" uid="1" user="" lat="51.3890838" lon="7.3837884">
    <tag k="shop" v="supermarket"/>
    <tag k="name" v="LIDL"/>
    <tag k="wheelchair" v="yes"/>
  </node>
  <node id="-3461" version="0" timestamp="Fri Feb 24 10:53:35 +0100 2012" uid="1" user="" lat="51.4489674" lon="7.7562127">
    <tag k="shop" v="shoes"/>
    <tag k="name" v="Deichmann"/>
    <tag k="wheelchair" v="yes"/>
  </node>
  <node id="-3462" version="0" timestamp="Fri Feb 24 10:53:35 +0100 2012" uid="1" user="" lat="51.4181766" lon="7.8277966">
    <tag k="shop" v="clothes"/>
    <tag k="name" v="Kress"/>
    <tag k="wheelchair" v="yes"/>
  </node>
  <node id="-3463" version="0" timestamp="Fri Feb 24 10:53:35 +0100 2012" uid="1" user="" lat="51.4180228" lon="7.8270704">
    <tag k="shop" v="shoes"/>
    <tag k="name" v="Schuhpark"/>
    <tag k="wheelchair" v="yes"/>
  </node>
  <node id="-3464" version="0" timestamp="Fri Feb 24 10:53:35 +0100 2012" uid="1" user="" lat="51.4373003" lon="7.7998286">
    <tag k="name" v="Parkplatz"/>
    <tag k="wheelchair" v="yes"/>
    <tag k="amenity" v="parking"/>
  </node>
  <node id="-3466" version="0" timestamp="Fri Feb 24 10:53:35 +0100 2012" uid="1" user="" lat="51.4371863" lon="7.7995418">
    <tag k="name" v="Vincenz-Apotheke"/>
    <tag k="wheelchair" v="yes"/>
    <tag k="amenity" v="pharmacy"/>
  </node>
  <node id="-3480" version="0" timestamp="Fri Feb 24 10:53:35 +0100 2012" uid="1" user="" lat="51.5422599" lon="7.6873621">
    <tag k="name" v="Kreishaus Unna"/>
    <tag k="wheelchair" v="yes"/>
    <tag k="addr:city" v="Unna"/>
    <tag k="addr:postcode" v="59425"/>
    <tag k="addr:housenumber" v="17"/>
    <tag k="addr:street" v="Friedrich-Ebert-Straße"/>
    <tag k="website" v="http://www.kreis-unna.de"/>
    <tag k="phone" v="+49 23 03 27-0"/>
  </node>
  <node id="-3482" version="0" timestamp="Fri Feb 24 10:53:35 +0100 2012" uid="1" user="" lat="51.5432233" lon="7.6880373">
    <tag k="name" v="Gesundheitsamt Kreis Unna"/>
    <tag k="wheelchair" v="yes"/>
    <tag k="addr:city" v="Unna"/>
    <tag k="addr:postcode" v="59425"/>
    <tag k="addr:housenumber" v="16"/>
    <tag k="addr:street" v="Platanenallee"/>
    <tag k="website" v="http://www.kreis-unna.de"/>
    <tag k="phone" v="+49 23 03 27-0"/>
  </node>
  <node id="-3684" version="0" timestamp="Fri Feb 24 10:53:35 +0100 2012" uid="1" user="" lat="51.4256211" lon="7.817598">
    <tag k="name" v="Hotel"/>
    <tag k="wheelchair" v="unknown"/>
    <tag k="tourism" v="hotel"/>
  </node>
  <node id="-3686" version="0" timestamp="Fri Feb 24 10:53:35 +0100 2012" uid="1" user="" lat="51.4173464" lon="7.8276632">
    <tag k="shop" v="bakery"/>
    <tag k="name" v="Bäckerei Niehave"/>
    <tag k="wheelchair" v="yes"/>
  </node>
  <node id="-3699" version="0" timestamp="Fri Feb 24 10:53:35 +0100 2012" uid="1" user="" lat="51.5215267" lon="7.5937249">
    <tag k="name" v="Katzenzucht Oumard"/>
    <tag k="wheelchair" v="limited"/>
    <tag k="addr:city" v="Dortmund"/>
    <tag k="addr:postcode" v="44319"/>
    <tag k="addr:housenumber" v="6"/>
    <tag k="addr:street" v="Ertmarweg"/>
    <tag k="wheelchair:description" v="Haus ist mit Rollstuhl nicht befahrbar. Garten ist nur für scmale Rollstühle geeignet."/>
    <tag k="amenity" v="veterinary"/>
    <tag k="website" v="http://www.oumards.de"/>
  </node>
  <node id="-3894" version="0" timestamp="Fri Feb 24 10:53:35 +0100 2012" uid="1" user="" lat="51.5442701" lon="7.2127757">
    <tag k="name" v="Pestalozzi Gymnasium Herne"/>
    <tag k="wheelchair" v="yes"/>
    <tag k="addr:city" v="Herne"/>
    <tag k="addr:postcode" v="44629"/>
    <tag k="addr:housenumber" v="6"/>
    <tag k="addr:street" v="Harpener Weg "/>
    <tag k="amenity" v="school"/>
    <tag k="website" v="http://www.pestalozzi-gymnasium.herne.de/"/>
    <tag k="phone" v="+49 (0)2323 16-2213"/>
  </node>
  <node id="-4017" version="0" timestamp="Fri Feb 24 10:53:36 +0100 2012" uid="1" user="" lat="51.5214567" lon="7.5937896">
    <tag k="name" v="Restaurant Katzenzucht Oumard"/>
    <tag k="wheelchair" v="no"/>
    <tag k="addr:city" v="Dortmund"/>
    <tag k="addr:postcode" v="44319"/>
    <tag k="addr:housenumber" v="6"/>
    <tag k="addr:street" v="Ertmarweg"/>
    <tag k="amenity" v="restaurant"/>
    <tag k="website" v="http://www.oumards.de"/>
  </node>
  <node id="-4018" version="0" timestamp="Fri Feb 24 10:53:36 +0100 2012" uid="1" user="" lat="51.5212299" lon="7.5938258">
    <tag k="name" v="Garten der Katzenzucht Oumard"/>
    <tag k="wheelchair" v="yes"/>
    <tag k="addr:city" v="Dortmund"/>
    <tag k="addr:postcode" v="44319"/>
    <tag k="tourism" v="theme_park"/>
    <tag k="website" v="http://www.oumards.de/Garten/1,000000540075,8,1"/>
  </node>
  <node id="-4019" version="0" timestamp="Fri Feb 24 10:53:36 +0100 2012" uid="1" user="" lat="51.521587" lon="7.593858">
    <tag k="name" v="Parkhaus der Katzenzucht Oumard"/>
    <tag k="wheelchair" v="yes"/>
    <tag k="addr:city" v="Dortmund"/>
    <tag k="addr:postcode" v="44319"/>
    <tag k="amenity" v="parking"/>
  </node>
  <node id="-4044" version="0" timestamp="Fri Feb 24 10:53:36 +0100 2012" uid="1" user="" lat="51.4243" lon="7.27964">
    <tag k="name" v="Kinderärztin Peters"/>
    <tag k="wheelchair" v="yes"/>
    <tag k="wheelchair:description" v="Die Kinderarztpraxis kann mit dem Rollstuhl befahren werden."/>
    <tag k="amenity" v="doctors"/>
    <tag k="phone" v="02302 23003"/>
  </node>
  <node id="-4045" version="0" timestamp="Fri Feb 24 10:53:36 +0100 2012" uid="1" user="" lat="51.424714" lon="7.2822521">
    <tag k="name" v="Kinderärztin Peters"/>
    <tag k="wheelchair" v="yes"/>
    <tag k="wheelchair:description" v="die Praxis kann mühelos mit dem Rollstuhl erreicht und befahren werden"/>
    <tag k="amenity" v="doctors"/>
    <tag k="phone" v="02302 23003"/>
  </node>
  <node id="-4175" version="0" timestamp="Fri Feb 24 10:53:36 +0100 2012" uid="1" user="" lat="51.67721" lon="7.84567">
    <tag k="name" v="Restaurant Symphony"/>
    <tag k="wheelchair" v="unknown"/>
    <tag k="addr:city" v="Hamm"/>
    <tag k="addr:postcode" v="59063"/>
    <tag k="addr:housenumber" v="11"/>
    <tag k="addr:street" v="Holunderweg"/>
    <tag k="amenity" v="restaurant"/>
  </node>
  <node id="-4176" version="0" timestamp="Fri Feb 24 10:53:36 +0100 2012" uid="1" user="" lat="51.7021904" lon="7.7569192">
    <tag k="shop" v="supermarket"/>
    <tag k="name" v="Penny Markt"/>
    <tag k="wheelchair" v="yes"/>
    <tag k="addr:city" v="Hamm"/>
    <tag k="addr:postcode" v="59075"/>
    <tag k="addr:street" v="Horster Straße"/>
  </node>
  <node id="-4204" version="0" timestamp="Fri Feb 24 10:53:36 +0100 2012" uid="1" user="" lat="51.6767728" lon="7.7798143">
    <tag k="name" v="Bistro &apos;Hafen 82&apos; (Mo.-Fr.)"/>
    <tag k="wheelchair" v="yes"/>
    <tag k="addr:city" v="Hamm"/>
    <tag k="addr:postcode" v="59067"/>
    <tag k="addr:housenumber" v="82"/>
    <tag k="addr:street" v="Hafenstraße"/>
    <tag k="wheelchair:description" v="Seitlicher Aufzug mit Sprechstelle"/>
    <tag k="amenity" v="restaurant"/>
    <tag k="website" v="http://www.bistrohafen82.de"/>
    <tag k="phone" v="+49 2381 17 78 17"/>
  </node>
  <node id="-4235" version="0" timestamp="Fri Feb 24 10:53:36 +0100 2012" uid="1" user="" lat="51.7057852" lon="7.8347047">
    <tag k="name" v="Bürgeramt Heessen"/>
    <tag k="wheelchair" v="limited"/>
    <tag k="addr:city" v="Hamm"/>
    <tag k="addr:postcode" v="59073"/>
    <tag k="addr:housenumber" v="19"/>
    <tag k="addr:street" v="Amtsstraße"/>
    <tag k="amenity" v="embassy"/>
    <tag k="website" v="http://www.hammwiki.de/wiki/B%C3%BCrgeramt"/>
    <tag k="phone" v="+49 2381 17-9700"/>
  </node>
  <node id="-4236" version="0" timestamp="Fri Feb 24 10:53:36 +0100 2012" uid="1" user="" lat="51.7064891" lon="7.8355304">
    <tag k="name" v="Realschule Heessen"/>
    <tag k="wheelchair" v="yes"/>
    <tag k="addr:city" v="Hamm"/>
    <tag k="addr:postcode" v="59073"/>
    <tag k="addr:housenumber" v="23"/>
    <tag k="addr:street" v="Jahnstraße"/>
    <tag k="amenity" v="school"/>
    <tag k="website" v="http://www.rsh.schulnetz.hamm.de/"/>
    <tag k="phone" v="+49 2381 304086"/>
  </node>
  <node id="-4237" version="0" timestamp="Fri Feb 24 10:53:36 +0100 2012" uid="1" user="" lat="51.7081992" lon="7.8418149">
    <tag k="name" v="St. Barbara Klinik"/>
    <tag k="wheelchair" v="yes"/>
    <tag k="addr:city" v="Hamm"/>
    <tag k="addr:postcode" v="59073"/>
    <tag k="addr:housenumber" v="1"/>
    <tag k="addr:street" v="Am Heessener Wald"/>
    <tag k="amenity" v="hospital"/>
    <tag k="website" v="http://www.barbaraklinik.de/"/>
    <tag k="phone" v="+49 2381 681-0"/>
  </node>
  <node id="-4238" version="0" timestamp="Fri Feb 24 10:53:36 +0100 2012" uid="1" user="" lat="51.708866" lon="7.8402445">
    <tag k="name" v="Unterer Parkplatz der St. Barbara Klinik"/>
    <tag k="wheelchair" v="no"/>
    <tag k="addr:city" v="Hamm"/>
    <tag k="addr:postcode" v="59073"/>
    <tag k="addr:street" v="Ennigerweg"/>
    <tag k="wheelchair:description" v="Sehr viele Stufen zur Klinik"/>
    <tag k="amenity" v="parking"/>
  </node>
  <node id="-4239" version="0" timestamp="Fri Feb 24 10:53:36 +0100 2012" uid="1" user="" lat="51.7087005" lon="7.8410822">
    <tag k="name" v="Oberer Parkplatz der St. Barbara Klinik"/>
    <tag k="wheelchair" v="yes"/>
    <tag k="addr:city" v="Hamm"/>
    <tag k="addr:postcode" v="59073"/>
    <tag k="addr:housenumber" v="1"/>
    <tag k="addr:street" v="Am Heessener Wald"/>
    <tag k="amenity" v="parking"/>
  </node>
  <node id="-4240" version="0" timestamp="Fri Feb 24 10:53:36 +0100 2012" uid="1" user="" lat="51.7121524" lon="7.8494861">
    <tag k="name" v="Waldbühne Heessen"/>
    <tag k="wheelchair" v="limited"/>
    <tag k="addr:city" v="Hamm"/>
    <tag k="addr:postcode" v="59073"/>
    <tag k="addr:housenumber" v="3"/>
    <tag k="addr:street" v="Gebrüder-Funke-Weg"/>
    <tag k="wheelchair:description" v="Rollifahrer"/>
    <tag k="amenity" v="theatre"/>
    <tag k="website" v="http://www.waldbuehne-heessen.de/"/>
    <tag k="phone" v="+49 2381 30909-0"/>
  </node>
  <node id="-4241" version="0" timestamp="Fri Feb 24 10:53:36 +0100 2012" uid="1" user="" lat="51.7156295" lon="7.8225223">
    <tag k="name" v="Parkplatz des Hallenbades &apos;Familien Oase&apos;"/>
    <tag k="wheelchair" v="yes"/>
    <tag k="addr:city" v="Hamm"/>
    <tag k="addr:postcode" v="59073"/>
    <tag k="addr:street" v="An der Marienkirche"/>
    <tag k="amenity" v="parking"/>
  </node>
  <node id="-4242" version="0" timestamp="Fri Feb 24 10:53:36 +0100 2012" uid="1" user="" lat="51.7059887" lon="7.8227563">
    <tag k="name" v="Alfred Fischer Halle"/>
    <tag k="wheelchair" v="yes"/>
    <tag k="addr:city" v="Hamm"/>
    <tag k="addr:postcode" v="59073"/>
    <tag k="addr:housenumber" v="10"/>
    <tag k="addr:street" v="Sachsenweg"/>
    <tag k="amenity" v="theatre"/>
    <tag k="website" v="http://www.fischerhalle.de/"/>
    <tag k="phone" v="+49 2381 175501"/>
  </node>
  <node id="-4375" version="0" timestamp="Fri Feb 24 10:53:36 +0100 2012" uid="1" user="" lat="51.67763" lon="7.82036">
    <tag k="name" v="Agentur für Arbeit Hamm"/>
    <tag k="wheelchair" v="yes"/>
    <tag k="addr:city" v="Hamm"/>
    <tag k="addr:postcode" v="59065"/>
    <tag k="addr:housenumber" v="1"/>
    <tag k="addr:street" v="Bismarkstr. "/>
    <tag k="website" v="http://www.arbeitsagentur.de"/>
    <tag k="office" v="company"/>
  </node>
  <node id="-4392" version="0" timestamp="Fri Feb 24 10:53:36 +0100 2012" uid="1" user="" lat="51.2824536" lon="7.7822124">
    <tag k="name" v="Physiotherapie Knuth"/>
    <tag k="wheelchair" v="yes"/>
    <tag k="addr:city" v="Neuenrade"/>
    <tag k="addr:postcode" v="58809"/>
    <tag k="addr:housenumber" v="3"/>
    <tag k="addr:street" v="Zweite Strasse"/>
    <tag k="wheelchair:description" v="Das dazugehörige Fitnessstudio im Nachbargebäude ist über 3 Stufen zu erreichen"/>
    <tag k="leisure" v="sports_centre"/>
    <tag k="phone" v="+49 2392/7239944"/>
  </node>
  <node id="-4393" version="0" timestamp="Fri Feb 24 10:53:36 +0100 2012" uid="1" user="" lat="51.1268852" lon="7.6000878">
    <tag k="shop" v="supermarket"/>
    <tag k="name" v="Rewe XL Markt"/>
    <tag k="wheelchair" v="yes"/>
  </node>
  <node id="-4439" version="0" timestamp="Fri Feb 24 10:53:36 +0100 2012" uid="1" user="" lat="51.4933283" lon="7.4190276">
    <tag k="name" v="FrauTole"/>
    <tag k="wheelchair" v="yes"/>
    <tag k="addr:city" v="FB Soziales"/>
    <tag k="addr:housenumber" v="44"/>
    <tag k="addr:street" v="Emil-Figge-Straße "/>
    <tag k="wheelchair:description" v="Aufzug und Rolli-WC vorhanden(allerdings nicht auf jeder Etage und nur mit Schlüssel zu nutzen)"/>
    <tag k="amenity" v="college"/>
  </node>
  <node id="-4440" version="0" timestamp="Fri Feb 24 10:53:36 +0100 2012" uid="1" user="" lat="51.49333" lon="7.41903">
    <tag k="name" v="Fachhochschule Dortmund"/>
    <tag k="wheelchair" v="limited"/>
    <tag k="addr:city" v="FB Soziales"/>
    <tag k="addr:housenumber" v="44"/>
    <tag k="addr:street" v="Emil-Figge-Straße "/>
    <tag k="wheelchair:description" v="Aufzug und Rolli-WC vorhanden(allerdings nicht auf jeder Etage und nur mit Schlüssel zu nutzen)"/>
    <tag k="amenity" v="college"/>
  </node>
  <node id="-4441" version="0" timestamp="Fri Feb 24 10:53:36 +0100 2012" uid="1" user="" lat="51.4932198" lon="7.419089">
    <tag k="name" v="Fachhochschule Dortmund"/>
    <tag k="wheelchair" v="yes"/>
    <tag k="addr:city" v="FB Soziales"/>
    <tag k="addr:housenumber" v="44"/>
    <tag k="addr:street" v="Emil-Figge-Straße "/>
    <tag k="wheelchair:description" v="Aufzug und Rolli-WC vorhanden(allerdings nicht auf jeder Etage und nur mit Schlüssel zu nutzen)"/>
    <tag k="amenity" v="college"/>
  </node>
  <node id="-4684" version="0" timestamp="Fri Feb 24 10:53:36 +0100 2012" uid="1" user="" lat="51.1572156" lon="8.4622266">
    <tag k="name" v="Schützenhalle Langewiese"/>
    <tag k="wheelchair" v="yes"/>
    <tag k="addr:city" v="Winterberg"/>
    <tag k="addr:postcode" v="59955"/>
    <tag k="addr:housenumber" v="47"/>
    <tag k="addr:street" v="Bundesstrasse"/>
    <tag k="amenity" v="community_center"/>
    <tag k="website" v="http://www.schuetzenverein-langewiese.de"/>
  </node>
  <node id="-4686" version="0" timestamp="Fri Feb 24 10:53:36 +0100 2012" uid="1" user="" lat="51.19426" lon="8.53594">
    <tag k="name" v="Tourisik Information"/>
    <tag k="wheelchair" v="yes"/>
    <tag k="addr:city" v="Winterberg"/>
    <tag k="addr:postcode" v="59955"/>
    <tag k="addr:housenumber" v="10"/>
    <tag k="addr:street" v="Hauptstrasse"/>
    <tag k="amenity" v="community_center"/>
    <tag k="website" v="http://www.winterberg.de"/>
    <tag k="phone" v="+49 2981 9250-0"/>
  </node>
  <node id="-4687" version="0" timestamp="Fri Feb 24 10:53:36 +0100 2012" uid="1" user="" lat="51.1944079" lon="8.5346311">
    <tag k="name" v="Tourisik Information"/>
    <tag k="wheelchair" v="yes"/>
    <tag k="addr:city" v="Winterberg"/>
    <tag k="addr:postcode" v="59955"/>
    <tag k="addr:housenumber" v="10"/>
    <tag k="addr:street" v="Hauptstrasse"/>
    <tag k="amenity" v="community_center"/>
    <tag k="website" v="http://www.winterberg.de"/>
    <tag k="phone" v="+49 2981 9250-0"/>
  </node>
  <node id="-4874" version="0" timestamp="Fri Feb 24 10:53:36 +0100 2012" uid="1" user="" lat="51.55" lon="7.2167">
    <tag k="name" v="Praxis Dr. Redzich"/>
    <tag k="wheelchair" v="yes"/>
    <tag k="addr:city" v="Bochum"/>
    <tag k="addr:postcode" v="44892"/>
    <tag k="addr:housenumber" v="82"/>
    <tag k="addr:street" v="Alte Bahnhostrasse"/>
    <tag k="amenity" v="doctors"/>
  </node>
  <node id="-4957" version="0" timestamp="Fri Feb 24 10:53:36 +0100 2012" uid="1" user="" lat="51.47103" lon="7.21566">
    <tag k="name" v="Aubergine"/>
    <tag k="wheelchair" v="limited"/>
    <tag k="addr:city" v="Bochum"/>
    <tag k="addr:postcode" v="D-44789"/>
    <tag k="addr:housenumber" v="13"/>
    <tag k="addr:street" v="Pieperstraße"/>
    <tag k="amenity" v="restaurant"/>
    <tag k="website" v="http://www.aubergine-bochum.de"/>
    <tag k="phone" v="+49 234 - 66611"/>
  </node>
  <node id="-5040" version="0" timestamp="Fri Feb 24 10:53:36 +0100 2012" uid="1" user="" lat="51.0589665" lon="8.4001038">
    <tag k="name" v="Britannia Inn"/>
    <tag k="wheelchair" v="unknown"/>
    <tag k="addr:city" v="Bad Berleburg"/>
    <tag k="addr:postcode" v="57319"/>
    <tag k="addr:housenumber" v="11"/>
    <tag k="addr:street" v="Am Breitenbach"/>
    <tag k="amenity" v="restaurant"/>
    <tag k="website" v="http://www.britannia-inn.de"/>
    <tag k="phone" v="02751 7004"/>
  </node>
  <node id="-5071" version="0" timestamp="Fri Feb 24 10:53:37 +0100 2012" uid="1" user="" lat="51.02812" lon="7.84351">
    <tag k="name" v="Cafè Zeppenfeld"/>
    <tag k="wheelchair" v="yes"/>
    <tag k="addr:city" v="Olpe"/>
    <tag k="addr:postcode" v="57462"/>
    <tag k="addr:housenumber" v="6"/>
    <tag k="addr:street" v="Hospitalweg"/>
    <tag k="amenity" v="cafe"/>
    <tag k="website" v="http://www.cafe-zeppenfeld.de"/>
    <tag k="phone" v="+2761 852373"/>
  </node>
  <node id="-5100" version="0" timestamp="Fri Feb 24 10:53:37 +0100 2012" uid="1" user="" lat="51.4768947" lon="7.2139007">
    <tag k="shop" v="second_hand"/>
    <tag k="name" v="Carla&apos;s Warenkorb"/>
    <tag k="wheelchair" v="limited"/>
    <tag k="addr:city" v="Bochum"/>
    <tag k="addr:postcode" v="44787"/>
    <tag k="addr:housenumber" v="54"/>
    <tag k="addr:street" v="Humboldtstr."/>
    <tag k="wheelchair:description" v="ebenerdiger Zugang, Umkleidekabine vergrößerbar auf Rollstuhlbreite"/>
    <tag k="website" v="http://www.gomel-hilfe-bochum.de"/>
    <tag k="phone" v="0170-9507030"/>
  </node>
  <node id="-5108" version="0" timestamp="Fri Feb 24 10:53:37 +0100 2012" uid="1" user="" lat="51.53227" lon="7.60862">
    <tag k="shop" v="supermarket"/>
    <tag k="name" v="Edeka"/>
    <tag k="wheelchair" v="yes"/>
  </node>
  <node id="-5109" version="0" timestamp="Fri Feb 24 10:53:37 +0100 2012" uid="1" user="" lat="51.5333573" lon="7.6090661">
    <tag k="shop" v="supermarket"/>
    <tag k="name" v="Edeka"/>
    <tag k="wheelchair" v="yes"/>
  </node>
  <node id="-5110" version="0" timestamp="Fri Feb 24 10:53:37 +0100 2012" uid="1" user="" lat="51.5328628" lon="7.6094777">
    <tag k="shop" v="supermarket"/>
    <tag k="name" v="Lidl"/>
    <tag k="wheelchair" v="yes"/>
  </node>
  <node id="-5111" version="0" timestamp="Fri Feb 24 10:53:37 +0100 2012" uid="1" user="" lat="51.5329033" lon="7.6112835">
    <tag k="shop" v="supermarket"/>
    <tag k="name" v="Aldi"/>
    <tag k="wheelchair" v="limited"/>
  </node>
  <node id="-5112" version="0" timestamp="Fri Feb 24 10:53:37 +0100 2012" uid="1" user="" lat="51.5356797" lon="7.6220266">
    <tag k="name" v="Dr. Krane"/>
    <tag k="wheelchair" v="no"/>
    <tag k="addr:city" v="Dortmund"/>
    <tag k="addr:postcode" v="44319"/>
    <tag k="addr:housenumber" v="28"/>
    <tag k="addr:street" v="Alte Märsch"/>
    <tag k="amenity" v="doctors"/>
  </node>
  <node id="-5387" version="0" timestamp="Fri Feb 24 10:53:37 +0100 2012" uid="1" user="" lat="51.51515" lon="7.47118">
    <tag k="name" v="Santander Consumer Bank"/>
    <tag k="wheelchair" v="limited"/>
    <tag k="addr:city" v="Dortmund"/>
    <tag k="addr:postcode" v="44135"/>
    <tag k="addr:housenumber" v="60"/>
    <tag k="addr:street" v="Brüderweg"/>
    <tag k="amenity" v="bank"/>
    <tag k="website" v="http://www.santander.de"/>
  </node>
  <node id="-5427" version="0" timestamp="Fri Feb 24 10:53:37 +0100 2012" uid="1" user="" lat="51.35762" lon="7.47208">
    <tag k="name" v="Santander Consumer Bank"/>
    <tag k="wheelchair" v="limited"/>
    <tag k="addr:city" v="Hagen"/>
    <tag k="addr:postcode" v="58095"/>
    <tag k="addr:housenumber" v="24"/>
    <tag k="addr:street" v="Kampstraße"/>
    <tag k="amenity" v="bank"/>
    <tag k="website" v="http://www.santander.de"/>
  </node>
  <node id="-5432" version="0" timestamp="Fri Feb 24 10:53:37 +0100 2012" uid="1" user="" lat="51.47973" lon="7.21821">
    <tag k="name" v="Santander Consumer Bank"/>
    <tag k="wheelchair" v="limited"/>
    <tag k="addr:city" v="Bochum"/>
    <tag k="addr:postcode" v="44787"/>
    <tag k="addr:housenumber" v="14"/>
    <tag k="addr:street" v="Südring"/>
    <tag k="amenity" v="bank"/>
    <tag k="website" v="http://www.santander.de"/>
  </node>
  <node id="-5538" version="0" timestamp="Fri Feb 24 10:53:37 +0100 2012" uid="1" user="" lat="51.29961" lon="7.67321">
    <tag k="shop" v="optician"/>
    <tag k="name" v="Optik Berndt"/>
    <tag k="wheelchair" v="limited"/>
    <tag k="addr:city" v="Altena"/>
    <tag k="addr:postcode" v="58762"/>
    <tag k="addr:housenumber" v="39"/>
    <tag k="addr:street" v="Lennestr. "/>
    <tag k="website" v="http://www.optik-berndt.de"/>
    <tag k="phone" v="+49 2352 25244"/>
  </node>
  <node id="-5616" version="0" timestamp="Fri Feb 24 10:53:37 +0100 2012" uid="1" user="" lat="51.69048" lon="7.86267">
    <tag k="name" v="Ev. Altenheim Hamm e.V.Amalie-Sieveking-Haus"/>
    <tag k="wheelchair" v="yes"/>
    <tag k="addr:city" v="Hamm"/>
    <tag k="addr:postcode" v="59071"/>
    <tag k="addr:housenumber" v="26"/>
    <tag k="addr:street" v="Alter Uentroper Weg"/>
    <tag k="amenity" v="social_facility"/>
  </node>
  <node id="-5680" version="0" timestamp="Fri Feb 24 10:53:37 +0100 2012" uid="1" user="" lat="51.4701967" lon="7.3085197">
    <tag k="name" v="Radiologische Gemeinschaftspraxis"/>
    <tag k="wheelchair" v="yes"/>
    <tag k="addr:city" v="Bochum"/>
    <tag k="addr:postcode" v="44892"/>
    <tag k="addr:housenumber" v="91"/>
    <tag k="addr:street" v="Unterstrasse"/>
    <tag k="amenity" v="doctors"/>
    <tag k="website" v="http://www.radiologie-bo.com/index.php"/>
    <tag k="phone" v="+49 234 292828"/>
  </node>
  <node id="-5687" version="0" timestamp="Fri Feb 24 10:53:37 +0100 2012" uid="1" user="" lat="51.6966902" lon="7.7498642">
    <tag k="name" v="Sporthalle Schulzentrum"/>
    <tag k="wheelchair" v="yes"/>
    <tag k="addr:city" v="Hamm"/>
    <tag k="addr:postcode" v="59075"/>
    <tag k="addr:street" v="Marinestr."/>
    <tag k="leisure" v="stadium"/>
  </node>
  <node id="-5696" version="0" timestamp="Fri Feb 24 10:53:37 +0100 2012" uid="1" user="" lat="51.7023837" lon="7.7599276">
    <tag k="name" v="Physiotherapie Praxis Huhn"/>
    <tag k="wheelchair" v="limited"/>
    <tag k="addr:city" v="Hamm"/>
    <tag k="addr:postcode" v="59075"/>
    <tag k="addr:housenumber" v="4"/>
    <tag k="addr:street" v="Horster Str."/>
    <tag k="amenity" v="social_facility"/>
    <tag k="phone" v="02381 787821"/>
  </node>
  <node id="-5697" version="0" timestamp="Fri Feb 24 10:53:37 +0100 2012" uid="1" user="" lat="51.68939" lon="7.75314">
    <tag k="name" v="Gasthof Könnecke"/>
    <tag k="wheelchair" v="limited"/>
    <tag k="addr:city" v="Hamm"/>
    <tag k="addr:postcode" v="59075"/>
    <tag k="addr:street" v="Strackstr. "/>
    <tag k="amenity" v="restaurant"/>
  </node>
  <node id="-5698" version="0" timestamp="Fri Feb 24 10:53:37 +0100 2012" uid="1" user="" lat="51.6994709" lon="7.772211">
    <tag k="name" v="Deutsche Rote Kreuz"/>
    <tag k="wheelchair" v="yes"/>
    <tag k="addr:city" v="Hamm"/>
    <tag k="addr:postcode" v="59075"/>
    <tag k="addr:housenumber" v="11"/>
    <tag k="addr:street" v="Pferdekamp"/>
    <tag k="website" v="http://www.drk-hamm.de"/>
    <tag k="phone" v="02381 9737015"/>
    <tag k="office" v="company"/>
  </node>
  <node id="-5699" version="0" timestamp="Fri Feb 24 10:53:37 +0100 2012" uid="1" user="" lat="51.69513" lon="7.7331">
    <tag k="name" v="Gemeinschafts Praxis Dr. Georg u. Schuberth"/>
    <tag k="wheelchair" v="yes"/>
    <tag k="addr:city" v="Hamm"/>
    <tag k="addr:postcode" v="59075"/>
    <tag k="addr:housenumber" v="3"/>
    <tag k="addr:street" v="Barsener Str."/>
    <tag k="amenity" v="doctors"/>
    <tag k="phone" v="02381 970960"/>
  </node>
</osm>
