<?xml version='1.0' encoding='UTF-8'?>
<osm version="0.6" generator="Osmosis 0.39">
  <node id="-110" version="0" timestamp="Fri Feb 24 10:53:32 +0100 2012" uid="1" user="" lat="52.0607999" lon="8.734028">
    <tag k="name" v="Volksbank Bad Salzuflen"/>
    <tag k="wheelchair" v="yes"/>
    <tag k="addr:city" v="Bad Salzuflen"/>
    <tag k="addr:postcode" v="32107"/>
    <tag k="addr:housenumber" v="3"/>
    <tag k="addr:street" v="Bielefelder Straße"/>
    <tag k="amenity" v="bank"/>
    <tag k="website" v="http://www.vbbs.de/"/>
    <tag k="phone" v="+49 5222 801-0"/>
  </node>
  <node id="-111" version="0" timestamp="Fri Feb 24 10:53:32 +0100 2012" uid="1" user="" lat="52.0638569" lon="8.7329729">
    <tag k="name" v="Schulzentrum Aspe"/>
    <tag k="wheelchair" v="yes"/>
    <tag k="addr:city" v="Bad Salzuflen"/>
    <tag k="addr:postcode" v="32107"/>
    <tag k="addr:housenumber" v="5"/>
    <tag k="addr:street" v="Paul-Schneider-Str."/>
    <tag k="amenity" v="school"/>
    <tag k="website" v="http://www.schulzentrum-aspe.de"/>
    <tag k="phone" v="+49 5222 952-7220"/>
  </node>
  <node id="-367" version="0" timestamp="Fri Feb 24 10:53:32 +0100 2012" uid="1" user="" lat="51.7177" lon="8.75265">
    <tag k="name" v="UCI Kinowelt"/>
    <tag k="wheelchair" v="yes"/>
    <tag k="addr:city" v="Paderborn"/>
    <tag k="addr:postcode" v="33098"/>
    <tag k="addr:housenumber" v="30-32"/>
    <tag k="addr:street" v="Kamp "/>
    <tag k="wheelchair:description" v="Barrierefreies Kino, außer Kino 7"/>
    <tag k="amenity" v="cinema"/>
    <tag k="website" v="http://www.uci-kinowelt.de"/>
  </node>
  <node id="-420" version="0" timestamp="Fri Feb 24 10:53:32 +0100 2012" uid="1" user="" lat="51.8969202" lon="8.37915">
    <tag k="name" v="Ringhotel und Restaurant Appelbaum"/>
    <tag k="wheelchair" v="unknown"/>
    <tag k="addr:city" v="Gütersloh"/>
    <tag k="addr:postcode" v="33332"/>
    <tag k="addr:housenumber" v="59"/>
    <tag k="addr:street" v="Neuenkirchener Straße"/>
    <tag k="amenity" v="restaurant"/>
    <tag k="phone" v="05241/9551-0"/>
  </node>
  <node id="-428" version="0" timestamp="Fri Feb 24 10:53:32 +0100 2012" uid="1" user="" lat="51.90448" lon="8.3992">
    <tag k="shop" v="supermarket"/>
    <tag k="name" v="Biomarkt Schenke"/>
    <tag k="wheelchair" v="limited"/>
    <tag k="addr:city" v="Gütersloh"/>
    <tag k="addr:postcode" v="33332"/>
    <tag k="addr:housenumber" v="105"/>
    <tag k="addr:street" v="Carl-Bertelsmann-Str."/>
    <tag k="phone" v="+49 5241 1798287"/>
  </node>
  <node id="-537" version="0" timestamp="Fri Feb 24 10:53:32 +0100 2012" uid="1" user="" lat="52.20873" lon="8.80945">
    <tag k="name" v="Restaurante Helena"/>
    <tag k="wheelchair" v="no"/>
    <tag k="amenity" v="restaurant"/>
  </node>
  <node id="-551" version="0" timestamp="Fri Feb 24 10:53:32 +0100 2012" uid="1" user="" lat="51.90566" lon="8.40108">
    <tag k="shop" v="supermarket"/>
    <tag k="name" v="Biomarkt Schenke"/>
    <tag k="wheelchair" v="limited"/>
    <tag k="addr:city" v="Gütersloh"/>
    <tag k="addr:postcode" v="33332"/>
    <tag k="addr:housenumber" v="105"/>
    <tag k="addr:street" v="Carl-Bertelsmann-Str."/>
    <tag k="phone" v="+49 5241 1798287"/>
  </node>
  <node id="-575" version="0" timestamp="Fri Feb 24 10:53:32 +0100 2012" uid="1" user="" lat="51.9054094" lon="8.3997853">
    <tag k="shop" v="supermarket"/>
    <tag k="name" v="Biomarkt Schenke"/>
    <tag k="wheelchair" v="limited"/>
    <tag k="addr:city" v="Gütersloh"/>
    <tag k="addr:postcode" v="33332"/>
    <tag k="addr:housenumber" v="105"/>
    <tag k="addr:street" v="Carl-Bertelsmann-Str."/>
    <tag k="phone" v="+49 241 1798287"/>
  </node>
  <node id="-714" version="0" timestamp="Fri Feb 24 10:53:32 +0100 2012" uid="1" user="" lat="51.7551307" lon="8.3903911">
    <tag k="name" v="Swiss Pur"/>
    <tag k="wheelchair" v="yes"/>
    <tag k="addr:city" v="Mastholte-Rietberg"/>
    <tag k="addr:postcode" v="33397"/>
    <tag k="addr:housenumber" v="5"/>
    <tag k="addr:street" v="Alter Markt"/>
    <tag k="wheelchair:description" v="Keine Schwellen - Toilette behindertengerecht"/>
    <tag k="amenity" v="cafe"/>
    <tag k="phone" v="+49 151 27581571"/>
  </node>
  <node id="-765" version="0" timestamp="Fri Feb 24 10:53:32 +0100 2012" uid="1" user="" lat="51.9036868" lon="8.614669">
    <tag k="name" v="Eiscafe Gianni"/>
    <tag k="wheelchair" v="limited"/>
    <tag k="addr:city" v="Schloß Holte-Stukenbrock"/>
    <tag k="addr:postcode" v="33758"/>
    <tag k="addr:housenumber" v="64"/>
    <tag k="addr:street" v="Bahnhofstr."/>
    <tag k="wheelchair:description" v="ebenerdig"/>
    <tag k="amenity" v="cafe"/>
  </node>
  <node id="-768" version="0" timestamp="Fri Feb 24 10:53:32 +0100 2012" uid="1" user="" lat="51.9023142" lon="8.6363012">
    <tag k="name" v="Rathaus Stadt Schloß Holte-Stukenbrock"/>
    <tag k="wheelchair" v="yes"/>
    <tag k="addr:city" v="Schloß Holte-Stukenbrock"/>
    <tag k="addr:postcode" v="33758"/>
    <tag k="addr:housenumber" v="2"/>
    <tag k="addr:street" v="Rathausstr."/>
    <tag k="website" v="http://www.schlossholtestukenbrock.de"/>
    <tag k="phone" v="+495207 8905-0"/>
  </node>
  <node id="-861" version="0" timestamp="Fri Feb 24 10:53:32 +0100 2012" uid="1" user="" lat="51.8695522" lon="9.0901929">
    <tag k="name" v="Gesundheitszentrum"/>
    <tag k="wheelchair" v="yes"/>
    <tag k="amenity" v="doctors"/>
  </node>
  <node id="-862" version="0" timestamp="Fri Feb 24 10:53:32 +0100 2012" uid="1" user="" lat="51.8695904" lon="9.0904079">
    <tag k="name" v="Meydan"/>
    <tag k="wheelchair" v="no"/>
    <tag k="amenity" v="fast_food"/>
  </node>
  <node id="-863" version="0" timestamp="Fri Feb 24 10:53:32 +0100 2012" uid="1" user="" lat="51.8658222" lon="9.095421">
    <tag k="name" v="Stadtverwaltung"/>
    <tag k="wheelchair" v="limited"/>
  </node>
  <node id="-1052" version="0" timestamp="Fri Feb 24 10:53:33 +0100 2012" uid="1" user="" lat="52.2295989" lon="9.0409062">
    <tag k="name" v="Besucherbergwerk Kleinenbremen"/>
    <tag k="wheelchair" v="unknown"/>
    <tag k="addr:city" v="Porta Westfalica"/>
    <tag k="addr:postcode" v="32457 "/>
    <tag k="addr:housenumber" v="396"/>
    <tag k="addr:street" v="Rintelner Straße "/>
    <tag k="amenity" v="bank"/>
  </node>
  <node id="-1131" version="0" timestamp="Fri Feb 24 10:53:33 +0100 2012" uid="1" user="" lat="51.7130776" lon="8.7377055">
    <tag k="name" v="BARMER GEK"/>
    <tag k="wheelchair" v="yes"/>
    <tag k="addr:city" v="Paderborn"/>
    <tag k="addr:postcode" v="33102"/>
    <tag k="addr:housenumber" v="96"/>
    <tag k="addr:street" v="Rathenaustr."/>
    <tag k="wheelchair:description" v="keine Treppen, behindertengerechtes WC, kostenloser Parkplatz"/>
    <tag k="website" v="http://www.barmer-gek.de"/>
    <tag k="phone" v="080033206081-0"/>
  </node>
  <node id="-1164" version="0" timestamp="Fri Feb 24 10:53:33 +0100 2012" uid="1" user="" lat="52.195149" lon="8.581628">
    <tag k="name" v="Dobergmuseum "/>
    <tag k="wheelchair" v="unknown"/>
    <tag k="addr:city" v="Bünde"/>
    <tag k="addr:postcode" v="32257 "/>
    <tag k="addr:housenumber" v="5 - 7"/>
    <tag k="addr:street" v="Fünfhausenstr."/>
    <tag k="amenity" v="bank"/>
  </node>
  <node id="-1165" version="0" timestamp="Fri Feb 24 10:53:33 +0100 2012" uid="1" user="" lat="52.2947149" lon="8.6188854">
    <tag k="name" v="Barre&apos;s Brauwelt GmbH"/>
    <tag k="wheelchair" v="unknown"/>
    <tag k="addr:city" v="Lübbecke "/>
    <tag k="addr:postcode" v="32312"/>
    <tag k="addr:housenumber" v="121-123 "/>
    <tag k="addr:street" v="Berliner Straße"/>
    <tag k="amenity" v="bank"/>
  </node>
  <node id="-1173" version="0" timestamp="Fri Feb 24 10:53:33 +0100 2012" uid="1" user="" lat="51.7119671" lon="8.645304">
    <tag k="name" v="Scharmede Bahnhof"/>
    <tag k="wheelchair" v="no"/>
    <tag k="addr:city" v="Salzkotten-Scharmede"/>
    <tag k="addr:postcode" v="33154"/>
    <tag k="addr:street" v="Bahnhofstraße"/>
    <tag k="wheelchair:description" v="Bahnsteige zu niedrig/Kein Lift Fahrstuhl "/>
    <tag k="railway" v="platform"/>
  </node>
  <node id="-1196" version="0" timestamp="Fri Feb 24 10:53:33 +0100 2012" uid="1" user="" lat="52.1017836" lon="8.2985133">
    <tag k="name" v="ErdZeitCenter"/>
    <tag k="wheelchair" v="unknown"/>
    <tag k="addr:city" v="Borgholzhausen"/>
    <tag k="tourism" v="museum"/>
  </node>
  <node id="-1263" version="0" timestamp="Fri Feb 24 10:53:33 +0100 2012" uid="1" user="" lat="52.1152381" lon="8.6717698">
    <tag k="name" v="VHS im Kreis Herford"/>
    <tag k="wheelchair" v="yes"/>
    <tag k="addr:city" v="Herford"/>
    <tag k="addr:postcode" v="32052"/>
    <tag k="addr:housenumber" v="1"/>
    <tag k="addr:street" v="Münsterkirchplatz"/>
    <tag k="wheelchair:description" v="Fahrstuhl am Seiteneingang"/>
    <tag k="amenity" v="school"/>
    <tag k="website" v="http://www.vhsimkreisherford.de"/>
    <tag k="phone" v="+49 5221 59050"/>
  </node>
  <node id="-1264" version="0" timestamp="Fri Feb 24 10:53:33 +0100 2012" uid="1" user="" lat="52.0303027" lon="8.5325977">
    <tag k="name" v="Parkhaus Bahnhofsviertel 1"/>
    <tag k="wheelchair" v="limited"/>
    <tag k="addr:city" v="Bielefeld"/>
    <tag k="addr:postcode" v="33613"/>
    <tag k="amenity" v="parking"/>
  </node>
  <node id="-1267" version="0" timestamp="Fri Feb 24 10:53:33 +0100 2012" uid="1" user="" lat="52.031348" lon="8.5334367">
    <tag k="name" v="ISHARA Sport- und Freizeitbad"/>
    <tag k="wheelchair" v="limited"/>
    <tag k="addr:city" v="Bielefeld"/>
    <tag k="addr:postcode" v="33613"/>
    <tag k="addr:housenumber" v="1"/>
    <tag k="addr:street" v="Europa Platz"/>
    <tag k="amenity" v="swimming_pool"/>
    <tag k="website" v="http://www.ishara.de/html/index.html"/>
    <tag k="phone" v="+49 521 - 51 14 20"/>
  </node>
  <node id="-1297" version="0" timestamp="Fri Feb 24 10:53:33 +0100 2012" uid="1" user="" lat="51.9027613" lon="8.6325987">
    <tag k="name" v="Hallenbad Schloß Holte-Stukebrock"/>
    <tag k="wheelchair" v="yes"/>
    <tag k="addr:city" v="Schloß Holte-Stukenbrock"/>
    <tag k="addr:postcode" v="33758"/>
    <tag k="addr:housenumber" v="1"/>
    <tag k="addr:street" v="Am Hallenbad "/>
    <tag k="wheelchair:description" v="Extraeingang und Fahrstuhl ins Becken und zu den oberen Bereichen"/>
    <tag k="amenity" v="swimming_pool"/>
    <tag k="phone" v="05207 /4680"/>
  </node>
  <node id="-1412" version="0" timestamp="Fri Feb 24 10:53:33 +0100 2012" uid="1" user="" lat="51.8740412" lon="9.0824541">
    <tag k="name" v="Realschule Steinheim"/>
    <tag k="wheelchair" v="yes"/>
    <tag k="amenity" v="school"/>
  </node>
  <node id="-1847" version="0" timestamp="Fri Feb 24 10:53:33 +0100 2012" uid="1" user="" lat="52.1987866" lon="8.5852906">
    <tag k="shop" v="bakery"/>
    <tag k="name" v="Ihr Bäckerjunge - Fenstergucker Café &amp; Bistro"/>
    <tag k="wheelchair" v="yes"/>
    <tag k="addr:city" v="Bünde"/>
    <tag k="addr:postcode" v="32257"/>
    <tag k="addr:housenumber" v="35"/>
    <tag k="addr:street" v="Eschstraße"/>
    <tag k="wheelchair:description" v="Zugang über rollstuhlgerechte Rampe - komplett ebenerdig inkl. barrierefreiem WC"/>
    <tag k="website" v="http://www.baeckerjunge.de"/>
    <tag k="phone" v="+49 5223 1801867"/>
  </node>
  <node id="-2028" version="0" timestamp="Fri Feb 24 10:53:34 +0100 2012" uid="1" user="" lat="52.2945111" lon="8.618778">
    <tag k="name" v="BARRE Brauereimuseum"/>
    <tag k="wheelchair" v="limited"/>
    <tag k="addr:city" v="Lübbecke"/>
    <tag k="addr:postcode" v="32312"/>
    <tag k="addr:housenumber" v="122"/>
    <tag k="tourism" v="museum"/>
    <tag k="addr:street" v="Berliner Straße"/>
    <tag k="wheelchair:description" v="Besucherrampe für Rollstuhlfahrer"/>
  </node>
  <node id="-2032" version="0" timestamp="Fri Feb 24 10:53:34 +0100 2012" uid="1" user="" lat="52.0210576" lon="8.5026425">
    <tag k="name" v="Heimattierpark Olderdissen"/>
    <tag k="wheelchair" v="yes"/>
    <tag k="addr:city" v="Bielefeld"/>
    <tag k="addr:postcode" v="33619"/>
    <tag k="addr:housenumber" v="Dornberger Straße "/>
    <tag k="tourism" v="zoo"/>
    <tag k="addr:street" v="149 A"/>
  </node>
  <node id="-2102" version="0" timestamp="Fri Feb 24 10:53:34 +0100 2012" uid="1" user="" lat="52.19811" lon="8.57529">
    <tag k="name" v="StadtKultur GbR"/>
    <tag k="wheelchair" v="limited"/>
    <tag k="addr:city" v="Bünde"/>
    <tag k="addr:postcode" v="32257"/>
    <tag k="addr:housenumber" v="16"/>
    <tag k="addr:street" v="Lettow Vorbeck Str "/>
    <tag k="amenity" v="theatre"/>
    <tag k="website" v="http://www.stadtkultur-buende.de"/>
    <tag k="phone" v="+49 5223 17 88 88"/>
  </node>
  <node id="-2104" version="0" timestamp="Fri Feb 24 10:53:34 +0100 2012" uid="1" user="" lat="52.20187" lon="8.57078">
    <tag k="name" v="Universum"/>
    <tag k="wheelchair" v="yes"/>
    <tag k="addr:city" v="Bünde"/>
    <tag k="addr:postcode" v="32257"/>
    <tag k="addr:housenumber" v="11"/>
    <tag k="addr:street" v="Hauptstr "/>
    <tag k="amenity" v="cinema"/>
    <tag k="website" v="http://www.universum.tv"/>
    <tag k="phone" v="+49 5223 17 88 88"/>
  </node>
  <node id="-2105" version="0" timestamp="Fri Feb 24 10:53:34 +0100 2012" uid="1" user="" lat="52.2018403" lon="8.5708995">
    <tag k="name" v="Universum BgmbH"/>
    <tag k="wheelchair" v="yes"/>
    <tag k="addr:city" v="Bünde"/>
    <tag k="addr:postcode" v="32257"/>
    <tag k="addr:housenumber" v="9"/>
    <tag k="addr:street" v="Hauptstr "/>
    <tag k="amenity" v="theatre"/>
    <tag k="website" v="http://www.universum.tv"/>
    <tag k="phone" v="05223178888"/>
  </node>
  <node id="-2223" version="0" timestamp="Fri Feb 24 10:53:34 +0100 2012" uid="1" user="" lat="51.7170217" lon="9.1836161">
    <tag k="name" v="Seniorenbüro"/>
    <tag k="wheelchair" v="yes"/>
    <tag k="addr:city" v="Brakel"/>
    <tag k="addr:postcode" v="33034"/>
    <tag k="addr:housenumber" v="4"/>
    <tag k="addr:street" v="Am Markt"/>
    <tag k="website" v="http://www.brakel.de"/>
    <tag k="phone" v="+495272360305"/>
  </node>
  <node id="-2225" version="0" timestamp="Fri Feb 24 10:53:34 +0100 2012" uid="1" user="" lat="51.7171563" lon="9.1842423">
    <tag k="name" v="Haus des Gastes/Touristeninfo"/>
    <tag k="wheelchair" v="yes"/>
    <tag k="addr:city" v="Brakel"/>
    <tag k="addr:postcode" v="33034"/>
    <tag k="addr:housenumber" v="5"/>
    <tag k="addr:street" v="Am Markt"/>
    <tag k="website" v="http://www.brakel.de"/>
    <tag k="phone" v="05272-360 269"/>
  </node>
  <node id="-2335" version="0" timestamp="Fri Feb 24 10:53:34 +0100 2012" uid="1" user="" lat="51.9304406" lon="8.8818929">
    <tag k="name" v="Lippische Landesbibliothek Detmold"/>
    <tag k="wheelchair" v="limited"/>
    <tag k="addr:city" v="Detmold"/>
    <tag k="addr:postcode" v="32756"/>
    <tag k="addr:housenumber" v="41"/>
    <tag k="addr:street" v="Hornsche Str."/>
    <tag k="wheelchair:description" v="Eingang mit Rampe links von der Eingangstreppe, Hauptetagen über Fahrstuhl zu erreichen, Zwischengeschosse / Emporen und Dachgeschoss (Veranstaltungsraum) nicht zugänglich "/>
    <tag k="amenity" v="library"/>
    <tag k="website" v="http://www.llb-detmold.de"/>
    <tag k="phone" v="+49 5231 92660-12"/>
  </node>
  <node id="-2459" version="0" timestamp="Fri Feb 24 10:53:34 +0100 2012" uid="1" user="" lat="52.1381831" lon="9.0612715">
    <tag k="name" v="Dietrich-Bonhoeffer-Haus"/>
    <tag k="wheelchair" v="yes"/>
    <tag k="addr:city" v="Extertal"/>
    <tag k="addr:postcode" v="32699"/>
    <tag k="addr:housenumber" v="2"/>
    <tag k="addr:street" v="Dietrich-Bonhoeffer-Straße"/>
    <tag k="amenity" v="place_of_worship"/>
  </node>
  <node id="-2460" version="0" timestamp="Fri Feb 24 10:53:34 +0100 2012" uid="1" user="" lat="52.1377181" lon="9.0613292">
    <tag k="name" v="Volksbank in Schaumburg SB-Filiale"/>
    <tag k="wheelchair" v="no"/>
    <tag k="wheelchair:description" v="Eine Stufe im Eingangsbereich"/>
    <tag k="amenity" v="atm"/>
  </node>
  <node id="-2511" version="0" timestamp="Fri Feb 24 10:53:34 +0100 2012" uid="1" user="" lat="52.02692" lon="8.89332">
    <tag k="name" v="Steinkrug"/>
    <tag k="wheelchair" v="yes"/>
    <tag k="addr:city" v="Lemgo"/>
    <tag k="addr:postcode" v="32657"/>
    <tag k="addr:housenumber" v=" 28"/>
    <tag k="addr:street" v="Steinweg"/>
    <tag k="amenity" v="restaurant"/>
    <tag k="website" v="http://www.lemgo-online.de/steinkrug/"/>
    <tag k="phone" v="052615983"/>
  </node>
  <node id="-2688" version="0" timestamp="Fri Feb 24 10:53:34 +0100 2012" uid="1" user="" lat="52.1170841" lon="8.6728908">
    <tag k="name" v="Dr. von Gumbertz"/>
    <tag k="wheelchair" v="no"/>
    <tag k="addr:city" v="Herford"/>
    <tag k="addr:postcode" v="32052"/>
    <tag k="addr:housenumber" v="6-8"/>
    <tag k="addr:street" v="Berliner Str. "/>
    <tag k="amenity" v="doctors"/>
  </node>
  <node id="-2690" version="0" timestamp="Fri Feb 24 10:53:34 +0100 2012" uid="1" user="" lat="52.1210597" lon="8.6946309">
    <tag k="name" v="Mohren Apotheke"/>
    <tag k="wheelchair" v="yes"/>
    <tag k="addr:city" v="Herford"/>
    <tag k="addr:postcode" v="32049"/>
    <tag k="addr:housenumber" v="78"/>
    <tag k="addr:street" v="Bismarkstr. "/>
    <tag k="amenity" v="pharmacy"/>
  </node>
  <node id="-2691" version="0" timestamp="Fri Feb 24 10:53:34 +0100 2012" uid="1" user="" lat="52.27458" lon="8.78765">
    <tag k="name" v="Hotel Bad Griepshop"/>
    <tag k="wheelchair" v="limited"/>
    <tag k="addr:city" v="Hille"/>
    <tag k="addr:postcode" v="32479"/>
    <tag k="addr:housenumber" v="Mittelweg 25"/>
    <tag k="tourism" v="hotel"/>
    <tag k="addr:street" v="Am Griepshop"/>
  </node>
  <node id="-2692" version="0" timestamp="Fri Feb 24 10:53:34 +0100 2012" uid="1" user="" lat="52.1166485" lon="8.6695873">
    <tag k="name" v="Behindertenparkplatz"/>
    <tag k="wheelchair" v="yes"/>
    <tag k="addr:city" v="Herford"/>
    <tag k="addr:postcode" v="32052"/>
    <tag k="addr:street" v="Auf der Freiheit"/>
    <tag k="amenity" v="bank"/>
  </node>
  <node id="-2799" version="0" timestamp="Fri Feb 24 10:53:34 +0100 2012" uid="1" user="" lat="52.0169705" lon="8.5285">
    <tag k="name" v="Naturkundemuseum"/>
    <tag k="wheelchair" v="yes"/>
    <tag k="addr:city" v="Bielefeld"/>
    <tag k="addr:postcode" v="33602"/>
    <tag k="addr:housenumber" v="20"/>
    <tag k="addr:street" v="Kreuzstraße "/>
    <tag k="amenity" v="bank"/>
  </node>
  <node id="-2800" version="0" timestamp="Fri Feb 24 10:53:34 +0100 2012" uid="1" user="" lat="52.0170701" lon="8.5283135">
    <tag k="name" v="Naturkundemuseum"/>
    <tag k="wheelchair" v="yes"/>
    <tag k="addr:city" v="Bielefeld"/>
    <tag k="addr:postcode" v="33602"/>
    <tag k="addr:housenumber" v="20"/>
    <tag k="tourism" v="museum"/>
    <tag k="addr:street" v="Kreuzstraße"/>
  </node>
  <node id="-2959" version="0" timestamp="Fri Feb 24 10:53:34 +0100 2012" uid="1" user="" lat="51.718886" lon="8.7548349">
    <tag k="name" v="Öffentliche Toilette"/>
    <tag k="wheelchair" v="yes"/>
    <tag k="wheelchair:description" v="Die Toilette ist ebenerdig hat abstützhilfen und einen Notfall knopf und ist per Knopfdruck zu öffnen."/>
    <tag k="amenity" v="toilets"/>
  </node>
  <node id="-3049" version="0" timestamp="Fri Feb 24 10:53:35 +0100 2012" uid="1" user="" lat="52.02574" lon="8.52632">
    <tag k="name" v="Rappard Rahmen"/>
    <tag k="wheelchair" v="limited"/>
    <tag k="addr:city" v="Bielefeld"/>
    <tag k="addr:postcode" v="33615"/>
    <tag k="addr:housenumber" v="19"/>
    <tag k="addr:street" v="Arndtstr."/>
    <tag k="wheelchair:description" v="1 Treppenstufe"/>
    <tag k="amenity" v="artwork"/>
    <tag k="website" v="http://www.rappard-rahmen.de"/>
    <tag k="phone" v="+49 521 137731"/>
  </node>
  <node id="-3112" version="0" timestamp="Fri Feb 24 10:53:35 +0100 2012" uid="1" user="" lat="51.72883" lon="8.6948">
    <tag k="name" v="YAT Reisen"/>
    <tag k="wheelchair" v="yes"/>
    <tag k="addr:city" v="Paderborn"/>
    <tag k="addr:postcode" v="33106"/>
    <tag k="addr:housenumber" v="27"/>
    <tag k="addr:street" v="Ostallee"/>
    <tag k="website" v="http://www.YAT-Reisen.de"/>
    <tag k="phone" v="+49 (0) 5254/957647"/>
  </node>
  <node id="-3161" version="0" timestamp="Fri Feb 24 10:53:35 +0100 2012" uid="1" user="" lat="52.1018" lon="8.62224">
    <tag k="shop" v="supermarket"/>
    <tag k="name" v="SuperBioMarkt Herford"/>
    <tag k="wheelchair" v="yes"/>
    <tag k="addr:city" v="Herford"/>
    <tag k="addr:postcode" v="32052"/>
    <tag k="addr:housenumber" v="12 - 14"/>
    <tag k="addr:street" v="Steinstraße"/>
    <tag k="website" v="http://www.superbiomarkt.com/maerkte/herford/"/>
    <tag k="phone" v="Telefon: +49 (0) 5221-3420289"/>
  </node>
  <node id="-3178" version="0" timestamp="Fri Feb 24 10:53:35 +0100 2012" uid="1" user="" lat="52.12326" lon="8.67427">
    <tag k="shop" v="supermarket"/>
    <tag k="name" v="E-Center Wehrman"/>
    <tag k="wheelchair" v="yes"/>
    <tag k="addr:city" v="Herford"/>
    <tag k="addr:postcode" v="32051"/>
    <tag k="addr:housenumber" v="31"/>
    <tag k="addr:street" v="Goebenstraße"/>
    <tag k="wheelchair:description" v="Qualitätszeichen „Generationenfreundliches Einkaufen“"/>
    <tag k="phone" v="05221  10560"/>
  </node>
  <node id="-3272" version="0" timestamp="Fri Feb 24 10:53:35 +0100 2012" uid="1" user="" lat="52.0591475" lon="8.7295152">
    <tag k="name" v="Das Schreibeck"/>
    <tag k="wheelchair" v="yes"/>
    <tag k="addr:city" v="Bad Salzuflen"/>
    <tag k="addr:postcode" v="32107"/>
    <tag k="addr:housenumber" v="23"/>
    <tag k="addr:street" v="Bielefelder Str."/>
    <tag k="amenity" v="post_office"/>
    <tag k="phone" v="+49 5222 797469"/>
  </node>
  <node id="-3273" version="0" timestamp="Fri Feb 24 10:53:35 +0100 2012" uid="1" user="" lat="52.0613805" lon="8.7343238">
    <tag k="name" v="Heidsiek"/>
    <tag k="wheelchair" v="yes"/>
    <tag k="addr:city" v="Bad Salzuflen"/>
    <tag k="addr:postcode" v="32107"/>
    <tag k="addr:street" v="Bielefelder Str."/>
    <tag k="amenity" v="bus_station"/>
  </node>
  <node id="-3274" version="0" timestamp="Fri Feb 24 10:53:35 +0100 2012" uid="1" user="" lat="52.0542843" lon="8.7373011">
    <tag k="name" v="Bogenweg"/>
    <tag k="wheelchair" v="yes"/>
    <tag k="addr:city" v="Bad Salzuflen"/>
    <tag k="addr:postcode" v="32107"/>
    <tag k="addr:street" v="Bogenweg"/>
    <tag k="amenity" v="bus_station"/>
  </node>
  <node id="-3275" version="0" timestamp="Fri Feb 24 10:53:35 +0100 2012" uid="1" user="" lat="52.0542676" lon="8.7389987">
    <tag k="name" v="Oststr."/>
    <tag k="wheelchair" v="yes"/>
    <tag k="addr:city" v="Bad Salzuflen"/>
    <tag k="addr:postcode" v="32107"/>
    <tag k="addr:street" v="Oststr."/>
    <tag k="amenity" v="bus_station"/>
  </node>
  <node id="-3457" version="0" timestamp="Fri Feb 24 10:53:35 +0100 2012" uid="1" user="" lat="51.9141804" lon="8.4114242">
    <tag k="name" v="Grundschule Nordhorn Europaschule"/>
    <tag k="wheelchair" v="limited"/>
    <tag k="addr:city" v="Gütersloh"/>
    <tag k="addr:postcode" v="33332"/>
    <tag k="addr:housenumber" v="9"/>
    <tag k="addr:street" v="Knappweg"/>
    <tag k="wheelchair:description" v="ebenerdig, Beh.WC - auch in der Sporthalle"/>
    <tag k="amenity" v="school"/>
    <tag k="website" v="http://www.europaschule-nordhorn.de"/>
    <tag k="phone" v="+49 5241 74420"/>
  </node>
  <node id="-3486" version="0" timestamp="Fri Feb 24 10:53:35 +0100 2012" uid="1" user="" lat="52.0286432" lon="8.8656085">
    <tag k="name" v="McDonald&apos;s Lemgo"/>
    <tag k="wheelchair" v="yes"/>
    <tag k="amenity" v="fast_food"/>
  </node>
  <node id="-3488" version="0" timestamp="Fri Feb 24 10:53:35 +0100 2012" uid="1" user="" lat="52.0342252" lon="8.9114189">
    <tag k="shop" v="supermarket"/>
    <tag k="name" v="Edeka aktivmarkt Held"/>
    <tag k="wheelchair" v="unknown"/>
  </node>
  <node id="-3492" version="0" timestamp="Fri Feb 24 10:53:35 +0100 2012" uid="1" user="" lat="51.7472208" lon="8.7487513">
    <tag k="name" v="Reha Group Automotive"/>
    <tag k="wheelchair" v="yes"/>
    <tag k="addr:city" v="Paderborn"/>
    <tag k="addr:postcode" v="33102"/>
    <tag k="addr:housenumber" v="7"/>
    <tag k="addr:street" v="An der Talle"/>
    <tag k="wheelchair:description" v="Hier wird Ihr Auto barrierefrei gemacht! "/>
    <tag k="amenity" v="car_rental"/>
    <tag k="website" v="http://www.reha.com"/>
    <tag k="phone" v="+49 (0)5251 - 6938090"/>
  </node>
  <node id="-3788" version="0" timestamp="Fri Feb 24 10:53:35 +0100 2012" uid="1" user="" lat="51.716303" lon="9.184761">
    <tag k="name" v="Volksbank Paderborn, Höxter, Detmold"/>
    <tag k="wheelchair" v="limited"/>
    <tag k="addr:city" v="Brakel"/>
    <tag k="addr:postcode" v="33034"/>
    <tag k="addr:housenumber" v="4-6"/>
    <tag k="addr:street" v="Ostheimer Straße"/>
    <tag k="amenity" v="bank"/>
    <tag k="website" v="http://www.volksbank-phd.de"/>
    <tag k="phone" v="+49 5272 6003-0"/>
  </node>
  <node id="-3805" version="0" timestamp="Fri Feb 24 10:53:35 +0100 2012" uid="1" user="" lat="51.7161696" lon="9.1930897">
    <tag k="name" v="Stadthalle Brakel"/>
    <tag k="wheelchair" v="limited"/>
    <tag k="addr:city" v="Brakel"/>
    <tag k="addr:postcode" v="33034"/>
    <tag k="addr:housenumber" v="4"/>
    <tag k="addr:street" v="Am Schützenanger"/>
    <tag k="amenity" v="townhall"/>
    <tag k="website" v="http://www.brakel.de/stadthalle"/>
    <tag k="phone" v="+49 5272 5424"/>
  </node>
  <node id="-3827" version="0" timestamp="Fri Feb 24 10:53:35 +0100 2012" uid="1" user="" lat="52.1259444" lon="8.6744706">
    <tag k="shop" v="supermarket"/>
    <tag k="name" v="Kaufland"/>
    <tag k="wheelchair" v="yes"/>
  </node>
  <node id="-4037" version="0" timestamp="Fri Feb 24 10:53:36 +0100 2012" uid="1" user="" lat="52.2938" lon="8.87703">
    <tag k="name" v="Fleischermeister Grill"/>
    <tag k="wheelchair" v="no"/>
    <tag k="addr:city" v="Minden"/>
    <tag k="addr:postcode" v="32427"/>
    <tag k="addr:housenumber" v="206"/>
    <tag k="addr:street" v="Königstraße"/>
    <tag k="amenity" v="fast_food"/>
  </node>
  <node id="-4038" version="0" timestamp="Fri Feb 24 10:53:36 +0100 2012" uid="1" user="" lat="52.2939673" lon="8.8764506">
    <tag k="name" v="Fleischermeister Grill"/>
    <tag k="wheelchair" v="no"/>
    <tag k="addr:city" v="Minden"/>
    <tag k="addr:postcode" v="32427"/>
    <tag k="addr:housenumber" v="206"/>
    <tag k="addr:street" v="Königstraße"/>
    <tag k="amenity" v="fast_food"/>
  </node>
  <node id="-4105" version="0" timestamp="Fri Feb 24 10:53:36 +0100 2012" uid="1" user="" lat="52.2778692" lon="8.896926">
    <tag k="name" v="Familienzentrum KiTa Leonhardi"/>
    <tag k="wheelchair" v="limited"/>
    <tag k="addr:city" v="Minden"/>
    <tag k="addr:postcode" v="32427"/>
    <tag k="addr:housenumber" v="1"/>
    <tag k="addr:street" v="Auerhahnweg"/>
    <tag k="wheelchair:description" v="Zwei Gruppenräume, sowie das Büro der Leitung und eine Toilette im EG. Langgezogene Rampe vorne und ebener Eingang hinten."/>
    <tag k="amenity" v="kindergarten"/>
    <tag k="phone" v="+49 571 58922"/>
  </node>
  <node id="-4106" version="0" timestamp="Fri Feb 24 10:53:36 +0100 2012" uid="1" user="" lat="52.2770922" lon="8.8977578">
    <tag k="shop" v="doityourself"/>
    <tag k="name" v="Praktiker Baumarkt"/>
    <tag k="wheelchair" v="yes"/>
    <tag k="addr:city" v="Minden"/>
    <tag k="addr:postcode" v="32427"/>
    <tag k="addr:housenumber" v="20"/>
    <tag k="addr:street" v="Lübbecker Straße"/>
    <tag k="website" v="http://www.praktiker.de"/>
    <tag k="phone" v="+49 571 5084770"/>
  </node>
  <node id="-4321" version="0" timestamp="Fri Feb 24 10:53:36 +0100 2012" uid="1" user="" lat="51.9383221" lon="8.8718163">
    <tag k="name" v="Elisabeth Hotel"/>
    <tag k="wheelchair" v="unknown"/>
    <tag k="addr:city" v="Detmold"/>
    <tag k="addr:postcode" v="32756"/>
    <tag k="addr:housenumber" v="5-7"/>
    <tag k="tourism" v="hotel"/>
    <tag k="addr:street" v="Elisabethstraße"/>
    <tag k="website" v="http://www.elisabethhotel-detmold.de"/>
    <tag k="phone" v="05231 948820"/>
  </node>
  <node id="-4364" version="0" timestamp="Fri Feb 24 10:53:36 +0100 2012" uid="1" user="" lat="52.0714766" lon="8.4138313">
    <tag k="name" v="Sedan"/>
    <tag k="wheelchair" v="yes"/>
    <tag k="addr:city" v="Werther"/>
    <tag k="addr:postcode" v="33824"/>
    <tag k="addr:housenumber" v="Alte Bielefelder Straße 24"/>
    <tag k="addr:street" v="Alte Bielefelder Straße 24"/>
    <tag k="amenity" v="restaurant"/>
    <tag k="website" v="http://www.sedan-werther.de"/>
    <tag k="phone" v="05203 5309"/>
  </node>
  <node id="-4693" version="0" timestamp="Fri Feb 24 10:53:36 +0100 2012" uid="1" user="" lat="52.1166253" lon="8.672775">
    <tag k="shop" v="computer"/>
    <tag k="name" v="TM Computer e.K. - Radio Esch"/>
    <tag k="wheelchair" v="limited"/>
    <tag k="addr:city" v="Herford"/>
    <tag k="addr:postcode" v="32052"/>
    <tag k="addr:housenumber" v="7"/>
    <tag k="addr:street" v="Hämelingerstr. "/>
    <tag k="wheelchair:description" v="Bis auf die Toilette ist alles per Rollstuhl erreichbar."/>
    <tag k="website" v="http://www.tm-computer.de"/>
    <tag k="phone" v="+495221 626241"/>
  </node>
  <node id="-4694" version="0" timestamp="Fri Feb 24 10:53:36 +0100 2012" uid="1" user="" lat="52.1166366" lon="8.6726781">
    <tag k="name" v="TM Computer e.K. - Radio Esch"/>
    <tag k="wheelchair" v="limited"/>
    <tag k="addr:city" v="Herford"/>
    <tag k="addr:postcode" v="32052"/>
    <tag k="addr:housenumber" v="7"/>
    <tag k="addr:street" v="Hämelinger Str."/>
    <tag k="wheelchair:description" v="Bis auf die Toilette ist alles per Rollstuhl erreichbar."/>
    <tag k="amenity" v="post_office"/>
    <tag k="website" v="http://www.tm-computer.de"/>
    <tag k="phone" v="+495221 626241"/>
  </node>
  <node id="-4696" version="0" timestamp="Fri Feb 24 10:53:36 +0100 2012" uid="1" user="" lat="51.8364271" lon="8.3107627">
    <tag k="name" v="Anker Villa"/>
    <tag k="wheelchair" v="yes"/>
    <tag k="addr:city" v="Rheda-Wiedenbrück"/>
    <tag k="addr:postcode" v="33378"/>
    <tag k="addr:housenumber" v="60"/>
    <tag k="addr:street" v="Lange Straße"/>
    <tag k="wheelchair:description" v="Eingangstreppenlift und Behindertentoilette im Erdgeschoss"/>
    <tag k="amenity" v="cafe"/>
    <tag k="website" v="http://www.ankervilla.de/"/>
    <tag k="phone" v="+495242901828"/>
  </node>
  <node id="-4697" version="0" timestamp="Fri Feb 24 10:53:36 +0100 2012" uid="1" user="" lat="52.0259494" lon="8.534426">
    <tag k="name" v="Heimat Krankenkasse"/>
    <tag k="wheelchair" v="yes"/>
    <tag k="addr:city" v="Bielefeld"/>
    <tag k="addr:postcode" v="33602"/>
    <tag k="addr:housenumber" v="23"/>
    <tag k="addr:street" v="Herforder Str."/>
    <tag k="amenity" v="social_facility"/>
    <tag k="website" v="http://www.heimat-krankenkasse.de"/>
  </node>
  <node id="-4698" version="0" timestamp="Fri Feb 24 10:53:36 +0100 2012" uid="1" user="" lat="51.911418" lon="8.6498909">
    <tag k="name" v="Laubhütte"/>
    <tag k="wheelchair" v="limited"/>
    <tag k="addr:city" v="Schloß Holte-Stukenbrock"/>
    <tag k="addr:postcode" v="33758"/>
    <tag k="addr:housenumber" v="3a"/>
    <tag k="addr:street" v="Lindenstr."/>
    <tag k="amenity" v="kindergarten"/>
  </node>
  <node id="-4699" version="0" timestamp="Fri Feb 24 10:53:36 +0100 2012" uid="1" user="" lat="52.0016" lon="8.56887">
    <tag k="name" v="Jens Ellermann GmbH"/>
    <tag k="wheelchair" v="limited"/>
    <tag k="addr:city" v="Bielefeld"/>
    <tag k="addr:postcode" v="33605"/>
    <tag k="addr:housenumber" v="318"/>
    <tag k="addr:street" v="Detmolder Str."/>
    <tag k="website" v="http://elektro-ellermann.com"/>
    <tag k="office" v="company"/>
  </node>
  <node id="-4766" version="0" timestamp="Fri Feb 24 10:53:36 +0100 2012" uid="1" user="" lat="52.18959" lon="8.64981">
    <tag k="name" v="Schilder Körber GmbH"/>
    <tag k="wheelchair" v="yes"/>
    <tag k="addr:city" v="Kirchlengern"/>
    <tag k="addr:postcode" v="32278"/>
    <tag k="addr:housenumber" v="5"/>
    <tag k="addr:street" v="Am Straßenverkehrsamt5"/>
    <tag k="wheelchair:description" v="Zugang über Rampe"/>
    <tag k="amenity" v="bank"/>
    <tag k="website" v="http://www.schilder-koerber.de"/>
    <tag k="phone" v="+49 5223 983556"/>
  </node>
  <node id="-5041" version="0" timestamp="Fri Feb 24 10:53:36 +0100 2012" uid="1" user="" lat="52.0223354" lon="8.5256101">
    <tag k="name" v="Selbsthilfe-Kontaktstelle Bielefeld"/>
    <tag k="wheelchair" v="limited"/>
    <tag k="addr:city" v="Bielefeld"/>
    <tag k="addr:postcode" v="33615"/>
    <tag k="addr:housenumber" v="5"/>
    <tag k="addr:street" v="Stapenhorststraße "/>
    <tag k="wheelchair:description" v="Barrierefreie Zugänge und Toiletten"/>
    <tag k="amenity" v="social_facility"/>
    <tag k="website" v="http://www.selbsthilfe-bielefeld.de"/>
    <tag k="phone" v="0521-96 406 96"/>
  </node>
  <node id="-5042" version="0" timestamp="Fri Feb 24 10:53:36 +0100 2012" uid="1" user="" lat="52.02234" lon="8.52561">
    <tag k="name" v="Der Paritätische Bielefeld"/>
    <tag k="wheelchair" v="limited"/>
    <tag k="addr:city" v="Bielefeld"/>
    <tag k="addr:postcode" v="33615"/>
    <tag k="addr:housenumber" v="5"/>
    <tag k="addr:street" v="Stapenhorststraße"/>
    <tag k="wheelchair:description" v="Barrierefreie Zugänge und Toiletten"/>
    <tag k="amenity" v="social_facility"/>
    <tag k="website" v="http://bielefeld.paritaet-nrw.org"/>
    <tag k="phone" v="0521-96 406 60"/>
  </node>
  <node id="-5386" version="0" timestamp="Fri Feb 24 10:53:37 +0100 2012" uid="1" user="" lat="52.02155" lon="8.52848">
    <tag k="name" v="Santander Consumer bank"/>
    <tag k="wheelchair" v="limited"/>
    <tag k="addr:city" v="Bielefeld"/>
    <tag k="addr:postcode" v="33602"/>
    <tag k="addr:housenumber" v="23"/>
    <tag k="addr:street" v="Alfred-Bozi-Straße"/>
    <tag k="amenity" v="bank"/>
    <tag k="website" v="http://www.santander.de"/>
  </node>
  <node id="-5452" version="0" timestamp="Fri Feb 24 10:53:37 +0100 2012" uid="1" user="" lat="52.02552" lon="8.53116">
    <tag k="shop" v="clothes"/>
    <tag k="name" v="Olymp &amp; Hades"/>
    <tag k="wheelchair" v="no"/>
    <tag k="addr:city" v="Bielefeld"/>
    <tag k="addr:postcode" v="33602"/>
    <tag k="addr:housenumber" v="39"/>
    <tag k="addr:street" v="Bahnhofstraße "/>
  </node>
  <node id="-5490" version="0" timestamp="Fri Feb 24 10:53:37 +0100 2012" uid="1" user="" lat="52.1586218" lon="8.923226">
    <tag k="name" v="Meyra-Ortopdia"/>
    <tag k="wheelchair" v="yes"/>
    <tag k="addr:city" v="Kalletal-Kalldorf"/>
    <tag k="addr:postcode" v="32689"/>
    <tag k="addr:housenumber" v="2"/>
    <tag k="addr:street" v="Meyra-Ring"/>
    <tag k="website" v="http://www.meyra.de"/>
    <tag k="phone" v="+49 5733-922-0"/>
    <tag k="office" v="company"/>
  </node>
  <node id="-5493" version="0" timestamp="Fri Feb 24 10:53:37 +0100 2012" uid="1" user="" lat="52.02464" lon="8.53002">
    <tag k="name" v="Rechtsanwalt Driftmann"/>
    <tag k="wheelchair" v="limited"/>
    <tag k="addr:city" v="Bielefeld"/>
    <tag k="addr:postcode" v="33602"/>
    <tag k="addr:housenumber" v="7"/>
    <tag k="addr:street" v="Arndtstraße"/>
    <tag k="wheelchair:description" v="Barrierefreier Zugang, breiter Fahrstuhl, keine Stufen. Keine rollstuhlgerechten Toiletten."/>
    <tag k="website" v="http://www.ra-driftmann.de"/>
    <tag k="phone" v="0521 66371"/>
    <tag k="office" v="lawyer"/>
  </node>
</osm>
