<?xml version='1.0' encoding='UTF-8'?>
<osm version="0.6" generator="Osmosis 0.39">
  <node id="-32" version="0" timestamp="Fri Feb 24 10:53:32 +0100 2012" uid="1" user="" lat="51.18063" lon="7.19041">
    <tag k="name" v="Metropol Remscheid"/>
    <tag k="wheelchair" v="no"/>
    <tag k="addr:city" v="Remscheid"/>
    <tag k="addr:postcode" v=" 42853"/>
    <tag k="addr:housenumber" v=" 28 "/>
    <tag k="addr:street" v="Allee Straße"/>
    <tag k="wheelchair:description" v="Lange Treppe mit vielen kleinen Stufen"/>
    <tag k="amenity" v="cinema"/>
    <tag k="website" v="http://metropol-remscheid.de"/>
    <tag k="phone" v="02191 6968330"/>
  </node>
  <node id="-42" version="0" timestamp="Fri Feb 24 10:53:32 +0100 2012" uid="1" user="" lat="51.521134" lon="6.8758045">
    <tag k="name" v="Artemis"/>
    <tag k="wheelchair" v="limited"/>
    <tag k="addr:city" v="Oberhausen"/>
    <tag k="addr:street" v="Elpenbachstraße"/>
    <tag k="amenity" v="restaurant"/>
  </node>
  <node id="-60" version="0" timestamp="Fri Feb 24 10:53:32 +0100 2012" uid="1" user="" lat="51.5359366" lon="6.547228">
    <tag k="name" v="KiTa Alspray"/>
    <tag k="wheelchair" v="yes"/>
    <tag k="addr:city" v="Rheinberg"/>
    <tag k="addr:postcode" v="47495"/>
    <tag k="amenity" v="kindergarten"/>
    <tag k="website" v="http://www.franks-ataxie.de"/>
  </node>
  <node id="-64" version="0" timestamp="Fri Feb 24 10:53:32 +0100 2012" uid="1" user="" lat="51.539477" lon="6.6040773">
    <tag k="name" v="Altenheim St. Thekla"/>
    <tag k="wheelchair" v="yes"/>
    <tag k="addr:city" v="Rheinberg"/>
    <tag k="addr:postcode" v="47495"/>
    <tag k="amenity" v="hospital"/>
    <tag k="website" v="http://www.franks-ataxie.de"/>
  </node>
  <node id="-97" version="0" timestamp="Fri Feb 24 10:53:32 +0100 2012" uid="1" user="" lat="51.7812971" lon="6.1252033">
    <tag k="name" v="Theater im Fluss"/>
    <tag k="wheelchair" v="limited"/>
    <tag k="addr:city" v="Kleve"/>
    <tag k="addr:postcode" v="47533"/>
    <tag k="addr:housenumber" v="50-56"/>
    <tag k="addr:street" v="Ackerstr."/>
    <tag k="wheelchair:description" v="alle Räume auf ebener Erde"/>
    <tag k="amenity" v="theatre"/>
    <tag k="website" v="http://www.theaterimfluss.de"/>
    <tag k="phone" v="+49 2821 979379"/>
  </node>
  <node id="-98" version="0" timestamp="Fri Feb 24 10:53:32 +0100 2012" uid="1" user="" lat="51.7812706" lon="6.1251711">
    <tag k="name" v="Theater im Fluss"/>
    <tag k="wheelchair" v="limited"/>
    <tag k="addr:city" v="Kleve"/>
    <tag k="addr:postcode" v="47533"/>
    <tag k="addr:housenumber" v="50-56"/>
    <tag k="addr:street" v="Ackerstr."/>
    <tag k="wheelchair:description" v="alle Räume auf ebener Erde"/>
    <tag k="amenity" v="theatre"/>
    <tag k="website" v="http://www.theaterimfluss.de"/>
    <tag k="phone" v="+49 2821 979379"/>
  </node>
  <node id="-105" version="0" timestamp="Fri Feb 24 10:53:32 +0100 2012" uid="1" user="" lat="51.39673" lon="6.48549">
    <tag k="name" v="Cafe Kornblume"/>
    <tag k="wheelchair" v="yes"/>
    <tag k="addr:city" v="Krefeld"/>
    <tag k="addr:postcode" v="47839"/>
    <tag k="addr:housenumber" v="16"/>
    <tag k="addr:street" v="Hinterorbroich "/>
    <tag k="wheelchair:description" v="Barrierefreier Zugang, behindertengerechtes WC"/>
    <tag k="amenity" v="cafe"/>
    <tag k="website" v="http://www.cafe-kornblume.de"/>
    <tag k="phone" v="02151-623444"/>
  </node>
  <node id="-182" version="0" timestamp="Fri Feb 24 10:53:32 +0100 2012" uid="1" user="" lat="51.5405" lon="6.5933522">
    <tag k="name" v="Krankenkasse AOK"/>
    <tag k="wheelchair" v="yes"/>
    <tag k="addr:city" v="Rheinberg"/>
    <tag k="addr:postcode" v="47495"/>
    <tag k="wheelchair:description" v="1 aG-Parkplatz"/>
    <tag k="amenity" v="hospital"/>
    <tag k="website" v="http://www.franks-ataxie.de"/>
  </node>
  <node id="-184" version="0" timestamp="Fri Feb 24 10:53:32 +0100 2012" uid="1" user="" lat="51.539387" lon="6.6037572">
    <tag k="name" v="St. Thekla Altenwohnheim"/>
    <tag k="wheelchair" v="yes"/>
    <tag k="addr:city" v="Rheinberg"/>
    <tag k="addr:postcode" v="47495"/>
    <tag k="amenity" v="hospital"/>
    <tag k="website" v="http://www.franks-ataxie.de"/>
  </node>
  <node id="-185" version="0" timestamp="Fri Feb 24 10:53:32 +0100 2012" uid="1" user="" lat="51.5359163" lon="6.5471661">
    <tag k="name" v="KiTa Alspray"/>
    <tag k="wheelchair" v="yes"/>
    <tag k="addr:city" v="Rheinberg"/>
    <tag k="addr:postcode" v="47495"/>
    <tag k="amenity" v="kindergarten"/>
    <tag k="website" v="http://www.franks-ataxie.de"/>
  </node>
  <node id="-186" version="0" timestamp="Fri Feb 24 10:53:32 +0100 2012" uid="1" user="" lat="51.5475641" lon="6.5735176">
    <tag k="name" v="Niederrheinmesse"/>
    <tag k="wheelchair" v="yes"/>
    <tag k="addr:city" v="Rheinberg"/>
    <tag k="addr:postcode" v="47495"/>
    <tag k="tourism" v="attraction"/>
    <tag k="wheelchair:description" v="1 aG-Parkplatz"/>
    <tag k="website" v="http://www.franks-ataxie.de"/>
  </node>
  <node id="-187" version="0" timestamp="Fri Feb 24 10:53:32 +0100 2012" uid="1" user="" lat="51.5468505" lon="6.5901747">
    <tag k="name" v="Parkplatz"/>
    <tag k="wheelchair" v="yes"/>
    <tag k="addr:city" v="Rheinberg"/>
    <tag k="addr:postcode" v="47495"/>
    <tag k="wheelchair:description" v="1 aG-Parkplatz"/>
    <tag k="amenity" v="parking"/>
    <tag k="website" v="http://www.franks-ataxie.de"/>
  </node>
  <node id="-235" version="0" timestamp="Fri Feb 24 10:53:32 +0100 2012" uid="1" user="" lat="51.5393467" lon="6.6035711">
    <tag k="name" v="Altenheim St. Thekla"/>
    <tag k="wheelchair" v="yes"/>
    <tag k="addr:city" v="Rheinberg"/>
    <tag k="addr:postcode" v="47495"/>
    <tag k="amenity" v="hospital"/>
    <tag k="website" v="http://www.franks-ataxie.de"/>
  </node>
  <node id="-258" version="0" timestamp="Fri Feb 24 10:53:32 +0100 2012" uid="1" user="" lat="51.7837263" lon="6.1338536">
    <tag k="name" v="Samocca"/>
    <tag k="wheelchair" v="yes"/>
    <tag k="wheelchair:description" v="Behinderten WC im Erdgeschoß."/>
    <tag k="amenity" v="restaurant"/>
  </node>
  <node id="-299" version="0" timestamp="Fri Feb 24 10:53:32 +0100 2012" uid="1" user="" lat="51.1689985" lon="6.9836894">
    <tag k="name" v="QIAGEN GmbH"/>
    <tag k="wheelchair" v="yes"/>
    <tag k="addr:city" v="Hilden"/>
    <tag k="addr:postcode" v="40724"/>
    <tag k="addr:housenumber" v="1"/>
    <tag k="addr:street" v="QIAGEN Strasse"/>
    <tag k="website" v="http://www.qiagen.com"/>
    <tag k="phone" v="02103-29-0"/>
  </node>
  <node id="-302" version="0" timestamp="Fri Feb 24 10:53:32 +0100 2012" uid="1" user="" lat="51.1702701" lon="7.079899">
    <tag k="name" v="AYK Sonnenstudio"/>
    <tag k="wheelchair" v="unknown"/>
    <tag k="addr:street" v="Bergstrasse"/>
    <tag k="leisure" v="sports_centre"/>
  </node>
  <node id="-326" version="0" timestamp="Fri Feb 24 10:53:32 +0100 2012" uid="1" user="" lat="51.5467937" lon="6.5902382">
    <tag k="name" v="Parkplatz"/>
    <tag k="wheelchair" v="yes"/>
    <tag k="addr:city" v="Rheinberg"/>
    <tag k="addr:postcode" v="47495"/>
    <tag k="wheelchair:description" v="1 aG-Parkplatz"/>
    <tag k="amenity" v="parking"/>
    <tag k="website" v="http://www.franks-ataxie.de"/>
  </node>
  <node id="-333" version="0" timestamp="Fri Feb 24 10:53:32 +0100 2012" uid="1" user="" lat="51.2514" lon="6.686">
    <tag k="shop" v="department_store"/>
    <tag k="name" v="Baumbach Uhrmachermeister &amp; Juwelier"/>
    <tag k="wheelchair" v="yes"/>
    <tag k="addr:city" v="Meerbusch"/>
    <tag k="addr:postcode" v="40667"/>
    <tag k="addr:housenumber" v="10"/>
    <tag k="addr:street" v="Düsseldorfer Strasse"/>
    <tag k="website" v="http://www.uhren-baumbach.de"/>
    <tag k="phone" v="+49 2132 6920932"/>
  </node>
  <node id="-339" version="0" timestamp="Fri Feb 24 10:53:32 +0100 2012" uid="1" user="" lat="51.1615182" lon="6.8698292">
    <tag k="name" v="Museum für Naturkunde"/>
    <tag k="wheelchair" v="limited"/>
    <tag k="tourism" v="museum"/>
  </node>
  <node id="-396" version="0" timestamp="Fri Feb 24 10:53:32 +0100 2012" uid="1" user="" lat="51.3218962" lon="6.5162902">
    <tag k="shop" v="bicycle"/>
    <tag k="name" v="Költgen GmbH - Behindertengerechter Fahrzeugumbau"/>
    <tag k="wheelchair" v="yes"/>
    <tag k="addr:city" v="Krefeld"/>
    <tag k="addr:postcode" v="47804"/>
    <tag k="addr:housenumber" v="407"/>
    <tag k="addr:street" v="Oberbenrader Straße"/>
    <tag k="website" v="http://www.koeltgen.de"/>
    <tag k="phone" v="+49-(O)2151-701236"/>
  </node>
  <node id="-407" version="0" timestamp="Fri Feb 24 10:53:32 +0100 2012" uid="1" user="" lat="51.7386865" lon="6.2932388">
    <tag k="name" v="Sparkasse"/>
    <tag k="wheelchair" v="limited"/>
    <tag k="wheelchair:description" v="Nur Behindertentoilette fehlt"/>
    <tag k="amenity" v="bank"/>
  </node>
  <node id="-408" version="0" timestamp="Fri Feb 24 10:53:32 +0100 2012" uid="1" user="" lat="51.73869" lon="6.29324">
    <tag k="name" v="Historisches Rathaus"/>
    <tag k="wheelchair" v="no"/>
    <tag k="wheelchair:description" v="Kein Zugang für Rollifahrer"/>
  </node>
  <node id="-409" version="0" timestamp="Fri Feb 24 10:53:32 +0100 2012" uid="1" user="" lat="51.7390886" lon="6.292945">
    <tag k="name" v="Stadtverwaltung"/>
    <tag k="wheelchair" v="limited"/>
  </node>
  <node id="-410" version="0" timestamp="Fri Feb 24 10:53:32 +0100 2012" uid="1" user="" lat="51.7388697" lon="6.2926063">
    <tag k="name" v="Historischer Marktplatz"/>
    <tag k="wheelchair" v="no"/>
    <tag k="tourism" v="attraction"/>
    <tag k="wheelchair:description" v="Sehr schwer befahrbarer Untergrund, da Natur,-Kopfsteinpflaster"/>
  </node>
  <node id="-411" version="0" timestamp="Fri Feb 24 10:53:32 +0100 2012" uid="1" user="" lat="51.739952" lon="6.2978457">
    <tag k="name" v="Sportplatz Kalkar"/>
    <tag k="wheelchair" v="no"/>
    <tag k="wheelchair:description" v="Zugang für Rollifahrer (wenn geöffnet) nur durch ein Seitentor möglich. Treppenrampe viel zu steil und daher nur für Fahrräder geeignet. Keine Behindertentoilette."/>
    <tag k="leisure" v="stadium"/>
  </node>
  <node id="-412" version="0" timestamp="Fri Feb 24 10:53:32 +0100 2012" uid="1" user="" lat="51.7381575" lon="6.2913159">
    <tag k="shop" v="florist"/>
    <tag k="name" v="Die Blume"/>
    <tag k="wheelchair" v="no"/>
    <tag k="wheelchair:description" v="Zu hohe Eingangsstufe"/>
  </node>
  <node id="-413" version="0" timestamp="Fri Feb 24 10:53:32 +0100 2012" uid="1" user="" lat="51.7386948" lon="6.2916204">
    <tag k="shop" v="bakery"/>
    <tag k="name" v="Brötje"/>
    <tag k="wheelchair" v="no"/>
    <tag k="wheelchair:description" v="Zu hohe Eingangsstufe"/>
  </node>
  <node id="-414" version="0" timestamp="Fri Feb 24 10:53:32 +0100 2012" uid="1" user="" lat="51.7381784" lon="6.2924783">
    <tag k="shop" v="bakery"/>
    <tag k="name" v="Reffeling"/>
    <tag k="wheelchair" v="no"/>
    <tag k="wheelchair:description" v="Zu hohe Eingangsstufe"/>
  </node>
  <node id="-415" version="0" timestamp="Fri Feb 24 10:53:32 +0100 2012" uid="1" user="" lat="51.7364027" lon="6.2884674">
    <tag k="shop" v="bakery"/>
    <tag k="name" v="Bäckerei Kamps"/>
    <tag k="wheelchair" v="limited"/>
    <tag k="wheelchair:description" v="Nur Behindertentoilette fehlt"/>
  </node>
  <node id="-416" version="0" timestamp="Fri Feb 24 10:53:32 +0100 2012" uid="1" user="" lat="51.7389651" lon="6.2921445">
    <tag k="name" v="Eis Cafe Venezia"/>
    <tag k="wheelchair" v="limited"/>
    <tag k="wheelchair:description" v="Da Saisonbeding nur im Sommer geöffnet, reichen die Außentische für Rollifahrer. Kein Zugang zum Innenraum, keine Behindertentoilette"/>
    <tag k="amenity" v="cafe"/>
  </node>
  <node id="-429" version="0" timestamp="Fri Feb 24 10:53:32 +0100 2012" uid="1" user="" lat="51.7374344" lon="6.2922589">
    <tag k="name" v="Jenseits"/>
    <tag k="wheelchair" v="unknown"/>
    <tag k="wheelchair:description" v="Kunst- und Kulturkneipe"/>
    <tag k="amenity" v="pub"/>
  </node>
  <node id="-431" version="0" timestamp="Fri Feb 24 10:53:32 +0100 2012" uid="1" user="" lat="51.737513" lon="6.2925604">
    <tag k="name" v="de Gildenkamer"/>
    <tag k="wheelchair" v="unknown"/>
    <tag k="amenity" v="restaurant"/>
  </node>
  <node id="-432" version="0" timestamp="Fri Feb 24 10:53:32 +0100 2012" uid="1" user="" lat="51.7391284" lon="6.2923731">
    <tag k="name" v="Café &amp; Bistro Mango"/>
    <tag k="wheelchair" v="unknown"/>
    <tag k="amenity" v="cafe"/>
  </node>
  <node id="-433" version="0" timestamp="Fri Feb 24 10:53:32 +0100 2012" uid="1" user="" lat="51.73914" lon="6.2922037">
    <tag k="name" v="Nederkorn"/>
    <tag k="wheelchair" v="unknown"/>
    <tag k="amenity" v="cafe"/>
  </node>
  <node id="-434" version="0" timestamp="Fri Feb 24 10:53:32 +0100 2012" uid="1" user="" lat="51.7379902" lon="6.290811">
    <tag k="name" v="bei Jos"/>
    <tag k="wheelchair" v="no"/>
    <tag k="wheelchair:description" v="Zu hohe Eingangsstufe, keine Behindertentoilette"/>
    <tag k="amenity" v="pub"/>
  </node>
  <node id="-435" version="0" timestamp="Fri Feb 24 10:53:32 +0100 2012" uid="1" user="" lat="51.7407645" lon="6.2922629">
    <tag k="name" v="Hotel &amp; Restaurant Siekmann"/>
    <tag k="wheelchair" v="unknown"/>
    <tag k="tourism" v="hotel"/>
  </node>
  <node id="-436" version="0" timestamp="Fri Feb 24 10:53:32 +0100 2012" uid="1" user="" lat="51.3218939" lon="6.5162961">
    <tag k="shop" v="bicycle"/>
    <tag k="name" v="Költgen GmbH - Behindertengerechter Fahrzeugumbau"/>
    <tag k="wheelchair" v="yes"/>
    <tag k="addr:city" v="Krefeld"/>
    <tag k="addr:postcode" v="47804"/>
    <tag k="addr:housenumber" v="407"/>
    <tag k="addr:street" v="Oberbenrader Straße"/>
    <tag k="website" v="http://www.koeltgen.de"/>
    <tag k="phone" v="+49-2151-701236"/>
  </node>
  <node id="-437" version="0" timestamp="Fri Feb 24 10:53:32 +0100 2012" uid="1" user="" lat="51.7355902" lon="6.2896696">
    <tag k="name" v="Schnitzelpfännchen"/>
    <tag k="wheelchair" v="unknown"/>
    <tag k="amenity" v="fast_food"/>
  </node>
  <node id="-438" version="0" timestamp="Fri Feb 24 10:53:32 +0100 2012" uid="1" user="" lat="51.7399134" lon="6.2934316">
    <tag k="name" v="St. Nikolaus-Hospital"/>
    <tag k="wheelchair" v="yes"/>
    <tag k="amenity" v="hospital"/>
  </node>
  <node id="-439" version="0" timestamp="Fri Feb 24 10:53:32 +0100 2012" uid="1" user="" lat="51.7385538" lon="6.2916145">
    <tag k="name" v="mittelalterliches Treppengiebelhaus"/>
    <tag k="wheelchair" v="limited"/>
    <tag k="historic" v="memorial"/>
  </node>
  <node id="-440" version="0" timestamp="Fri Feb 24 10:53:32 +0100 2012" uid="1" user="" lat="51.7390516" lon="6.2914598">
    <tag k="name" v="Evangelische Kirche"/>
    <tag k="wheelchair" v="unknown"/>
    <tag k="amenity" v="place_of_worship"/>
  </node>
  <node id="-441" version="0" timestamp="Fri Feb 24 10:53:32 +0100 2012" uid="1" user="" lat="51.7410065" lon="6.2953555">
    <tag k="name" v="Jüdischer Friedhof"/>
    <tag k="wheelchair" v="unknown"/>
    <tag k="historic" v="memorial"/>
  </node>
  <node id="-442" version="0" timestamp="Fri Feb 24 10:53:32 +0100 2012" uid="1" user="" lat="51.7431689" lon="6.2930034">
    <tag k="name" v="Taubenturm"/>
    <tag k="wheelchair" v="limited"/>
    <tag k="wheelchair:description" v="Nur Behindertentoilette fehlt"/>
    <tag k="website" v="http://www.kalkar.de/index.php?id=637"/>
    <tag k="historic" v="memorial"/>
  </node>
  <node id="-444" version="0" timestamp="Fri Feb 24 10:53:32 +0100 2012" uid="1" user="" lat="51.742584" lon="6.2926725">
    <tag k="name" v="Gerd - Janssen - Platz"/>
    <tag k="wheelchair" v="limited"/>
    <tag k="wheelchair:description" v="Nur Behindertentoilette fehlt"/>
    <tag k="website" v="http://www.kalkar.de/index.php?id=636"/>
    <tag k="historic" v="memorial"/>
  </node>
  <node id="-446" version="0" timestamp="Fri Feb 24 10:53:32 +0100 2012" uid="1" user="" lat="51.7389292" lon="6.2915295">
    <tag k="name" v="Behindertenparkplätze"/>
    <tag k="wheelchair" v="limited"/>
    <tag k="wheelchair:description" v="Achtung! Sehr wenig Platz zum Ein- und Aussteigen"/>
    <tag k="amenity" v="parking"/>
  </node>
  <node id="-447" version="0" timestamp="Fri Feb 24 10:53:32 +0100 2012" uid="1" user="" lat="51.7290163" lon="6.298902">
    <tag k="shop" v="doityourself"/>
    <tag k="name" v="Baufachzentrum Völkers"/>
    <tag k="wheelchair" v="limited"/>
    <tag k="wheelchair:description" v="Nur Behindertentoilette fehlt"/>
  </node>
  <node id="-448" version="0" timestamp="Fri Feb 24 10:53:32 +0100 2012" uid="1" user="" lat="51.7318863" lon="6.2951061">
    <tag k="name" v="Imbiß Schinken Arntz"/>
    <tag k="wheelchair" v="limited"/>
    <tag k="wheelchair:description" v="Nur Behindertentoilette fehlt"/>
    <tag k="amenity" v="fast_food"/>
  </node>
  <node id="-449" version="0" timestamp="Fri Feb 24 10:53:32 +0100 2012" uid="1" user="" lat="51.73189" lon="6.2952227">
    <tag k="shop" v="butcher"/>
    <tag k="name" v="Schinken Arntz"/>
    <tag k="wheelchair" v="limited"/>
    <tag k="wheelchair:description" v="Nur Behindertentoilette fehlt"/>
  </node>
  <node id="-450" version="0" timestamp="Fri Feb 24 10:53:32 +0100 2012" uid="1" user="" lat="51.7316242" lon="6.2959174">
    <tag k="shop" v="beverages"/>
    <tag k="name" v="Dursty"/>
    <tag k="wheelchair" v="limited"/>
    <tag k="wheelchair:description" v="Nur Behindertentoilette fehlt"/>
  </node>
  <node id="-453" version="0" timestamp="Fri Feb 24 10:53:32 +0100 2012" uid="1" user="" lat="51.7317463" lon="6.2963867">
    <tag k="shop" v="mall"/>
    <tag k="name" v="Wemmer &amp; Janssen Automobile"/>
    <tag k="wheelchair" v="limited"/>
    <tag k="wheelchair:description" v="Nur Behindertentoilette fehlt"/>
  </node>
  <node id="-455" version="0" timestamp="Fri Feb 24 10:53:32 +0100 2012" uid="1" user="" lat="51.7355546" lon="6.2976663">
    <tag k="name" v="Josef-Lörks-Grundschule"/>
    <tag k="wheelchair" v="no"/>
    <tag k="amenity" v="school"/>
  </node>
  <node id="-456" version="0" timestamp="Fri Feb 24 10:53:32 +0100 2012" uid="1" user="" lat="51.7348107" lon="6.2985757">
    <tag k="name" v="St. Nikolaus-Schule / Hauptschule"/>
    <tag k="wheelchair" v="no"/>
    <tag k="amenity" v="school"/>
  </node>
  <node id="-457" version="0" timestamp="Fri Feb 24 10:53:32 +0100 2012" uid="1" user="" lat="51.7348665" lon="6.2979202">
    <tag k="name" v="Städtische Realschule"/>
    <tag k="wheelchair" v="limited"/>
    <tag k="wheelchair:description" v="Nur EG zugänglich"/>
    <tag k="amenity" v="school"/>
  </node>
  <node id="-458" version="0" timestamp="Fri Feb 24 10:53:32 +0100 2012" uid="1" user="" lat="51.7344149" lon="6.2982204">
    <tag k="name" v="Jan-Joest-Gymnasium"/>
    <tag k="wheelchair" v="unknown"/>
    <tag k="amenity" v="school"/>
  </node>
  <node id="-459" version="0" timestamp="Fri Feb 24 10:53:32 +0100 2012" uid="1" user="" lat="51.7374386" lon="6.2961508">
    <tag k="name" v="St. Nikolaus Kindergarten"/>
    <tag k="wheelchair" v="unknown"/>
    <tag k="amenity" v="kindergarten"/>
  </node>
  <node id="-460" version="0" timestamp="Fri Feb 24 10:53:32 +0100 2012" uid="1" user="" lat="51.7365742" lon="6.2851941">
    <tag k="name" v="Kolping-Kindergarten"/>
    <tag k="wheelchair" v="unknown"/>
    <tag k="amenity" v="kindergarten"/>
  </node>
  <node id="-461" version="0" timestamp="Fri Feb 24 10:53:32 +0100 2012" uid="1" user="" lat="51.73657" lon="6.28519">
    <tag k="name" v="Tierarztpraxis Altenhoven"/>
    <tag k="wheelchair" v="limited"/>
    <tag k="wheelchair:description" v="Nur Behindertentoilette fehlt"/>
    <tag k="amenity" v="veterinary"/>
  </node>
  <node id="-479" version="0" timestamp="Fri Feb 24 10:53:32 +0100 2012" uid="1" user="" lat="51.2278963" lon="6.8126567">
    <tag k="name" v="Flurklinik"/>
    <tag k="wheelchair" v="no"/>
    <tag k="addr:city" v="Düsseldorf"/>
    <tag k="addr:postcode" v="40235"/>
    <tag k="addr:housenumber" v="14"/>
    <tag k="addr:street" v="Flurstraße"/>
    <tag k="amenity" v="restaurant"/>
  </node>
  <node id="-482" version="0" timestamp="Fri Feb 24 10:53:32 +0100 2012" uid="1" user="" lat="51.2273457" lon="6.81163">
    <tag k="shop" v="bakery"/>
    <tag k="name" v="Kamps"/>
    <tag k="wheelchair" v="limited"/>
  </node>
  <node id="-485" version="0" timestamp="Fri Feb 24 10:53:32 +0100 2012" uid="1" user="" lat="51.22794" lon="6.813">
    <tag k="name" v="Walldorf"/>
    <tag k="wheelchair" v="no"/>
    <tag k="addr:city" v="Düsseldorf"/>
    <tag k="addr:postcode" v="40235 "/>
    <tag k="addr:housenumber" v="19"/>
    <tag k="addr:street" v="Flurstraße "/>
    <tag k="amenity" v="restaurant"/>
  </node>
  <node id="-486" version="0" timestamp="Fri Feb 24 10:53:32 +0100 2012" uid="1" user="" lat="51.1755" lon="6.86468">
    <tag k="name" v="Burg Wächter Castello"/>
    <tag k="wheelchair" v="yes"/>
    <tag k="addr:city" v="Düsseldorf"/>
    <tag k="addr:postcode" v="40599"/>
    <tag k="addr:housenumber" v="1"/>
    <tag k="addr:street" v="Karl-Hohmann-Straße"/>
    <tag k="leisure" v="stadium"/>
  </node>
  <node id="-498" version="0" timestamp="Fri Feb 24 10:53:32 +0100 2012" uid="1" user="" lat="51.248613" lon="7.1296659">
    <tag k="name" v="Cafe Simons"/>
    <tag k="wheelchair" v="yes"/>
    <tag k="addr:city" v="Wuppertal"/>
    <tag k="addr:postcode" v="42117"/>
    <tag k="addr:housenumber" v="36"/>
    <tag k="addr:street" v="Simonsstr. "/>
    <tag k="amenity" v="cafe"/>
  </node>
  <node id="-512" version="0" timestamp="Fri Feb 24 10:53:32 +0100 2012" uid="1" user="" lat="51.1740857" lon="7.0848829">
    <tag k="name" v="Alex"/>
    <tag k="wheelchair" v="limited"/>
    <tag k="addr:city" v="Solingen"/>
    <tag k="addr:postcode" v="42659"/>
    <tag k="wheelchair:description" v="keine Barrierefreien WCs"/>
    <tag k="amenity" v="restaurant"/>
  </node>
  <node id="-526" version="0" timestamp="Fri Feb 24 10:53:32 +0100 2012" uid="1" user="" lat="51.46714" lon="7.08129">
    <tag k="name" v="Zahnarzt Dr. Dieckmann"/>
    <tag k="wheelchair" v="yes"/>
    <tag k="addr:city" v="Essen"/>
    <tag k="addr:postcode" v="45307"/>
    <tag k="addr:housenumber" v="238"/>
    <tag k="addr:street" v="Krayer Str."/>
    <tag k="wheelchair:description" v="keine Stufen; Aufzug"/>
    <tag k="amenity" v="doctors"/>
    <tag k="website" v="http://www.zahnarzt-dieckmann.com"/>
    <tag k="phone" v="+49 201 559063"/>
  </node>
  <node id="-572" version="0" timestamp="Fri Feb 24 10:53:32 +0100 2012" uid="1" user="" lat="51.2001556" lon="6.6862923">
    <tag k="shop" v="clothes"/>
    <tag k="name" v="IN-printing Werbe-Full-Service"/>
    <tag k="wheelchair" v="yes"/>
    <tag k="addr:city" v="Neuss"/>
    <tag k="addr:postcode" v="41460"/>
    <tag k="addr:housenumber" v="18"/>
    <tag k="addr:street" v="Platz am Niedertor"/>
    <tag k="website" v="http://www.in-printing.de"/>
    <tag k="phone" v="02131-406969"/>
  </node>
  <node id="-573" version="0" timestamp="Fri Feb 24 10:53:32 +0100 2012" uid="1" user="" lat="51.2032322" lon="6.6853995">
    <tag k="name" v="KETTLERphysio Praxis für Physiotherapie"/>
    <tag k="wheelchair" v="yes"/>
    <tag k="addr:city" v="Neuss"/>
    <tag k="addr:postcode" v="41460"/>
    <tag k="addr:housenumber" v="5"/>
    <tag k="addr:street" v="Marienkirchplat"/>
    <tag k="leisure" v="sports_centre"/>
    <tag k="website" v="http://www.kettlerphysio.de"/>
    <tag k="phone" v="02131-2018218"/>
  </node>
  <node id="-592" version="0" timestamp="Fri Feb 24 10:53:32 +0100 2012" uid="1" user="" lat="51.43382" lon="6.76003">
    <tag k="name" v="Sozialamt, Wohnungsamt, Beratungsstellen"/>
    <tag k="wheelchair" v="yes"/>
    <tag k="addr:city" v="Duisburg"/>
    <tag k="addr:postcode" v="47051"/>
    <tag k="addr:housenumber" v="5-7"/>
    <tag k="addr:street" v="Schwanenstraße"/>
    <tag k="wheelchair:description" v="mit Restaurant und Begegnungs- und Beratungszentrum &quot;Der Kleine Prinz&quot;"/>
    <tag k="website" v="http://senioren.duisburg.de"/>
    <tag k="phone" v="0203/94000"/>
  </node>
  <node id="-611" version="0" timestamp="Fri Feb 24 10:53:32 +0100 2012" uid="1" user="" lat="51.83014" lon="6.24004">
    <tag k="name" v="Rheinpromenade"/>
    <tag k="wheelchair" v="yes"/>
    <tag k="addr:city" v="Emmerich am Rhein"/>
    <tag k="addr:postcode" v="46446"/>
    <tag k="tourism" v="attraction"/>
    <tag k="website" v="http://www.emmerich.de"/>
  </node>
  <node id="-612" version="0" timestamp="Fri Feb 24 10:53:32 +0100 2012" uid="1" user="" lat="51.830699" lon="6.2461508">
    <tag k="shop" v="mall"/>
    <tag k="name" v="Rheincenter"/>
    <tag k="wheelchair" v="yes"/>
  </node>
  <node id="-614" version="0" timestamp="Fri Feb 24 10:53:32 +0100 2012" uid="1" user="" lat="51.8318901" lon="6.2461332">
    <tag k="name" v="Eiscafe Dolomiti"/>
    <tag k="wheelchair" v="limited"/>
    <tag k="wheelchair:description" v="keine toilette für rollstuhl"/>
    <tag k="amenity" v="cafe"/>
  </node>
  <node id="-615" version="0" timestamp="Fri Feb 24 10:53:32 +0100 2012" uid="1" user="" lat="51.8303328" lon="6.2410791">
    <tag k="shop" v="bakery"/>
    <tag k="name" v="Bäckerei Siebrecht"/>
    <tag k="wheelchair" v="yes"/>
    <tag k="addr:city" v="Emmerich am Rhein"/>
    <tag k="addr:postcode" v="46446"/>
    <tag k="addr:housenumber" v="45"/>
    <tag k="addr:street" v="Steinstrasse"/>
  </node>
  <node id="-616" version="0" timestamp="Fri Feb 24 10:53:32 +0100 2012" uid="1" user="" lat="51.8503897" lon="6.2410743">
    <tag k="name" v="Spielbank Bowling center"/>
    <tag k="wheelchair" v="yes"/>
    <tag k="tourism" v="theme_park"/>
  </node>
  <node id="-617" version="0" timestamp="Fri Feb 24 10:53:32 +0100 2012" uid="1" user="" lat="51.8322452" lon="6.2642935">
    <tag k="name" v="Mc Donalds"/>
    <tag k="wheelchair" v="yes"/>
    <tag k="amenity" v="fast_food"/>
  </node>
  <node id="-622" version="0" timestamp="Fri Feb 24 10:53:32 +0100 2012" uid="1" user="" lat="51.18162" lon="6.81302">
    <tag k="name" v="Dr. Pfeifer"/>
    <tag k="wheelchair" v="yes"/>
    <tag k="amenity" v="doctors"/>
  </node>
  <node id="-689" version="0" timestamp="Fri Feb 24 10:53:32 +0100 2012" uid="1" user="" lat="51.408114" lon="6.6770058">
    <tag k="name" v="Hallenbad Töppersee"/>
    <tag k="wheelchair" v="yes"/>
    <tag k="addr:city" v="Duisburg - Rheinhausen"/>
    <tag k="addr:postcode" v="47239"/>
    <tag k="addr:housenumber" v="101"/>
    <tag k="addr:street" v="Bergheimer Straße"/>
    <tag k="wheelchair:description" v="Voll barrierefrei, automatische Türen, rollstuhlgerechte Dusche usw."/>
    <tag k="amenity" v="swimming_pool"/>
    <tag k="website" v="http://www.duisburg.de/micro/duisburgsport/baeder/hallenbad_toepper.php"/>
    <tag k="phone" v="+49 (0) 2065 62640"/>
  </node>
  <node id="-775" version="0" timestamp="Fri Feb 24 10:53:32 +0100 2012" uid="1" user="" lat="51.1698098" lon="6.8616503">
    <tag k="shop" v="supermarket"/>
    <tag k="name" v="Edeka Zurheide"/>
    <tag k="wheelchair" v="yes"/>
    <tag k="wheelchair:description" v="Parkplätze (überdacht), Aufzug, hilfsbereites Personal"/>
  </node>
  <node id="-777" version="0" timestamp="Fri Feb 24 10:53:32 +0100 2012" uid="1" user="" lat="51.19902" lon="6.88396">
    <tag k="name" v="Sehrestaurant"/>
    <tag k="wheelchair" v="no"/>
    <tag k="wheelchair:description" v="Biergarten ok, zum Restaurant 2 Stufen, keine zugänglichen Toiletten"/>
    <tag k="amenity" v="restaurant"/>
  </node>
  <node id="-778" version="0" timestamp="Fri Feb 24 10:53:32 +0100 2012" uid="1" user="" lat="51.1898056" lon="6.9217738">
    <tag k="name" v="McDonalds"/>
    <tag k="wheelchair" v="limited"/>
    <tag k="wheelchair:description" v="keine zugänglichen Toietten"/>
    <tag k="amenity" v="fast_food"/>
  </node>
  <node id="-806" version="0" timestamp="Fri Feb 24 10:53:32 +0100 2012" uid="1" user="" lat="51.4385344" lon="6.5685663">
    <tag k="name" v="SPD Ortsverein Neukirchen-Vluyn"/>
    <tag k="wheelchair" v="limited"/>
    <tag k="addr:city" v="Neukirchen-Vluyn"/>
    <tag k="addr:postcode" v="47506"/>
    <tag k="addr:housenumber" v="9"/>
    <tag k="addr:street" v="Max-von-Schenckendorf-Str. "/>
    <tag k="wheelchair:description" v="Rollstuhlrampe vorhanden, Toiletten teilweise problematisch"/>
    <tag k="website" v="http://www.spd-nv.de"/>
  </node>
  <node id="-809" version="0" timestamp="Fri Feb 24 10:53:32 +0100 2012" uid="1" user="" lat="51.4838145" lon="6.6170268">
    <tag k="name" v="Sparkasse Rheinkamper-Ring"/>
    <tag k="wheelchair" v="yes"/>
    <tag k="addr:city" v="Moers"/>
    <tag k="addr:postcode" v="47445"/>
    <tag k="addr:housenumber" v="4"/>
    <tag k="addr:street" v="Kurt-Schumacher-Allee"/>
    <tag k="amenity" v="bank"/>
    <tag k="website" v="http://www.sparkasse-am-niederrhein.de"/>
    <tag k="phone" v="02841/2062451"/>
  </node>
  <node id="-886" version="0" timestamp="Fri Feb 24 10:53:32 +0100 2012" uid="1" user="" lat="51.1976838" lon="6.8030823">
    <tag k="name" v="Minigolf - Südpark"/>
    <tag k="wheelchair" v="yes"/>
    <tag k="leisure" v="arena"/>
  </node>
  <node id="-897" version="0" timestamp="Fri Feb 24 10:53:32 +0100 2012" uid="1" user="" lat="51.2172" lon="6.80434">
    <tag k="name" v="360°zahn"/>
    <tag k="wheelchair" v="yes"/>
    <tag k="addr:city" v="Düsseldorf "/>
    <tag k="addr:postcode" v="40227"/>
    <tag k="addr:housenumber" v="6"/>
    <tag k="addr:street" v="Werdener Str."/>
    <tag k="wheelchair:description" v="Stufenlos im EG+Aufzug+Behinderten WC"/>
    <tag k="amenity" v="doctors"/>
    <tag k="website" v="Http://www.360gradzahn.de"/>
    <tag k="phone" v="0211 2208360"/>
  </node>
  <node id="-909" version="0" timestamp="Fri Feb 24 10:53:33 +0100 2012" uid="1" user="" lat="51.1579093" lon="6.9361364">
    <tag k="shop" v="clothes"/>
    <tag k="name" v="Fashioboot - Faschingskostüme und mehr..."/>
    <tag k="wheelchair" v="yes"/>
    <tag k="addr:city" v="Hilden"/>
    <tag k="addr:postcode" v="40723"/>
    <tag k="addr:housenumber" v="27"/>
    <tag k="addr:street" v="Verbindungsstr."/>
    <tag k="website" v="http://www.fashinboot.de"/>
    <tag k="phone" v="02103-986381"/>
  </node>
  <node id="-931" version="0" timestamp="Fri Feb 24 10:53:33 +0100 2012" uid="1" user="" lat="51.4333" lon="6.75">
    <tag k="name" v="Fewo Praaag"/>
    <tag k="wheelchair" v="unknown"/>
    <tag k="addr:city" v="Prag"/>
    <tag k="addr:postcode" v="17000 "/>
    <tag k="addr:housenumber" v="12"/>
    <tag k="tourism" v="guest_house"/>
    <tag k="addr:street" v="Šmeralova"/>
    <tag k="website" v="http://www.fewo-prag.info"/>
    <tag k="phone" v="+420 (0) 22 05 70 002"/>
  </node>
  <node id="-936" version="0" timestamp="Fri Feb 24 10:53:33 +0100 2012" uid="1" user="" lat="51.2700306" lon="6.5420092">
    <tag k="name" v="Robert-Schuman-Europaschule "/>
    <tag k="wheelchair" v="limited"/>
    <tag k="addr:city" v="Willich "/>
    <tag k="addr:postcode" v="47877"/>
    <tag k="addr:housenumber" v="2-6"/>
    <tag k="addr:street" v="Kantstraße"/>
    <tag k="wheelchair:description" v="Die Schule besteht aus 9 Gebäuden die man alle mit einen Rollstuhl bis zum EG erreichen kann. In den Bebäuden NW/D/E kommt man durch einen Aufzug in die Obergeschoße"/>
    <tag k="amenity" v="school"/>
    <tag k="website" v="http://www.rse-willich.de"/>
    <tag k="phone" v="02154 / 9258-0"/>
  </node>
  <node id="-938" version="0" timestamp="Fri Feb 24 10:53:33 +0100 2012" uid="1" user="" lat="51.2705904" lon="6.5412327">
    <tag k="name" v="Robert-Schman-Europaschule Rundbau &quot;D&quot;"/>
    <tag k="wheelchair" v="yes"/>
    <tag k="addr:city" v="Willich "/>
    <tag k="addr:postcode" v="47877"/>
    <tag k="addr:housenumber" v="2-6"/>
    <tag k="addr:street" v="Kantstraße "/>
    <tag k="wheelchair:description" v="Alle Geschosse sind durch einen Aufzug zu erreichen auch die Gebäude NW/E "/>
    <tag k="amenity" v="school"/>
    <tag k="website" v="http://www.rse-willich.de"/>
    <tag k="phone" v="02154 / 9258-100"/>
  </node>
  <node id="-939" version="0" timestamp="Fri Feb 24 10:53:33 +0100 2012" uid="1" user="" lat="51.2708786" lon="6.5400176">
    <tag k="name" v="Robert-Schuman-Europaschule &quot;2fach Sporthalle&quot; "/>
    <tag k="wheelchair" v="yes"/>
    <tag k="addr:city" v="Willich "/>
    <tag k="addr:postcode" v="47877 "/>
    <tag k="addr:street" v="Ackerstraße "/>
    <tag k="wheelchair:description" v="Der Sportlereingang ist mit den Rollstuhl zu befahren, WC´s sind vorhanden "/>
    <tag k="amenity" v="school"/>
    <tag k="website" v="http://www.rse-willich.de"/>
    <tag k="phone" v="02154 / 9258-100"/>
  </node>
  <node id="-940" version="0" timestamp="Fri Feb 24 10:53:33 +0100 2012" uid="1" user="" lat="51.2706484" lon="6.5397357">
    <tag k="name" v="Robert-Schuman-Europaschule &quot;Oberstufe&quot; &quot;G&quot;"/>
    <tag k="wheelchair" v="limited"/>
    <tag k="addr:city" v="Willich "/>
    <tag k="addr:postcode" v="47877 "/>
    <tag k="addr:housenumber" v="2-6"/>
    <tag k="addr:street" v="Kantstraße "/>
    <tag k="wheelchair:description" v="Das Erdgeschoß ist komplett mit den Rollstuhl zu erreichen."/>
    <tag k="amenity" v="school"/>
    <tag k="website" v="http://www.rse-willich.de"/>
    <tag k="phone" v="02154 / 9258-100"/>
  </node>
  <node id="-941" version="0" timestamp="Fri Feb 24 10:53:33 +0100 2012" uid="1" user="" lat="51.2703882" lon="6.5404427">
    <tag k="name" v="Robert-Schuman-Europaschule &quot;Mensa&quot;"/>
    <tag k="wheelchair" v="limited"/>
    <tag k="addr:city" v="Willich "/>
    <tag k="addr:postcode" v="47877 "/>
    <tag k="addr:housenumber" v="2-6 "/>
    <tag k="addr:street" v="Kantstraße "/>
    <tag k="wheelchair:description" v="Die Mensa ist über das Bauteil G Oberstufe mit den Rollstuhl zu erreichen."/>
    <tag k="amenity" v="school"/>
    <tag k="website" v="http://rse-willich.de"/>
    <tag k="phone" v="02154 / 9258-100"/>
  </node>
  <node id="-942" version="0" timestamp="Fri Feb 24 10:53:33 +0100 2012" uid="1" user="" lat="51.270041" lon="6.5414861">
    <tag k="name" v="Robert-Schuman-Europaschule &quot;Forum&quot; "/>
    <tag k="wheelchair" v="yes"/>
    <tag k="addr:city" v="Willich "/>
    <tag k="addr:postcode" v="47877 "/>
    <tag k="addr:housenumber" v="2-6 "/>
    <tag k="addr:street" v="Kantstraße "/>
    <tag k="wheelchair:description" v="Das Forum der Schule und die kleine Turnhalle ist komplett mit einen Rollstuhl zu erreichen "/>
    <tag k="amenity" v="school"/>
    <tag k="website" v="http://rse-willich.de"/>
    <tag k="phone" v="02154 / 9258-100"/>
  </node>
  <node id="-943" version="0" timestamp="Fri Feb 24 10:53:33 +0100 2012" uid="1" user="" lat="51.2696372" lon="6.5424127">
    <tag k="name" v="Robert-Schuman-Europaschule - Gebäude B"/>
    <tag k="wheelchair" v="yes"/>
    <tag k="addr:city" v="Willich "/>
    <tag k="addr:postcode" v="47877 "/>
    <tag k="addr:housenumber" v="2-6"/>
    <tag k="addr:street" v="Kantstraße "/>
    <tag k="wheelchair:description" v="Diese Gebäude ist komplett mit den Rollstuhl zu erreichen - Hier finden auch die Wahlen statt"/>
    <tag k="amenity" v="school"/>
    <tag k="website" v="http://www.rse-willich.de"/>
    <tag k="phone" v="02154 / 9258-100"/>
  </node>
  <node id="-1008" version="0" timestamp="Fri Feb 24 10:53:33 +0100 2012" uid="1" user="" lat="51.1318133" lon="6.9491331">
    <tag k="name" v="Dionysos"/>
    <tag k="wheelchair" v="limited"/>
    <tag k="addr:city" v="Langenfeld"/>
    <tag k="addr:postcode" v="40764"/>
    <tag k="addr:housenumber" v="21"/>
    <tag k="addr:street" v="Haus Gravener Str. "/>
    <tag k="amenity" v="restaurant"/>
    <tag k="phone" v="02173-82266"/>
  </node>
  <node id="-1064" version="0" timestamp="Fri Feb 24 10:53:33 +0100 2012" uid="1" user="" lat="51.244481" lon="6.8199149">
    <tag k="name" v="Melanchthonkirche"/>
    <tag k="wheelchair" v="yes"/>
    <tag k="addr:city" v="Düsseldorf"/>
    <tag k="addr:postcode" v="40237"/>
    <tag k="addr:housenumber" v="211"/>
    <tag k="addr:street" v="Graf-Recke-Straße"/>
    <tag k="amenity" v="place_of_worship"/>
    <tag k="website" v="http://www.osterkirchengemeinde.de/"/>
  </node>
  <node id="-1191" version="0" timestamp="Fri Feb 24 10:53:33 +0100 2012" uid="1" user="" lat="51.5391517" lon="6.5913731">
    <tag k="name" v="Semper idem Haus"/>
    <tag k="wheelchair" v="yes"/>
    <tag k="addr:city" v="Rheinberg"/>
    <tag k="addr:postcode" v="47495"/>
    <tag k="tourism" v="attraction"/>
  </node>
  <node id="-1192" version="0" timestamp="Fri Feb 24 10:53:33 +0100 2012" uid="1" user="" lat="51.5497708" lon="6.5979543">
    <tag k="name" v="Logopädische Praxis Stefan Koch"/>
    <tag k="wheelchair" v="no"/>
    <tag k="addr:city" v="Rheinberg"/>
    <tag k="addr:postcode" v="47495"/>
    <tag k="amenity" v="doctors"/>
  </node>
  <node id="-1194" version="0" timestamp="Fri Feb 24 10:53:33 +0100 2012" uid="1" user="" lat="51.5479158" lon="6.5750354">
    <tag k="name" v="Niederrheinmesse"/>
    <tag k="wheelchair" v="yes"/>
    <tag k="addr:city" v="Rheinberg"/>
    <tag k="addr:postcode" v="47495"/>
    <tag k="tourism" v="attraction"/>
  </node>
  <node id="-1265" version="0" timestamp="Fri Feb 24 10:53:33 +0100 2012" uid="1" user="" lat="51.4551594" lon="7.0069758">
    <tag k="name" v="C 4 Gay- Bar Club Lounge"/>
    <tag k="wheelchair" v="limited"/>
    <tag k="addr:city" v="Essen"/>
    <tag k="addr:postcode" v="45127"/>
    <tag k="addr:housenumber" v="82"/>
    <tag k="addr:street" v="Hindenburgstraße"/>
    <tag k="wheelchair:description" v="bis auf die Toiletten und Raucherraum rollstuhlgerecht"/>
    <tag k="amenity" v="bar"/>
  </node>
  <node id="-1271" version="0" timestamp="Fri Feb 24 10:53:33 +0100 2012" uid="1" user="" lat="51.1945635" lon="6.4253644">
    <tag k="name" v="Santander Consumer Bank AG"/>
    <tag k="wheelchair" v="yes"/>
    <tag k="addr:city" v="Mönchengladbach"/>
    <tag k="addr:postcode" v="41061"/>
    <tag k="addr:street" v="Aachner Straße"/>
    <tag k="wheelchair:description" v="Zugang zum Geldautomaten über Rampe am Haupteingang (Santander-Platz / Karmannsstraße)"/>
    <tag k="amenity" v="atm"/>
    <tag k="website" v="http://www.santander.de"/>
  </node>
  <node id="-1290" version="0" timestamp="Fri Feb 24 10:53:33 +0100 2012" uid="1" user="" lat="51.2070937" lon="6.9582063">
    <tag k="name" v="Apotheke am Stadtweiher"/>
    <tag k="wheelchair" v="yes"/>
    <tag k="addr:city" v="Erkrath"/>
    <tag k="addr:postcode" v="40699"/>
    <tag k="addr:housenumber" v="25"/>
    <tag k="addr:street" v="Karschhauser Str. "/>
    <tag k="amenity" v="pharmacy"/>
    <tag k="phone" v="+49 2104 947700"/>
  </node>
  <node id="-1298" version="0" timestamp="Fri Feb 24 10:53:33 +0100 2012" uid="1" user="" lat="51.4326729" lon="6.7620924">
    <tag k="shop" v="department_store"/>
    <tag k="name" v="ROSKOTHEN"/>
    <tag k="wheelchair" v="yes"/>
    <tag k="addr:city" v="Duisburg"/>
    <tag k="addr:postcode" v="47051"/>
    <tag k="addr:housenumber" v="38-42"/>
    <tag k="addr:street" v="Sonnenwall"/>
    <tag k="website" v="http://www.diekunstzuspielen.de"/>
    <tag k="phone" v="+49 203 20280"/>
  </node>
  <node id="-1299" version="0" timestamp="Fri Feb 24 10:53:33 +0100 2012" uid="1" user="" lat="51.4342678" lon="6.762128">
    <tag k="name" v="Der kleine Prinz"/>
    <tag k="wheelchair" v="yes"/>
    <tag k="wheelchair:description" v="WC!"/>
    <tag k="amenity" v="restaurant"/>
  </node>
  <node id="-1397" version="0" timestamp="Fri Feb 24 10:53:33 +0100 2012" uid="1" user="" lat="51.7391095" lon="6.2927816">
    <tag k="name" v="Deutsche Bank"/>
    <tag k="wheelchair" v="unknown"/>
    <tag k="amenity" v="bank"/>
  </node>
  <node id="-1398" version="0" timestamp="Fri Feb 24 10:53:33 +0100 2012" uid="1" user="" lat="51.738407" lon="6.2916578">
    <tag k="shop" v="electronics"/>
    <tag k="name" v="Elektrofachgeschäft Wolters"/>
    <tag k="wheelchair" v="limited"/>
    <tag k="wheelchair:description" v="Nur Behindertentoilette fehlt"/>
  </node>
  <node id="-1399" version="0" timestamp="Fri Feb 24 10:53:33 +0100 2012" uid="1" user="" lat="51.7382838" lon="6.2917351">
    <tag k="shop" v="kiosk"/>
    <tag k="name" v="Lotto Totto Zeitschriften und Tabackwaren"/>
    <tag k="wheelchair" v="no"/>
    <tag k="wheelchair:description" v="Zu hohe Eingangsstufen"/>
  </node>
  <node id="-1400" version="0" timestamp="Fri Feb 24 10:53:33 +0100 2012" uid="1" user="" lat="51.7382877" lon="6.2921577">
    <tag k="name" v="Apotheke Am Markt"/>
    <tag k="wheelchair" v="limited"/>
    <tag k="wheelchair:description" v="Serviceklingel für Gehbehinderte am Eingang, da nicht zugänglich durch Stufen"/>
    <tag k="amenity" v="pharmacy"/>
  </node>
  <node id="-1419" version="0" timestamp="Fri Feb 24 10:53:33 +0100 2012" uid="1" user="" lat="51.7386855" lon="6.2915938">
    <tag k="shop" v="furniture"/>
    <tag k="name" v="Küchenhaus Albers"/>
    <tag k="wheelchair" v="no"/>
    <tag k="wheelchair:description" v="Zu hohe Eingangsstufen"/>
  </node>
  <node id="-1420" version="0" timestamp="Fri Feb 24 10:53:33 +0100 2012" uid="1" user="" lat="51.7359528" lon="6.2943998">
    <tag k="name" v="Physiotherapeutische Praxis"/>
    <tag k="wheelchair" v="limited"/>
    <tag k="wheelchair:description" v="Nur Behindertentoilette fehlt"/>
    <tag k="amenity" v="doctors"/>
  </node>
  <node id="-1440" version="0" timestamp="Fri Feb 24 10:53:33 +0100 2012" uid="1" user="" lat="51.458117" lon="6.8879102">
    <tag k="name" v="Stadt ülheim an der Ruhr, Sozialamt, KSD und Senioren-, Pflege- und Wohnberatung Dümpten"/>
    <tag k="wheelchair" v="limited"/>
    <tag k="addr:city" v="Mülheim an der Ruhr"/>
    <tag k="addr:postcode" v="45475"/>
    <tag k="addr:housenumber" v="275"/>
    <tag k="addr:street" v="Mellinghofer Straße"/>
    <tag k="wheelchair:description" v="Erste Etage Zugang über Fahrstuhl auf der Rückseite des Hauses"/>
    <tag k="website" v="http://www.muelheim-ruhr.de"/>
    <tag k="phone" v="0208 455-0"/>
  </node>
  <node id="-1499" version="0" timestamp="Fri Feb 24 10:53:33 +0100 2012" uid="1" user="" lat="51.2042092" lon="7.0412369">
    <tag k="name" v="Burger King"/>
    <tag k="wheelchair" v="yes"/>
    <tag k="addr:city" v="Haan"/>
    <tag k="addr:postcode" v="42781"/>
    <tag k="addr:housenumber" v="62"/>
    <tag k="addr:street" v="Landstraße"/>
    <tag k="amenity" v="fast_food"/>
    <tag k="phone" v="02129-3456751"/>
  </node>
  <node id="-1501" version="0" timestamp="Fri Feb 24 10:53:33 +0100 2012" uid="1" user="" lat="51.2317441" lon="7.0685574">
    <tag k="shop" v="supermarket"/>
    <tag k="name" v="Akzenta"/>
    <tag k="wheelchair" v="yes"/>
  </node>
  <node id="-1504" version="0" timestamp="Fri Feb 24 10:53:33 +0100 2012" uid="1" user="" lat="51.2167" lon="6.7667">
    <tag k="name" v="Sofia-Apotheke"/>
    <tag k="wheelchair" v="yes"/>
    <tag k="addr:city" v="Düsseldorf"/>
    <tag k="addr:postcode" v="40468"/>
    <tag k="addr:housenumber" v="44"/>
    <tag k="addr:street" v="Unterrather Straße "/>
    <tag k="amenity" v="pharmacy"/>
    <tag k="website" v="http://www.sofia-apotheke.de"/>
    <tag k="phone" v="0049-211-411211"/>
  </node>
  <node id="-1531" version="0" timestamp="Fri Feb 24 10:53:33 +0100 2012" uid="1" user="" lat="51.21684" lon="6.76461">
    <tag k="name" v="Landtag Nordrhein-Westfalen"/>
    <tag k="wheelchair" v="yes"/>
    <tag k="addr:city" v="Düsseldorf"/>
    <tag k="addr:postcode" v="40221"/>
    <tag k="addr:housenumber" v="1"/>
    <tag k="addr:street" v="Platz des Landtags"/>
    <tag k="website" v="http://www.landtag.nrw.de"/>
    <tag k="phone" v="+49 211 8840"/>
  </node>
  <node id="-1548" version="0" timestamp="Fri Feb 24 10:53:33 +0100 2012" uid="1" user="" lat="51.3455558" lon="7.0467592">
    <tag k="shop" v="bakery"/>
    <tag k="name" v="Konditorei &amp; Bäckerei Kaiser"/>
    <tag k="wheelchair" v="no"/>
    <tag k="wheelchair:description" v="4 Stufen um in die Filiale zu kommen."/>
  </node>
  <node id="-1549" version="0" timestamp="Fri Feb 24 10:53:33 +0100 2012" uid="1" user="" lat="51.3462636" lon="7.0467654">
    <tag k="name" v="Acheron Imbiss"/>
    <tag k="wheelchair" v="limited"/>
    <tag k="wheelchair:description" v="Barrierefreier Zugang- Keine Toiletten vorhanden."/>
    <tag k="amenity" v="fast_food"/>
  </node>
  <node id="-1550" version="0" timestamp="Fri Feb 24 10:53:33 +0100 2012" uid="1" user="" lat="51.3316743" lon="7.0552584">
    <tag k="shop" v="electronics"/>
    <tag k="name" v="Media Markt"/>
    <tag k="wheelchair" v="limited"/>
    <tag k="wheelchair:description" v="Barrierefreier Zugang, Keine Toiletten vorhanden,"/>
  </node>
  <node id="-1551" version="0" timestamp="Fri Feb 24 10:53:33 +0100 2012" uid="1" user="" lat="51.3311183" lon="7.0481379">
    <tag k="shop" v="department_store"/>
    <tag k="name" v="Autohaus Lackmann Toyota"/>
    <tag k="wheelchair" v="limited"/>
  </node>
  <node id="-1552" version="0" timestamp="Fri Feb 24 10:53:33 +0100 2012" uid="1" user="" lat="51.3370753" lon="7.0511424">
    <tag k="name" v="Dr. Yaman"/>
    <tag k="wheelchair" v="limited"/>
    <tag k="wheelchair:description" v="Barrierefreier Zugang, Keine Toiletten vorhanden."/>
    <tag k="amenity" v="doctors"/>
  </node>
  <node id="-1553" version="0" timestamp="Fri Feb 24 10:53:33 +0100 2012" uid="1" user="" lat="51.3378876" lon="7.0490551">
    <tag k="name" v="McFit"/>
    <tag k="wheelchair" v="limited"/>
    <tag k="wheelchair:description" v="Barrierefreier Zugang über Tiefgarage, keine Behindertentoiletten."/>
    <tag k="leisure" v="sports_centre"/>
  </node>
  <node id="-1554" version="0" timestamp="Fri Feb 24 10:53:33 +0100 2012" uid="1" user="" lat="51.3388101" lon="7.0412908">
    <tag k="name" v="Amtsgericht Velbert"/>
    <tag k="wheelchair" v="yes"/>
    <tag k="amenity" v="courthouse"/>
  </node>
  <node id="-1555" version="0" timestamp="Fri Feb 24 10:53:33 +0100 2012" uid="1" user="" lat="51.3391585" lon="7.041746">
    <tag k="name" v="Finanzamt Velbert"/>
    <tag k="wheelchair" v="yes"/>
  </node>
  <node id="-1582" version="0" timestamp="Fri Feb 24 10:53:33 +0100 2012" uid="1" user="" lat="51.7368333" lon="6.2938304">
    <tag k="shop" v="department_store"/>
    <tag k="name" v="WMF Haushaltswaren Flinterhoff"/>
    <tag k="wheelchair" v="limited"/>
    <tag k="wheelchair:description" v="Nur Behindertentoilette fehlt, hinterer Eingang ist ebenerdig"/>
  </node>
  <node id="-1583" version="0" timestamp="Fri Feb 24 10:53:33 +0100 2012" uid="1" user="" lat="51.7362198" lon="6.2940433">
    <tag k="shop" v="butcher"/>
    <tag k="name" v="Fleischerei Stiller"/>
    <tag k="wheelchair" v="no"/>
    <tag k="wheelchair:description" v="Zu hohe Eingangsstufen"/>
  </node>
  <node id="-1584" version="0" timestamp="Fri Feb 24 10:53:33 +0100 2012" uid="1" user="" lat="51.7382741" lon="6.2923983">
    <tag k="shop" v="books"/>
    <tag k="name" v="Michelbrink Buch &amp; Papeterie"/>
    <tag k="wheelchair" v="no"/>
    <tag k="wheelchair:description" v="Zu hohe Eingangsstufen"/>
  </node>
  <node id="-1585" version="0" timestamp="Fri Feb 24 10:53:33 +0100 2012" uid="1" user="" lat="51.7373907" lon="6.2916602">
    <tag k="name" v="Stadtbücherei Kalkar"/>
    <tag k="wheelchair" v="limited"/>
    <tag k="wheelchair:description" v="Nur Behindertentoilette fehlt"/>
    <tag k="amenity" v="library"/>
  </node>
  <node id="-1586" version="0" timestamp="Fri Feb 24 10:53:33 +0100 2012" uid="1" user="" lat="51.73764" lon="6.2928555">
    <tag k="shop" v="optician"/>
    <tag k="name" v="Lörper-Optik"/>
    <tag k="wheelchair" v="limited"/>
    <tag k="wheelchair:description" v="Nur Behindertentoilette fehlt"/>
  </node>
  <node id="-1587" version="0" timestamp="Fri Feb 24 10:53:33 +0100 2012" uid="1" user="" lat="51.7350907" lon="6.2857282">
    <tag k="shop" v="optician"/>
    <tag k="name" v="Optik Thoneick"/>
    <tag k="wheelchair" v="no"/>
    <tag k="wheelchair:description" v="Zu hohe Eingangsstufen"/>
  </node>
  <node id="-1588" version="0" timestamp="Fri Feb 24 10:53:33 +0100 2012" uid="1" user="" lat="51.737869" lon="6.2904286">
    <tag k="shop" v="department_store"/>
    <tag k="name" v="Fotoservice Mörsen"/>
    <tag k="wheelchair" v="no"/>
    <tag k="wheelchair:description" v="Zu hohe Eingangsstufe"/>
  </node>
  <node id="-1589" version="0" timestamp="Fri Feb 24 10:53:33 +0100 2012" uid="1" user="" lat="51.7356748" lon="6.2868302">
    <tag k="name" v="Holiday Sun, Sonnenstudio"/>
    <tag k="wheelchair" v="limited"/>
    <tag k="tourism" v="attraction"/>
  </node>
  <node id="-1590" version="0" timestamp="Fri Feb 24 10:53:33 +0100 2012" uid="1" user="" lat="51.7367073" lon="6.2939063">
    <tag k="name" v="Nicolai-Apotheke"/>
    <tag k="wheelchair" v="no"/>
    <tag k="wheelchair:description" v="Zu hohe Eingangsstufe"/>
    <tag k="amenity" v="pharmacy"/>
  </node>
  <node id="-1592" version="0" timestamp="Fri Feb 24 10:53:33 +0100 2012" uid="1" user="" lat="51.7363253" lon="6.2954959">
    <tag k="name" v="Marienstift Seniorenwohnen"/>
    <tag k="wheelchair" v="yes"/>
    <tag k="amenity" v="hospital"/>
  </node>
  <node id="-1664" version="0" timestamp="Fri Feb 24 10:53:33 +0100 2012" uid="1" user="" lat="51.26646" lon="6.54789">
    <tag k="shop" v="electronics"/>
    <tag k="name" v="BBC-Service"/>
    <tag k="wheelchair" v="yes"/>
    <tag k="addr:city" v="Erkelenz"/>
    <tag k="addr:postcode" v="41812"/>
    <tag k="addr:housenumber" v="38"/>
    <tag k="addr:street" v="In Kückhoven"/>
    <tag k="wheelchair:description" v="Servicepoint elektrische Rollstühle"/>
    <tag k="website" v="http://www.bbc-service.de"/>
    <tag k="phone" v="02431 9434896"/>
  </node>
  <node id="-1671" version="0" timestamp="Fri Feb 24 10:53:33 +0100 2012" uid="1" user="" lat="51.2579471" lon="6.3833053">
    <tag k="name" v="Büro- / Praxisräume"/>
    <tag k="wheelchair" v="yes"/>
    <tag k="addr:city" v="Viersen"/>
    <tag k="addr:postcode" v="41747"/>
    <tag k="addr:housenumber" v="1a"/>
    <tag k="addr:street" v="Remigiusstrasse"/>
    <tag k="wheelchair:description" v="Aufzug, breite Türen, Behinderten WC"/>
    <tag k="amenity" v="doctors"/>
    <tag k="phone" v="02431 9745654"/>
  </node>
  <node id="-1675" version="0" timestamp="Fri Feb 24 10:53:33 +0100 2012" uid="1" user="" lat="51.4496521" lon="6.9826395">
    <tag k="name" v="Sparkasse Essen"/>
    <tag k="wheelchair" v="yes"/>
    <tag k="addr:city" v="Essen"/>
    <tag k="addr:postcode" v="45144"/>
    <tag k="addr:housenumber" v="152"/>
    <tag k="addr:street" v="Frohnhauser Str"/>
    <tag k="amenity" v="bank"/>
  </node>
  <node id="-1688" version="0" timestamp="Fri Feb 24 10:53:33 +0100 2012" uid="1" user="" lat="51.20296" lon="6.80332">
    <tag k="name" v="TanzSchule Reichelt / HausKolvenbach"/>
    <tag k="wheelchair" v="limited"/>
    <tag k="wheelchair:description" v="Eine Stufe (Normal) im Eingangsbereich sonst alles Eben!!"/>
    <tag k="amenity" v="restaurant"/>
  </node>
  <node id="-1690" version="0" timestamp="Fri Feb 24 10:53:33 +0100 2012" uid="1" user="" lat="51.2201778" lon="6.7882452">
    <tag k="name" v="Bistro Levent   ( Gay / Les )"/>
    <tag k="wheelchair" v="no"/>
    <tag k="amenity" v="bar"/>
  </node>
  <node id="-1691" version="0" timestamp="Fri Feb 24 10:53:33 +0100 2012" uid="1" user="" lat="51.2582441" lon="6.3850605">
    <tag k="name" v="Büro- / Praxisräume"/>
    <tag k="wheelchair" v="yes"/>
    <tag k="addr:city" v="Viersen"/>
    <tag k="addr:postcode" v="41747"/>
    <tag k="addr:housenumber" v="1a"/>
    <tag k="addr:street" v="Remigiusstrasse"/>
    <tag k="wheelchair:description" v="Aufzug, breite Türen, Behinderten WC"/>
    <tag k="amenity" v="doctors"/>
    <tag k="phone" v="02431 9745654"/>
  </node>
  <node id="-1692" version="0" timestamp="Fri Feb 24 10:53:33 +0100 2012" uid="1" user="" lat="51.2248004" lon="6.7886395">
    <tag k="name" v="Galapagos "/>
    <tag k="wheelchair" v="no"/>
    <tag k="amenity" v="cafe"/>
  </node>
  <node id="-1693" version="0" timestamp="Fri Feb 24 10:53:33 +0100 2012" uid="1" user="" lat="51.2268014" lon="6.7574585">
    <tag k="name" v="Jugenherberge Düsseldorf"/>
    <tag k="wheelchair" v="yes"/>
    <tag k="addr:city" v="Düsseldorf"/>
    <tag k="addr:housenumber" v="1"/>
    <tag k="tourism" v="hostel"/>
    <tag k="addr:street" v="Düsseldorfer Strasse "/>
  </node>
  <node id="-1751" version="0" timestamp="Fri Feb 24 10:53:33 +0100 2012" uid="1" user="" lat="51.736145" lon="6.285886">
    <tag k="shop" v="kiosk"/>
    <tag k="name" v="Kiosk"/>
    <tag k="wheelchair" v="no"/>
    <tag k="wheelchair:description" v="Zu hohe Eingangsstufen"/>
  </node>
  <node id="-1810" version="0" timestamp="Fri Feb 24 10:53:33 +0100 2012" uid="1" user="" lat="51.2267301" lon="6.9510671">
    <tag k="name" v="Neanderthal-Museum"/>
    <tag k="wheelchair" v="yes"/>
    <tag k="addr:city" v="Mettmann"/>
    <tag k="addr:postcode" v="40822"/>
    <tag k="addr:housenumber" v="300"/>
    <tag k="tourism" v="museum"/>
    <tag k="addr:street" v="Talstraße"/>
    <tag k="website" v="http://www.neanderthal.de"/>
  </node>
  <node id="-1824" version="0" timestamp="Fri Feb 24 10:53:33 +0100 2012" uid="1" user="" lat="51.6385451" lon="6.7701062">
    <tag k="name" v="Karl- Vogels-Schule"/>
    <tag k="wheelchair" v="yes"/>
    <tag k="addr:city" v="Hünxe"/>
    <tag k="addr:postcode" v="46569"/>
    <tag k="addr:housenumber" v="34"/>
    <tag k="addr:street" v="In den Elsen"/>
    <tag k="amenity" v="school"/>
    <tag k="website" v="http://www.karl-vogels-schule.de"/>
    <tag k="phone" v="+49 2858-334"/>
  </node>
  <node id="-1872" version="0" timestamp="Fri Feb 24 10:53:33 +0100 2012" uid="1" user="" lat="51.33798" lon="6.74954">
    <tag k="name" v="Zum Froschenteich"/>
    <tag k="wheelchair" v="limited"/>
    <tag k="amenity" v="restaurant"/>
  </node>
  <node id="-1873" version="0" timestamp="Fri Feb 24 10:53:33 +0100 2012" uid="1" user="" lat="51.43349" lon="6.77074">
    <tag k="name" v="Palazzo"/>
    <tag k="wheelchair" v="yes"/>
    <tag k="wheelchair:description" v="WC im Citypalais schnell erreichbar"/>
    <tag k="amenity" v="restaurant"/>
  </node>
  <node id="-1887" version="0" timestamp="Fri Feb 24 10:53:33 +0100 2012" uid="1" user="" lat="51.45059" lon="6.63128">
    <tag k="shop" v="electronics"/>
    <tag k="name" v="Grafschafter Passage"/>
    <tag k="wheelchair" v="yes"/>
    <tag k="addr:city" v="Moers"/>
    <tag k="addr:postcode" v="47441"/>
    <tag k="addr:housenumber" v="20-22"/>
    <tag k="addr:street" v="Hombergerstr"/>
    <tag k="wheelchair:description" v="alle Etagen per Fahrstuhl erreichbar"/>
  </node>
  <node id="-1912" version="0" timestamp="Fri Feb 24 10:53:33 +0100 2012" uid="1" user="" lat="51.5428093" lon="6.5828064">
    <tag k="shop" v="hairdresser"/>
    <tag k="name" v="Hair Trend"/>
    <tag k="wheelchair" v="limited"/>
    <tag k="wheelchair:description" v="kleine Eingangsstufe, keine Toilette"/>
  </node>
  <node id="-1915" version="0" timestamp="Fri Feb 24 10:53:33 +0100 2012" uid="1" user="" lat="51.5456807" lon="6.6019978">
    <tag k="name" v="Bit im Ratskeller"/>
    <tag k="wheelchair" v="no"/>
    <tag k="amenity" v="restaurant"/>
  </node>
  <node id="-1916" version="0" timestamp="Fri Feb 24 10:53:33 +0100 2012" uid="1" user="" lat="51.5454064" lon="6.6021931">
    <tag k="name" v="Im Scheffel"/>
    <tag k="wheelchair" v="unknown"/>
    <tag k="amenity" v="restaurant"/>
  </node>
  <node id="-1917" version="0" timestamp="Fri Feb 24 10:53:33 +0100 2012" uid="1" user="" lat="51.5450197" lon="6.6026943">
    <tag k="name" v="Deutsche Bank"/>
    <tag k="wheelchair" v="unknown"/>
    <tag k="amenity" v="bank"/>
  </node>
  <node id="-1918" version="0" timestamp="Fri Feb 24 10:53:33 +0100 2012" uid="1" user="" lat="51.5449533" lon="6.6025344">
    <tag k="name" v="Einhorn Apotheke"/>
    <tag k="wheelchair" v="limited"/>
    <tag k="wheelchair:description" v="keine Toilette"/>
    <tag k="amenity" v="pharmacy"/>
  </node>
  <node id="-1919" version="0" timestamp="Fri Feb 24 10:53:33 +0100 2012" uid="1" user="" lat="51.5443266" lon="6.6012829">
    <tag k="shop" v="shoes"/>
    <tag k="name" v="Schuh Tervooren"/>
    <tag k="wheelchair" v="limited"/>
    <tag k="wheelchair:description" v="keine Toilette"/>
  </node>
  <node id="-1920" version="0" timestamp="Fri Feb 24 10:53:33 +0100 2012" uid="1" user="" lat="51.544223" lon="6.6008894">
    <tag k="shop" v="department_store"/>
    <tag k="name" v="Ihr Platz"/>
    <tag k="wheelchair" v="limited"/>
    <tag k="wheelchair:description" v="keine Toilette"/>
  </node>
  <node id="-1921" version="0" timestamp="Fri Feb 24 10:53:33 +0100 2012" uid="1" user="" lat="51.5441666" lon="6.6007237">
    <tag k="shop" v="department_store"/>
    <tag k="name" v="Müller"/>
    <tag k="wheelchair" v="limited"/>
    <tag k="wheelchair:description" v="keine Toilette"/>
  </node>
  <node id="-1922" version="0" timestamp="Fri Feb 24 10:53:33 +0100 2012" uid="1" user="" lat="51.5452564" lon="6.5986508">
    <tag k="name" v="Volks &amp; Raiffeisenbank"/>
    <tag k="wheelchair" v="unknown"/>
    <tag k="amenity" v="bank"/>
  </node>
  <node id="-1926" version="0" timestamp="Fri Feb 24 10:53:33 +0100 2012" uid="1" user="" lat="51.5477803" lon="6.6008727">
    <tag k="name" v="Arcobaleno Carlo Negro"/>
    <tag k="wheelchair" v="limited"/>
    <tag k="wheelchair:description" v="keine Toilette"/>
    <tag k="amenity" v="restaurant"/>
  </node>
  <node id="-1930" version="0" timestamp="Fri Feb 24 10:53:33 +0100 2012" uid="1" user="" lat="51.5217886" lon="6.6019844">
    <tag k="name" v="Aratta"/>
    <tag k="wheelchair" v="unknown"/>
    <tag k="amenity" v="nightclub"/>
  </node>
  <node id="-1939" version="0" timestamp="Fri Feb 24 10:53:33 +0100 2012" uid="1" user="" lat="51.1300728" lon="6.6040452">
    <tag k="name" v="Rastplatz Vierwinden"/>
    <tag k="wheelchair" v="yes"/>
    <tag k="amenity" v="fuel"/>
  </node>
  <node id="-1977" version="0" timestamp="Fri Feb 24 10:53:34 +0100 2012" uid="1" user="" lat="51.5414348" lon="6.5858877">
    <tag k="name" v="Bistro Kleine Hexe"/>
    <tag k="wheelchair" v="unknown"/>
    <tag k="amenity" v="pub"/>
  </node>
  <node id="-1978" version="0" timestamp="Fri Feb 24 10:53:34 +0100 2012" uid="1" user="" lat="51.5401096" lon="6.5877307">
    <tag k="name" v="Zahnarzt Müller Holger"/>
    <tag k="wheelchair" v="unknown"/>
    <tag k="amenity" v="doctors"/>
  </node>
  <node id="-1979" version="0" timestamp="Fri Feb 24 10:53:34 +0100 2012" uid="1" user="" lat="51.544597" lon="6.6032566">
    <tag k="name" v="Zahnarzt Straelen &amp; Partner"/>
    <tag k="wheelchair" v="no"/>
    <tag k="amenity" v="doctors"/>
  </node>
  <node id="-1982" version="0" timestamp="Fri Feb 24 10:53:34 +0100 2012" uid="1" user="" lat="51.5482928" lon="6.5883104">
    <tag k="name" v="Zahnarzt Vogel &amp; Booth"/>
    <tag k="wheelchair" v="no"/>
    <tag k="amenity" v="doctors"/>
  </node>
  <node id="-1984" version="0" timestamp="Fri Feb 24 10:53:34 +0100 2012" uid="1" user="" lat="51.5450968" lon="6.5989446">
    <tag k="name" v="Yvonne Liehr Sonnenstudio"/>
    <tag k="wheelchair" v="unknown"/>
    <tag k="leisure" v="sports_centre"/>
  </node>
  <node id="-1985" version="0" timestamp="Fri Feb 24 10:53:34 +0100 2012" uid="1" user="" lat="51.5466867" lon="6.6012376">
    <tag k="name" v="Yellow sun Sonnenstudio"/>
    <tag k="wheelchair" v="unknown"/>
    <tag k="leisure" v="sports_centre"/>
  </node>
  <node id="-1986" version="0" timestamp="Fri Feb 24 10:53:34 +0100 2012" uid="1" user="" lat="51.550624" lon="6.5966">
    <tag k="shop" v="furniture"/>
    <tag k="name" v="Dänisches Bettenlager"/>
    <tag k="wheelchair" v="limited"/>
    <tag k="wheelchair:description" v="keine Toilette"/>
  </node>
  <node id="-1987" version="0" timestamp="Fri Feb 24 10:53:34 +0100 2012" uid="1" user="" lat="51.5500329" lon="6.5974208">
    <tag k="name" v="Die Ergotherapie Anna Neuhaus"/>
    <tag k="wheelchair" v="unknown"/>
    <tag k="leisure" v="sports_centre"/>
  </node>
  <node id="-1988" version="0" timestamp="Fri Feb 24 10:53:34 +0100 2012" uid="1" user="" lat="51.5483098" lon="6.5998955">
    <tag k="name" v="Zentrum für Ergotherapie Susanne Tuschen"/>
    <tag k="wheelchair" v="unknown"/>
    <tag k="leisure" v="sports_centre"/>
  </node>
  <node id="-1989" version="0" timestamp="Fri Feb 24 10:53:34 +0100 2012" uid="1" user="" lat="51.548457" lon="6.6000995">
    <tag k="name" v="Rhein Apotheke"/>
    <tag k="wheelchair" v="unknown"/>
    <tag k="amenity" v="pharmacy"/>
  </node>
  <node id="-1990" version="0" timestamp="Fri Feb 24 10:53:34 +0100 2012" uid="1" user="" lat="51.5459509" lon="6.604116">
    <tag k="name" v="St. Peter"/>
    <tag k="wheelchair" v="unknown"/>
    <tag k="amenity" v="place_of_worship"/>
  </node>
  <node id="-1991" version="0" timestamp="Fri Feb 24 10:53:34 +0100 2012" uid="1" user="" lat="51.5454528" lon="6.6037812">
    <tag k="name" v="Polizei Rheinberg"/>
    <tag k="wheelchair" v="unknown"/>
  </node>
  <node id="-2007" version="0" timestamp="Fri Feb 24 10:53:34 +0100 2012" uid="1" user="" lat="51.29316" lon="7.25328">
    <tag k="name" v="Zollamt-Ost Wuppertal"/>
    <tag k="wheelchair" v="no"/>
    <tag k="addr:city" v="Wuppertal"/>
    <tag k="addr:postcode" v="42279"/>
    <tag k="addr:housenumber" v="15"/>
    <tag k="addr:street" v="Hölker Feld"/>
    <tag k="wheelchair:description" v="Not accessible at all, shameful for a federal building."/>
  </node>
  <node id="-2156" version="0" timestamp="Fri Feb 24 10:53:34 +0100 2012" uid="1" user="" lat="51.5615103" lon="6.7631782">
    <tag k="name" v="Sparkasse Hiesfeld"/>
    <tag k="wheelchair" v="yes"/>
    <tag k="wheelchair:description" v="Selbst öffnende Tür und Fahrstuhl in Filiale vorhanden"/>
    <tag k="amenity" v="bank"/>
    <tag k="website" v="http://www.spk-dinslaken.de"/>
  </node>
  <node id="-2158" version="0" timestamp="Fri Feb 24 10:53:34 +0100 2012" uid="1" user="" lat="51.5609232" lon="6.764294">
    <tag k="shop" v="supermarket"/>
    <tag k="name" v="DM"/>
    <tag k="wheelchair" v="yes"/>
  </node>
  <node id="-2159" version="0" timestamp="Fri Feb 24 10:53:34 +0100 2012" uid="1" user="" lat="51.56068" lon="6.76301">
    <tag k="name" v="Pizzeria Ramazotti"/>
    <tag k="wheelchair" v="unknown"/>
    <tag k="amenity" v="restaurant"/>
  </node>
  <node id="-2172" version="0" timestamp="Fri Feb 24 10:53:34 +0100 2012" uid="1" user="" lat="51.1425057" lon="6.4250312">
    <tag k="shop" v="doityourself"/>
    <tag k="name" v="Hornbach Baumarkt"/>
    <tag k="wheelchair" v="yes"/>
    <tag k="addr:city" v="Mönchengladbach "/>
    <tag k="addr:postcode" v="41199"/>
    <tag k="addr:housenumber" v="305"/>
    <tag k="addr:street" v="Reststrauch"/>
    <tag k="wheelchair:description" v="6 Behinderten gerechte Parkplätze direkt gegenüber dem Haupteingang. 4 behindertengerechte Parkplätze am Baustoffzentrum Eingang (Kundenladezone)."/>
    <tag k="website" v="http://hornbach.de"/>
    <tag k="phone" v="02166990480"/>
  </node>
  <node id="-2174" version="0" timestamp="Fri Feb 24 10:53:34 +0100 2012" uid="1" user="" lat="51.4967893" lon="6.7981811">
    <tag k="name" v="Lavie"/>
    <tag k="wheelchair" v="yes"/>
    <tag k="addr:city" v="Duisburg"/>
    <tag k="addr:postcode" v="47166"/>
    <tag k="amenity" v="cafe"/>
  </node>
  <node id="-2179" version="0" timestamp="Fri Feb 24 10:53:34 +0100 2012" uid="1" user="" lat="51.18242" lon="7.18515">
    <tag k="name" v="Rathaus"/>
    <tag k="wheelchair" v="limited"/>
    <tag k="addr:city" v="Remscheid"/>
    <tag k="addr:postcode" v="42853"/>
    <tag k="addr:housenumber" v="1"/>
    <tag k="addr:street" v="Theodor-Heuss-Platz"/>
    <tag k="wheelchair:description" v="Fahrstuhl im Rathausinnenhof"/>
    <tag k="website" v="http://www.remscheid.de"/>
  </node>
  <node id="-2180" version="0" timestamp="Fri Feb 24 10:53:34 +0100 2012" uid="1" user="" lat="51.2130539" lon="6.7851772">
    <tag k="name" v="Wall WC, Fürstenplatz"/>
    <tag k="wheelchair" v="yes"/>
    <tag k="amenity" v="toilets"/>
  </node>
  <node id="-2181" version="0" timestamp="Fri Feb 24 10:53:34 +0100 2012" uid="1" user="" lat="51.1983794" lon="6.7897787">
    <tag k="name" v="WC Uniklinik, Moorenstr"/>
    <tag k="wheelchair" v="yes"/>
    <tag k="amenity" v="toilets"/>
  </node>
  <node id="-2182" version="0" timestamp="Fri Feb 24 10:53:34 +0100 2012" uid="1" user="" lat="51.2120479" lon="6.7597628">
    <tag k="name" v="Wall WC Gladbacher Str."/>
    <tag k="wheelchair" v="yes"/>
    <tag k="amenity" v="toilets"/>
  </node>
  <node id="-2184" version="0" timestamp="Fri Feb 24 10:53:34 +0100 2012" uid="1" user="" lat="51.1620221" lon="6.8783156">
    <tag k="name" v="WC Busbahnhof, Benrath"/>
    <tag k="wheelchair" v="unknown"/>
    <tag k="wheelchair:description" v="im Gebäude, Behinderten-WC mit Euroschlüssel"/>
    <tag k="amenity" v="toilets"/>
  </node>
  <node id="-2185" version="0" timestamp="Fri Feb 24 10:53:34 +0100 2012" uid="1" user="" lat="51.1620221" lon="6.8783156">
    <tag k="name" v="WC Busbahnhof, Benrath"/>
    <tag k="wheelchair" v="yes"/>
    <tag k="wheelchair:description" v="im Gebäude, Behinderten-WC mit Euroschlüssel"/>
    <tag k="amenity" v="toilets"/>
  </node>
  <node id="-2203" version="0" timestamp="Fri Feb 24 10:53:34 +0100 2012" uid="1" user="" lat="51.301135" lon="6.7392537">
    <tag k="name" v="WC Klemensplatz 9"/>
    <tag k="wheelchair" v="yes"/>
    <tag k="wheelchair:description" v="im Gebäude, gebührenpflichtig oder mit Euroschlüssel"/>
    <tag k="amenity" v="toilets"/>
  </node>
  <node id="-2204" version="0" timestamp="Fri Feb 24 10:53:34 +0100 2012" uid="1" user="" lat="51.2213826" lon="6.779053">
    <tag k="name" v="Wall City-Toilette, Königsallee/Ecke Grünstr."/>
    <tag k="wheelchair" v="yes"/>
    <tag k="wheelchair:description" v="gebührenpflichtig oder mit Euroschlüssel"/>
    <tag k="amenity" v="toilets"/>
  </node>
  <node id="-2206" version="0" timestamp="Fri Feb 24 10:53:34 +0100 2012" uid="1" user="" lat="51.2266204" lon="6.7825235">
    <tag k="name" v="Wall City-Toilette, Schadowplatz/Jan-Wellem-Platz"/>
    <tag k="wheelchair" v="yes"/>
    <tag k="wheelchair:description" v="gebührenpflichtig oder mit Euroschlüssel"/>
    <tag k="amenity" v="bank"/>
  </node>
  <node id="-2208" version="0" timestamp="Fri Feb 24 10:53:34 +0100 2012" uid="1" user="" lat="51.2438656" lon="6.9615191">
    <tag k="shop" v="supermarket"/>
    <tag k="name" v="Penny"/>
    <tag k="wheelchair" v="yes"/>
    <tag k="addr:city" v="Mettmann"/>
    <tag k="addr:postcode" v="40822"/>
    <tag k="addr:housenumber" v="16"/>
    <tag k="addr:street" v="Champagne"/>
  </node>
  <node id="-2209" version="0" timestamp="Fri Feb 24 10:53:34 +0100 2012" uid="1" user="" lat="51.2296817" lon="6.7976144">
    <tag k="name" v="WC, S-Bahn Wehrhahn"/>
    <tag k="wheelchair" v="yes"/>
    <tag k="wheelchair:description" v="im Gebäude, Behinderten-WC mit Euroschlüssel"/>
    <tag k="amenity" v="toilets"/>
  </node>
  <node id="-2210" version="0" timestamp="Fri Feb 24 10:53:34 +0100 2012" uid="1" user="" lat="51.2440648" lon="6.9624105">
    <tag k="name" v="Ev. Kindergarten und Familienzentrum Am Laubacher Feld"/>
    <tag k="wheelchair" v="limited"/>
    <tag k="addr:city" v="Mettmann"/>
    <tag k="addr:postcode" v="40822"/>
    <tag k="addr:housenumber" v="14"/>
    <tag k="addr:street" v="Champagne"/>
    <tag k="amenity" v="kindergarten"/>
    <tag k="website" v="http://www.ekir.de/gemeinde-mettmann/27105_27111.htm"/>
    <tag k="phone" v="+49 2104 172995"/>
  </node>
  <node id="-2211" version="0" timestamp="Fri Feb 24 10:53:34 +0100 2012" uid="1" user="" lat="51.2516169" lon="6.9603852">
    <tag k="name" v="Columbus Apotheke"/>
    <tag k="wheelchair" v="yes"/>
    <tag k="addr:city" v="Mettmann"/>
    <tag k="addr:postcode" v="40822"/>
    <tag k="addr:housenumber" v="19"/>
    <tag k="addr:street" v="Karpendeller Weg"/>
    <tag k="amenity" v="pharmacy"/>
    <tag k="website" v="http://www.columbus-apo-me.de"/>
    <tag k="phone" v="+49 2104 72323"/>
  </node>
  <node id="-2212" version="0" timestamp="Fri Feb 24 10:53:34 +0100 2012" uid="1" user="" lat="51.243927" lon="6.9612326">
    <tag k="shop" v="bakery"/>
    <tag k="name" v="Wegener Backstube"/>
    <tag k="wheelchair" v="yes"/>
    <tag k="addr:city" v="Mettmann"/>
    <tag k="addr:postcode" v="40822"/>
    <tag k="addr:housenumber" v="16"/>
    <tag k="addr:street" v="Champagne"/>
    <tag k="website" v="http://www.neanderthal-baeckerei.de"/>
    <tag k="phone" v="+49 2104 172571"/>
  </node>
  <node id="-2213" version="0" timestamp="Fri Feb 24 10:53:34 +0100 2012" uid="1" user="" lat="51.2565945" lon="6.952402">
    <tag k="shop" v="florist"/>
    <tag k="name" v="Blumen und schöne Dinge Flüchter"/>
    <tag k="wheelchair" v="yes"/>
    <tag k="addr:city" v="Mettmann"/>
    <tag k="addr:postcode" v="40822"/>
    <tag k="addr:housenumber" v="10"/>
    <tag k="addr:street" v="Peckhauser Straße"/>
    <tag k="website" v="http://www.blumenfluechter.de"/>
    <tag k="phone" v="+49 2104 25573 "/>
  </node>
  <node id="-2231" version="0" timestamp="Fri Feb 24 10:53:34 +0100 2012" uid="1" user="" lat="51.2517943" lon="6.9610263">
    <tag k="shop" v="florist"/>
    <tag k="name" v="Mensch Meisterfloristik e. K."/>
    <tag k="wheelchair" v="yes"/>
    <tag k="addr:city" v="Mettmann"/>
    <tag k="addr:postcode" v="40822"/>
    <tag k="addr:housenumber" v="16"/>
    <tag k="addr:street" v="Karpendeller Weg"/>
    <tag k="website" v="http://www.mensch-meisterfloristik.de"/>
    <tag k="phone" v="+49 2104 70272"/>
  </node>
  <node id="-2246" version="0" timestamp="Fri Feb 24 10:53:34 +0100 2012" uid="1" user="" lat="51.5444833" lon="6.6016215">
    <tag k="shop" v="kiosk"/>
    <tag k="name" v="Tabakwaren Lorkowski"/>
    <tag k="wheelchair" v="limited"/>
    <tag k="wheelchair:description" v="keine Toilette"/>
  </node>
  <node id="-2280" version="0" timestamp="Fri Feb 24 10:53:34 +0100 2012" uid="1" user="" lat="51.2209031" lon="6.7898038">
    <tag k="shop" v="clothes"/>
    <tag k="name" v="die Trauringwelt Fischer e.K."/>
    <tag k="wheelchair" v="limited"/>
    <tag k="addr:city" v="Düsseldorf"/>
    <tag k="addr:postcode" v="40210"/>
    <tag k="addr:housenumber" v="28"/>
    <tag k="addr:street" v="Karlstraße"/>
    <tag k="wheelchair:description" v="Eine niedrige Stufe am Eingang, Räume ebenerdig und viel Platz, Toilette ist nicht rollstuhlgerecht"/>
    <tag k="website" v="http://www.trauringwelt.de"/>
    <tag k="phone" v="+49 211 54472626"/>
  </node>
  <node id="-2312" version="0" timestamp="Fri Feb 24 10:53:34 +0100 2012" uid="1" user="" lat="51.4769536" lon="6.7342286">
    <tag k="name" v="Café Agethen"/>
    <tag k="wheelchair" v="limited"/>
    <tag k="addr:city" v="Duisburg"/>
    <tag k="addr:postcode" v="47139"/>
    <tag k="addr:housenumber" v="328"/>
    <tag k="addr:street" v="Friedrich-Ebert-Straße "/>
    <tag k="wheelchair:description" v="Eingang, Service und Sitzbereich ebenerdig, WCs werden noch überprüft"/>
    <tag k="amenity" v="cafe"/>
    <tag k="website" v="http://www.agethen.com/index.html"/>
    <tag k="phone" v="02 08 - 84 80 4 - 0 "/>
  </node>
  <node id="-2330" version="0" timestamp="Fri Feb 24 10:53:34 +0100 2012" uid="1" user="" lat="51.4792046" lon="6.7333322">
    <tag k="shop" v="supermarket"/>
    <tag k="name" v="Rewe"/>
    <tag k="wheelchair" v="yes"/>
    <tag k="addr:city" v="Duisburg"/>
    <tag k="addr:postcode" v="47139"/>
    <tag k="addr:housenumber" v="358"/>
    <tag k="addr:street" v="Friedrich-Ebert-Straße "/>
    <tag k="phone" v="0203 460020"/>
  </node>
  <node id="-2380" version="0" timestamp="Fri Feb 24 10:53:34 +0100 2012" uid="1" user="" lat="51.2685163" lon="6.466943">
    <tag k="name" v="Sportplatz Fußballplatz Donkkampfbahn"/>
    <tag k="wheelchair" v="yes"/>
    <tag k="wheelchair:description" v="Sportplätze + Toiletten ohne Barrieren, Vereinsheim eine Stufe"/>
    <tag k="leisure" v="arena"/>
    <tag k="website" v="http://www.viktoria-anrath.de"/>
  </node>
  <node id="-2381" version="0" timestamp="Fri Feb 24 10:53:34 +0100 2012" uid="1" user="" lat="51.2802238" lon="6.458897">
    <tag k="name" v="Sparkasse Krefeld"/>
    <tag k="wheelchair" v="yes"/>
    <tag k="amenity" v="bank"/>
  </node>
  <node id="-2448" version="0" timestamp="Fri Feb 24 10:53:34 +0100 2012" uid="1" user="" lat="51.7389688" lon="6.2933547">
    <tag k="name" v="Goldenes Horn Döner"/>
    <tag k="wheelchair" v="no"/>
    <tag k="wheelchair:description" v="Zu hohe Eingangsstufen"/>
    <tag k="amenity" v="fast_food"/>
  </node>
  <node id="-2470" version="0" timestamp="Fri Feb 24 10:53:34 +0100 2012" uid="1" user="" lat="51.17038" lon="6.82372">
    <tag k="name" v="Jägerstübchen"/>
    <tag k="wheelchair" v="limited"/>
    <tag k="addr:city" v="Düsseldorf"/>
    <tag k="addr:postcode" v="40589"/>
    <tag k="addr:housenumber" v="127"/>
    <tag k="addr:street" v="Itterstraße"/>
    <tag k="wheelchair:description" v="alles ebenerdig - nur WC sehr eng"/>
    <tag k="amenity" v="restaurant"/>
    <tag k="phone" v="+49 211 7591672"/>
  </node>
  <node id="-2498" version="0" timestamp="Fri Feb 24 10:53:34 +0100 2012" uid="1" user="" lat="51.6911818" lon="6.8672658">
    <tag k="name" v="Rathaus "/>
    <tag k="wheelchair" v="yes"/>
    <tag k="addr:city" v="Schermbeck"/>
    <tag k="addr:postcode" v="46514"/>
    <tag k="addr:housenumber" v="2"/>
    <tag k="addr:street" v="Weseler Straße "/>
    <tag k="phone" v="+49 2853 910-0"/>
  </node>
  <node id="-2504" version="0" timestamp="Fri Feb 24 10:53:34 +0100 2012" uid="1" user="" lat="51.6952933" lon="6.8738521">
    <tag k="name" v="China Town"/>
    <tag k="wheelchair" v="yes"/>
    <tag k="addr:city" v="Schermbeck"/>
    <tag k="addr:postcode" v="46514"/>
    <tag k="addr:housenumber" v="15"/>
    <tag k="addr:street" v="Erler Str. "/>
    <tag k="amenity" v="restaurant"/>
    <tag k="phone" v="+49 2853 3335"/>
  </node>
  <node id="-2505" version="0" timestamp="Fri Feb 24 10:53:34 +0100 2012" uid="1" user="" lat="51.6895205" lon="6.8643637">
    <tag k="shop" v="supermarket"/>
    <tag k="name" v="Netto "/>
    <tag k="wheelchair" v="yes"/>
    <tag k="addr:city" v="Schermbeck"/>
    <tag k="addr:postcode" v="46514"/>
    <tag k="addr:housenumber" v="13"/>
    <tag k="addr:street" v="Weseler Straße "/>
    <tag k="website" v="http://www.netto-online.de"/>
  </node>
  <node id="-2507" version="0" timestamp="Fri Feb 24 10:53:34 +0100 2012" uid="1" user="" lat="51.19506" lon="6.60863">
    <tag k="name" v="Restaurant Mykonos"/>
    <tag k="wheelchair" v="no"/>
    <tag k="wheelchair:description" v="Im Keller, nur über Treppen erreichbar"/>
    <tag k="amenity" v="restaurant"/>
  </node>
  <node id="-2508" version="0" timestamp="Fri Feb 24 10:53:34 +0100 2012" uid="1" user="" lat="51.19302" lon="6.46007">
    <tag k="shop" v="supermarket"/>
    <tag k="name" v="real,- SB-Warenhaus"/>
    <tag k="wheelchair" v="yes"/>
    <tag k="addr:city" v="Mönchengladbach"/>
    <tag k="addr:postcode" v="41065"/>
    <tag k="addr:housenumber" v="2"/>
    <tag k="addr:street" v="Reyerhütte"/>
    <tag k="website" v="http://www.real.de"/>
  </node>
  <node id="-2541" version="0" timestamp="Fri Feb 24 10:53:34 +0100 2012" uid="1" user="" lat="51.2367075" lon="6.7791434">
    <tag k="shop" v="books"/>
    <tag k="name" v="Goethe Buchandlung"/>
    <tag k="wheelchair" v="yes"/>
    <tag k="addr:city" v="Düsseldorf"/>
    <tag k="addr:postcode" v="404777"/>
    <tag k="addr:housenumber" v="27"/>
    <tag k="addr:street" v="Nordstraße"/>
    <tag k="website" v="http://www.goethebuch.de"/>
  </node>
  <node id="-2545" version="0" timestamp="Fri Feb 24 10:53:34 +0100 2012" uid="1" user="" lat="51.236745" lon="6.7801054">
    <tag k="shop" v="books"/>
    <tag k="name" v="Goethe Buchhandlung"/>
    <tag k="wheelchair" v="yes"/>
    <tag k="addr:city" v="Düsseldorf"/>
    <tag k="addr:postcode" v="40477"/>
    <tag k="addr:housenumber" v="11"/>
    <tag k="addr:street" v="Duisburger Straße"/>
    <tag k="website" v="http://www.goethebuch.de"/>
    <tag k="phone" v="+40 211 49874-0"/>
  </node>
  <node id="-2595" version="0" timestamp="Fri Feb 24 10:53:34 +0100 2012" uid="1" user="" lat="51.3012845" lon="6.7369456">
    <tag k="name" v="Kaiserswerther Löwen-Apotheke"/>
    <tag k="wheelchair" v="yes"/>
    <tag k="addr:city" v="Düsseldorf"/>
    <tag k="addr:postcode" v="40489"/>
    <tag k="addr:housenumber" v="55"/>
    <tag k="addr:street" v="Kaiserswerther Markt "/>
    <tag k="wheelchair:description" v="barrierefrei"/>
    <tag k="amenity" v="pharmacy"/>
    <tag k="website" v="http://www.loewen-apotheke-duesseldorf.de"/>
    <tag k="phone" v="+49211940970"/>
  </node>
  <node id="-2634" version="0" timestamp="Fri Feb 24 10:53:34 +0100 2012" uid="1" user="" lat="51.1808" lon="6.73883">
    <tag k="name" v="Reuterhof"/>
    <tag k="wheelchair" v="yes"/>
    <tag k="addr:city" v="Neuss"/>
    <tag k="addr:postcode" v="41468"/>
    <tag k="addr:housenumber" v="18"/>
    <tag k="addr:street" v="Rheinuferstraße"/>
    <tag k="wheelchair:description" v="stufenloser Eingang, rollstuhlgerechte Toilette"/>
    <tag k="amenity" v="restaurant"/>
    <tag k="website" v="http://www.buergerhaus-reuterhof.de"/>
    <tag k="phone" v="02131 32244"/>
  </node>
  <node id="-2635" version="0" timestamp="Fri Feb 24 10:53:34 +0100 2012" uid="1" user="" lat="51.22493" lon="6.73626">
    <tag k="name" v="Thouli&apos;s - Green Garden Restaurant"/>
    <tag k="wheelchair" v="yes"/>
    <tag k="addr:city" v="Düsseldorf"/>
    <tag k="addr:postcode" v="40221"/>
    <tag k="addr:housenumber" v="51"/>
    <tag k="addr:street" v="Auf der Lausward"/>
    <tag k="wheelchair:description" v="stufenloser Eingang, rollstuhlgerechte Toilette"/>
    <tag k="amenity" v="restaurant"/>
    <tag k="phone" v=" 0211 13 72 76 5"/>
  </node>
  <node id="-2636" version="0" timestamp="Fri Feb 24 10:53:34 +0100 2012" uid="1" user="" lat="51.1905152" lon="6.6886156">
    <tag k="shop" v="supermarket"/>
    <tag k="name" v="Kaiser´s "/>
    <tag k="wheelchair" v="no"/>
    <tag k="addr:city" v="Neuss"/>
    <tag k="addr:postcode" v="41464"/>
    <tag k="addr:street" v="Fringsstraße"/>
    <tag k="wheelchair:description" v="Am Eingabg 2 Stufen."/>
  </node>
  <node id="-2640" version="0" timestamp="Fri Feb 24 10:53:34 +0100 2012" uid="1" user="" lat="51.0943058" lon="6.9108112">
    <tag k="name" v="Mobilitätsmanufaktur KADOMO GmbH"/>
    <tag k="wheelchair" v="yes"/>
    <tag k="addr:city" v="Monheim am Rhein"/>
    <tag k="addr:postcode" v="40789"/>
    <tag k="addr:housenumber" v="2"/>
    <tag k="addr:street" v="Am Kieswerk"/>
    <tag k="wheelchair:description" v="Fahrzeugumrüstung für Menschen mit Handicap."/>
    <tag k="amenity" v="car_rental"/>
    <tag k="website" v="Http://www.kadomo.de"/>
    <tag k="phone" v="+49 2173 2044600"/>
  </node>
  <node id="-2670" version="0" timestamp="Fri Feb 24 10:53:34 +0100 2012" uid="1" user="" lat="51.52456" lon="6.78778">
    <tag k="shop" v="department_store"/>
    <tag k="name" v="Empire-Uhren Ltd."/>
    <tag k="wheelchair" v="yes"/>
    <tag k="addr:city" v="Oberhausen"/>
    <tag k="addr:postcode" v="46147"/>
    <tag k="addr:housenumber" v="2-8"/>
    <tag k="addr:street" v="Burgstraße "/>
    <tag k="wheelchair:description" v="Rampe"/>
    <tag k="website" v="http://www.empire-uhren.de"/>
    <tag k="phone" v="02086257072"/>
  </node>
  <node id="-2687" version="0" timestamp="Fri Feb 24 10:53:34 +0100 2012" uid="1" user="" lat="51.4411672" lon="6.9700812">
    <tag k="name" v="Adelkampschule"/>
    <tag k="wheelchair" v="no"/>
    <tag k="amenity" v="school"/>
  </node>
  <node id="-2689" version="0" timestamp="Fri Feb 24 10:53:34 +0100 2012" uid="1" user="" lat="51.4464104" lon="6.9710631">
    <tag k="name" v="Alfried Krupp Heim"/>
    <tag k="wheelchair" v="yes"/>
  </node>
  <node id="-2701" version="0" timestamp="Fri Feb 24 10:53:34 +0100 2012" uid="1" user="" lat="51.45798" lon="7.00479">
    <tag k="name" v="CinemaXX"/>
    <tag k="wheelchair" v="no"/>
    <tag k="addr:city" v="Essen"/>
    <tag k="addr:postcode" v="45127"/>
    <tag k="addr:housenumber" v="5"/>
    <tag k="addr:street" v="Berliner Platz"/>
    <tag k="amenity" v="cinema"/>
    <tag k="website" v="http://www.cinemaxx.de"/>
    <tag k="phone" v="0201 82030-0"/>
  </node>
  <node id="-2730" version="0" timestamp="Fri Feb 24 10:53:34 +0100 2012" uid="1" user="" lat="51.4940785" lon="6.8704892">
    <tag k="name" v="Gasometer Oberhausen"/>
    <tag k="wheelchair" v="yes"/>
    <tag k="tourism" v="viewpoint"/>
  </node>
  <node id="-2775" version="0" timestamp="Fri Feb 24 10:53:34 +0100 2012" uid="1" user="" lat="51.43395" lon="6.99733">
    <tag k="name" v="Zahnarztpraxis Dr. Frank Jochum"/>
    <tag k="wheelchair" v="yes"/>
    <tag k="addr:city" v="Essen"/>
    <tag k="addr:postcode" v="45131"/>
    <tag k="addr:housenumber" v="13"/>
    <tag k="addr:street" v="Hans-Luther-Allee "/>
    <tag k="amenity" v="doctors"/>
    <tag k="website" v="http://www.dr-jochum.de"/>
    <tag k="phone" v="0201-779516"/>
  </node>
  <node id="-2865" version="0" timestamp="Fri Feb 24 10:53:34 +0100 2012" uid="1" user="" lat="51.2244958" lon="6.468126">
    <tag k="shop" v="bakery"/>
    <tag k="name" v="Stinges Bäckerei"/>
    <tag k="wheelchair" v="unknown"/>
    <tag k="addr:city" v="Mönchengladbach"/>
    <tag k="addr:postcode" v="41066"/>
    <tag k="addr:street" v="Dünnerstrasse"/>
    <tag k="wheelchair:description" v="mehrere Stufen vor Eingangstür"/>
  </node>
  <node id="-2866" version="0" timestamp="Fri Feb 24 10:53:34 +0100 2012" uid="1" user="" lat="51.2236959" lon="6.4519388">
    <tag k="shop" v="bakery"/>
    <tag k="name" v="Ohmen Bäckerei"/>
    <tag k="wheelchair" v="no"/>
    <tag k="wheelchair:description" v="mehrere Stufen im Eingang"/>
  </node>
  <node id="-2867" version="0" timestamp="Fri Feb 24 10:53:34 +0100 2012" uid="1" user="" lat="51.2236698" lon="6.4520366">
    <tag k="name" v="Gaststätte Mund"/>
    <tag k="wheelchair" v="no"/>
    <tag k="wheelchair:description" v="Stufen im Eingangsbereich"/>
    <tag k="amenity" v="restaurant"/>
  </node>
  <node id="-2868" version="0" timestamp="Fri Feb 24 10:53:34 +0100 2012" uid="1" user="" lat="51.224" lon="6.4629733">
    <tag k="shop" v="hairdresser"/>
    <tag k="name" v="Frankys Cut (Frisör)"/>
    <tag k="wheelchair" v="yes"/>
    <tag k="wheelchair:description" v="alles eben und TOP Friseur!! ;)"/>
  </node>
  <node id="-2869" version="0" timestamp="Fri Feb 24 10:53:34 +0100 2012" uid="1" user="" lat="51.2238218" lon="6.4632255">
    <tag k="name" v="Jasmin Döner"/>
    <tag k="wheelchair" v="limited"/>
    <tag k="wheelchair:description" v="eine Stufe vor Eingang, Tür schmal, Bestellung von der Tür aus möglich, Döner lecker :)"/>
    <tag k="amenity" v="fast_food"/>
  </node>
  <node id="-2871" version="0" timestamp="Fri Feb 24 10:53:34 +0100 2012" uid="1" user="" lat="51.224944" lon="6.4706424">
    <tag k="shop" v="mall"/>
    <tag k="name" v="Schlecker Drogeriemarkt"/>
    <tag k="wheelchair" v="yes"/>
    <tag k="wheelchair:description" v="alles eben"/>
  </node>
  <node id="-2874" version="0" timestamp="Fri Feb 24 10:53:34 +0100 2012" uid="1" user="" lat="51.76042" lon="6.17978">
    <tag k="name" v="LVR-HPH-Netz Niederrhein"/>
    <tag k="wheelchair" v="yes"/>
    <tag k="addr:city" v="Bedburg-Hau"/>
    <tag k="addr:postcode" v="47551"/>
    <tag k="addr:housenumber" v="6"/>
    <tag k="addr:street" v="Zur Mulde"/>
    <tag k="website" v="http://www.lvr.de"/>
    <tag k="phone" v="+492821-814000"/>
  </node>
  <node id="-2875" version="0" timestamp="Fri Feb 24 10:53:34 +0100 2012" uid="1" user="" lat="51.7632" lon="6.18169">
    <tag k="name" v="LVR-HPH-Netz Niederrhein"/>
    <tag k="wheelchair" v="yes"/>
    <tag k="addr:city" v="Bedburg-Hau"/>
    <tag k="addr:postcode" v="47551"/>
    <tag k="addr:housenumber" v="5"/>
    <tag k="addr:street" v="Nördlicher Rundweg "/>
    <tag k="wheelchair:description" v="Verwaltung des LVR-HPH-Netz Niederrhein"/>
    <tag k="website" v="http://www.lvr.de"/>
    <tag k="phone" v="+492821-814000"/>
  </node>
  <node id="-2876" version="0" timestamp="Fri Feb 24 10:53:34 +0100 2012" uid="1" user="" lat="51.75742" lon="6.18435">
    <tag k="name" v="LVR-HPH-Netz Niederrhein"/>
    <tag k="wheelchair" v="yes"/>
    <tag k="addr:city" v="Bedburg-Hau"/>
    <tag k="addr:postcode" v="47551"/>
    <tag k="addr:housenumber" v="18"/>
    <tag k="addr:street" v="Südlicher Rundweg "/>
    <tag k="wheelchair:description" v="Heilpädagogisches Zentrum"/>
    <tag k="website" v="http://www.lvr.de"/>
    <tag k="phone" v="+492821-814000"/>
  </node>
  <node id="-2878" version="0" timestamp="Fri Feb 24 10:53:34 +0100 2012" uid="1" user="" lat="51.75949" lon="6.1891">
    <tag k="name" v="LVR-HPH-Netz Niederrhein"/>
    <tag k="wheelchair" v="yes"/>
    <tag k="addr:postcode" v="47"/>
    <tag k="addr:housenumber" v="6a +6b"/>
    <tag k="addr:street" v="Föhrenbacheck "/>
    <tag k="wheelchair:description" v="Wohnverbund"/>
  </node>
  <node id="-2879" version="0" timestamp="Fri Feb 24 10:53:34 +0100 2012" uid="1" user="" lat="51.75949" lon="6.1891">
    <tag k="name" v="LVR-HPH-Netz Niederrhein"/>
    <tag k="wheelchair" v="yes"/>
    <tag k="addr:city" v="Bedburg-Hau"/>
    <tag k="addr:postcode" v="47551"/>
    <tag k="addr:housenumber" v="6a +6b"/>
    <tag k="addr:street" v="Föhrenbacheck "/>
    <tag k="wheelchair:description" v="Wohnverbund"/>
    <tag k="website" v="http://www.lvr.de"/>
    <tag k="phone" v="+492821-814000"/>
  </node>
  <node id="-2880" version="0" timestamp="Fri Feb 24 10:53:34 +0100 2012" uid="1" user="" lat="51.6729" lon="6.27164">
    <tag k="name" v="LVR-HPH-Netz Niederrhein"/>
    <tag k="wheelchair" v="yes"/>
    <tag k="addr:city" v="Uedem"/>
    <tag k="addr:postcode" v="47589"/>
    <tag k="addr:street" v="An der Bockmühle "/>
    <tag k="wheelchair:description" v="Wohnverbund"/>
    <tag k="website" v="http://www.lvr.de"/>
    <tag k="phone" v="+492821-814000"/>
  </node>
  <node id="-2881" version="0" timestamp="Fri Feb 24 10:53:34 +0100 2012" uid="1" user="" lat="51.77145" lon="6.11716">
    <tag k="name" v="LVR-HPH-Netz Niederrhein"/>
    <tag k="wheelchair" v="yes"/>
    <tag k="addr:housenumber" v="5"/>
    <tag k="addr:street" v="Querallee "/>
  </node>
  <node id="-2882" version="0" timestamp="Fri Feb 24 10:53:34 +0100 2012" uid="1" user="" lat="51.77145" lon="6.11716">
    <tag k="name" v="LVR-HPH-Netz Niederrhein"/>
    <tag k="wheelchair" v="yes"/>
    <tag k="addr:city" v="Kleve"/>
    <tag k="addr:postcode" v="47533"/>
    <tag k="addr:housenumber" v="5"/>
    <tag k="addr:street" v="Querallee "/>
    <tag k="website" v="http://www.lvr.de"/>
    <tag k="phone" v="+492821-814000"/>
  </node>
  <node id="-2884" version="0" timestamp="Fri Feb 24 10:53:34 +0100 2012" uid="1" user="" lat="51.7814756" lon="6.1255034">
    <tag k="name" v="Budo-Sportgemeinschaft Kleverland"/>
    <tag k="wheelchair" v="limited"/>
    <tag k="addr:city" v="Kleve"/>
    <tag k="addr:postcode" v="47533"/>
    <tag k="addr:housenumber" v="56"/>
    <tag k="addr:street" v="Ackerstraße "/>
    <tag k="wheelchair:description" v="Verein für Budosportarten EG ist Barrierefrei"/>
    <tag k="leisure" v="sports_centre"/>
    <tag k="website" v="http://www.bsg-kleverland.de"/>
    <tag k="phone" v="+492821390838"/>
  </node>
  <node id="-2885" version="0" timestamp="Fri Feb 24 10:53:34 +0100 2012" uid="1" user="" lat="51.76934" lon="6.13198">
    <tag k="shop" v="supermarket"/>
    <tag k="name" v="Edeka-Aktivmarkt-Drunkemühle"/>
    <tag k="wheelchair" v="yes"/>
    <tag k="addr:city" v="Kleve"/>
    <tag k="addr:postcode" v="47533"/>
    <tag k="addr:street" v="Triftstraße"/>
  </node>
  <node id="-2886" version="0" timestamp="Fri Feb 24 10:53:34 +0100 2012" uid="1" user="" lat="51.7699608" lon="6.1320873">
    <tag k="shop" v="supermarket"/>
    <tag k="name" v="Edeka-Aktivmarkt-Drunkemühle"/>
    <tag k="wheelchair" v="yes"/>
    <tag k="addr:city" v="Kleve"/>
    <tag k="addr:postcode" v="47533"/>
    <tag k="addr:street" v="Triftstraße"/>
  </node>
  <node id="-2887" version="0" timestamp="Fri Feb 24 10:53:34 +0100 2012" uid="1" user="" lat="51.7698304" lon="6.1320871">
    <tag k="shop" v="bakery"/>
    <tag k="name" v="Backfrisch Vehreschild GmbH"/>
    <tag k="wheelchair" v="yes"/>
    <tag k="addr:city" v="Kleve"/>
    <tag k="addr:postcode" v="47533"/>
    <tag k="addr:street" v="Triftstraße"/>
    <tag k="phone" v="+49282149147"/>
  </node>
  <node id="-2888" version="0" timestamp="Fri Feb 24 10:53:34 +0100 2012" uid="1" user="" lat="51.7679" lon="6.1358">
    <tag k="name" v="Backfrisch Vehreschild GmbH"/>
    <tag k="wheelchair" v="yes"/>
    <tag k="addr:city" v="Kleve"/>
    <tag k="addr:postcode" v="47533"/>
    <tag k="addr:housenumber" v="149"/>
    <tag k="addr:street" v="Querallee"/>
    <tag k="amenity" v="bank"/>
    <tag k="phone" v="+49282149147"/>
  </node>
  <node id="-2889" version="0" timestamp="Fri Feb 24 10:53:34 +0100 2012" uid="1" user="" lat="51.769431" lon="6.1513385">
    <tag k="name" v="Freizeitbad Sternbusch"/>
    <tag k="wheelchair" v="yes"/>
    <tag k="addr:city" v="Kleve"/>
    <tag k="addr:postcode" v="47533"/>
    <tag k="addr:housenumber" v="1"/>
    <tag k="addr:street" v="Am Freudenberg "/>
    <tag k="wheelchair:description" v="Freibad von Mai-September"/>
    <tag k="amenity" v="swimming_pool"/>
  </node>
  <node id="-2890" version="0" timestamp="Fri Feb 24 10:53:34 +0100 2012" uid="1" user="" lat="51.7711183" lon="6.1293898">
    <tag k="name" v="Karl-Leisner-Schule"/>
    <tag k="wheelchair" v="yes"/>
    <tag k="addr:city" v="Kleve"/>
    <tag k="addr:postcode" v="47533"/>
    <tag k="addr:housenumber" v="79"/>
    <tag k="addr:street" v="Klombeckstraße"/>
    <tag k="wheelchair:description" v="Kath. Grundschule"/>
    <tag k="amenity" v="school"/>
    <tag k="website" v="http://klskleve.nw.lo-net2.de/info/Karl-Leisner-Schule/Hauptseite.html"/>
    <tag k="phone" v="+49282140727"/>
  </node>
  <node id="-2891" version="0" timestamp="Fri Feb 24 10:53:34 +0100 2012" uid="1" user="" lat="51.7799997" lon="6.1278543">
    <tag k="name" v="MVZ Diaverum Praxis Dr. F. Paul "/>
    <tag k="wheelchair" v="yes"/>
    <tag k="addr:street" v="Hoffmann-Allee 5"/>
    <tag k="wheelchair:description" v="Aufzug"/>
    <tag k="amenity" v="doctors"/>
  </node>
  <node id="-2892" version="0" timestamp="Fri Feb 24 10:53:34 +0100 2012" uid="1" user="" lat="51.7799831" lon="6.1279133">
    <tag k="name" v="MVZ Diaverum Praxis Dr. F. Paul"/>
    <tag k="wheelchair" v="yes"/>
    <tag k="addr:city" v="Kleve"/>
    <tag k="addr:postcode" v="47533"/>
    <tag k="addr:housenumber" v="53"/>
    <tag k="addr:street" v="Hoffmann-Allee "/>
    <tag k="wheelchair:description" v="Aufzug"/>
    <tag k="amenity" v="doctors"/>
    <tag k="website" v="http://www.dialyse-kleve.de/kontakt.html"/>
    <tag k="phone" v="+49282124159"/>
  </node>
  <node id="-2894" version="0" timestamp="Fri Feb 24 10:53:34 +0100 2012" uid="1" user="" lat="51.5601264" lon="6.764165">
    <tag k="name" v="Pizzeria Ramazotti"/>
    <tag k="wheelchair" v="no"/>
    <tag k="addr:city" v="Dinslaken"/>
    <tag k="addr:postcode" v="46539"/>
    <tag k="addr:housenumber" v="1"/>
    <tag k="addr:street" v="Kanzlerstraße"/>
    <tag k="wheelchair:description" v="Stufe vorm Eingang ca. 10cm, Keine Toiletten"/>
    <tag k="amenity" v="restaurant"/>
    <tag k="phone" v="02064/471920"/>
  </node>
  <node id="-2895" version="0" timestamp="Fri Feb 24 10:53:34 +0100 2012" uid="1" user="" lat="51.5164907" lon="6.8551914">
    <tag k="name" v="Burger king"/>
    <tag k="wheelchair" v="limited"/>
    <tag k="amenity" v="fast_food"/>
  </node>
  <node id="-2896" version="0" timestamp="Fri Feb 24 10:53:34 +0100 2012" uid="1" user="" lat="51.4922751" lon="6.8769741">
    <tag k="name" v="Brauhaus Zeche Jacobi"/>
    <tag k="wheelchair" v="limited"/>
    <tag k="amenity" v="pub"/>
  </node>
  <node id="-2903" version="0" timestamp="Fri Feb 24 10:53:34 +0100 2012" uid="1" user="" lat="51.2435164" lon="6.9656108">
    <tag k="name" v="Kreissparkasse Düsseldorf, Geschäftsstelle Eidamshauser Straße "/>
    <tag k="wheelchair" v="yes"/>
    <tag k="addr:city" v="Mettmann"/>
    <tag k="addr:postcode" v="40822"/>
    <tag k="addr:housenumber" v="35a"/>
    <tag k="addr:street" v="Eidamshauser Straße "/>
    <tag k="amenity" v="bank"/>
    <tag k="website" v="http://www.kreissparkasse-duesseldorf.de"/>
    <tag k="phone" v="+49 2104 13 79 80"/>
  </node>
  <node id="-2972" version="0" timestamp="Fri Feb 24 10:53:35 +0100 2012" uid="1" user="" lat="51.7289861" lon="6.5913756">
    <tag k="shop" v="hairdresser"/>
    <tag k="name" v="Salon Bärbel"/>
    <tag k="wheelchair" v="yes"/>
    <tag k="addr:city" v="Hamminkeln"/>
    <tag k="addr:postcode" v="46499"/>
    <tag k="addr:housenumber" v="2b (Passage)"/>
    <tag k="addr:street" v="Raiffeisenstrasse "/>
    <tag k="wheelchair:description" v="WC nicht ganz Rollstuhlgerecht"/>
    <tag k="website" v="http://www.salon-baerbel.de"/>
  </node>
  <node id="-3063" version="0" timestamp="Fri Feb 24 10:53:35 +0100 2012" uid="1" user="" lat="51.1856663" lon="7.0805154">
    <tag k="shop" v="electronics"/>
    <tag k="name" v="EURONICS Gottwald"/>
    <tag k="wheelchair" v="yes"/>
    <tag k="addr:city" v="Solingen"/>
    <tag k="addr:postcode" v="42653"/>
    <tag k="addr:housenumber" v="17-19"/>
    <tag k="addr:street" v="Donaustr."/>
    <tag k="wheelchair:description" v="Parken vor dem Laden, ebenerdiger Eingang"/>
    <tag k="website" v="http://www.euronics.de"/>
    <tag k="phone" v="+49 212 50011"/>
  </node>
  <node id="-3149" version="0" timestamp="Fri Feb 24 10:53:35 +0100 2012" uid="1" user="" lat="51.38847" lon="6.70811">
    <tag k="shop" v="supermarket"/>
    <tag k="name" v="Edeka Aktiv Markt"/>
    <tag k="wheelchair" v="unknown"/>
    <tag k="addr:city" v="Duisburg - Rheinhausen-Friemersheim"/>
    <tag k="addr:postcode" v="47229"/>
    <tag k="addr:housenumber" v="20"/>
    <tag k="addr:street" v="Kronprinzenstrasse"/>
    <tag k="wheelchair:description" v="Elektrische Türen, Eingang ebenerdig"/>
    <tag k="phone" v="+49 (0)2065 47923"/>
  </node>
  <node id="-3173" version="0" timestamp="Fri Feb 24 10:53:35 +0100 2012" uid="1" user="" lat="51.4333" lon="6.8833">
    <tag k="name" v="Praxis Sichtzeichen"/>
    <tag k="wheelchair" v="limited"/>
    <tag k="addr:city" v="Essen"/>
    <tag k="addr:postcode" v="45279"/>
    <tag k="addr:housenumber" v="397"/>
    <tag k="addr:street" v="Bochumer Landstraße"/>
    <tag k="wheelchair:description" v="Rampe vor der Tür, innen alles ebenerdig, Türbreiten ab 80cm, Toilette nur sehr eingeschränkt befahrbar, Behandlungsräume frei befahrbar, Behandlungsliege elektronisch bis auf 34cm absenkbar"/>
    <tag k="amenity" v="doctors"/>
    <tag k="website" v="http://www.praxis-sichtzeichen.de"/>
    <tag k="phone" v="0201-541816"/>
  </node>
  <node id="-3174" version="0" timestamp="Fri Feb 24 10:53:35 +0100 2012" uid="1" user="" lat="51.4559989" lon="7.1113843">
    <tag k="name" v="Praxis Sichtzeichen"/>
    <tag k="wheelchair" v="limited"/>
    <tag k="addr:city" v="Essen"/>
    <tag k="addr:postcode" v="45279"/>
    <tag k="addr:housenumber" v="397"/>
    <tag k="addr:street" v="Bochumer Landstraße"/>
    <tag k="wheelchair:description" v="Rampe vor der Tür, innen alles ebenerdig, Türbreiten ab 80cm, Toilette nur sehr eingeschränkt befahrbar, Behandlungsräume frei befahrbar, Behandlungsliege elektronisch bis auf 34cm absenkbar"/>
    <tag k="amenity" v="doctors"/>
    <tag k="website" v="http://www.praxis-sichtzeichen.de"/>
    <tag k="phone" v="0201-541816"/>
  </node>
  <node id="-3183" version="0" timestamp="Fri Feb 24 10:53:35 +0100 2012" uid="1" user="" lat="51.5642735" lon="6.7396247">
    <tag k="name" v="Hinz und Kunz - Der Oldieladen in Dinslaken"/>
    <tag k="wheelchair" v="limited"/>
    <tag k="addr:city" v="Dinslaken"/>
    <tag k="addr:postcode" v="46535"/>
    <tag k="addr:housenumber" v="18-20"/>
    <tag k="addr:street" v="Bahnstrasse"/>
    <tag k="wheelchair:description" v="Toilette im Untergeschoss, kein Aufzug. Ansonsten erreichbar."/>
    <tag k="amenity" v="bar"/>
    <tag k="website" v="http://www.hinzundkunz-dinslaken.de"/>
    <tag k="phone" v="02064-15686"/>
  </node>
  <node id="-3215" version="0" timestamp="Fri Feb 24 10:53:35 +0100 2012" uid="1" user="" lat="51.25937" lon="6.75332">
    <tag k="name" v="Zahnarzt an der Messe"/>
    <tag k="wheelchair" v="yes"/>
    <tag k="addr:city" v="Düsseldorf"/>
    <tag k="addr:postcode" v="40474"/>
    <tag k="addr:housenumber" v="7"/>
    <tag k="addr:street" v="Stockumer Kirchstraße"/>
    <tag k="wheelchair:description" v="Ebenerdiger Zugang, rollstuhlgerechter Aufzug, rollstuhlgerechte Zahnarztpraxis &amp; Röntgengeräte"/>
    <tag k="amenity" v="doctors"/>
    <tag k="website" v="http://zahnarzt-an-der-messe.de/"/>
    <tag k="phone" v="+49 211 496 38 208"/>
  </node>
  <node id="-3254" version="0" timestamp="Fri Feb 24 10:53:35 +0100 2012" uid="1" user="" lat="51.1816011" lon="6.4808713">
    <tag k="name" v="PURiNO"/>
    <tag k="wheelchair" v="yes"/>
    <tag k="addr:city" v="Mönchengladbach"/>
    <tag k="addr:postcode" v="41238"/>
    <tag k="addr:housenumber" v="508"/>
    <tag k="addr:street" v="Schlossstr."/>
    <tag k="wheelchair:description" v="Schloss Innenhof grobes Kopfsteinpflaster"/>
    <tag k="amenity" v="restaurant"/>
    <tag k="website" v="http://www.purino.de"/>
    <tag k="phone" v="+49 2166 131340"/>
  </node>
  <node id="-3256" version="0" timestamp="Fri Feb 24 10:53:35 +0100 2012" uid="1" user="" lat="51.29516" lon="6.3636107">
    <tag k="shop" v="supermarket"/>
    <tag k="name" v="Aldi Süd "/>
    <tag k="wheelchair" v="yes"/>
    <tag k="addr:city" v="Viersen"/>
    <tag k="addr:postcode" v="41749"/>
    <tag k="addr:street" v="Grefratherstraße"/>
    <tag k="wheelchair:description" v="Geschäft ebenerdig, Behindertenparkplätze vorhanden"/>
  </node>
  <node id="-3257" version="0" timestamp="Fri Feb 24 10:53:35 +0100 2012" uid="1" user="" lat="51.26794" lon="6.38069">
    <tag k="shop" v="supermarket"/>
    <tag k="name" v="Aldi Süd"/>
    <tag k="wheelchair" v="unknown"/>
    <tag k="wheelchair:description" v="Geschäft ebenerdig."/>
  </node>
  <node id="-3276" version="0" timestamp="Fri Feb 24 10:53:35 +0100 2012" uid="1" user="" lat="51.4485333" lon="7.0756593">
    <tag k="name" v="Café Gecko"/>
    <tag k="wheelchair" v="unknown"/>
    <tag k="addr:city" v="Essen"/>
    <tag k="addr:postcode" v="45276"/>
    <tag k="addr:housenumber" v="22"/>
    <tag k="addr:street" v="Kaiser-Otto-Platz"/>
    <tag k="amenity" v="cafe"/>
    <tag k="phone" v="0201 5922108"/>
  </node>
  <node id="-3293" version="0" timestamp="Fri Feb 24 10:53:35 +0100 2012" uid="1" user="" lat="51.43491" lon="6.76114">
    <tag k="name" v="Mercatorzimmer, Rathhaus Duisburg"/>
    <tag k="wheelchair" v="limited"/>
    <tag k="addr:city" v="Duisburg"/>
    <tag k="addr:street" v="Alter Markt"/>
    <tag k="wheelchair:description" v="Mercatorzimmer ist über einen Aufzug zu erreichen. Rollstuhlfahrer können dort heiraten."/>
    <tag k="website" v="http://www.duisburg.de/vv/32/1/4/standesamt/index.php"/>
  </node>
  <node id="-3294" version="0" timestamp="Fri Feb 24 10:53:35 +0100 2012" uid="1" user="" lat="51.3620592" lon="6.9398671">
    <tag k="name" v="Lulu"/>
    <tag k="wheelchair" v="limited"/>
    <tag k="wheelchair:description" v="No steps at front door, one step to toilets. Smoke free. :-)"/>
    <tag k="amenity" v="bar"/>
    <tag k="website" v="http://www.lulu.fm/"/>
  </node>
  <node id="-3295" version="0" timestamp="Fri Feb 24 10:53:35 +0100 2012" uid="1" user="" lat="51.3621201" lon="6.9399044">
    <tag k="name" v="Öffentliche Toiletten"/>
    <tag k="wheelchair" v="no"/>
    <tag k="amenity" v="toilets"/>
  </node>
  <node id="-3296" version="0" timestamp="Fri Feb 24 10:53:35 +0100 2012" uid="1" user="" lat="51.3788767" lon="6.9812876">
    <tag k="name" v="Landhaus am Staadt"/>
    <tag k="wheelchair" v="limited"/>
    <tag k="amenity" v="restaurant"/>
  </node>
  <node id="-3297" version="0" timestamp="Fri Feb 24 10:53:35 +0100 2012" uid="1" user="" lat="51.3634463" lon="6.9366991">
    <tag k="name" v="Tapas Con Vino"/>
    <tag k="wheelchair" v="limited"/>
    <tag k="wheelchair:description" v="No toilets"/>
    <tag k="amenity" v="restaurant"/>
  </node>
  <node id="-3298" version="0" timestamp="Fri Feb 24 10:53:35 +0100 2012" uid="1" user="" lat="51.3605244" lon="6.9346089">
    <tag k="name" v="Niagara"/>
    <tag k="wheelchair" v="no"/>
    <tag k="wheelchair:description" v="smoke-free"/>
    <tag k="amenity" v="restaurant"/>
  </node>
  <node id="-3325" version="0" timestamp="Fri Feb 24 10:53:35 +0100 2012" uid="1" user="" lat="51.3333" lon="6.5667">
    <tag k="name" v="Kunsthandlung Steinbach"/>
    <tag k="wheelchair" v="yes"/>
    <tag k="addr:city" v="Krefeld"/>
    <tag k="addr:postcode" v="47799"/>
    <tag k="addr:housenumber" v="34"/>
    <tag k="addr:street" v="Rheinstraße"/>
    <tag k="amenity" v="gallery"/>
    <tag k="website" v="http://www.kunsthandlung-steinbach.de"/>
    <tag k="phone" v="+49 2151 26534"/>
  </node>
  <node id="-3326" version="0" timestamp="Fri Feb 24 10:53:35 +0100 2012" uid="1" user="" lat="51.3333" lon="6.5667">
    <tag k="name" v="Kunsthandlung Steinbach"/>
    <tag k="wheelchair" v="yes"/>
    <tag k="addr:city" v="Krefeld"/>
    <tag k="addr:postcode" v="47799"/>
    <tag k="addr:housenumber" v="34"/>
    <tag k="addr:street" v="Rheinstraße"/>
    <tag k="amenity" v="gallery"/>
    <tag k="website" v="http://www.kunsthandlung-steinbach.de"/>
    <tag k="phone" v="+49 2151 26534"/>
  </node>
  <node id="-3399" version="0" timestamp="Fri Feb 24 10:53:35 +0100 2012" uid="1" user="" lat="51.44932" lon="6.67314">
    <tag k="name" v="Dr.med Schuppan Algemein"/>
    <tag k="wheelchair" v="yes"/>
    <tag k="addr:city" v="Moers"/>
    <tag k="addr:postcode" v="47443"/>
    <tag k="addr:housenumber" v="382"/>
    <tag k="addr:street" v="HombergerStraße"/>
    <tag k="amenity" v="doctors"/>
    <tag k="phone" v="+49284151472"/>
  </node>
  <node id="-3401" version="0" timestamp="Fri Feb 24 10:53:35 +0100 2012" uid="1" user="" lat="51.45002" lon="6.6287">
    <tag k="name" v="Santander"/>
    <tag k="wheelchair" v="yes"/>
    <tag k="addr:city" v="Moers"/>
    <tag k="addr:postcode" v="47441"/>
    <tag k="addr:housenumber" v="1-3"/>
    <tag k="addr:street" v="Haagstraße"/>
    <tag k="amenity" v="bank"/>
  </node>
  <node id="-3402" version="0" timestamp="Fri Feb 24 10:53:35 +0100 2012" uid="1" user="" lat="51.4500169" lon="6.628604">
    <tag k="name" v="Parkplatz"/>
    <tag k="wheelchair" v="yes"/>
    <tag k="wheelchair:description" v="2X"/>
    <tag k="amenity" v="parking"/>
  </node>
  <node id="-3403" version="0" timestamp="Fri Feb 24 10:53:35 +0100 2012" uid="1" user="" lat="51.44565" lon="6.63476">
    <tag k="shop" v="supermarket"/>
    <tag k="name" v="ALDI"/>
    <tag k="wheelchair" v="yes"/>
  </node>
  <node id="-3404" version="0" timestamp="Fri Feb 24 10:53:35 +0100 2012" uid="1" user="" lat="51.4458406" lon="6.6348995">
    <tag k="name" v="Parkplatz"/>
    <tag k="wheelchair" v="yes"/>
    <tag k="amenity" v="parking"/>
  </node>
  <node id="-3405" version="0" timestamp="Fri Feb 24 10:53:35 +0100 2012" uid="1" user="" lat="51.44619" lon="6.63418">
    <tag k="shop" v="supermarket"/>
    <tag k="name" v="REWE"/>
    <tag k="wheelchair" v="yes"/>
  </node>
  <node id="-3406" version="0" timestamp="Fri Feb 24 10:53:35 +0100 2012" uid="1" user="" lat="51.4460429" lon="6.6342229">
    <tag k="name" v="Parkplatz"/>
    <tag k="wheelchair" v="yes"/>
    <tag k="amenity" v="bank"/>
  </node>
  <node id="-3407" version="0" timestamp="Fri Feb 24 10:53:35 +0100 2012" uid="1" user="" lat="51.4455347" lon="6.6392257">
    <tag k="name" v="Parkplatz"/>
    <tag k="wheelchair" v="yes"/>
    <tag k="wheelchair:description" v="Gebührenpflichtig"/>
    <tag k="amenity" v="parking"/>
  </node>
  <node id="-3423" version="0" timestamp="Fri Feb 24 10:53:35 +0100 2012" uid="1" user="" lat="51.22816" lon="6.77637">
    <tag k="name" v="Kunstsammlung Nordrhein Westfalen"/>
    <tag k="wheelchair" v="yes"/>
    <tag k="addr:city" v="Düsseldorf"/>
    <tag k="addr:postcode" v="40213"/>
    <tag k="addr:housenumber" v="5"/>
    <tag k="addr:street" v="Grabbeplatz"/>
    <tag k="amenity" v="arts_centre"/>
    <tag k="website" v="http://www.kunstsammlung.de"/>
    <tag k="phone" v="0049 211 8381204"/>
  </node>
  <node id="-3473" version="0" timestamp="Fri Feb 24 10:53:35 +0100 2012" uid="1" user="" lat="51.1686745" lon="6.9013615">
    <tag k="name" v="Reha Group Automotive"/>
    <tag k="wheelchair" v="yes"/>
    <tag k="addr:city" v="Hilden"/>
    <tag k="addr:postcode" v="40721"/>
    <tag k="addr:housenumber" v="41"/>
    <tag k="addr:street" v="Kleinhülsen"/>
    <tag k="wheelchair:description" v="absolut Barrierefrei"/>
    <tag k="amenity" v="car_rental"/>
    <tag k="website" v="http://www.reha.com"/>
    <tag k="phone" v="02103-58760"/>
  </node>
  <node id="-3562" version="0" timestamp="Fri Feb 24 10:53:35 +0100 2012" uid="1" user="" lat="51.429387" lon="7.0749348">
    <tag k="name" v="Geno Bank Essen"/>
    <tag k="wheelchair" v="yes"/>
    <tag k="amenity" v="bank"/>
  </node>
  <node id="-3563" version="0" timestamp="Fri Feb 24 10:53:35 +0100 2012" uid="1" user="" lat="51.420113" lon="7.0815261">
    <tag k="name" v="Sporthalle Klapperstraße"/>
    <tag k="wheelchair" v="unknown"/>
    <tag k="leisure" v="stadium"/>
  </node>
  <node id="-3565" version="0" timestamp="Fri Feb 24 10:53:35 +0100 2012" uid="1" user="" lat="51.4368847" lon="7.0245466">
    <tag k="name" v="McDonald’s"/>
    <tag k="wheelchair" v="yes"/>
    <tag k="amenity" v="fast_food"/>
  </node>
  <node id="-3566" version="0" timestamp="Fri Feb 24 10:53:35 +0100 2012" uid="1" user="" lat="51.4367838" lon="7.0260523">
    <tag k="shop" v="supermarket"/>
    <tag k="name" v="Rewe"/>
    <tag k="wheelchair" v="yes"/>
  </node>
  <node id="-3567" version="0" timestamp="Fri Feb 24 10:53:35 +0100 2012" uid="1" user="" lat="51.4377066" lon="7.0298465">
    <tag k="shop" v="supermarket"/>
    <tag k="name" v="Rewe"/>
    <tag k="wheelchair" v="yes"/>
  </node>
  <node id="-3568" version="0" timestamp="Fri Feb 24 10:53:35 +0100 2012" uid="1" user="" lat="51.4178441" lon="7.0774194">
    <tag k="name" v="Kindertagesstätte Holthausen"/>
    <tag k="wheelchair" v="yes"/>
    <tag k="amenity" v="kindergarten"/>
  </node>
  <node id="-3596" version="0" timestamp="Fri Feb 24 10:53:35 +0100 2012" uid="1" user="" lat="51.2660239" lon="7.150005">
    <tag k="name" v="Institut Apeiros"/>
    <tag k="wheelchair" v="limited"/>
    <tag k="addr:city" v="Wuppertal"/>
    <tag k="addr:postcode" v="42107"/>
    <tag k="addr:housenumber" v="30"/>
    <tag k="addr:street" v="Hagenauerstraße"/>
    <tag k="wheelchair:description" v="Aufzug 90cm breit, Rollstuhlrampe noch nicht fertig gestellt."/>
    <tag k="amenity" v="school"/>
    <tag k="website" v="http://www.apeiros.de"/>
    <tag k="phone" v="0202/ 4789696"/>
  </node>
  <node id="-3597" version="0" timestamp="Fri Feb 24 10:53:35 +0100 2012" uid="1" user="" lat="51.2568537" lon="7.1430506">
    <tag k="name" v="Barcelona"/>
    <tag k="wheelchair" v="no"/>
    <tag k="amenity" v="bar"/>
  </node>
  <node id="-3598" version="0" timestamp="Fri Feb 24 10:53:35 +0100 2012" uid="1" user="" lat="51.2577469" lon="7.1461177">
    <tag k="shop" v="mall"/>
    <tag k="name" v="Peek und Cloppenburg"/>
    <tag k="wheelchair" v="yes"/>
    <tag k="wheelchair:description" v="Aufzüge rechts neben Kasse."/>
  </node>
  <node id="-3599" version="0" timestamp="Fri Feb 24 10:53:35 +0100 2012" uid="1" user="" lat="51.2566308" lon="7.1484433">
    <tag k="shop" v="mall"/>
    <tag k="name" v="City Arkaden"/>
    <tag k="wheelchair" v="yes"/>
  </node>
  <node id="-3600" version="0" timestamp="Fri Feb 24 10:53:35 +0100 2012" uid="1" user="" lat="51.2595779" lon="7.1458509">
    <tag k="shop" v="mall"/>
    <tag k="name" v="Rathaus Galerie"/>
    <tag k="wheelchair" v="yes"/>
  </node>
  <node id="-3601" version="0" timestamp="Fri Feb 24 10:53:35 +0100 2012" uid="1" user="" lat="51.2582257" lon="7.1454565">
    <tag k="shop" v="mall"/>
    <tag k="name" v="Kaufhof"/>
    <tag k="wheelchair" v="unknown"/>
  </node>
  <node id="-3689" version="0" timestamp="Fri Feb 24 10:53:35 +0100 2012" uid="1" user="" lat="51.2572334" lon="7.1443057">
    <tag k="shop" v="department_store"/>
    <tag k="name" v="Rossmann"/>
    <tag k="wheelchair" v="yes"/>
  </node>
  <node id="-3697" version="0" timestamp="Fri Feb 24 10:53:35 +0100 2012" uid="1" user="" lat="51.3282458" lon="6.5661015">
    <tag k="name" v="Büttgen Praxis für Logopädie und Ergotherapie"/>
    <tag k="wheelchair" v="yes"/>
    <tag k="addr:city" v="Krefeld"/>
    <tag k="addr:postcode" v="47798"/>
    <tag k="addr:housenumber" v="1"/>
    <tag k="addr:street" v="Königstraße "/>
    <tag k="wheelchair:description" v="Therapeuten für Logopädie und Ergotherapie"/>
    <tag k="amenity" v="doctors"/>
    <tag k="website" v="http://www.therapie-buettgen.de"/>
    <tag k="phone" v="02151/5657770"/>
  </node>
  <node id="-3761" version="0" timestamp="Fri Feb 24 10:53:35 +0100 2012" uid="1" user="" lat="51.3635351" lon="6.9367987">
    <tag k="shop" v="computer"/>
    <tag k="name" v="outline – we web."/>
    <tag k="wheelchair" v="yes"/>
    <tag k="addr:city" v="Essen"/>
    <tag k="addr:postcode" v="45219"/>
    <tag k="addr:housenumber" v="101–105"/>
    <tag k="addr:street" v="Hauptstr."/>
    <tag k="wheelchair:description" v="Barrierefreies Büro für barrierefreies Webdesign"/>
    <tag k="website" v="http://outlinewebdesign.com/"/>
  </node>
  <node id="-3765" version="0" timestamp="Fri Feb 24 10:53:35 +0100 2012" uid="1" user="" lat="51.21129" lon="6.75487">
    <tag k="name" v="burkhardt architekt"/>
    <tag k="wheelchair" v="yes"/>
    <tag k="addr:city" v="Düsseldorf"/>
    <tag k="addr:postcode" v="40223"/>
    <tag k="addr:housenumber" v="317a"/>
    <tag k="addr:street" v="Fleher Straße"/>
    <tag k="website" v="http://www.burkhardt-architekt.de"/>
  </node>
  <node id="-3781" version="0" timestamp="Fri Feb 24 10:53:35 +0100 2012" uid="1" user="" lat="51.2672919" lon="7.1930527">
    <tag k="name" v="Opernhaus"/>
    <tag k="wheelchair" v="limited"/>
    <tag k="addr:city" v="Wuppertal"/>
    <tag k="addr:postcode" v="42283 "/>
    <tag k="addr:housenumber" v="4"/>
    <tag k="addr:street" v="Kurt-Drees-Straße"/>
    <tag k="wheelchair:description" v="Schmaler Aufzug, schmale Durchgänge im Zuschauerraum, keine gesonderten Plätze für Rollstuhlfahrer"/>
    <tag k="amenity" v="theatre"/>
    <tag k="website" v="http://www.wuppertaler-buehnen.de/index.php?id=730"/>
    <tag k="phone" v="0202/563 76 43"/>
  </node>
  <node id="-3807" version="0" timestamp="Fri Feb 24 10:53:35 +0100 2012" uid="1" user="" lat="51.2642613" lon="7.1568761">
    <tag k="name" v="Kiosk"/>
    <tag k="wheelchair" v="limited"/>
    <tag k="amenity" v="bank"/>
  </node>
  <node id="-3869" version="0" timestamp="Fri Feb 24 10:53:35 +0100 2012" uid="1" user="" lat="51.2536047" lon="7.1349971">
    <tag k="name" v="Zweistein"/>
    <tag k="wheelchair" v="no"/>
    <tag k="amenity" v="bar"/>
  </node>
  <node id="-3870" version="0" timestamp="Fri Feb 24 10:53:35 +0100 2012" uid="1" user="" lat="51.2546888" lon="7.1391814">
    <tag k="name" v="Burger King"/>
    <tag k="wheelchair" v="yes"/>
    <tag k="amenity" v="fast_food"/>
  </node>
  <node id="-3903" version="0" timestamp="Fri Feb 24 10:53:35 +0100 2012" uid="1" user="" lat="51.5608435" lon="6.7316059">
    <tag k="name" v="Am Altmarkt"/>
    <tag k="wheelchair" v="yes"/>
    <tag k="wheelchair:description" v="Derzeit Schloss ausgetauscht. Wird gerade Umgebaut."/>
    <tag k="amenity" v="toilets"/>
  </node>
  <node id="-3904" version="0" timestamp="Fri Feb 24 10:53:35 +0100 2012" uid="1" user="" lat="51.5392636" lon="6.722189">
    <tag k="name" v="Markt Franz-Lenze-Platz"/>
    <tag k="wheelchair" v="yes"/>
    <tag k="addr:city" v="Duisburg"/>
    <tag k="addr:postcode" v="47178"/>
    <tag k="addr:street" v="Franz-Lenze-Platz"/>
    <tag k="wheelchair:description" v="Auf beiden Toiletten war bei Besuch kein Papier vorhanden."/>
    <tag k="amenity" v="toilets"/>
  </node>
  <node id="-3917" version="0" timestamp="Fri Feb 24 10:53:35 +0100 2012" uid="1" user="" lat="51.34804" lon="6.61947">
    <tag k="name" v="Fysiotherapie Beulen"/>
    <tag k="wheelchair" v="yes"/>
    <tag k="addr:city" v="Krefeld"/>
    <tag k="addr:postcode" v="47800"/>
    <tag k="addr:housenumber" v="9"/>
    <tag k="addr:street" v="Am Badezentrum "/>
    <tag k="leisure" v="sports_centre"/>
  </node>
  <node id="-3921" version="0" timestamp="Fri Feb 24 10:53:35 +0100 2012" uid="1" user="" lat="51.5147" lon="6.84693">
    <tag k="shop" v="bakery"/>
    <tag k="name" v="BackWerk"/>
    <tag k="wheelchair" v="yes"/>
    <tag k="addr:city" v="Oberhausen"/>
    <tag k="addr:postcode" v="46145"/>
    <tag k="addr:housenumber" v="42"/>
    <tag k="addr:street" v="Bahnhofstraße"/>
    <tag k="phone" v="+49 208 6204776"/>
  </node>
  <node id="-3922" version="0" timestamp="Fri Feb 24 10:53:35 +0100 2012" uid="1" user="" lat="51.5154369" lon="6.8469155">
    <tag k="name" v="Sanavita Apotheke"/>
    <tag k="wheelchair" v="yes"/>
    <tag k="addr:city" v="Oberhausen"/>
    <tag k="addr:postcode" v="46145"/>
    <tag k="addr:housenumber" v="3"/>
    <tag k="addr:street" v="Finanzstr"/>
    <tag k="amenity" v="pharmacy"/>
    <tag k="website" v="http://www.sanavita-apotheke.de/"/>
    <tag k="phone" v="+49 208 631422"/>
  </node>
  <node id="-4092" version="0" timestamp="Fri Feb 24 10:53:36 +0100 2012" uid="1" user="" lat="51.33896" lon="6.34831">
    <tag k="name" v="Malteser Hilfsdienst e.V. Dienststelle Malteser-Haus"/>
    <tag k="wheelchair" v="yes"/>
    <tag k="addr:city" v="Grefrath"/>
    <tag k="addr:postcode" v="47929"/>
    <tag k="addr:housenumber" v="39"/>
    <tag k="addr:street" v="Mülhausener Str."/>
    <tag k="wheelchair:description" v="ebenerdiger Eingang über den Hof"/>
    <tag k="amenity" v="place_of_worship"/>
    <tag k="website" v="http://www.malteser-grefrath.de"/>
    <tag k="phone" v="+49215891989-0"/>
  </node>
  <node id="-4093" version="0" timestamp="Fri Feb 24 10:53:36 +0100 2012" uid="1" user="" lat="51.3484368" lon="6.3406432">
    <tag k="name" v="Eisstadion"/>
    <tag k="wheelchair" v="yes"/>
    <tag k="addr:city" v="Grefrath"/>
    <tag k="addr:postcode" v="47929"/>
    <tag k="addr:housenumber" v="161"/>
    <tag k="addr:street" v="Stadionstr."/>
    <tag k="wheelchair:description" v="Stufe am Eingang, zeitweise mit Rampe ausgestattet"/>
    <tag k="leisure" v="arena"/>
    <tag k="website" v="http://www.eisstadion.de"/>
    <tag k="phone" v="+49 2158 9189-0"/>
  </node>
  <node id="-4123" version="0" timestamp="Fri Feb 24 10:53:36 +0100 2012" uid="1" user="" lat="51.2167" lon="6.7667">
    <tag k="name" v="Atenburg"/>
    <tag k="wheelchair" v="unknown"/>
    <tag k="amenity" v="bank"/>
  </node>
  <node id="-4125" version="0" timestamp="Fri Feb 24 10:53:36 +0100 2012" uid="1" user="" lat="51.19374" lon="7.26334">
    <tag k="name" v="bachus görlich"/>
    <tag k="wheelchair" v="unknown"/>
    <tag k="addr:city" v="remscheid"/>
    <tag k="addr:postcode" v="42897"/>
    <tag k="addr:housenumber" v="4"/>
    <tag k="addr:street" v="Lerchenweg "/>
    <tag k="amenity" v="bank"/>
    <tag k="website" v="http://www.frauenaerzte.de/dorotheebachus"/>
  </node>
  <node id="-4140" version="0" timestamp="Fri Feb 24 10:53:36 +0100 2012" uid="1" user="" lat="51.4416531" lon="6.6620942">
    <tag k="name" v="Praxis Mackes Kinder-und Jugendlichenpsychotherapeutin"/>
    <tag k="wheelchair" v="unknown"/>
    <tag k="addr:city" v="Moers"/>
    <tag k="addr:postcode" v="47441"/>
    <tag k="addr:housenumber" v="426 b"/>
    <tag k="addr:street" v="Römerstraße"/>
    <tag k="wheelchair:description" v="die Praxis liegt in der 2. Etage, per Rampe und Aufzug gut zu erreichen, leider keine behindertengere Toilette"/>
    <tag k="amenity" v="doctors"/>
    <tag k="website" v="http://www.praxis-mackes.de"/>
    <tag k="phone" v="02841 - 8891170"/>
  </node>
  <node id="-4141" version="0" timestamp="Fri Feb 24 10:53:36 +0100 2012" uid="1" user="" lat="51.4439619" lon="6.2667063">
    <tag k="name" v="HNO- Praxis Dr. Martin Reich und Dr. Irini Voßmeyer"/>
    <tag k="wheelchair" v="limited"/>
    <tag k="addr:city" v="Straelen"/>
    <tag k="addr:postcode" v="47638"/>
    <tag k="addr:housenumber" v="20"/>
    <tag k="addr:street" v="Venloer Straße"/>
    <tag k="wheelchair:description" v="Eingang und Zugang zu allen Räumen rollstuhlgerecht, kein rollstuhlgerechte Toilette "/>
    <tag k="amenity" v="doctors"/>
    <tag k="website" v="http://www.hno-straelen.de"/>
    <tag k="phone" v="02834 - 943261"/>
  </node>
  <node id="-4156" version="0" timestamp="Fri Feb 24 10:53:36 +0100 2012" uid="1" user="" lat="51.4665346" lon="6.769808">
    <tag k="name" v="Postbank"/>
    <tag k="wheelchair" v="yes"/>
    <tag k="amenity" v="post_office"/>
  </node>
  <node id="-4158" version="0" timestamp="Fri Feb 24 10:53:36 +0100 2012" uid="1" user="" lat="51.3357278" lon="6.3396721">
    <tag k="name" v="Pizzeria Sicilia"/>
    <tag k="wheelchair" v="limited"/>
    <tag k="addr:city" v="Grefrath"/>
    <tag k="addr:postcode" v="47929"/>
    <tag k="addr:housenumber" v="39"/>
    <tag k="addr:street" v="Hohe Str."/>
    <tag k="wheelchair:description" v="2 Stufen am Eingang"/>
    <tag k="amenity" v="restaurant"/>
    <tag k="phone" v="+49 2158 3901"/>
  </node>
  <node id="-4159" version="0" timestamp="Fri Feb 24 10:53:36 +0100 2012" uid="1" user="" lat="51.3357903" lon="6.3403191">
    <tag k="shop" v="electronics"/>
    <tag k="name" v="Radio Fernbach Bang &amp; Olufsen Center"/>
    <tag k="wheelchair" v="limited"/>
    <tag k="addr:postcode" v="4"/>
    <tag k="addr:housenumber" v="41"/>
    <tag k="addr:street" v="Hohe Str."/>
  </node>
  <node id="-4205" version="0" timestamp="Fri Feb 24 10:53:36 +0100 2012" uid="1" user="" lat="51.330573" lon="6.3394758">
    <tag k="shop" v="furniture"/>
    <tag k="name" v="Möbel Wehnen"/>
    <tag k="wheelchair" v="yes"/>
    <tag k="addr:city" v="Grefrath"/>
    <tag k="addr:postcode" v="47929"/>
    <tag k="addr:housenumber" v="20"/>
    <tag k="addr:street" v="Pastoratshof"/>
    <tag k="website" v="http://www.moebel-wehnen.de/"/>
    <tag k="phone" v="+49 2158 4090"/>
  </node>
  <node id="-4207" version="0" timestamp="Fri Feb 24 10:53:36 +0100 2012" uid="1" user="" lat="51.19231" lon="6.79355">
    <tag k="name" v="Cafe Uno "/>
    <tag k="wheelchair" v="yes"/>
    <tag k="wheelchair:description" v="Am Seiteneingang steht eine Aufzug zur Verfügung "/>
    <tag k="amenity" v="cafe"/>
  </node>
  <node id="-4208" version="0" timestamp="Fri Feb 24 10:53:36 +0100 2012" uid="1" user="" lat="51.192" lon="6.79247">
    <tag k="name" v="Studentenwerk Düsseldorf "/>
    <tag k="wheelchair" v="yes"/>
    <tag k="wheelchair:description" v="Zugang über den Haupteingang (Behindertentoilette neben dem Infopoint) "/>
    <tag k="amenity" v="university"/>
  </node>
  <node id="-4212" version="0" timestamp="Fri Feb 24 10:53:36 +0100 2012" uid="1" user="" lat="51.19187" lon="6.79276">
    <tag k="name" v="Studentenwohnheim Universitätsstraße 1 Haus 17"/>
    <tag k="wheelchair" v="yes"/>
    <tag k="addr:city" v="Düsseldorf"/>
    <tag k="addr:postcode" v="40225 "/>
    <tag k="addr:housenumber" v="1 Haus 17 "/>
    <tag k="addr:street" v="Universitätsstraße "/>
    <tag k="wheelchair:description" v="Seiteneingang - Rampe -  Fahrstühle  - der Zugang zu den Behindertenapartments ist barrierefrei möglich sowohl von der Straße aös auch zur Magistrale möglich "/>
    <tag k="amenity" v="college"/>
    <tag k="website" v="http://www.studentenwerk-duesseldorf.de/"/>
    <tag k="phone" v="+49 211 8114777"/>
  </node>
  <node id="-4291" version="0" timestamp="Fri Feb 24 10:53:36 +0100 2012" uid="1" user="" lat="51.3036" lon="6.4276">
    <tag k="name" v="Pfarrhaus"/>
    <tag k="wheelchair" v="yes"/>
    <tag k="amenity" v="place_of_worship"/>
  </node>
  <node id="-4306" version="0" timestamp="Fri Feb 24 10:53:36 +0100 2012" uid="1" user="" lat="51.0935956" lon="6.8139649">
    <tag k="name" v="McDonald&apos;s"/>
    <tag k="wheelchair" v="yes"/>
    <tag k="amenity" v="fast_food"/>
  </node>
  <node id="-4307" version="0" timestamp="Fri Feb 24 10:53:36 +0100 2012" uid="1" user="" lat="51.0945408" lon="6.8099897">
    <tag k="shop" v="computer"/>
    <tag k="name" v="ProMarkt"/>
    <tag k="wheelchair" v="yes"/>
  </node>
  <node id="-4333" version="0" timestamp="Fri Feb 24 10:53:36 +0100 2012" uid="1" user="" lat="51.2208158" lon="6.7782127">
    <tag k="name" v="ZiN-ZiN Gourmetrestaurant-bar-lounge"/>
    <tag k="wheelchair" v="yes"/>
    <tag k="addr:city" v="Düsseldorf"/>
    <tag k="addr:postcode" v="40215"/>
    <tag k="addr:housenumber" v="59"/>
    <tag k="addr:street" v="Königsallee "/>
    <tag k="amenity" v="restaurant"/>
    <tag k="website" v="http://www.zin-zin.de"/>
    <tag k="phone" v="021186399924"/>
  </node>
  <node id="-4336" version="0" timestamp="Fri Feb 24 10:53:36 +0100 2012" uid="1" user="" lat="51.17698" lon="7.19363">
    <tag k="name" v="Vital und Kosmetik Center"/>
    <tag k="wheelchair" v="yes"/>
    <tag k="addr:city" v="Remscheid"/>
    <tag k="addr:postcode" v="42853"/>
    <tag k="addr:housenumber" v="8"/>
    <tag k="addr:street" v="Martin-Luther-Straße"/>
    <tag k="website" v="http://www.vitalundkosmetik.de"/>
    <tag k="phone" v="02191 8909035"/>
    <tag k="office" v="company"/>
  </node>
  <node id="-4337" version="0" timestamp="Fri Feb 24 10:53:36 +0100 2012" uid="1" user="" lat="51.18199" lon="7.18041">
    <tag k="shop" v="hairdresser"/>
    <tag k="name" v="Friseur haar-time"/>
    <tag k="wheelchair" v="limited"/>
    <tag k="addr:city" v="Remscheid"/>
    <tag k="addr:postcode" v="42853"/>
    <tag k="addr:housenumber" v="2"/>
    <tag k="addr:street" v="Rathausstraße"/>
    <tag k="wheelchair:description" v="Eingang und Salon stufenlos, WC 1 Etage tiefer - über Treppen"/>
    <tag k="website" v="http://www.haar-time.com/"/>
    <tag k="phone" v="02191 5926969"/>
  </node>
  <node id="-4415" version="0" timestamp="Fri Feb 24 10:53:36 +0100 2012" uid="1" user="" lat="51.2342628" lon="7.2805">
    <tag k="name" v="Café Sondernbar"/>
    <tag k="wheelchair" v="yes"/>
    <tag k="addr:city" v="Wuppertal"/>
    <tag k="addr:postcode" v="42399"/>
    <tag k="addr:housenumber" v="6"/>
    <tag k="addr:street" v="Obersondern"/>
    <tag k="wheelchair:description" v="keinerlei Stufen oder Hindernisse"/>
    <tag k="amenity" v="cafe"/>
    <tag k="website" v="http://www.cafe-sondernbar.de"/>
    <tag k="phone" v="0202261210"/>
  </node>
  <node id="-4416" version="0" timestamp="Fri Feb 24 10:53:36 +0100 2012" uid="1" user="" lat="51.1811043" lon="7.1856168">
    <tag k="name" v="Schweinske Remscheid"/>
    <tag k="wheelchair" v="limited"/>
    <tag k="addr:city" v="Remscheid"/>
    <tag k="addr:postcode" v="42853"/>
    <tag k="addr:housenumber" v="85"/>
    <tag k="addr:street" v="Alleestraße"/>
    <tag k="wheelchair:description" v="Eine Stufe am Eingang. Toilette im Keller mit Treppe"/>
    <tag k="amenity" v="restaurant"/>
    <tag k="website" v="http://www.schweinske-remscheid.de/"/>
    <tag k="phone" v="02191 / 463 03 99"/>
  </node>
  <node id="-4550" version="0" timestamp="Fri Feb 24 10:53:36 +0100 2012" uid="1" user="" lat="51.8309915" lon="6.2380563">
    <tag k="name" v="Rathaus"/>
    <tag k="wheelchair" v="yes"/>
    <tag k="addr:city" v="Emmerich am Rhein"/>
    <tag k="addr:postcode" v="46446"/>
    <tag k="addr:housenumber" v="1"/>
    <tag k="addr:street" v="Geistmarkt"/>
    <tag k="amenity" v="townhall"/>
    <tag k="website" v="http://www.emmerich.de"/>
    <tag k="phone" v="02822 / 75-0"/>
  </node>
  <node id="-4560" version="0" timestamp="Fri Feb 24 10:53:36 +0100 2012" uid="1" user="" lat="51.2294363" lon="6.5024723">
    <tag k="name" v="Duesseldorf Moenchengladbach"/>
    <tag k="wheelchair" v="yes"/>
    <tag k="addr:city" v="Mönchengladbach"/>
    <tag k="addr:postcode" v="41066"/>
    <tag k="addr:housenumber" v="95"/>
    <tag k="addr:street" v="Flughafenstraße"/>
    <tag k="wheelchair:description" v="Behinderten WC, Terasse"/>
    <tag k="aeroway" v="terminal"/>
    <tag k="website" v="http://www.mgl.de/"/>
    <tag k="phone" v="+49 2161 68980"/>
  </node>
  <node id="-4561" version="0" timestamp="Fri Feb 24 10:53:36 +0100 2012" uid="1" user="" lat="51.1763293" lon="6.4392391">
    <tag k="name" v="Capere"/>
    <tag k="wheelchair" v="yes"/>
    <tag k="addr:city" v="Mönchengladbach"/>
    <tag k="addr:postcode" v="41065"/>
    <tag k="addr:housenumber" v="365"/>
    <tag k="addr:street" v="Rheydter Straße"/>
    <tag k="wheelchair:description" v="kein behindertengerechtes WC"/>
    <tag k="amenity" v="restaurant"/>
  </node>
  <node id="-4591" version="0" timestamp="Fri Feb 24 10:53:36 +0100 2012" uid="1" user="" lat="51.24782" lon="6.69778">
    <tag k="shop" v="electronics"/>
    <tag k="name" v="Leuchtenhaus Jung"/>
    <tag k="wheelchair" v="yes"/>
    <tag k="addr:city" v="Meerbusch"/>
    <tag k="addr:postcode" v="40667"/>
    <tag k="addr:housenumber" v="56"/>
    <tag k="addr:street" v="Düsseldorfer Straße "/>
    <tag k="website" v="http://www.leuchtenhaus-jung.de"/>
    <tag k="phone" v="0213277577"/>
  </node>
  <node id="-4596" version="0" timestamp="Fri Feb 24 10:53:36 +0100 2012" uid="1" user="" lat="51.76795" lon="6.14571">
    <tag k="name" v="Berufskolleg des Kreises Kleve in Kleve"/>
    <tag k="wheelchair" v="limited"/>
    <tag k="addr:city" v="Kleve"/>
    <tag k="addr:postcode" v="47533"/>
    <tag k="addr:housenumber" v="7"/>
    <tag k="addr:street" v="Felix-Roeloffs-Straße"/>
    <tag k="amenity" v="school"/>
    <tag k="website" v="http://www.berufskolleg-kleve.de"/>
  </node>
  <node id="-4597" version="0" timestamp="Fri Feb 24 10:53:36 +0100 2012" uid="1" user="" lat="51.7979522" lon="6.1437264">
    <tag k="name" v="Radhaus"/>
    <tag k="wheelchair" v="yes"/>
    <tag k="addr:city" v="Kleve"/>
    <tag k="addr:postcode" v="47533"/>
    <tag k="addr:housenumber" v="37"/>
    <tag k="addr:street" v="Sommerdeich"/>
    <tag k="wheelchair:description" v="Regelmäßig komplett barrierefreie Lila-Pause-Disco"/>
    <tag k="amenity" v="nightclub"/>
    <tag k="website" v="http://www.radhaus-kleve.de"/>
    <tag k="phone" v="+49 2821 18392"/>
  </node>
  <node id="-4607" version="0" timestamp="Fri Feb 24 10:53:36 +0100 2012" uid="1" user="" lat="51.0942728" lon="6.8411863">
    <tag k="shop" v="photo"/>
    <tag k="name" v="Fotostudio Freibeuter"/>
    <tag k="wheelchair" v="no"/>
    <tag k="wheelchair:description" v="das Studio selbst nur über mehrere Stufen erreichbar"/>
  </node>
  <node id="-4656" version="0" timestamp="Fri Feb 24 10:53:36 +0100 2012" uid="1" user="" lat="51.4186227" lon="6.8704967">
    <tag k="shop" v="alcohol"/>
    <tag k="name" v="Jacques&apos; Wein-Depot"/>
    <tag k="wheelchair" v="yes"/>
    <tag k="addr:city" v="Mülheim an der Ruhr"/>
    <tag k="addr:postcode" v="45479"/>
    <tag k="addr:housenumber" v="32"/>
    <tag k="addr:street" v="Kassenberg"/>
    <tag k="website" v="http://www.jacques.de/"/>
    <tag k="phone" v="0208 428672"/>
  </node>
  <node id="-4744" version="0" timestamp="Fri Feb 24 10:53:36 +0100 2012" uid="1" user="" lat="51.2518784" lon="6.3352668">
    <tag k="name" v="Ristorante Pizzeria San Marco"/>
    <tag k="wheelchair" v="no"/>
    <tag k="addr:city" v="Viersen"/>
    <tag k="addr:postcode" v="41741"/>
    <tag k="addr:housenumber" v="1"/>
    <tag k="addr:street" v="Cap Horn"/>
    <tag k="amenity" v="restaurant"/>
  </node>
  <node id="-4759" version="0" timestamp="Fri Feb 24 10:53:36 +0100 2012" uid="1" user="" lat="51.4621589" lon="6.2428739">
    <tag k="name" v="Landgasthaus Zum Paradies"/>
    <tag k="wheelchair" v="yes"/>
    <tag k="addr:city" v="Straelen"/>
    <tag k="addr:postcode" v="47638"/>
    <tag k="addr:housenumber" v="43"/>
    <tag k="addr:street" v="Arcener Straße"/>
    <tag k="wheelchair:description" v="Alle Räume und Aussenflächen sind barierefrei!"/>
    <tag k="amenity" v="restaurant"/>
    <tag k="website" v="http://www.landgasthaus-zum-paradies.de"/>
    <tag k="phone" v="+49 2834 315"/>
  </node>
  <node id="-4765" version="0" timestamp="Fri Feb 24 10:53:36 +0100 2012" uid="1" user="" lat="51.2251" lon="6.77547">
    <tag k="shop" v="clothes"/>
    <tag k="name" v="LUCAS DE GRAEVE yachting"/>
    <tag k="wheelchair" v="yes"/>
    <tag k="addr:city" v="Düsseldorf"/>
    <tag k="addr:postcode" v="40213"/>
    <tag k="addr:housenumber" v="1a"/>
    <tag k="addr:street" v="Kasernenstrasse"/>
    <tag k="phone" v="+49 211 8629279"/>
  </node>
  <node id="-4767" version="0" timestamp="Fri Feb 24 10:53:36 +0100 2012" uid="1" user="" lat="51.6528451" lon="6.617999">
    <tag k="name" v="Zahnarztpraxis Volger"/>
    <tag k="wheelchair" v="yes"/>
    <tag k="addr:city" v="Wesel"/>
    <tag k="addr:postcode" v="46483"/>
    <tag k="addr:housenumber" v="35"/>
    <tag k="addr:street" v="Schillstr."/>
    <tag k="wheelchair:description" v="Rampe vorhanden"/>
    <tag k="amenity" v="doctors"/>
    <tag k="phone" v="+49 281 24254"/>
  </node>
  <node id="-4774" version="0" timestamp="Fri Feb 24 10:53:36 +0100 2012" uid="1" user="" lat="51.37033" lon="6.86378">
    <tag k="name" v="Apfelrot &amp; Suppengrün"/>
    <tag k="wheelchair" v="limited"/>
    <tag k="addr:city" v="Mülheim a.d. Ruhr"/>
    <tag k="addr:postcode" v="45481"/>
    <tag k="addr:housenumber" v="419"/>
    <tag k="addr:street" v="Kölner Strasse"/>
    <tag k="wheelchair:description" v="Toiletten leider nicht Rollstuhlgerecht. Hofladen + Café OK."/>
    <tag k="amenity" v="cafe"/>
    <tag k="website" v="http://www.apfelrot-und-suppengruen.de"/>
    <tag k="phone" v="+49 208 5829 4474"/>
  </node>
  <node id="-4775" version="0" timestamp="Fri Feb 24 10:53:36 +0100 2012" uid="1" user="" lat="51.3652152" lon="6.863643">
    <tag k="name" v="Apfelrot &amp; Suppengrün"/>
    <tag k="wheelchair" v="limited"/>
    <tag k="addr:city" v="Mülheim a.d. Ruhr"/>
    <tag k="addr:postcode" v="45481"/>
    <tag k="addr:housenumber" v="419"/>
    <tag k="addr:street" v="Kölner Str"/>
    <tag k="wheelchair:description" v="Toiletten leider nicht Rollstuhlgerecht. Hofladen + Café OK."/>
    <tag k="amenity" v="cafe"/>
    <tag k="website" v="http://www.apfelrot-und-suppengruen.de"/>
  </node>
  <node id="-5012" version="0" timestamp="Fri Feb 24 10:53:36 +0100 2012" uid="1" user="" lat="51.35386" lon="6.6433">
    <tag k="shop" v="hairdresser"/>
    <tag k="name" v="Friseur Nimeth"/>
    <tag k="wheelchair" v="yes"/>
    <tag k="addr:city" v="Krefeld"/>
    <tag k="addr:postcode" v="47829"/>
    <tag k="addr:housenumber" v="20"/>
    <tag k="addr:street" v="Niederstraße "/>
  </node>
  <node id="-5060" version="0" timestamp="Fri Feb 24 10:53:37 +0100 2012" uid="1" user="" lat="51.17318" lon="6.93339">
    <tag k="shop" v="kiosk"/>
    <tag k="name" v="Der Laden opp de Eck"/>
    <tag k="wheelchair" v="yes"/>
    <tag k="addr:city" v="Hilden"/>
    <tag k="addr:postcode" v="40721"/>
    <tag k="addr:housenumber" v="70"/>
    <tag k="addr:street" v="Hoffeldstrasse"/>
    <tag k="wheelchair:description" v="kleine Kante an Türe, Geschäft innen geräumig und ebenerdig"/>
    <tag k="phone" v="02103/7153944 ‎ "/>
  </node>
  <node id="-5061" version="0" timestamp="Fri Feb 24 10:53:37 +0100 2012" uid="1" user="" lat="51.1731665" lon="6.9334115">
    <tag k="name" v="Der Laden opp de Eck‎"/>
    <tag k="wheelchair" v="yes"/>
    <tag k="addr:city" v="Hilden"/>
    <tag k="addr:postcode" v="40721"/>
    <tag k="addr:housenumber" v="70"/>
    <tag k="addr:street" v="Hoffeldstrasse"/>
    <tag k="wheelchair:description" v="kleine Kante an Eingangstüre"/>
    <tag k="amenity" v="post_office"/>
    <tag k="phone" v="+49 2103 7153944 ‎ "/>
  </node>
  <node id="-5062" version="0" timestamp="Fri Feb 24 10:53:37 +0100 2012" uid="1" user="" lat="51.1892343" lon="6.8146858">
    <tag k="name" v="Stephanuskirche"/>
    <tag k="wheelchair" v="limited"/>
    <tag k="wheelchair:description" v="Altarraum, Empore und Krypta &gt; 5 Stufen, ansonsten stufenlos -auch toiletten"/>
    <tag k="amenity" v="place_of_worship"/>
  </node>
  <node id="-5090" version="0" timestamp="Fri Feb 24 10:53:37 +0100 2012" uid="1" user="" lat="51.2719985" lon="7.200197">
    <tag k="name" v="Rathaus Wuppertal-Barmen"/>
    <tag k="wheelchair" v="yes"/>
    <tag k="wheelchair:description" v="ggf. beim Pförtner bzgl. des Aufzuges nachfragen"/>
    <tag k="amenity" v="townhall"/>
  </node>
  <node id="-5091" version="0" timestamp="Fri Feb 24 10:53:37 +0100 2012" uid="1" user="" lat="51.2733459" lon="7.2053555">
    <tag k="name" v="Pizza Boy"/>
    <tag k="wheelchair" v="yes"/>
    <tag k="addr:city" v="Wuppertal"/>
    <tag k="addr:postcode" v="42275"/>
    <tag k="addr:housenumber" v="20"/>
    <tag k="addr:street" v="Kleiner Werth"/>
    <tag k="wheelchair:description" v="Die Toiletten sind ausschließlich über 2 kleinere Stufen erreichbar"/>
    <tag k="amenity" v="fast_food"/>
    <tag k="website" v="http://www.pizza-boy.de"/>
    <tag k="phone" v="0202 2604444 "/>
  </node>
  <node id="-5099" version="0" timestamp="Fri Feb 24 10:53:37 +0100 2012" uid="1" user="" lat="51.4629062" lon="7.0414355">
    <tag k="name" v="Hundeschule Team Wolfsblut"/>
    <tag k="wheelchair" v="limited"/>
    <tag k="addr:city" v="Essen (Frillendorf)"/>
    <tag k="addr:postcode" v="45139"/>
    <tag k="addr:housenumber" v="(2a) in der Gartenanlage"/>
    <tag k="addr:street" v="Auf der Litten"/>
    <tag k="wheelchair:description" v="befahrbarer Hundeplatz, Vereinsheim über flache Stufen ebenerdiger Zugang"/>
    <tag k="website" v="http://www.teamwolfsblut.de"/>
    <tag k="phone" v="0177-7469586"/>
    <tag k="office" v="company"/>
  </node>
  <node id="-5157" version="0" timestamp="Fri Feb 24 10:53:37 +0100 2012" uid="1" user="" lat="51.169185" lon="6.9362305">
    <tag k="name" v="Altes Meldeamt"/>
    <tag k="wheelchair" v="yes"/>
    <tag k="wheelchair:description" v="Zugang vom Ellen-Wiederhold-Platz"/>
    <tag k="amenity" v="toilets"/>
  </node>
  <node id="-5271" version="0" timestamp="Fri Feb 24 10:53:37 +0100 2012" uid="1" user="" lat="51.1781371" lon="6.9346199">
    <tag k="name" v="Bürgertreff"/>
    <tag k="wheelchair" v="yes"/>
    <tag k="amenity" v="social_facility"/>
  </node>
  <node id="-5318" version="0" timestamp="Fri Feb 24 10:53:37 +0100 2012" uid="1" user="" lat="51.2256191" lon="6.7760741">
    <tag k="shop" v="electronics"/>
    <tag k="name" v="Vodafone Shop"/>
    <tag k="wheelchair" v="limited"/>
    <tag k="addr:city" v="Düsseldorf"/>
    <tag k="addr:postcode" v="40213"/>
    <tag k="addr:housenumber" v="57"/>
    <tag k="addr:street" v="Neustrasse"/>
    <tag k="website" v="http://www.vodafone.de"/>
  </node>
  <node id="-5319" version="0" timestamp="Fri Feb 24 10:53:37 +0100 2012" uid="1" user="" lat="51.2268555" lon="6.7834633">
    <tag k="shop" v="electronics"/>
    <tag k="name" v="Vodafone Shop"/>
    <tag k="wheelchair" v="limited"/>
    <tag k="addr:city" v="düsseldorf"/>
    <tag k="addr:postcode" v="40212"/>
    <tag k="addr:housenumber" v="42"/>
    <tag k="addr:street" v="Schadowstrasse"/>
    <tag k="wheelchair:description" v="sehr geräumig"/>
    <tag k="website" v="http://www.vodafone.de"/>
  </node>
  <node id="-5320" version="0" timestamp="Fri Feb 24 10:53:37 +0100 2012" uid="1" user="" lat="51.2067579" lon="6.8334658">
    <tag k="name" v="Spielplatz"/>
    <tag k="wheelchair" v="limited"/>
    <tag k="addr:city" v="Düsseldorf"/>
    <tag k="addr:postcode" v="40231"/>
    <tag k="addr:street" v="Am Hackenbruch"/>
    <tag k="amenity" v="bank"/>
  </node>
  <node id="-5321" version="0" timestamp="Fri Feb 24 10:53:37 +0100 2012" uid="1" user="" lat="51.2066049" lon="6.8313755">
    <tag k="name" v="DÜBS Düsseldorfer Bau und Spargenossenschaft"/>
    <tag k="wheelchair" v="yes"/>
    <tag k="addr:city" v="Düsseldorf"/>
    <tag k="addr:postcode" v="40231"/>
    <tag k="addr:housenumber" v="5"/>
    <tag k="addr:street" v="Am Turnisch"/>
    <tag k="website" v="HttP://www.duebs.de"/>
    <tag k="office" v="company"/>
  </node>
  <node id="-5322" version="0" timestamp="Fri Feb 24 10:53:37 +0100 2012" uid="1" user="" lat="51.20611" lon="6.8327">
    <tag k="name" v="Straßenbahn"/>
    <tag k="wheelchair" v="limited"/>
    <tag k="railway" v="tram_stop"/>
  </node>
  <node id="-5323" version="0" timestamp="Fri Feb 24 10:53:37 +0100 2012" uid="1" user="" lat="51.2057138" lon="6.8331746">
    <tag k="name" v="Am Hackenbruch"/>
    <tag k="wheelchair" v="limited"/>
    <tag k="railway" v="tram_stop"/>
  </node>
  <node id="-5329" version="0" timestamp="Fri Feb 24 10:53:37 +0100 2012" uid="1" user="" lat="51.1621027" lon="6.874716">
    <tag k="name" v="Urdenbacherallee"/>
    <tag k="wheelchair" v="no"/>
    <tag k="railway" v="station"/>
  </node>
  <node id="-5330" version="0" timestamp="Fri Feb 24 10:53:37 +0100 2012" uid="1" user="" lat="51.1619789" lon="6.8752457">
    <tag k="name" v="Urdenbacherallee"/>
    <tag k="wheelchair" v="no"/>
    <tag k="railway" v="station"/>
  </node>
  <node id="-5331" version="0" timestamp="Fri Feb 24 10:53:37 +0100 2012" uid="1" user="" lat="51.166459" lon="6.8718726">
    <tag k="name" v="Netzwerk-Werkstatt Düsseldorf"/>
    <tag k="wheelchair" v="yes"/>
    <tag k="addr:city" v="Düsseldorf"/>
    <tag k="addr:street" v="Calvinstr. 14"/>
    <tag k="amenity" v="social_facility"/>
    <tag k="website" v="http://www.netzwerk-benrath.de"/>
    <tag k="phone" v="0211 7100663"/>
  </node>
  <node id="-5332" version="0" timestamp="Fri Feb 24 10:53:37 +0100 2012" uid="1" user="" lat="51.1684517" lon="6.8724424">
    <tag k="shop" v="beverages"/>
    <tag k="name" v="Trinkgut"/>
    <tag k="wheelchair" v="limited"/>
  </node>
  <node id="-5333" version="0" timestamp="Fri Feb 24 10:53:37 +0100 2012" uid="1" user="" lat="51.1656861" lon="6.8702352">
    <tag k="name" v="Dankeskirche"/>
    <tag k="wheelchair" v="yes"/>
    <tag k="historic" v="memorial"/>
  </node>
  <node id="-5364" version="0" timestamp="Fri Feb 24 10:53:37 +0100 2012" uid="1" user="" lat="51.25768" lon="7.15358">
    <tag k="name" v="Santander Consumer Bank"/>
    <tag k="wheelchair" v="limited"/>
    <tag k="addr:city" v="Wuppertal"/>
    <tag k="addr:postcode" v="42103"/>
    <tag k="addr:housenumber" v="38"/>
    <tag k="addr:street" v="Hofkamp"/>
    <tag k="amenity" v="bank"/>
    <tag k="website" v="http://www.santander.de"/>
  </node>
  <node id="-5372" version="0" timestamp="Fri Feb 24 10:53:37 +0100 2012" uid="1" user="" lat="51.46929" lon="6.84771">
    <tag k="name" v="Santander Consumer Bank"/>
    <tag k="wheelchair" v="limited"/>
    <tag k="addr:city" v="Oberhausen"/>
    <tag k="addr:postcode" v="46045"/>
    <tag k="addr:housenumber" v="64"/>
    <tag k="addr:street" v="Marktstraße "/>
    <tag k="amenity" v="bank"/>
    <tag k="website" v="http://www.santander.de"/>
  </node>
  <node id="-5388" version="0" timestamp="Fri Feb 24 10:53:37 +0100 2012" uid="1" user="" lat="51.22202" lon="6.78181">
    <tag k="name" v="Santander Consumer Bank"/>
    <tag k="wheelchair" v="limited"/>
    <tag k="addr:city" v="Düsseldorf"/>
    <tag k="addr:postcode" v="40212"/>
    <tag k="addr:housenumber" v="47"/>
    <tag k="addr:street" v="Berliner Allee "/>
    <tag k="amenity" v="bank"/>
    <tag k="website" v="http://www.santander.de"/>
  </node>
  <node id="-5415" version="0" timestamp="Fri Feb 24 10:53:37 +0100 2012" uid="1" user="" lat="51.27102" lon="7.20057">
    <tag k="name" v="Santander Consumer Bank"/>
    <tag k="wheelchair" v="limited"/>
    <tag k="addr:city" v="Wuppertal"/>
    <tag k="addr:postcode" v="42275"/>
    <tag k="addr:housenumber" v="12"/>
    <tag k="addr:street" v="Rolingswerth"/>
    <tag k="amenity" v="bank"/>
    <tag k="website" v="http://www.santander.de"/>
  </node>
  <node id="-5424" version="0" timestamp="Fri Feb 24 10:53:37 +0100 2012" uid="1" user="" lat="51.17159" lon="7.08537">
    <tag k="name" v="Santander Consumer Bank"/>
    <tag k="wheelchair" v="limited"/>
    <tag k="addr:city" v="Solingen"/>
    <tag k="addr:postcode" v="42651"/>
    <tag k="addr:housenumber" v="20-22"/>
    <tag k="addr:street" v="Hauptstraße "/>
    <tag k="amenity" v="bank"/>
    <tag k="website" v="http://www.santander.de"/>
  </node>
  <node id="-5428" version="0" timestamp="Fri Feb 24 10:53:37 +0100 2012" uid="1" user="" lat="51.65817" lon="6.62394">
    <tag k="name" v="Santander Consumer Bank"/>
    <tag k="wheelchair" v="limited"/>
    <tag k="addr:city" v="Wesen"/>
    <tag k="addr:postcode" v="46483"/>
    <tag k="addr:housenumber" v="2-4"/>
    <tag k="addr:street" v="Friedrichstraße"/>
    <tag k="amenity" v="bank"/>
    <tag k="website" v="http://www.santander.de"/>
  </node>
  <node id="-5429" version="0" timestamp="Fri Feb 24 10:53:37 +0100 2012" uid="1" user="" lat="51.45496" lon="7.01014">
    <tag k="name" v="Santander Consumer Bank"/>
    <tag k="wheelchair" v="limited"/>
    <tag k="addr:city" v="Essen"/>
    <tag k="addr:postcode" v="45127"/>
    <tag k="addr:housenumber" v="29"/>
    <tag k="addr:street" v="Brandstraße"/>
    <tag k="amenity" v="bank"/>
    <tag k="website" v="http://www.santander.de"/>
  </node>
  <node id="-5465" version="0" timestamp="Fri Feb 24 10:53:37 +0100 2012" uid="1" user="" lat="51.22824" lon="6.75082">
    <tag k="name" v="Muggel"/>
    <tag k="wheelchair" v="limited"/>
    <tag k="addr:city" v="Düsseldorf"/>
    <tag k="addr:postcode" v="40545"/>
    <tag k="addr:housenumber" v="4"/>
    <tag k="addr:street" v="Domikanerstraße"/>
    <tag k="amenity" v="cafe"/>
  </node>
  <node id="-5691" version="0" timestamp="Fri Feb 24 10:53:37 +0100 2012" uid="1" user="" lat="51.44167" lon="7.00561">
    <tag k="name" v="Die insel Bistro"/>
    <tag k="wheelchair" v="limited"/>
    <tag k="addr:city" v="Essen"/>
    <tag k="addr:postcode" v="45130"/>
    <tag k="addr:housenumber" v="59"/>
    <tag k="addr:street" v="Rüttenscheider Str."/>
    <tag k="wheelchair:description" v="Gastraum über Rampe zu erreichen Toiletten über 2 Treppen mit insgesamt etwa 20 Stufen ins Kellergeschoß, Restgehfähigkeit sollte vorhanden sein, Personal freundlich und hilft gerne bei der Bewältigung der Treppen"/>
    <tag k="amenity" v="bank"/>
    <tag k="website" v="http://www.insel-bistro.de/"/>
    <tag k="phone" v="0201 7269022"/>
  </node>
  <node id="-5693" version="0" timestamp="Fri Feb 24 10:53:37 +0100 2012" uid="1" user="" lat="51.44167" lon="7.00561">
    <tag k="name" v="Die insel Bistro"/>
    <tag k="wheelchair" v="limited"/>
    <tag k="addr:city" v="Essen"/>
    <tag k="addr:postcode" v="45130"/>
    <tag k="addr:housenumber" v="59"/>
    <tag k="addr:street" v="Rüttenscheider Str."/>
    <tag k="wheelchair:description" v="Gastraum über Rampe zu erreichen Toiletten über 2 Treppen mit insgesamt etwa 20 Stufen ins Kellergeschoß, Restgehfähigkeit sollte vorhanden sein, Personal freundlich und hilft gerne bei der Bewältigung der Treppen"/>
    <tag k="amenity" v="cafe"/>
    <tag k="website" v="http://www.insel-bistro.de/"/>
    <tag k="phone" v="0201 7269022"/>
  </node>
</osm>
