<?xml version='1.0' encoding='UTF-8'?>
<osm version="0.6" generator="Osmosis 0.39">
  <node id="-125" version="0" timestamp="Fri Feb 24 10:53:32 +0100 2012" uid="1" user="" lat="50.92636" lon="7.26911">
    <tag k="name" v="Bürgerhaus"/>
    <tag k="wheelchair" v="limited"/>
    <tag k="addr:city" v="Overath"/>
    <tag k="addr:postcode" v="51491"/>
  </node>
  <node id="-169" version="0" timestamp="Fri Feb 24 10:53:32 +0100 2012" uid="1" user="" lat="50.9826" lon="7.10239">
    <tag k="shop" v="doityourself"/>
    <tag k="name" v="Hammer Fachmarkt für Heimtextilien"/>
    <tag k="wheelchair" v="yes"/>
  </node>
  <node id="-170" version="0" timestamp="Fri Feb 24 10:53:32 +0100 2012" uid="1" user="" lat="50.98821" lon="7.1133">
    <tag k="shop" v="butcher"/>
    <tag k="name" v="Wünsch&apos;s Wurst- und Fleischspezialitäten"/>
    <tag k="wheelchair" v="no"/>
    <tag k="wheelchair:description" v="Es sind zwar keine Stufen zu überwinden, aber die Gänge im Laden sind einfach zu schmal, so dass mit einem handelsüblichen Rolli das Einkaufen nicht möglich ist."/>
  </node>
  <node id="-171" version="0" timestamp="Fri Feb 24 10:53:32 +0100 2012" uid="1" user="" lat="50.9404742" lon="6.9741266">
    <tag k="name" v="Öffentlich Toilette im S-Bahnhof Köln Messe/Deutz"/>
    <tag k="wheelchair" v="yes"/>
    <tag k="wheelchair:description" v="Behindertengerechte Toilette mit Schlüssel des CBF Darmstadt zu öffnen"/>
    <tag k="amenity" v="toilets"/>
  </node>
  <node id="-246" version="0" timestamp="Fri Feb 24 10:53:32 +0100 2012" uid="1" user="" lat="50.9042358" lon="7.1484798">
    <tag k="name" v="Physiotherapie Meier"/>
    <tag k="wheelchair" v="yes"/>
    <tag k="leisure" v="sports_centre"/>
  </node>
  <node id="-249" version="0" timestamp="Fri Feb 24 10:53:32 +0100 2012" uid="1" user="" lat="50.9138177" lon="7.1971745">
    <tag k="name" v="Stadtverwaltung"/>
    <tag k="wheelchair" v="yes"/>
  </node>
  <node id="-297" version="0" timestamp="Fri Feb 24 10:53:32 +0100 2012" uid="1" user="" lat="50.9514159" lon="6.9114336">
    <tag k="name" v="Cinenova"/>
    <tag k="wheelchair" v="yes"/>
    <tag k="amenity" v="cinema"/>
    <tag k="website" v="http://www.cinenova.de/"/>
  </node>
  <node id="-298" version="0" timestamp="Fri Feb 24 10:53:32 +0100 2012" uid="1" user="" lat="50.9496" lon="6.91303">
    <tag k="name" v="Underground"/>
    <tag k="wheelchair" v="limited"/>
    <tag k="amenity" v="nightclub"/>
    <tag k="website" v="http://www.underground-cologne.de/"/>
  </node>
  <node id="-355" version="0" timestamp="Fri Feb 24 10:53:32 +0100 2012" uid="1" user="" lat="50.8751" lon="6.47042">
    <tag k="name" v="La Fontana"/>
    <tag k="wheelchair" v="yes"/>
    <tag k="addr:city" v="Niederzier"/>
    <tag k="addr:postcode" v="52382"/>
    <tag k="addr:housenumber" v="30"/>
    <tag k="addr:street" v="Am Weiherhof"/>
    <tag k="wheelchair:description" v="100 %"/>
    <tag k="amenity" v="restaurant"/>
    <tag k="website" v="http://www.lafontana.de/"/>
    <tag k="phone" v="+49 2428 5949"/>
  </node>
  <node id="-470" version="0" timestamp="Fri Feb 24 10:53:32 +0100 2012" uid="1" user="" lat="51.0920595" lon="7.0569114">
    <tag k="name" v="Zur Delle"/>
    <tag k="wheelchair" v="yes"/>
    <tag k="addr:city" v="Leverkusen"/>
    <tag k="addr:postcode" v="51381"/>
    <tag k="addr:housenumber" v="367"/>
    <tag k="addr:street" v="Burscheider Str."/>
    <tag k="wheelchair:description" v="komplett ebenerdig"/>
    <tag k="amenity" v="restaurant"/>
    <tag k="website" v="http://www.zur-delle.de"/>
    <tag k="phone" v="02171/30187"/>
  </node>
  <node id="-510" version="0" timestamp="Fri Feb 24 10:53:32 +0100 2012" uid="1" user="" lat="50.7572223" lon="7.0811064">
    <tag k="name" v="Haus am Müllestumpe"/>
    <tag k="wheelchair" v="yes"/>
    <tag k="addr:city" v="Bonn"/>
    <tag k="addr:postcode" v="53117"/>
    <tag k="addr:housenumber" v="22"/>
    <tag k="addr:street" v="An der Rheindorfer Burg "/>
    <tag k="wheelchair:description" v="Barrierefreie Eingänge, Rollstuhlgerechte Toiletten, Barrierefreie Hotellzimmer."/>
    <tag k="amenity" v="restaurant"/>
    <tag k="website" v="http://www.muellestumpe.de/"/>
    <tag k="phone" v="+49 (0) 228 / 24 99 09-0"/>
  </node>
  <node id="-514" version="0" timestamp="Fri Feb 24 10:53:32 +0100 2012" uid="1" user="" lat="50.9744444" lon="6.9615335">
    <tag k="shop" v="clothes"/>
    <tag k="name" v="Dikay51 Maßatelier Köln"/>
    <tag k="wheelchair" v="yes"/>
    <tag k="addr:city" v="Köln-Niehl"/>
    <tag k="addr:postcode" v="50735"/>
    <tag k="addr:housenumber" v="107"/>
    <tag k="addr:street" v="Fridrich-Karl-Str."/>
    <tag k="website" v="http://www.dikay51-deustchland.de"/>
    <tag k="phone" v="+49 221 7122713"/>
  </node>
  <node id="-516" version="0" timestamp="Fri Feb 24 10:53:32 +0100 2012" uid="1" user="" lat="50.80912" lon="7.17633">
    <tag k="name" v="Aggua Troisdorf"/>
    <tag k="wheelchair" v="yes"/>
    <tag k="addr:city" v="Troisdorf"/>
    <tag k="addr:housenumber" v="22"/>
    <tag k="addr:street" v="Aggerdamm"/>
    <tag k="wheelchair:description" v="überall Rampen, Große Rollstuhlgerechte Dusche und WC"/>
    <tag k="amenity" v="swimming_pool"/>
  </node>
  <node id="-608" version="0" timestamp="Fri Feb 24 10:53:32 +0100 2012" uid="1" user="" lat="51.13498" lon="7.1984">
    <tag k="shop" v="supermarket"/>
    <tag k="name" v="Toom Einkaufscentrum"/>
    <tag k="wheelchair" v="yes"/>
  </node>
  <node id="-609" version="0" timestamp="Fri Feb 24 10:53:32 +0100 2012" uid="1" user="" lat="51.1345423" lon="7.1957388">
    <tag k="shop" v="doityourself"/>
    <tag k="name" v="OBI Wermelskirchen"/>
    <tag k="wheelchair" v="yes"/>
  </node>
  <node id="-632" version="0" timestamp="Fri Feb 24 10:53:32 +0100 2012" uid="1" user="" lat="50.7763234" lon="6.07677">
    <tag k="name" v="Knossos"/>
    <tag k="wheelchair" v="limited"/>
    <tag k="wheelchair:description" v="kleine Stufe am Eingang, innen recht eng - aber lecker! :)"/>
    <tag k="amenity" v="restaurant"/>
    <tag k="website" v="http://www.knossos-ac.de/"/>
  </node>
  <node id="-633" version="0" timestamp="Fri Feb 24 10:53:32 +0100 2012" uid="1" user="" lat="50.96373" lon="7.16296">
    <tag k="name" v="Bensberger Bank VR"/>
    <tag k="wheelchair" v="yes"/>
    <tag k="wheelchair:description" v="Keine Stufen, Automatische Türen "/>
    <tag k="amenity" v="bank"/>
  </node>
  <node id="-634" version="0" timestamp="Fri Feb 24 10:53:32 +0100 2012" uid="1" user="" lat="50.96483" lon="7.16268">
    <tag k="name" v="Schloß-Cafè Himperich"/>
    <tag k="wheelchair" v="limited"/>
    <tag k="addr:city" v="Bergisch Gladbach"/>
    <tag k="addr:postcode" v="51429"/>
    <tag k="addr:housenumber" v="22"/>
    <tag k="addr:street" v="Schloßstraße "/>
    <tag k="wheelchair:description" v="Toiletten nur über Treppe erreichbar"/>
    <tag k="amenity" v="cafe"/>
    <tag k="phone" v="02204/52227"/>
  </node>
  <node id="-635" version="0" timestamp="Fri Feb 24 10:53:32 +0100 2012" uid="1" user="" lat="50.96459" lon="7.16193">
    <tag k="shop" v="books"/>
    <tag k="name" v="Buchhandlung Funk"/>
    <tag k="wheelchair" v="yes"/>
    <tag k="addr:city" v="Bergisch Gladbach"/>
    <tag k="addr:postcode" v="51429"/>
    <tag k="addr:housenumber" v="71-73"/>
    <tag k="addr:street" v="Schloßstraße"/>
    <tag k="wheelchair:description" v="Alles auf einer Ebene"/>
    <tag k="phone" v="02204/54016"/>
  </node>
  <node id="-638" version="0" timestamp="Fri Feb 24 10:53:32 +0100 2012" uid="1" user="" lat="50.9532" lon="7.11802">
    <tag k="shop" v="butcher"/>
    <tag k="name" v="Metzgerei Himperich"/>
    <tag k="wheelchair" v="yes"/>
    <tag k="addr:city" v="Bergisch Gladbach"/>
    <tag k="addr:postcode" v="51429"/>
    <tag k="addr:housenumber" v="42"/>
    <tag k="addr:street" v="Schloßstraße "/>
    <tag k="wheelchair:description" v="keine automatische Tür"/>
    <tag k="phone" v="02204/53168"/>
  </node>
  <node id="-696" version="0" timestamp="Fri Feb 24 10:53:32 +0100 2012" uid="1" user="" lat="50.6993912" lon="7.1328823">
    <tag k="shop" v="florist"/>
    <tag k="name" v="Blumenhaus Hannes"/>
    <tag k="wheelchair" v="no"/>
    <tag k="addr:city" v="Bonn"/>
    <tag k="addr:postcode" v="53175"/>
    <tag k="addr:housenumber" v="123"/>
    <tag k="addr:street" v="Annaberger Straße"/>
    <tag k="wheelchair:description" v="Über Friedhof gelangt man mit Rolli hinein"/>
    <tag k="phone" v="+49 228 316447"/>
  </node>
  <node id="-697" version="0" timestamp="Fri Feb 24 10:53:32 +0100 2012" uid="1" user="" lat="51.1345941" lon="7.217825">
    <tag k="name" v="RealschuleWermelskirchen"/>
    <tag k="wheelchair" v="no"/>
    <tag k="amenity" v="school"/>
  </node>
  <node id="-900" version="0" timestamp="Fri Feb 24 10:53:32 +0100 2012" uid="1" user="" lat="50.9707262" lon="7.5293495">
    <tag k="name" v="Micha&apos;s Restaurant im Schmitz - Backes"/>
    <tag k="wheelchair" v="yes"/>
    <tag k="addr:city" v="Wiehl Bomig"/>
    <tag k="addr:postcode" v="51674"/>
    <tag k="addr:housenumber" v="2"/>
    <tag k="addr:street" v="Werner von Siemens Str."/>
    <tag k="wheelchair:description" v="Alles ebenerdig Behinderten gerechtes WC"/>
    <tag k="amenity" v="restaurant"/>
    <tag k="website" v="http://www.michas-restaurant.de"/>
    <tag k="phone" v="02261 969594"/>
  </node>
  <node id="-903" version="0" timestamp="Fri Feb 24 10:53:32 +0100 2012" uid="1" user="" lat="50.9394113" lon="6.9545667">
    <tag k="name" v="Minritebkirche "/>
    <tag k="wheelchair" v="yes"/>
    <tag k="amenity" v="place_of_worship"/>
  </node>
  <node id="-904" version="0" timestamp="Fri Feb 24 10:53:32 +0100 2012" uid="1" user="" lat="50.9398887" lon="6.9549336">
    <tag k="name" v="Museum für Angewandte Kunst"/>
    <tag k="wheelchair" v="yes"/>
    <tag k="tourism" v="museum"/>
  </node>
  <node id="-912" version="0" timestamp="Fri Feb 24 10:53:33 +0100 2012" uid="1" user="" lat="51.0980893" lon="7.1527612">
    <tag k="shop" v="butcher"/>
    <tag k="name" v="Fressnapf"/>
    <tag k="wheelchair" v="yes"/>
    <tag k="addr:city" v="Burschid-Hilgen"/>
    <tag k="addr:postcode" v="51399"/>
    <tag k="addr:housenumber" v="1"/>
    <tag k="addr:street" v="Dünweg"/>
    <tag k="phone" v="+49 2174 894580"/>
  </node>
  <node id="-914" version="0" timestamp="Fri Feb 24 10:53:33 +0100 2012" uid="1" user="" lat="51.0980893" lon="7.1527612">
    <tag k="shop" v="butcher"/>
    <tag k="name" v="Fressnapf"/>
    <tag k="wheelchair" v="yes"/>
    <tag k="addr:city" v="Burschid-Hilgen"/>
    <tag k="addr:postcode" v="51399"/>
    <tag k="addr:housenumber" v="1"/>
    <tag k="addr:street" v="Dünweg"/>
    <tag k="phone" v="+49 2174 894580"/>
  </node>
  <node id="-915" version="0" timestamp="Fri Feb 24 10:53:33 +0100 2012" uid="1" user="" lat="51.0981466" lon="7.1529918">
    <tag k="shop" v="butcher"/>
    <tag k="name" v="Fressnapf"/>
    <tag k="wheelchair" v="yes"/>
    <tag k="addr:city" v="Burschid-Hilgen"/>
    <tag k="addr:postcode" v="51399"/>
    <tag k="addr:housenumber" v="1"/>
    <tag k="addr:street" v="Dünweg"/>
    <tag k="phone" v="+49 2174 894580"/>
  </node>
  <node id="-1028" version="0" timestamp="Fri Feb 24 10:53:33 +0100 2012" uid="1" user="" lat="50.8023096" lon="7.2600528">
    <tag k="shop" v="optician"/>
    <tag k="name" v="Stenzel Die Optik"/>
    <tag k="wheelchair" v="yes"/>
    <tag k="addr:city" v="Siegburg"/>
    <tag k="addr:postcode" v="53721"/>
    <tag k="addr:housenumber" v="59"/>
    <tag k="addr:street" v="Hauptstraße"/>
    <tag k="wheelchair:description" v="Gleich von Parkplatz, ohne Stufen und Schwellen zum ebenerdiger Eingang,"/>
    <tag k="website" v="http://stenzel-die-optik.de/"/>
    <tag k="phone" v="+ 49 2241 93 80 71"/>
  </node>
  <node id="-1051" version="0" timestamp="Fri Feb 24 10:53:33 +0100 2012" uid="1" user="" lat="50.9239" lon="6.92953">
    <tag k="name" v="Petit Noir"/>
    <tag k="wheelchair" v="unknown"/>
    <tag k="addr:city" v="Köln"/>
    <tag k="addr:postcode" v="50931"/>
    <tag k="addr:housenumber" v="42"/>
    <tag k="addr:street" v="Weyertal "/>
    <tag k="amenity" v="cafe"/>
    <tag k="phone" v="0221 2825737"/>
  </node>
  <node id="-1109" version="0" timestamp="Fri Feb 24 10:53:33 +0100 2012" uid="1" user="" lat="51.0609968" lon="7.1207578">
    <tag k="name" v="Eiscafé Valerio"/>
    <tag k="wheelchair" v="yes"/>
    <tag k="addr:city" v="Odenthal"/>
    <tag k="addr:postcode" v="51519"/>
    <tag k="addr:housenumber" v="51"/>
    <tag k="addr:street" v="Hauptstraße"/>
    <tag k="wheelchair:description" v="Öffnungzeiten:  Januar - März: 11.00 - 20.00 Uhr April - November: 11:00 - 22:00 Uhr"/>
    <tag k="amenity" v="cafe"/>
    <tag k="phone" v="+49 2174 41079"/>
  </node>
  <node id="-1126" version="0" timestamp="Fri Feb 24 10:53:33 +0100 2012" uid="1" user="" lat="50.93348" lon="6.87515">
    <tag k="name" v="Rheinenergiestadion"/>
    <tag k="wheelchair" v="yes"/>
    <tag k="addr:city" v="Köln"/>
    <tag k="addr:housenumber" v="999"/>
    <tag k="addr:street" v="Aachener Str."/>
    <tag k="wheelchair:description" v="100 Rollstuhlplätze auf der Osttribühne"/>
    <tag k="leisure" v="stadium"/>
  </node>
  <node id="-1360" version="0" timestamp="Fri Feb 24 10:53:33 +0100 2012" uid="1" user="" lat="50.68941" lon="6.9925">
    <tag k="name" v="Waldschänke &quot;Im Zuschlag&quot;"/>
    <tag k="wheelchair" v="yes"/>
    <tag k="addr:city" v="Alfter"/>
    <tag k="addr:postcode" v="53347"/>
    <tag k="addr:housenumber" v="1"/>
    <tag k="addr:street" v="Schmale Allee"/>
    <tag k="wheelchair:description" v="Großer Parkplatz, direkter Zugang zum Restaurant und Biergarten, behindertengerechte Toilette"/>
    <tag k="amenity" v="restaurant"/>
    <tag k="website" v="http://www.waldschaenke-im-zuschlag.de"/>
    <tag k="phone" v="+49 228 8540600 "/>
  </node>
  <node id="-1410" version="0" timestamp="Fri Feb 24 10:53:33 +0100 2012" uid="1" user="" lat="50.82911" lon="6.90374">
    <tag k="name" v="Mäx"/>
    <tag k="wheelchair" v="no"/>
    <tag k="addr:city" v="Brühl"/>
    <tag k="addr:postcode" v="50321"/>
    <tag k="addr:housenumber" v="7"/>
    <tag k="addr:street" v="Bahnhofsstraße"/>
    <tag k="wheelchair:description" v="Kleiner Eingang mit 3 Stufen, Toiletten im Keller mit sehr steiler, enger Treppe"/>
    <tag k="amenity" v="cafe"/>
    <tag k="website" v="http://www.cafe-maex.de"/>
    <tag k="phone" v="0 22 32 / 4 20 20"/>
  </node>
  <node id="-1423" version="0" timestamp="Fri Feb 24 10:53:33 +0100 2012" uid="1" user="" lat="50.76988" lon="6.10598">
    <tag k="name" v="Heilpraktiker Decker, Praxis &quot;Point of Balance&quot;"/>
    <tag k="wheelchair" v="no"/>
    <tag k="addr:city" v="Aachen"/>
    <tag k="addr:postcode" v="52066"/>
    <tag k="addr:housenumber" v="74"/>
    <tag k="addr:street" v="Oppenhoffallee"/>
    <tag k="amenity" v="doctors"/>
    <tag k="website" v="http://www.point-of-balance.de/markus_decker.html"/>
    <tag k="phone" v="0241 9979193"/>
  </node>
  <node id="-1448" version="0" timestamp="Fri Feb 24 10:53:33 +0100 2012" uid="1" user="" lat="50.77965" lon="6.09483">
    <tag k="name" v="DRK Aachen"/>
    <tag k="wheelchair" v="yes"/>
    <tag k="addr:city" v="Aachen"/>
    <tag k="addr:postcode" v="52070"/>
    <tag k="addr:housenumber" v="49"/>
    <tag k="addr:street" v="Robensstr."/>
    <tag k="phone" v="0241 1802555"/>
  </node>
  <node id="-1450" version="0" timestamp="Fri Feb 24 10:53:33 +0100 2012" uid="1" user="" lat="50.7582961" lon="6.0920344">
    <tag k="name" v="Praxis für Krankengymnastik Heribert Elfgen"/>
    <tag k="wheelchair" v="yes"/>
    <tag k="addr:city" v="Aachen"/>
    <tag k="addr:postcode" v="52066"/>
    <tag k="addr:housenumber" v="31"/>
    <tag k="addr:street" v="Malmedyer Str."/>
    <tag k="amenity" v="doctors"/>
    <tag k="phone" v="0241 603626"/>
  </node>
  <node id="-1453" version="0" timestamp="Fri Feb 24 10:53:33 +0100 2012" uid="1" user="" lat="50.7551004" lon="6.0999926">
    <tag k="name" v="Viktor Frankl Schule"/>
    <tag k="wheelchair" v="yes"/>
    <tag k="addr:city" v="Aachen"/>
    <tag k="addr:postcode" v="52066"/>
    <tag k="addr:housenumber" v="89"/>
    <tag k="addr:street" v="Kalverbenden"/>
    <tag k="amenity" v="school"/>
    <tag k="website" v="http://www.viktor-frankl-schule.eu/front_content.php"/>
    <tag k="phone" v="0241 60838-0"/>
  </node>
  <node id="-1455" version="0" timestamp="Fri Feb 24 10:53:33 +0100 2012" uid="1" user="" lat="50.7803144" lon="6.0973488">
    <tag k="name" v="DRK Aachen"/>
    <tag k="wheelchair" v="yes"/>
    <tag k="addr:street" v="Robensstr. 4"/>
  </node>
  <node id="-1456" version="0" timestamp="Fri Feb 24 10:53:33 +0100 2012" uid="1" user="" lat="50.7803178" lon="6.0973541">
    <tag k="name" v="DRK Aachen"/>
    <tag k="wheelchair" v="yes"/>
    <tag k="addr:city" v="Aachen"/>
    <tag k="addr:postcode" v="52070"/>
    <tag k="addr:housenumber" v="49"/>
    <tag k="addr:street" v="Robensstr."/>
    <tag k="phone" v="0241 1802555"/>
  </node>
  <node id="-1465" version="0" timestamp="Fri Feb 24 10:53:33 +0100 2012" uid="1" user="" lat="50.7930672" lon="6.0976047">
    <tag k="name" v="Tivoli"/>
    <tag k="wheelchair" v="yes"/>
    <tag k="addr:city" v="Aachen"/>
    <tag k="addr:postcode" v="52070"/>
    <tag k="addr:housenumber" v="205"/>
    <tag k="addr:street" v="Krefelder Str. "/>
    <tag k="leisure" v="stadium"/>
    <tag k="website" v="http://www.alemannia-aachen.de/tivoli/stadion/allgemeines/"/>
  </node>
  <node id="-1495" version="0" timestamp="Fri Feb 24 10:53:33 +0100 2012" uid="1" user="" lat="50.8878426" lon="7.2490713">
    <tag k="shop" v="clothes"/>
    <tag k="name" v="Funky-Move"/>
    <tag k="wheelchair" v="yes"/>
    <tag k="addr:city" v="Lohmar"/>
    <tag k="addr:postcode" v="53797"/>
    <tag k="addr:housenumber" v="54"/>
    <tag k="addr:street" v="Wahlscheider Strasse "/>
    <tag k="wheelchair:description" v="ebenerdig"/>
    <tag k="website" v="http://www.funkysign.de"/>
    <tag k="phone" v="02206-852133"/>
  </node>
  <node id="-1605" version="0" timestamp="Fri Feb 24 10:53:33 +0100 2012" uid="1" user="" lat="50.7333" lon="7.1">
    <tag k="name" v="Venusberg-Apotheke"/>
    <tag k="wheelchair" v="yes"/>
    <tag k="addr:city" v="Bonn"/>
    <tag k="addr:postcode" v="53127"/>
    <tag k="addr:housenumber" v="37-39"/>
    <tag k="addr:street" v="Sertürnestraße"/>
    <tag k="amenity" v="pharmacy"/>
    <tag k="website" v="http://www.venusberg-apotheke.de"/>
    <tag k="phone" v="+49 228 910150"/>
  </node>
  <node id="-1606" version="0" timestamp="Fri Feb 24 10:53:33 +0100 2012" uid="1" user="" lat="50.70315" lon="7.09696">
    <tag k="name" v="Venusberg-Apotheke"/>
    <tag k="wheelchair" v="yes"/>
    <tag k="addr:city" v="Bonn"/>
    <tag k="addr:postcode" v="53127"/>
    <tag k="addr:housenumber" v="37-39"/>
    <tag k="addr:street" v="Sertürnerstraße "/>
    <tag k="amenity" v="pharmacy"/>
    <tag k="website" v="http://www.venusberg-apotheke.de"/>
    <tag k="phone" v="+49 228 910150"/>
  </node>
  <node id="-1756" version="0" timestamp="Fri Feb 24 10:53:33 +0100 2012" uid="1" user="" lat="50.72356" lon="7.06676">
    <tag k="name" v="Anja Bartels Praxis für Sprachtherapie und Logopädie"/>
    <tag k="wheelchair" v="yes"/>
    <tag k="addr:city" v="Bonn"/>
    <tag k="addr:postcode" v="53121"/>
    <tag k="addr:housenumber" v="43"/>
    <tag k="addr:street" v="Euskirchener Str. "/>
    <tag k="wheelchair:description" v="Gebäude ist vom Hintereingang barrierfrei durch Praxis Brunner zur Praxis Anja Bartels"/>
    <tag k="amenity" v="doctors"/>
    <tag k="website" v="http://www.logopaedie-bartels.de"/>
    <tag k="phone" v="0228-9629797"/>
  </node>
  <node id="-1840" version="0" timestamp="Fri Feb 24 10:53:33 +0100 2012" uid="1" user="" lat="50.8337097" lon="6.0765136">
    <tag k="shop" v="florist"/>
    <tag k="name" v="Crumbach Garten-Center GmbH &amp; Co. KG"/>
    <tag k="wheelchair" v="yes"/>
    <tag k="addr:city" v="Herzogenrath"/>
    <tag k="addr:postcode" v="52134"/>
    <tag k="addr:housenumber" v="63"/>
    <tag k="addr:street" v="Roermonder Str."/>
    <tag k="website" v="http://www.crumbach-gartencenter.de"/>
    <tag k="phone" v="0240795530"/>
  </node>
  <node id="-1841" version="0" timestamp="Fri Feb 24 10:53:33 +0100 2012" uid="1" user="" lat="50.8332793" lon="6.0760467">
    <tag k="shop" v="doityourself"/>
    <tag k="name" v=".toom-baumarkt"/>
    <tag k="wheelchair" v="yes"/>
    <tag k="addr:city" v="Herzogenrath"/>
    <tag k="addr:postcode" v="52134"/>
    <tag k="addr:housenumber" v="63a"/>
    <tag k="addr:street" v="Roermonder Straße"/>
    <tag k="phone" v="02407-95990"/>
  </node>
  <node id="-1842" version="0" timestamp="Fri Feb 24 10:53:33 +0100 2012" uid="1" user="" lat="50.8344243" lon="6.0902536">
    <tag k="shop" v="florist"/>
    <tag k="name" v="Die Pusteblume"/>
    <tag k="wheelchair" v="limited"/>
    <tag k="addr:city" v="Herzogenrath"/>
    <tag k="addr:postcode" v="52134"/>
    <tag k="addr:housenumber" v="58"/>
    <tag k="addr:street" v="Markt"/>
    <tag k="phone" v="02407-3351"/>
  </node>
  <node id="-1843" version="0" timestamp="Fri Feb 24 10:53:33 +0100 2012" uid="1" user="" lat="50.8338932" lon="6.0852056">
    <tag k="shop" v="optician"/>
    <tag k="name" v="Augenoptik Otten"/>
    <tag k="wheelchair" v="limited"/>
    <tag k="addr:city" v="Herzogenrath"/>
    <tag k="addr:postcode" v="52134"/>
    <tag k="addr:housenumber" v="61"/>
    <tag k="addr:street" v="Weststraße"/>
    <tag k="phone" v="02407-3607"/>
  </node>
  <node id="-1844" version="0" timestamp="Fri Feb 24 10:53:33 +0100 2012" uid="1" user="" lat="50.8319146" lon="6.0895789">
    <tag k="shop" v="department_store"/>
    <tag k="name" v="Haushaltswaren Pütz"/>
    <tag k="wheelchair" v="limited"/>
    <tag k="addr:city" v="Herzogenrath"/>
    <tag k="addr:postcode" v="52134"/>
    <tag k="addr:housenumber" v="57-61"/>
    <tag k="addr:street" v="Südstraße"/>
    <tag k="phone" v="02407-1313"/>
  </node>
  <node id="-1845" version="0" timestamp="Fri Feb 24 10:53:33 +0100 2012" uid="1" user="" lat="50.8341501" lon="6.0909272">
    <tag k="name" v="Praxis für Physiotherapie Werner Rehse"/>
    <tag k="wheelchair" v="yes"/>
    <tag k="addr:city" v="Herzogenrath"/>
    <tag k="addr:postcode" v="52134"/>
    <tag k="addr:housenumber" v="88 - 90"/>
    <tag k="addr:street" v="Markt"/>
    <tag k="wheelchair:description" v="Aufzug auf U1"/>
    <tag k="leisure" v="sports_centre"/>
    <tag k="website" v="http://www.ptwr-praxis.de/"/>
    <tag k="phone" v="02407-3588"/>
  </node>
  <node id="-1846" version="0" timestamp="Fri Feb 24 10:53:33 +0100 2012" uid="1" user="" lat="50.8348181" lon="6.0879564">
    <tag k="shop" v="supermarket"/>
    <tag k="name" v="Rossmann"/>
    <tag k="wheelchair" v="limited"/>
    <tag k="addr:city" v="Herzogenrath"/>
    <tag k="addr:postcode" v="52134"/>
    <tag k="addr:housenumber" v="2B"/>
    <tag k="addr:street" v="Markt"/>
    <tag k="phone" v="02407-96775"/>
  </node>
  <node id="-1848" version="0" timestamp="Fri Feb 24 10:53:33 +0100 2012" uid="1" user="" lat="50.8362947" lon="6.0933677">
    <tag k="name" v="Bürgerhaus Kohlscheid"/>
    <tag k="wheelchair" v="yes"/>
    <tag k="addr:city" v="Herzogenrath"/>
    <tag k="addr:postcode" v="52134"/>
    <tag k="addr:street" v="Hoheneichstraße/Ecke Oststraße"/>
    <tag k="amenity" v="townhall"/>
  </node>
  <node id="-1849" version="0" timestamp="Fri Feb 24 10:53:33 +0100 2012" uid="1" user="" lat="50.8353663" lon="6.0776957">
    <tag k="name" v="McDonald&apos;s Restaurant"/>
    <tag k="wheelchair" v="yes"/>
    <tag k="addr:city" v="Herzogenrath"/>
    <tag k="addr:postcode" v="52134"/>
    <tag k="addr:housenumber" v="194"/>
    <tag k="addr:street" v="Roermonder Str."/>
    <tag k="amenity" v="restaurant"/>
    <tag k="phone" v="02407-563226"/>
  </node>
  <node id="-1850" version="0" timestamp="Fri Feb 24 10:53:33 +0100 2012" uid="1" user="" lat="50.8333242" lon="6.0841991">
    <tag k="name" v="Dr. med. Luzie Haferkorn Kinderärztin"/>
    <tag k="wheelchair" v="limited"/>
    <tag k="addr:city" v="Herzogenrath"/>
    <tag k="addr:postcode" v="52134"/>
    <tag k="addr:housenumber" v="2"/>
    <tag k="addr:street" v="Alte Bahn"/>
    <tag k="amenity" v="doctors"/>
    <tag k="phone" v="02407-1010"/>
  </node>
  <node id="-1851" version="0" timestamp="Fri Feb 24 10:53:33 +0100 2012" uid="1" user="" lat="50.8280895" lon="6.0874148">
    <tag k="name" v="Hallenbad Herzogenrath-Kohlscheid"/>
    <tag k="wheelchair" v="yes"/>
    <tag k="addr:city" v="Herzogenrath"/>
    <tag k="addr:postcode" v="52134"/>
    <tag k="addr:street" v="Zellerstraße"/>
    <tag k="amenity" v="swimming_pool"/>
    <tag k="website" v="http://www.herzogenrath.de/index363-0.aspx"/>
    <tag k="phone" v="02407-3131"/>
  </node>
  <node id="-1877" version="0" timestamp="Fri Feb 24 10:53:33 +0100 2012" uid="1" user="" lat="51.050115" lon="7.5759231">
    <tag k="name" v="Cafe Lebenskunst"/>
    <tag k="wheelchair" v="no"/>
    <tag k="amenity" v="cafe"/>
  </node>
  <node id="-1904" version="0" timestamp="Fri Feb 24 10:53:33 +0100 2012" uid="1" user="" lat="50.9216165" lon="6.9597748">
    <tag k="name" v="Osman Bey"/>
    <tag k="wheelchair" v="yes"/>
    <tag k="amenity" v="restaurant"/>
  </node>
  <node id="-1905" version="0" timestamp="Fri Feb 24 10:53:33 +0100 2012" uid="1" user="" lat="50.950607" lon="6.9803962">
    <tag k="name" v="Claudius Therme"/>
    <tag k="wheelchair" v="yes"/>
    <tag k="amenity" v="swimming_pool"/>
    <tag k="website" v="http://www.claudius-therme.de/"/>
  </node>
  <node id="-1925" version="0" timestamp="Fri Feb 24 10:53:33 +0100 2012" uid="1" user="" lat="50.6439216" lon="7.2292924">
    <tag k="name" v="Schmitz Bettina Neurologin"/>
    <tag k="wheelchair" v="yes"/>
    <tag k="addr:city" v="Bad Honnef"/>
    <tag k="addr:postcode" v="53604"/>
    <tag k="addr:housenumber" v="75"/>
    <tag k="addr:street" v="Hauptstr."/>
    <tag k="amenity" v="doctors"/>
  </node>
  <node id="-1928" version="0" timestamp="Fri Feb 24 10:53:33 +0100 2012" uid="1" user="" lat="50.6438758" lon="7.2292417">
    <tag k="name" v="Rathhaus-Apotheke"/>
    <tag k="wheelchair" v="yes"/>
    <tag k="addr:city" v="Bad Honnef"/>
    <tag k="addr:postcode" v="53604"/>
    <tag k="addr:housenumber" v="75"/>
    <tag k="addr:street" v="Hauptstr."/>
    <tag k="amenity" v="doctors"/>
  </node>
  <node id="-1932" version="0" timestamp="Fri Feb 24 10:53:33 +0100 2012" uid="1" user="" lat="50.6440273" lon="7.2237934">
    <tag k="name" v="Apel Physiotherapie"/>
    <tag k="wheelchair" v="yes"/>
    <tag k="addr:city" v="Bad Honnef"/>
    <tag k="addr:postcode" v="53604"/>
    <tag k="addr:housenumber" v="16a"/>
    <tag k="addr:street" v="Bahnhofstr."/>
    <tag k="amenity" v="doctors"/>
  </node>
  <node id="-1933" version="0" timestamp="Fri Feb 24 10:53:33 +0100 2012" uid="1" user="" lat="50.6439858" lon="7.2237793">
    <tag k="name" v="Korthaus Thomas"/>
    <tag k="wheelchair" v="yes"/>
    <tag k="addr:city" v="Bad Honnef"/>
    <tag k="addr:postcode" v="53604"/>
    <tag k="addr:housenumber" v="16 a"/>
    <tag k="addr:street" v="Bahnhofstr."/>
    <tag k="amenity" v="doctors"/>
  </node>
  <node id="-1935" version="0" timestamp="Fri Feb 24 10:53:33 +0100 2012" uid="1" user="" lat="50.6440308" lon="7.2239087">
    <tag k="name" v="Parkplatz"/>
    <tag k="wheelchair" v="yes"/>
    <tag k="addr:city" v="Bad Honnef"/>
    <tag k="addr:postcode" v="53604"/>
    <tag k="addr:housenumber" v="16"/>
    <tag k="addr:street" v="Bahnhofstr."/>
    <tag k="amenity" v="parking"/>
  </node>
  <node id="-1936" version="0" timestamp="Fri Feb 24 10:53:33 +0100 2012" uid="1" user="" lat="50.6461328" lon="7.2224969">
    <tag k="name" v="Luisenstr. Kurmittelhaus"/>
    <tag k="wheelchair" v="yes"/>
    <tag k="addr:city" v="Bad Honnef"/>
    <tag k="addr:postcode" v="53604"/>
    <tag k="addr:street" v="Luisenstr."/>
    <tag k="amenity" v="parking"/>
  </node>
  <node id="-1938" version="0" timestamp="Fri Feb 24 10:53:33 +0100 2012" uid="1" user="" lat="50.6462729" lon="7.2239913">
    <tag k="name" v="Weyermannallee/Sparkasse"/>
    <tag k="wheelchair" v="yes"/>
    <tag k="addr:city" v="Bad Honnef"/>
    <tag k="addr:postcode" v="53604"/>
    <tag k="addr:street" v="Weyermannallee/Sparkasse"/>
    <tag k="amenity" v="parking"/>
  </node>
  <node id="-1940" version="0" timestamp="Fri Feb 24 10:53:33 +0100 2012" uid="1" user="" lat="50.6445831" lon="7.2292211">
    <tag k="name" v="Rathhaus-Platz"/>
    <tag k="wheelchair" v="yes"/>
    <tag k="amenity" v="parking"/>
  </node>
  <node id="-1941" version="0" timestamp="Fri Feb 24 10:53:33 +0100 2012" uid="1" user="" lat="50.6428346" lon="7.2229575">
    <tag k="name" v="Netto-Markt"/>
    <tag k="wheelchair" v="yes"/>
    <tag k="amenity" v="parking"/>
  </node>
  <node id="-2173" version="0" timestamp="Fri Feb 24 10:53:34 +0100 2012" uid="1" user="" lat="50.8669715" lon="6.4739403">
    <tag k="name" v="Dorfgemeinschaftshaus "/>
    <tag k="wheelchair" v="unknown"/>
  </node>
  <node id="-2175" version="0" timestamp="Fri Feb 24 10:53:34 +0100 2012" uid="1" user="" lat="50.884845" lon="6.4619842">
    <tag k="name" v="Rathaus Niederzier"/>
    <tag k="wheelchair" v="limited"/>
    <tag k="amenity" v="townhall"/>
  </node>
  <node id="-2190" version="0" timestamp="Fri Feb 24 10:53:34 +0100 2012" uid="1" user="" lat="50.6146121" lon="6.6319323">
    <tag k="name" v="LVR-Freilichtmuseum Kommern"/>
    <tag k="wheelchair" v="limited"/>
    <tag k="addr:city" v="Mechernich-Kommern"/>
    <tag k="addr:postcode" v="53894"/>
    <tag k="tourism" v="museum"/>
    <tag k="addr:street" v="Eickser Straße"/>
    <tag k="wheelchair:description" v="Genaue Informationen unter: http://www.kommern.lvr.de/service_besucherinfo/infosbarrierefreiheit/index.htm"/>
    <tag k="website" v="http://www.kommern.lvr.de"/>
    <tag k="phone" v="02443 99800"/>
  </node>
  <node id="-2192" version="0" timestamp="Fri Feb 24 10:53:34 +0100 2012" uid="1" user="" lat="50.6091023" lon="6.6300434">
    <tag k="name" v="Toilette Museumsplatz"/>
    <tag k="wheelchair" v="yes"/>
    <tag k="amenity" v="toilets"/>
  </node>
  <node id="-2193" version="0" timestamp="Fri Feb 24 10:53:34 +0100 2012" uid="1" user="" lat="50.610063" lon="6.6310344">
    <tag k="name" v="Toilette Ausstellungshallen"/>
    <tag k="wheelchair" v="no"/>
    <tag k="amenity" v="toilets"/>
  </node>
  <node id="-2194" version="0" timestamp="Fri Feb 24 10:53:34 +0100 2012" uid="1" user="" lat="50.6117489" lon="6.6313806">
    <tag k="name" v="Toilette Gasthof zur Post"/>
    <tag k="wheelchair" v="yes"/>
    <tag k="amenity" v="toilets"/>
  </node>
  <node id="-2435" version="0" timestamp="Fri Feb 24 10:53:34 +0100 2012" uid="1" user="" lat="50.9052845" lon="6.1834254">
    <tag k="name" v="Praxis für Physiotherapie Eijgenraam/Pracht"/>
    <tag k="wheelchair" v="yes"/>
    <tag k="addr:city" v="Baesweiler "/>
    <tag k="addr:postcode" v="52499"/>
    <tag k="addr:housenumber" v="8"/>
    <tag k="addr:street" v="Am Feuerwehrturm"/>
    <tag k="wheelchair:description" v="Ärztehaus mit Aufzug. "/>
    <tag k="website" v="http://www.physiotherapie-baesweiler.de"/>
    <tag k="phone" v="024018515"/>
  </node>
  <node id="-2478" version="0" timestamp="Fri Feb 24 10:53:34 +0100 2012" uid="1" user="" lat="50.90546" lon="6.1833592">
    <tag k="name" v="Praxis für Physiotherapie Eijgenraam/Pracht "/>
    <tag k="wheelchair" v="yes"/>
    <tag k="addr:city" v="Baesweiler "/>
    <tag k="addr:postcode" v="52499"/>
    <tag k="addr:housenumber" v="8"/>
    <tag k="addr:street" v="Am Feuerwehrturm "/>
    <tag k="wheelchair:description" v="Ärztehaus mit Aufzug. "/>
    <tag k="amenity" v="pharmacy"/>
    <tag k="website" v="http://www.physiotherapie-baesweiler.de"/>
    <tag k="phone" v="024018515"/>
  </node>
  <node id="-2506" version="0" timestamp="Fri Feb 24 10:53:34 +0100 2012" uid="1" user="" lat="50.940401" lon="6.9704902">
    <tag k="name" v="LVR-Zentralverwaltung"/>
    <tag k="wheelchair" v="yes"/>
    <tag k="addr:city" v="Köln"/>
    <tag k="addr:postcode" v="50679"/>
    <tag k="addr:housenumber" v="1"/>
    <tag k="addr:street" v="Hermann-Pünder-Straße "/>
    <tag k="website" v="http://www.lvr.de"/>
  </node>
  <node id="-2509" version="0" timestamp="Fri Feb 24 10:53:34 +0100 2012" uid="1" user="" lat="50.9373132" lon="6.9718389">
    <tag k="name" v="LVR-Zentralverwaltung"/>
    <tag k="wheelchair" v="yes"/>
    <tag k="addr:city" v="Köln"/>
    <tag k="addr:postcode" v="50679"/>
    <tag k="addr:housenumber" v="2"/>
    <tag k="addr:street" v="Mindener Straße"/>
    <tag k="website" v="http://www.lvr.de"/>
  </node>
  <node id="-2512" version="0" timestamp="Fri Feb 24 10:53:34 +0100 2012" uid="1" user="" lat="50.7318503" lon="7.0928241">
    <tag k="name" v="LVR LandesMuseum Bonn"/>
    <tag k="wheelchair" v="yes"/>
    <tag k="addr:city" v="Bonn"/>
    <tag k="addr:postcode" v="53115"/>
    <tag k="addr:housenumber" v="14-16"/>
    <tag k="tourism" v="museum"/>
    <tag k="addr:street" v="Colmantstraße"/>
    <tag k="website" v="http://rlmb.lvr.de"/>
  </node>
  <node id="-2565" version="0" timestamp="Fri Feb 24 10:53:34 +0100 2012" uid="1" user="" lat="50.74986" lon="6.16659">
    <tag k="shop" v="beverages"/>
    <tag k="name" v="Jacques Weindepot"/>
    <tag k="wheelchair" v="limited"/>
    <tag k="addr:city" v="Aachen"/>
    <tag k="addr:postcode" v="52078"/>
    <tag k="addr:housenumber" v="33"/>
    <tag k="addr:street" v="Freunder Landstraße"/>
    <tag k="wheelchair:description" v="Durch den Hintereingang mit Rollstuhl erreichbar"/>
    <tag k="website" v="http://www.jacques.de"/>
    <tag k="phone" v="+49 241 9559779"/>
  </node>
  <node id="-2572" version="0" timestamp="Fri Feb 24 10:53:34 +0100 2012" uid="1" user="" lat="50.7424033" lon="7.055554">
    <tag k="name" v="U-Bahn Station Tannenbusch Süd"/>
    <tag k="wheelchair" v="yes"/>
    <tag k="railway" v="subway_entrance"/>
  </node>
  <node id="-2577" version="0" timestamp="Fri Feb 24 10:53:34 +0100 2012" uid="1" user="" lat="50.9050551" lon="6.1834339">
    <tag k="name" v="Praxis für Physiotherapie Eijgenraam/Pracht"/>
    <tag k="wheelchair" v="yes"/>
    <tag k="addr:city" v="Baesweiler"/>
    <tag k="addr:postcode" v="52499"/>
    <tag k="addr:housenumber" v="8"/>
    <tag k="addr:street" v="Am Feuerwehrturm"/>
    <tag k="wheelchair:description" v="Ärztehaus mit Aufzug"/>
    <tag k="amenity" v="doctors"/>
    <tag k="website" v="http://www.physiotherapie-baesweiler.de"/>
    <tag k="phone" v="+49 2401 8515"/>
  </node>
  <node id="-2601" version="0" timestamp="Fri Feb 24 10:53:34 +0100 2012" uid="1" user="" lat="50.9395048" lon="6.9504434">
    <tag k="name" v="Appellhofplatz"/>
    <tag k="wheelchair" v="yes"/>
    <tag k="wheelchair:description" v="Aufzug zum Bahnsteig"/>
    <tag k="amenity" v="bank"/>
  </node>
  <node id="-2602" version="0" timestamp="Fri Feb 24 10:53:34 +0100 2012" uid="1" user="" lat="50.9395048" lon="6.9504434">
    <tag k="name" v="Appellhofplatz"/>
    <tag k="wheelchair" v="yes"/>
    <tag k="wheelchair:description" v="Aufzug zum Bahnsteig"/>
    <tag k="railway" v="subway_entrance"/>
  </node>
  <node id="-2623" version="0" timestamp="Fri Feb 24 10:53:34 +0100 2012" uid="1" user="" lat="50.6958844" lon="7.1223226">
    <tag k="shop" v="supermarket"/>
    <tag k="name" v="Der Leyenhof Bioland"/>
    <tag k="wheelchair" v="yes"/>
    <tag k="addr:city" v="Bonn"/>
    <tag k="addr:postcode" v="53175"/>
    <tag k="addr:housenumber" v="1b"/>
    <tag k="addr:street" v="Im Bachle "/>
  </node>
  <node id="-2637" version="0" timestamp="Fri Feb 24 10:53:34 +0100 2012" uid="1" user="" lat="50.9819143" lon="6.7865516">
    <tag k="name" v="Geyener Brauhaus"/>
    <tag k="wheelchair" v="no"/>
    <tag k="addr:city" v="Pulheim"/>
    <tag k="addr:postcode" v="50259"/>
    <tag k="addr:housenumber" v="5"/>
    <tag k="addr:street" v="Von-Harff-Straße"/>
    <tag k="wheelchair:description" v="Man kommt nur in den Biergarten."/>
    <tag k="amenity" v="restaurant"/>
    <tag k="website" v="http://www.geyener-brauhaus.de/"/>
  </node>
  <node id="-2645" version="0" timestamp="Fri Feb 24 10:53:34 +0100 2012" uid="1" user="" lat="50.8024354" lon="6.7803895">
    <tag k="shop" v="supermarket"/>
    <tag k="name" v="Istas"/>
    <tag k="wheelchair" v="yes"/>
    <tag k="addr:city" v="Erftstadt-Lechenich"/>
    <tag k="addr:postcode" v="50374"/>
    <tag k="addr:housenumber" v="2"/>
    <tag k="addr:street" v="Kölner Ring"/>
    <tag k="wheelchair:description" v="bei den Toiletten weiß ich es nicht"/>
    <tag k="phone" v="02235-952574"/>
  </node>
  <node id="-2656" version="0" timestamp="Fri Feb 24 10:53:34 +0100 2012" uid="1" user="" lat="50.6409819" lon="7.2353047">
    <tag k="shop" v="furniture"/>
    <tag k="name" v="Küchen Geschäft"/>
    <tag k="wheelchair" v="yes"/>
    <tag k="wheelchair:description" v="Ein Geschäft mit Aufzug und Rampen"/>
  </node>
  <node id="-2657" version="0" timestamp="Fri Feb 24 10:53:34 +0100 2012" uid="1" user="" lat="50.6415327" lon="7.2354893">
    <tag k="name" v="SEAT Autohaus Gorges"/>
    <tag k="wheelchair" v="yes"/>
    <tag k="amenity" v="car_rental"/>
  </node>
  <node id="-2707" version="0" timestamp="Fri Feb 24 10:53:34 +0100 2012" uid="1" user="" lat="50.7330043" lon="7.1009026">
    <tag k="name" v="Galestro"/>
    <tag k="wheelchair" v="no"/>
    <tag k="addr:city" v="Bonn"/>
    <tag k="addr:postcode" v="53113"/>
    <tag k="addr:housenumber" v="8"/>
    <tag k="addr:street" v="Am Neutor"/>
    <tag k="amenity" v="cafe"/>
    <tag k="website" v="http://www.galestrino.com"/>
    <tag k="phone" v="0228-24331241"/>
  </node>
  <node id="-2764" version="0" timestamp="Fri Feb 24 10:53:34 +0100 2012" uid="1" user="" lat="50.93809" lon="6.97704">
    <tag k="name" v="La Reina"/>
    <tag k="wheelchair" v="yes"/>
    <tag k="addr:city" v="Köln"/>
    <tag k="addr:postcode" v="50679"/>
    <tag k="addr:housenumber" v="88"/>
    <tag k="addr:street" v="Constaninstr "/>
    <tag k="wheelchair:description" v="alles Ebenerdig und breite Türen"/>
    <tag k="amenity" v="restaurant"/>
  </node>
  <node id="-2797" version="0" timestamp="Fri Feb 24 10:53:34 +0100 2012" uid="1" user="" lat="50.71613" lon="6.91446">
    <tag k="name" v="TRAUER ist LIEBE Bestattungen"/>
    <tag k="wheelchair" v="yes"/>
    <tag k="addr:city" v="Swisttal"/>
    <tag k="addr:postcode" v="53913"/>
    <tag k="addr:housenumber" v="29"/>
    <tag k="addr:street" v="Kirchstraße"/>
    <tag k="amenity" v="place_of_worship"/>
    <tag k="website" v="http://www.trauer-ist-liebe.com"/>
    <tag k="phone" v="02254 8472900"/>
  </node>
  <node id="-2822" version="0" timestamp="Fri Feb 24 10:53:34 +0100 2012" uid="1" user="" lat="50.9427797" lon="6.9616967">
    <tag k="name" v="Musical Dome"/>
    <tag k="wheelchair" v="yes"/>
    <tag k="wheelchair:description" v="Es kann nur eine Ebene benutz werden wo sich aber alles befindet"/>
    <tag k="amenity" v="theatre"/>
  </node>
  <node id="-2870" version="0" timestamp="Fri Feb 24 10:53:34 +0100 2012" uid="1" user="" lat="50.97593" lon="6.94973">
    <tag k="name" v="Pizza Company"/>
    <tag k="wheelchair" v="no"/>
    <tag k="addr:city" v="Köln"/>
    <tag k="addr:postcode" v="50737"/>
    <tag k="addr:housenumber" v="2"/>
    <tag k="addr:street" v="Seydlitzstr."/>
    <tag k="wheelchair:description" v="Pizza Lieferservice"/>
    <tag k="amenity" v="fast_food"/>
    <tag k="website" v="http://www.pizzacompany.de/pizzacompany/04"/>
    <tag k="phone" v="0221/77 88 90 90"/>
  </node>
  <node id="-2980" version="0" timestamp="Fri Feb 24 10:53:35 +0100 2012" uid="1" user="" lat="50.6269956" lon="7.1304203">
    <tag k="name" v="Hallenbad Wachtberg"/>
    <tag k="wheelchair" v="limited"/>
    <tag k="amenity" v="swimming_pool"/>
  </node>
  <node id="-2981" version="0" timestamp="Fri Feb 24 10:53:35 +0100 2012" uid="1" user="" lat="50.6631629" lon="7.1538422">
    <tag k="name" v="Ristorante La Strada"/>
    <tag k="wheelchair" v="limited"/>
    <tag k="addr:city" v="Bonn"/>
    <tag k="addr:postcode" v="53177"/>
    <tag k="addr:housenumber" v="4a"/>
    <tag k="addr:street" v="Akazienweg"/>
    <tag k="wheelchair:description" v="WC nur über Treppe erreichbar"/>
    <tag k="amenity" v="restaurant"/>
    <tag k="website" v="http://www.lastrada-bonn.de/"/>
    <tag k="phone" v="+49 228 323462"/>
  </node>
  <node id="-2984" version="0" timestamp="Fri Feb 24 10:53:35 +0100 2012" uid="1" user="" lat="50.71081" lon="7.14079">
    <tag k="name" v="Parkrestaurant RheinAue"/>
    <tag k="wheelchair" v="limited"/>
    <tag k="addr:city" v="Bonn"/>
    <tag k="addr:postcode" v="53175"/>
    <tag k="addr:housenumber" v="20"/>
    <tag k="addr:street" v="Ludwig-Erhard-Allee"/>
    <tag k="wheelchair:description" v="WC nur über Treppe erreichbar"/>
    <tag k="amenity" v="restaurant"/>
    <tag k="website" v="http://www.rheinaue.de/"/>
    <tag k="phone" v="+49 228 374030"/>
  </node>
  <node id="-2988" version="0" timestamp="Fri Feb 24 10:53:35 +0100 2012" uid="1" user="" lat="50.6403116" lon="7.2039585">
    <tag k="name" v="Rolandsbogen u. Rheinromantik-Terrasse"/>
    <tag k="wheelchair" v="no"/>
    <tag k="addr:city" v="Rolandswerth"/>
    <tag k="addr:postcode" v="53424"/>
    <tag k="addr:housenumber" v="0"/>
    <tag k="addr:street" v="Rolandsbogen"/>
    <tag k="wheelchair:description" v="nur über Weg mit zahlreichen Stufen erreichbar"/>
    <tag k="amenity" v="restaurant"/>
    <tag k="website" v="http://www.rolandsbogen.de/"/>
    <tag k="phone" v="+49 228 43342440"/>
  </node>
  <node id="-3092" version="0" timestamp="Fri Feb 24 10:53:35 +0100 2012" uid="1" user="" lat="50.93107" lon="6.96301">
    <tag k="name" v="ártotel cologne"/>
    <tag k="wheelchair" v="yes"/>
    <tag k="addr:city" v="Köln"/>
    <tag k="addr:postcode" v="50676"/>
    <tag k="addr:housenumber" v="4"/>
    <tag k="tourism" v="hotel"/>
    <tag k="addr:street" v="Holzmarkt"/>
    <tag k="wheelchair:description" v="Plattformlift von vitaLift Treppenliftsysteme"/>
  </node>
  <node id="-3109" version="0" timestamp="Fri Feb 24 10:53:35 +0100 2012" uid="1" user="" lat="50.9657178" lon="7.1603212">
    <tag k="shop" v="butcher"/>
    <tag k="name" v="Metzgerei Himperich OHG"/>
    <tag k="wheelchair" v="yes"/>
    <tag k="addr:city" v="Bergisch Gladbach"/>
    <tag k="addr:postcode" v="51429"/>
    <tag k="addr:housenumber" v="42"/>
    <tag k="addr:street" v="Schloßstraße"/>
    <tag k="website" v="http://www.metzgerei-himperich.de"/>
    <tag k="phone" v="02204 53168"/>
  </node>
  <node id="-3132" version="0" timestamp="Fri Feb 24 10:53:35 +0100 2012" uid="1" user="" lat="50.9333" lon="6.95">
    <tag k="name" v="Veinte Tapas Cafe Bar"/>
    <tag k="wheelchair" v="limited"/>
    <tag k="addr:city" v="Köln"/>
    <tag k="addr:postcode" v="50858"/>
    <tag k="addr:housenumber" v="20"/>
    <tag k="addr:street" v="Wilhelm von Capitaine Str."/>
    <tag k="wheelchair:description" v="Toiletten nicht Rollstuhlgerecht"/>
    <tag k="amenity" v="restaurant"/>
    <tag k="website" v="http://www.veinte.de"/>
    <tag k="phone" v="+49 221 95432898"/>
  </node>
  <node id="-3162" version="0" timestamp="Fri Feb 24 10:53:35 +0100 2012" uid="1" user="" lat="50.9355559" lon="6.9496203">
    <tag k="name" v="Parkplatz"/>
    <tag k="wheelchair" v="yes"/>
    <tag k="addr:city" v="Köln"/>
    <tag k="addr:postcode" v="50667"/>
    <tag k="addr:housenumber" v="36"/>
    <tag k="addr:street" v="Cäcilienstraße"/>
    <tag k="wheelchair:description" v="Abgesenkter Bordstein"/>
    <tag k="amenity" v="parking"/>
  </node>
  <node id="-3245" version="0" timestamp="Fri Feb 24 10:53:35 +0100 2012" uid="1" user="" lat="51.0363611" lon="6.971878">
    <tag k="name" v="Neuland-Park"/>
    <tag k="wheelchair" v="yes"/>
    <tag k="tourism" v="attraction"/>
  </node>
  <node id="-3253" version="0" timestamp="Fri Feb 24 10:53:35 +0100 2012" uid="1" user="" lat="50.83959" lon="6.34583">
    <tag k="name" v="Gaststätte Müller Silvia"/>
    <tag k="wheelchair" v="limited"/>
    <tag k="addr:city" v="Inden"/>
    <tag k="addr:postcode" v="52459"/>
    <tag k="addr:housenumber" v="3"/>
    <tag k="addr:street" v="Unterstr."/>
    <tag k="wheelchair:description" v="Damentoilette eine Stufe"/>
    <tag k="amenity" v="restaurant"/>
    <tag k="phone" v="+49 2423 7465"/>
  </node>
  <node id="-3255" version="0" timestamp="Fri Feb 24 10:53:35 +0100 2012" uid="1" user="" lat="50.8275977" lon="6.3190234">
    <tag k="name" v="Der Portugiese"/>
    <tag k="wheelchair" v="limited"/>
    <tag k="addr:city" v="Eschweiler-Weisweiler"/>
    <tag k="addr:postcode" v="52249"/>
    <tag k="addr:housenumber" v="1"/>
    <tag k="addr:street" v="Lindenallee"/>
    <tag k="wheelchair:description" v="Türe recht eng"/>
    <tag k="amenity" v="restaurant"/>
    <tag k="website" v="http://www.derportugiese-eschweiler.de"/>
    <tag k="phone" v="+49 2403 64790"/>
  </node>
  <node id="-3258" version="0" timestamp="Fri Feb 24 10:53:35 +0100 2012" uid="1" user="" lat="50.76774" lon="6.09121">
    <tag k="name" v="Unterführung Hackländerstraße Kasinostraße"/>
    <tag k="wheelchair" v="no"/>
    <tag k="wheelchair:description" v="Eingang Kasinostraße mehrere Stufen"/>
    <tag k="railway" v="platform"/>
  </node>
  <node id="-3259" version="0" timestamp="Fri Feb 24 10:53:35 +0100 2012" uid="1" user="" lat="50.76307" lon="6.08413">
    <tag k="name" v="Lidl"/>
    <tag k="wheelchair" v="yes"/>
    <tag k="wheelchair:description" v="Stufenlos, kleiner Hang ohne stufen"/>
    <tag k="amenity" v="bank"/>
  </node>
  <node id="-3263" version="0" timestamp="Fri Feb 24 10:53:35 +0100 2012" uid="1" user="" lat="50.97773" lon="6.78267">
    <tag k="shop" v="supermarket"/>
    <tag k="name" v="Rewe"/>
    <tag k="wheelchair" v="unknown"/>
    <tag k="addr:city" v="Pulheim"/>
    <tag k="addr:postcode" v="50259"/>
    <tag k="addr:street" v="Sintherner Straße"/>
  </node>
  <node id="-3265" version="0" timestamp="Fri Feb 24 10:53:35 +0100 2012" uid="1" user="" lat="50.97765" lon="6.78493">
    <tag k="shop" v="supermarket"/>
    <tag k="name" v="Rewe"/>
    <tag k="wheelchair" v="unknown"/>
    <tag k="addr:city" v="Pulheim"/>
    <tag k="addr:postcode" v="50259"/>
    <tag k="addr:street" v="Sintherner Straße"/>
  </node>
  <node id="-3266" version="0" timestamp="Fri Feb 24 10:53:35 +0100 2012" uid="1" user="" lat="50.6783334" lon="7.1673001">
    <tag k="name" v="McDonalds"/>
    <tag k="wheelchair" v="unknown"/>
    <tag k="addr:city" v="Bonn"/>
    <tag k="addr:postcode" v="53177"/>
    <tag k="addr:housenumber" v="165 - 167"/>
    <tag k="addr:street" v="Koblenzer Straße"/>
    <tag k="amenity" v="fast_food"/>
  </node>
  <node id="-3278" version="0" timestamp="Fri Feb 24 10:53:35 +0100 2012" uid="1" user="" lat="50.6377436" lon="6.4435395">
    <tag k="name" v="Staumauer"/>
    <tag k="wheelchair" v="yes"/>
  </node>
  <node id="-3316" version="0" timestamp="Fri Feb 24 10:53:35 +0100 2012" uid="1" user="" lat="50.76954" lon="6.11565">
    <tag k="name" v="Gesundheitsamt der StädteRegion Aachen"/>
    <tag k="wheelchair" v="yes"/>
    <tag k="addr:housenumber" v="1"/>
    <tag k="addr:street" v="Trierer Straße "/>
  </node>
  <node id="-3317" version="0" timestamp="Fri Feb 24 10:53:35 +0100 2012" uid="1" user="" lat="50.80394" lon="6.155">
    <tag k="name" v="Straßenverkehrsamt der StädteRegion Aachen"/>
    <tag k="wheelchair" v="yes"/>
    <tag k="addr:city" v="Würselen"/>
    <tag k="addr:postcode" v="52146"/>
    <tag k="addr:housenumber" v="4"/>
    <tag k="addr:street" v="Carlo-Schmid-Straße"/>
    <tag k="phone" v="+49 2405 697-0"/>
  </node>
  <node id="-3323" version="0" timestamp="Fri Feb 24 10:53:35 +0100 2012" uid="1" user="" lat="50.6786996" lon="7.1665973">
    <tag k="name" v="Restaurant Semsin"/>
    <tag k="wheelchair" v="no"/>
    <tag k="addr:city" v="Bonn"/>
    <tag k="addr:postcode" v="53177"/>
    <tag k="addr:housenumber" v="157"/>
    <tag k="addr:street" v="Koblenzer Straße"/>
    <tag k="amenity" v="restaurant"/>
    <tag k="website" v="http://www.semsin.de/restaurant/index.php"/>
    <tag k="phone" v="+49 228 96 10 22 04"/>
  </node>
  <node id="-3334" version="0" timestamp="Fri Feb 24 10:53:35 +0100 2012" uid="1" user="" lat="50.76874" lon="6.09724">
    <tag k="name" v="Städteregionsverwaltung"/>
    <tag k="wheelchair" v="yes"/>
    <tag k="addr:city" v="Aachen"/>
    <tag k="addr:postcode" v="52070"/>
    <tag k="addr:housenumber" v="10"/>
    <tag k="addr:street" v="Zollernstraße"/>
    <tag k="phone" v="+49 241 5198-0"/>
  </node>
  <node id="-3385" version="0" timestamp="Fri Feb 24 10:53:35 +0100 2012" uid="1" user="" lat="50.7333" lon="7.1">
    <tag k="name" v="Zahnärztin Heyden"/>
    <tag k="wheelchair" v="limited"/>
    <tag k="addr:city" v="Niederzier"/>
    <tag k="addr:postcode" v="52382"/>
    <tag k="addr:housenumber" v="36"/>
    <tag k="addr:street" v="Breite Straße"/>
    <tag k="amenity" v="doctors"/>
    <tag k="website" v="http://www.zahnaerztin-heyden.de"/>
    <tag k="phone" v="+492428 2474"/>
  </node>
  <node id="-3396" version="0" timestamp="Fri Feb 24 10:53:35 +0100 2012" uid="1" user="" lat="50.9329473" lon="6.94023">
    <tag k="name" v="Café &amp; Chocolaterie 20°"/>
    <tag k="wheelchair" v="limited"/>
    <tag k="addr:city" v="Köln"/>
    <tag k="addr:postcode" v="50674"/>
    <tag k="addr:housenumber" v="58"/>
    <tag k="addr:street" v="Hohenstaufenring "/>
    <tag k="wheelchair:description" v="1 Stufe am Eingang, 1 Stufe vor Toiletten"/>
    <tag k="amenity" v="cafe"/>
    <tag k="website" v="http://www.cafe20grad.de"/>
    <tag k="phone" v="+49 221 16945933"/>
  </node>
  <node id="-3424" version="0" timestamp="Fri Feb 24 10:53:35 +0100 2012" uid="1" user="" lat="51.0354863" lon="7.0313751">
    <tag k="name" v="Parkplatz Museum Morsbroich"/>
    <tag k="wheelchair" v="yes"/>
    <tag k="amenity" v="parking"/>
  </node>
  <node id="-3700" version="0" timestamp="Fri Feb 24 10:53:35 +0100 2012" uid="1" user="" lat="50.9422372" lon="7.2074912">
    <tag k="name" v="Katzenhotel Villa Maunz"/>
    <tag k="wheelchair" v="unknown"/>
    <tag k="addr:city" v="Overath-Untereschbach"/>
    <tag k="addr:postcode" v="51491"/>
    <tag k="addr:housenumber" v="1"/>
    <tag k="addr:street" v="Unterauel"/>
    <tag k="amenity" v="veterinary"/>
    <tag k="website" v="http://www.villa-maunz.de"/>
  </node>
  <node id="-3745" version="0" timestamp="Fri Feb 24 10:53:35 +0100 2012" uid="1" user="" lat="50.7685201" lon="6.0916694">
    <tag k="name" v="Verwaltungsgebäude Bahnhofplatz"/>
    <tag k="wheelchair" v="limited"/>
    <tag k="addr:city" v="Aachen"/>
    <tag k="addr:postcode" v="52064"/>
    <tag k="addr:housenumber" v="1"/>
    <tag k="addr:street" v="Hackländerstraße "/>
    <tag k="wheelchair:description" v="6. Etage bis 10. Etage nicht erreichbar"/>
    <tag k="website" v="http://www.aachen.de"/>
    <tag k="phone" v="+49 241 432-0"/>
  </node>
  <node id="-3771" version="0" timestamp="Fri Feb 24 10:53:35 +0100 2012" uid="1" user="" lat="50.9677528" lon="6.9532679">
    <tag k="name" v="Eigenheim"/>
    <tag k="wheelchair" v="limited"/>
    <tag k="addr:city" v="Köln"/>
    <tag k="addr:postcode" v="50733"/>
    <tag k="addr:housenumber" v="2"/>
    <tag k="addr:street" v="Nordstraße "/>
    <tag k="wheelchair:description" v="alle Räume eben, keine Rollstuhltoilette"/>
    <tag k="amenity" v="pub"/>
  </node>
  <node id="-3872" version="0" timestamp="Fri Feb 24 10:53:35 +0100 2012" uid="1" user="" lat="50.97219" lon="6.96556">
    <tag k="shop" v="kiosk"/>
    <tag k="name" v="Kiosk"/>
    <tag k="wheelchair" v="yes"/>
  </node>
  <node id="-3873" version="0" timestamp="Fri Feb 24 10:53:35 +0100 2012" uid="1" user="" lat="50.9727324" lon="6.9774075">
    <tag k="shop" v="supermarket"/>
    <tag k="name" v="Kaufland"/>
    <tag k="wheelchair" v="yes"/>
    <tag k="wheelchair:description" v="besonders breite Gänge, Rolli-WC"/>
  </node>
  <node id="-3877" version="0" timestamp="Fri Feb 24 10:53:35 +0100 2012" uid="1" user="" lat="50.9740945" lon="6.9651204">
    <tag k="name" v="Op d´r Eck"/>
    <tag k="wheelchair" v="limited"/>
    <tag k="wheelchair:description" v="hohe Stufe am Eingang"/>
    <tag k="amenity" v="pub"/>
  </node>
  <node id="-3878" version="0" timestamp="Fri Feb 24 10:53:35 +0100 2012" uid="1" user="" lat="50.974025" lon="6.9652059">
    <tag k="shop" v="butcher"/>
    <tag k="name" v="Kremser"/>
    <tag k="wheelchair" v="yes"/>
  </node>
  <node id="-3879" version="0" timestamp="Fri Feb 24 10:53:35 +0100 2012" uid="1" user="" lat="50.9748247" lon="6.964705">
    <tag k="shop" v="bakery"/>
    <tag k="name" v="Kamps"/>
    <tag k="wheelchair" v="yes"/>
    <tag k="wheelchair:description" v="mit Café"/>
  </node>
  <node id="-4050" version="0" timestamp="Fri Feb 24 10:53:36 +0100 2012" uid="1" user="" lat="50.7726908" lon="6.0859872">
    <tag k="name" v="Flight Shop GmbH"/>
    <tag k="wheelchair" v="no"/>
    <tag k="addr:city" v="Aachen"/>
    <tag k="addr:postcode" v="52062"/>
    <tag k="addr:housenumber" v="16"/>
    <tag k="addr:street" v="Kapuzinergraben"/>
    <tag k="website" v="http://filgtshop.de"/>
    <tag k="phone" v="+49 241 28980"/>
  </node>
  <node id="-4096" version="0" timestamp="Fri Feb 24 10:53:36 +0100 2012" uid="1" user="" lat="50.7646" lon="6.09292">
    <tag k="name" v="Café Intakt/Kurpark-Terrassen"/>
    <tag k="wheelchair" v="yes"/>
    <tag k="addr:city" v="Aachen"/>
    <tag k="addr:postcode" v="52066"/>
    <tag k="addr:housenumber" v="40"/>
    <tag k="addr:street" v="Dammstrasse"/>
    <tag k="amenity" v="bank"/>
    <tag k="website" v="http://www.kurpark-terrassen.de"/>
    <tag k="phone" v="+49 2 41 6 66 96"/>
  </node>
  <node id="-4118" version="0" timestamp="Fri Feb 24 10:53:36 +0100 2012" uid="1" user="" lat="50.9981093" lon="6.8001497">
    <tag k="name" v="Rahaus Behindertenparkplatz"/>
    <tag k="wheelchair" v="yes"/>
    <tag k="wheelchair:description" v="Keine Kanten, für seitliche Bühne geeignet, 2 Platze "/>
    <tag k="amenity" v="parking"/>
  </node>
  <node id="-4178" version="0" timestamp="Fri Feb 24 10:53:36 +0100 2012" uid="1" user="" lat="50.88659" lon="6.98971">
    <tag k="name" v="HNO Dr. Schafigh "/>
    <tag k="wheelchair" v="limited"/>
    <tag k="addr:postcode" v="50996"/>
    <tag k="addr:housenumber" v="2b"/>
    <tag k="addr:street" v="ringstraße"/>
    <tag k="amenity" v="doctors"/>
  </node>
  <node id="-4179" version="0" timestamp="Fri Feb 24 10:53:36 +0100 2012" uid="1" user="" lat="50.8909892" lon="6.9902743">
    <tag k="name" v="Neurologe Dr. Stenzel und Koll."/>
    <tag k="wheelchair" v="yes"/>
    <tag k="addr:city" v="Köln"/>
    <tag k="addr:postcode" v="50996"/>
    <tag k="addr:housenumber" v="2b"/>
    <tag k="addr:street" v="Ringstraße"/>
    <tag k="wheelchair:description" v="WC nur nebenan barrierefrei"/>
    <tag k="amenity" v="doctors"/>
  </node>
  <node id="-4195" version="0" timestamp="Fri Feb 24 10:53:36 +0100 2012" uid="1" user="" lat="50.9771969" lon="6.9603772">
    <tag k="shop" v="bakery"/>
    <tag k="name" v="Schmitz &amp; Nittenwilm"/>
    <tag k="wheelchair" v="limited"/>
  </node>
  <node id="-4198" version="0" timestamp="Fri Feb 24 10:53:36 +0100 2012" uid="1" user="" lat="50.7733732" lon="6.0822193">
    <tag k="name" v="Parkhaus am Dom"/>
    <tag k="wheelchair" v="yes"/>
    <tag k="addr:city" v="Aachen"/>
    <tag k="addr:postcode" v="52062"/>
    <tag k="addr:street" v="Jesuitenstraße"/>
    <tag k="amenity" v="parking"/>
  </node>
  <node id="-4248" version="0" timestamp="Fri Feb 24 10:53:36 +0100 2012" uid="1" user="" lat="50.9392916" lon="6.9490834">
    <tag k="name" v="WC im Basement"/>
    <tag k="wheelchair" v="yes"/>
    <tag k="amenity" v="toilets"/>
  </node>
  <node id="-4250" version="0" timestamp="Fri Feb 24 10:53:36 +0100 2012" uid="1" user="" lat="50.9347424" lon="6.9487355">
    <tag k="shop" v="medical_supply"/>
    <tag k="name" v="Stortz"/>
    <tag k="wheelchair" v="limited"/>
  </node>
  <node id="-4251" version="0" timestamp="Fri Feb 24 10:53:36 +0100 2012" uid="1" user="" lat="50.9352694" lon="6.9436726">
    <tag k="name" v="KISS"/>
    <tag k="wheelchair" v="yes"/>
    <tag k="wheelchair:description" v="außer Eingangstüre"/>
    <tag k="amenity" v="social_facility"/>
  </node>
  <node id="-4303" version="0" timestamp="Fri Feb 24 10:53:36 +0100 2012" uid="1" user="" lat="50.9585072" lon="7.0147686">
    <tag k="shop" v="supermarket"/>
    <tag k="name" v="Kaufland"/>
    <tag k="wheelchair" v="yes"/>
  </node>
  <node id="-4304" version="0" timestamp="Fri Feb 24 10:53:36 +0100 2012" uid="1" user="" lat="50.819339" lon="7.1147656">
    <tag k="name" v="Poco Loco"/>
    <tag k="wheelchair" v="yes"/>
    <tag k="amenity" v="restaurant"/>
  </node>
  <node id="-4305" version="0" timestamp="Fri Feb 24 10:53:36 +0100 2012" uid="1" user="" lat="50.9345649" lon="6.9841347">
    <tag k="name" v="Werner-von-Siemens-Berufskolleg"/>
    <tag k="wheelchair" v="yes"/>
    <tag k="amenity" v="school"/>
  </node>
  <node id="-4318" version="0" timestamp="Fri Feb 24 10:53:36 +0100 2012" uid="1" user="" lat="50.9390508" lon="6.9807136">
    <tag k="name" v="Stadthaus (Westgebäude)"/>
    <tag k="wheelchair" v="unknown"/>
    <tag k="amenity" v="townhall"/>
  </node>
  <node id="-4319" version="0" timestamp="Fri Feb 24 10:53:36 +0100 2012" uid="1" user="" lat="50.9387162" lon="6.9845805">
    <tag k="name" v="Stadthaus (Ostgebäude)"/>
    <tag k="wheelchair" v="unknown"/>
    <tag k="amenity" v="townhall"/>
  </node>
  <node id="-4347" version="0" timestamp="Fri Feb 24 10:53:36 +0100 2012" uid="1" user="" lat="51.0823438" lon="7.1171455">
    <tag k="shop" v="bakery"/>
    <tag k="name" v="Bäckerei Oebel"/>
    <tag k="wheelchair" v="limited"/>
    <tag k="addr:city" v="Burscheid"/>
    <tag k="addr:postcode" v="51399"/>
    <tag k="addr:street" v="Hauptstr. 9"/>
    <tag k="wheelchair:description" v="Nur normale Toiletten vorhanden. Diese sind stufenfrei über einen Seiteneingang erreichbar."/>
  </node>
  <node id="-4355" version="0" timestamp="Fri Feb 24 10:53:36 +0100 2012" uid="1" user="" lat="50.9363688" lon="6.9525897">
    <tag k="shop" v="clothes"/>
    <tag k="name" v="Peek &amp; Cloppenburg"/>
    <tag k="wheelchair" v="yes"/>
  </node>
  <node id="-4372" version="0" timestamp="Fri Feb 24 10:53:36 +0100 2012" uid="1" user="" lat="50.7471172" lon="7.1301183">
    <tag k="name" v="barrierefrei kommunizieren! Bonn"/>
    <tag k="wheelchair" v="yes"/>
    <tag k="addr:city" v="Bonn"/>
    <tag k="addr:postcode" v="53229"/>
    <tag k="addr:housenumber" v="6-8"/>
    <tag k="addr:street" v="Siebenmorgenweg"/>
    <tag k="website" v="http://www.barrierefrei-kommunizieren.de"/>
    <tag k="office" v="company"/>
  </node>
  <node id="-4389" version="0" timestamp="Fri Feb 24 10:53:36 +0100 2012" uid="1" user="" lat="50.73682" lon="7.09797">
    <tag k="shop" v="photo"/>
    <tag k="name" v="Foto Sachse"/>
    <tag k="wheelchair" v="no"/>
    <tag k="addr:city" v="Bonn"/>
    <tag k="addr:postcode" v="53111"/>
    <tag k="addr:housenumber" v="18"/>
    <tag k="addr:street" v="Kasernenstraße"/>
    <tag k="wheelchair:description" v="Eine hohe Stufe vor dem Geschäft"/>
  </node>
  <node id="-4390" version="0" timestamp="Fri Feb 24 10:53:36 +0100 2012" uid="1" user="" lat="50.7355128" lon="7.0981953">
    <tag k="shop" v="photo"/>
    <tag k="name" v="Foto Schmidt"/>
    <tag k="wheelchair" v="limited"/>
    <tag k="addr:city" v="Bonn"/>
    <tag k="addr:housenumber" v="9"/>
    <tag k="addr:street" v="Vivatsgasse"/>
    <tag k="wheelchair:description" v="Vorne nur eine kleine Stufe, innen aber 3 Stufen (deswegen keine Passbilder möglich)"/>
  </node>
  <node id="-4391" version="0" timestamp="Fri Feb 24 10:53:36 +0100 2012" uid="1" user="" lat="50.7369941" lon="7.0977106">
    <tag k="shop" v="photo"/>
    <tag k="name" v="Fotostudio S2"/>
    <tag k="wheelchair" v="no"/>
    <tag k="addr:city" v="Bonn"/>
    <tag k="addr:housenumber" v="7"/>
    <tag k="addr:street" v="Wilhelmstraße"/>
    <tag k="wheelchair:description" v="Mehrere Stufen vor Eingang"/>
  </node>
  <node id="-4424" version="0" timestamp="Fri Feb 24 10:53:36 +0100 2012" uid="1" user="" lat="50.9383438" lon="6.9486255">
    <tag k="shop" v="department_store"/>
    <tag k="name" v="Karstadt"/>
    <tag k="wheelchair" v="yes"/>
    <tag k="wheelchair:description" v="mit  Rolli-WC - 4. Etage"/>
  </node>
  <node id="-4425" version="0" timestamp="Fri Feb 24 10:53:36 +0100 2012" uid="1" user="" lat="50.9358769" lon="6.9556096">
    <tag k="shop" v="department_store"/>
    <tag k="name" v="Kaufhof"/>
    <tag k="wheelchair" v="yes"/>
    <tag k="wheelchair:description" v="Rolli-WC 1 Etage Schlüssel an der Kasse"/>
  </node>
  <node id="-4427" version="0" timestamp="Fri Feb 24 10:53:36 +0100 2012" uid="1" user="" lat="50.8931837" lon="6.9952216">
    <tag k="shop" v="mall"/>
    <tag k="name" v="Sommershof"/>
    <tag k="wheelchair" v="yes"/>
    <tag k="wheelchair:description" v="Rolli-Wc !: Etage"/>
  </node>
  <node id="-4430" version="0" timestamp="Fri Feb 24 10:53:36 +0100 2012" uid="1" user="" lat="50.8908388" lon="6.9903447">
    <tag k="name" v="RNR Radiologiezentrum"/>
    <tag k="wheelchair" v="yes"/>
    <tag k="wheelchair:description" v="Rolli-WC"/>
    <tag k="amenity" v="doctors"/>
  </node>
  <node id="-4431" version="0" timestamp="Fri Feb 24 10:53:36 +0100 2012" uid="1" user="" lat="50.9606596" lon="6.9813582">
    <tag k="name" v="Zahnarzt Dr. Nies"/>
    <tag k="wheelchair" v="limited"/>
    <tag k="wheelchair:description" v="kein Rolli-WC, Außentüren schwer, schwellenlos, Rampe"/>
    <tag k="amenity" v="doctors"/>
  </node>
  <node id="-4432" version="0" timestamp="Fri Feb 24 10:53:36 +0100 2012" uid="1" user="" lat="50.9647173" lon="6.9753606">
    <tag k="name" v="HNO Köln-Nord"/>
    <tag k="wheelchair" v="limited"/>
    <tag k="wheelchair:description" v="Praxistüren 65 cm schmal"/>
    <tag k="amenity" v="doctors"/>
  </node>
  <node id="-4433" version="0" timestamp="Fri Feb 24 10:53:36 +0100 2012" uid="1" user="" lat="50.9725662" lon="6.9508371">
    <tag k="name" v="Hausarzt/Internist Dr. Knoop"/>
    <tag k="wheelchair" v="yes"/>
    <tag k="wheelchair:description" v="kein Rolli-WC"/>
    <tag k="amenity" v="doctors"/>
  </node>
  <node id="-4434" version="0" timestamp="Fri Feb 24 10:53:36 +0100 2012" uid="1" user="" lat="50.9623693" lon="6.9701417">
    <tag k="name" v="Botanischer Garten - Flora"/>
    <tag k="wheelchair" v="limited"/>
    <tag k="wheelchair:description" v="kein Rolli-WC"/>
    <tag k="amenity" v="bank"/>
  </node>
  <node id="-4436" version="0" timestamp="Fri Feb 24 10:53:36 +0100 2012" uid="1" user="" lat="50.9720924" lon="6.9529572">
    <tag k="shop" v="supermarket"/>
    <tag k="name" v="Aldi"/>
    <tag k="wheelchair" v="limited"/>
    <tag k="wheelchair:description" v="Drehkreuz! kein Rolli-WC"/>
  </node>
  <node id="-4633" version="0" timestamp="Fri Feb 24 10:53:36 +0100 2012" uid="1" user="" lat="51.11212" lon="7.40309">
    <tag k="name" v="Zentral &quot;Noh Bieneen&quot;"/>
    <tag k="wheelchair" v="yes"/>
    <tag k="addr:city" v="Wipperfürth"/>
    <tag k="addr:postcode" v="51688"/>
    <tag k="addr:housenumber" v="40a"/>
    <tag k="addr:street" v="Hochstraße"/>
    <tag k="wheelchair:description" v="Eingang + Toilette Barrierefrei"/>
    <tag k="amenity" v="cafe"/>
    <tag k="website" v="http://www.nohbieneen.de/"/>
    <tag k="phone" v="+49 2267 8720932"/>
  </node>
  <node id="-4673" version="0" timestamp="Fri Feb 24 10:53:36 +0100 2012" uid="1" user="" lat="50.9333" lon="6.95">
    <tag k="name" v="Reisebüro Hebbel"/>
    <tag k="wheelchair" v="yes"/>
    <tag k="addr:city" v="Bonn"/>
    <tag k="addr:postcode" v="53111"/>
    <tag k="addr:housenumber" v="26"/>
    <tag k="addr:street" v="Münsterplatz"/>
    <tag k="website" v="http://www.hebbel.de"/>
    <tag k="phone" v="+49 228 9694400"/>
    <tag k="office" v="company"/>
  </node>
  <node id="-4674" version="0" timestamp="Fri Feb 24 10:53:36 +0100 2012" uid="1" user="" lat="50.734925" lon="7.0996213">
    <tag k="name" v="Reisebüro Hebbel"/>
    <tag k="wheelchair" v="yes"/>
    <tag k="addr:city" v="Bonn"/>
    <tag k="addr:postcode" v="53111"/>
    <tag k="addr:housenumber" v="26"/>
    <tag k="addr:street" v="Münsterplatz"/>
    <tag k="website" v="http://www.hebbel.de"/>
    <tag k="phone" v="+49 228 9694400"/>
    <tag k="office" v="company"/>
  </node>
  <node id="-4718" version="0" timestamp="Fri Feb 24 10:53:36 +0100 2012" uid="1" user="" lat="50.9818661" lon="6.0624192">
    <tag k="name" v="Spielplatz"/>
    <tag k="wheelchair" v="no"/>
    <tag k="addr:city" v="Geilenkirchen"/>
    <tag k="addr:postcode" v="52511"/>
    <tag k="addr:street" v="Von-Bronsfeld-Straße/An der Burg"/>
    <tag k="wheelchair:description" v="komplett besandet, nicht befahrbar"/>
    <tag k="leisure" v="playground"/>
  </node>
  <node id="-4719" version="0" timestamp="Fri Feb 24 10:53:36 +0100 2012" uid="1" user="" lat="50.9815525" lon="6.0745126">
    <tag k="name" v="Grill Master"/>
    <tag k="wheelchair" v="limited"/>
    <tag k="wheelchair:description" v="klein, eng, hohe Tische, nur zum Abholen geeignet"/>
    <tag k="amenity" v="fast_food"/>
  </node>
  <node id="-4753" version="0" timestamp="Fri Feb 24 10:53:36 +0100 2012" uid="1" user="" lat="50.85762" lon="7.0795">
    <tag k="name" v="Köln-Bonn Flughafen"/>
    <tag k="wheelchair" v="yes"/>
    <tag k="aeroway" v="terminal"/>
  </node>
  <node id="-4896" version="0" timestamp="Fri Feb 24 10:53:36 +0100 2012" uid="1" user="" lat="50.9924266" lon="7.129333">
    <tag k="name" v="Cafe Leichtsinn"/>
    <tag k="wheelchair" v="limited"/>
    <tag k="addr:city" v="Bergisch Gladbach"/>
    <tag k="addr:postcode" v="51465"/>
    <tag k="addr:housenumber" v="8"/>
    <tag k="addr:street" v="Dr.-Robert-Koch-Straße"/>
    <tag k="wheelchair:description" v="klein Stufe am Eingang mit vorlegbarer Rampe, Treppenlift, rollstuhlgerechte Toilette folgt in wenigen Wochen"/>
    <tag k="amenity" v="cafe"/>
    <tag k="website" v="http://www.cafe-leichtsinn.de"/>
    <tag k="phone" v="+49 2202 93622-22"/>
  </node>
  <node id="-4905" version="0" timestamp="Fri Feb 24 10:53:36 +0100 2012" uid="1" user="" lat="50.93687" lon="6.9441">
    <tag k="name" v="TOMAHAWK GmbH"/>
    <tag k="wheelchair" v="yes"/>
    <tag k="addr:city" v="Köln"/>
    <tag k="addr:postcode" v="50672"/>
    <tag k="addr:housenumber" v="12 - 14"/>
    <tag k="addr:street" v="Mittelstraße"/>
    <tag k="wheelchair:description" v="leider keine Rollstuhlgerechten Toiletten"/>
    <tag k="website" v="http://www.tomahawk-group.com"/>
    <tag k="phone" v="+49 221 88 88 61 00"/>
    <tag k="office" v="company"/>
  </node>
  <node id="-4930" version="0" timestamp="Fri Feb 24 10:53:36 +0100 2012" uid="1" user="" lat="50.9782412" lon="7.0860086">
    <tag k="name" v="Lezuch&apos;s Gasthaus im Museum"/>
    <tag k="wheelchair" v="yes"/>
    <tag k="addr:city" v="Köln"/>
    <tag k="addr:postcode" v="51069"/>
    <tag k="addr:housenumber" v="173"/>
    <tag k="addr:street" v="Gemarkenstrasse"/>
    <tag k="wheelchair:description" v="including wheelchair accessible toilet"/>
    <tag k="amenity" v="restaurant"/>
    <tag k="website" v="http://www.lezuchs.de/"/>
    <tag k="phone" v="+49 221 6801663"/>
  </node>
  <node id="-4931" version="0" timestamp="Fri Feb 24 10:53:36 +0100 2012" uid="1" user="" lat="50.9971636" lon="7.1221822">
    <tag k="name" v="Nicolaus Cusanus Gymnasium (NCG)"/>
    <tag k="wheelchair" v="no"/>
    <tag k="addr:city" v="Bergisch Gladbach"/>
    <tag k="addr:postcode" v="51465"/>
    <tag k="addr:housenumber" v="51"/>
    <tag k="addr:street" v="Reuterstraße"/>
    <tag k="amenity" v="school"/>
    <tag k="website" v="http://www.ncg-online.de/"/>
  </node>
  <node id="-4933" version="0" timestamp="Fri Feb 24 10:53:36 +0100 2012" uid="1" user="" lat="50.9141263" lon="6.9340624">
    <tag k="shop" v="supermarket"/>
    <tag k="name" v="REWE Richrath"/>
    <tag k="wheelchair" v="yes"/>
    <tag k="addr:city" v="Köln"/>
    <tag k="addr:postcode" v="50939"/>
    <tag k="addr:housenumber" v="19"/>
    <tag k="addr:street" v="Rhöndorfer Straße"/>
    <tag k="website" v="http://www.richrath-express.de/"/>
  </node>
  <node id="-5074" version="0" timestamp="Fri Feb 24 10:53:37 +0100 2012" uid="1" user="" lat="50.64274" lon="7.21748">
    <tag k="name" v="Rheinsubstanz"/>
    <tag k="wheelchair" v="yes"/>
    <tag k="wheelchair:description" v="Mit behinderten WC"/>
    <tag k="amenity" v="bar"/>
  </node>
  <node id="-5113" version="0" timestamp="Fri Feb 24 10:53:37 +0100 2012" uid="1" user="" lat="50.9312392" lon="6.9478574">
    <tag k="name" v="Brauhaus Reissdorf"/>
    <tag k="wheelchair" v="limited"/>
    <tag k="addr:city" v="Köln"/>
    <tag k="addr:postcode" v="50676"/>
    <tag k="addr:housenumber" v="40"/>
    <tag k="addr:street" v="Kleiner Griechenmarkt"/>
    <tag k="wheelchair:description" v="easily accessible, toilet not accessible"/>
    <tag k="amenity" v="restaurant"/>
    <tag k="website" v="http://www.brauhaus-reissdorf.de/"/>
  </node>
  <node id="-5142" version="0" timestamp="Fri Feb 24 10:53:37 +0100 2012" uid="1" user="" lat="50.82517" lon="6.89948">
    <tag k="name" v="Rollstuhlparkplätze"/>
    <tag k="wheelchair" v="yes"/>
    <tag k="addr:city" v="Brühl"/>
    <tag k="addr:postcode" v="50321"/>
    <tag k="addr:street" v="Uhlstrasse / Lieblarer Strasse"/>
    <tag k="wheelchair:description" v="Öffentlicher Platz"/>
    <tag k="amenity" v="parking"/>
  </node>
  <node id="-5378" version="0" timestamp="Fri Feb 24 10:53:37 +0100 2012" uid="1" user="" lat="50.92957" lon="6.94126">
    <tag k="name" v="Santander Consumer Bank"/>
    <tag k="wheelchair" v="limited"/>
    <tag k="addr:city" v="Köln"/>
    <tag k="addr:postcode" v="50674"/>
    <tag k="addr:housenumber" v="4-6"/>
    <tag k="addr:street" v="Hohenstaufenring"/>
    <tag k="amenity" v="bank"/>
    <tag k="website" v="http://www.santander.de"/>
  </node>
  <node id="-5385" version="0" timestamp="Fri Feb 24 10:53:37 +0100 2012" uid="1" user="" lat="50.77809" lon="6.09439">
    <tag k="name" v="Santander Consumer Bank"/>
    <tag k="wheelchair" v="limited"/>
    <tag k="addr:city" v="Aachen"/>
    <tag k="addr:postcode" v="52062"/>
    <tag k="addr:housenumber" v="1"/>
    <tag k="addr:street" v="Hansemannplatz "/>
    <tag k="amenity" v="bank"/>
    <tag k="website" v="http://www.santander.de"/>
  </node>
  <node id="-5417" version="0" timestamp="Fri Feb 24 10:53:37 +0100 2012" uid="1" user="" lat="50.90573" lon="6.9624">
    <tag k="name" v="Santander Consumer Bank"/>
    <tag k="wheelchair" v="limited"/>
    <tag k="addr:city" v="Köln"/>
    <tag k="addr:postcode" v="50677"/>
    <tag k="addr:housenumber" v="15-17"/>
    <tag k="addr:street" v="Bonnerstraße "/>
    <tag k="amenity" v="bank"/>
    <tag k="website" v="http://www.santander.de"/>
  </node>
  <node id="-5425" version="0" timestamp="Fri Feb 24 10:53:37 +0100 2012" uid="1" user="" lat="51.03004" lon="6.9828">
    <tag k="name" v="Santander Consumer Bank"/>
    <tag k="wheelchair" v="limited"/>
    <tag k="addr:city" v="Leverkusen"/>
    <tag k="addr:postcode" v="51373"/>
    <tag k="addr:housenumber" v="10"/>
    <tag k="addr:street" v="Breidenbachstraße"/>
    <tag k="amenity" v="bank"/>
    <tag k="website" v="http://www.santander.de"/>
  </node>
  <node id="-5462" version="0" timestamp="Fri Feb 24 10:53:37 +0100 2012" uid="1" user="" lat="50.96452" lon="6.97448">
    <tag k="name" v="Körner&apos;s"/>
    <tag k="wheelchair" v="limited"/>
    <tag k="addr:city" v="Köln"/>
    <tag k="addr:postcode" v="50735"/>
    <tag k="addr:housenumber" v="100"/>
    <tag k="addr:street" v="Stammheimer Str."/>
    <tag k="wheelchair:description" v="flache Stufe am Eingang, Toiletten ebenerdig, aber kein Behinderten-WC"/>
    <tag k="amenity" v="restaurant"/>
    <tag k="phone" v="+49 221 9763330"/>
  </node>
  <node id="-5494" version="0" timestamp="Fri Feb 24 10:53:37 +0100 2012" uid="1" user="" lat="51.02307" lon="6.88893">
    <tag k="name" v="Bildungszentrum der Bundesfinanzverwaltung, Dienstsitz Köln"/>
    <tag k="wheelchair" v="yes"/>
    <tag k="addr:city" v="Köln"/>
    <tag k="addr:postcode" v="50765"/>
    <tag k="addr:housenumber" v="110"/>
    <tag k="addr:street" v="Merianstrasse"/>
    <tag k="wheelchair:description" v="Rampe am Haupteingang, Aufzug, breite Innentüren, behindertengerechte Toilette im Erdgeschoss"/>
    <tag k="amenity" v="police"/>
    <tag k="website" v="http://www.zoll.de/DE/Der-Zoll/Struktur/BWZ/bwz.html"/>
    <tag k="phone" v="0"/>
  </node>
  <node id="-5495" version="0" timestamp="Fri Feb 24 10:53:37 +0100 2012" uid="1" user="" lat="50.7968" lon="6.96125">
    <tag k="name" v="Vereinsheim des Fußballvereins Salia Sechtem"/>
    <tag k="wheelchair" v="limited"/>
    <tag k="leisure" v="playground"/>
  </node>
  <node id="-5545" version="0" timestamp="Fri Feb 24 10:53:37 +0100 2012" uid="1" user="" lat="50.9150719" lon="6.1136218">
    <tag k="name" v="Schwimmbad der Stadt Übach -Palenberg"/>
    <tag k="wheelchair" v="yes"/>
    <tag k="addr:city" v="Übach-Palenberg"/>
    <tag k="addr:postcode" v="52531"/>
    <tag k="addr:housenumber" v="79"/>
    <tag k="addr:street" v="Dammstr."/>
    <tag k="wheelchair:description" v="Hat einen Lift, um Personen aus dem Rollstuhl ins Wasser zu heben"/>
    <tag k="amenity" v="swimming_pool"/>
  </node>
  <node id="-5560" version="0" timestamp="Fri Feb 24 10:53:37 +0100 2012" uid="1" user="" lat="50.798409" lon="7.2105517">
    <tag k="name" v="T!hai"/>
    <tag k="wheelchair" v="limited"/>
    <tag k="addr:city" v="Siegburg"/>
    <tag k="addr:postcode" v="53721"/>
    <tag k="addr:housenumber" v="42"/>
    <tag k="addr:street" v="Holzgasse"/>
    <tag k="wheelchair:description" v="Stufenfreier Zugang, WC im Keller ohne Aufzug"/>
    <tag k="amenity" v="restaurant"/>
    <tag k="phone" v="+49 2241 68373"/>
  </node>
  <node id="-5674" version="0" timestamp="Fri Feb 24 10:53:37 +0100 2012" uid="1" user="" lat="50.7052438" lon="7.0440215">
    <tag k="name" v="Hardtbergbad: Hallen- und Freibad und Kletterwald "/>
    <tag k="wheelchair" v="yes"/>
    <tag k="addr:city" v="Bonn"/>
    <tag k="addr:postcode" v="53125 "/>
    <tag k="addr:street" v="In der Dehlen"/>
    <tag k="amenity" v="swimming_pool"/>
    <tag k="website" v="http://www.bonn.de/tourismus_kultur_sport_freizeit/baeder/00237/index.html"/>
    <tag k="phone" v="0228 626218"/>
  </node>
  <node id="-5675" version="0" timestamp="Fri Feb 24 10:53:37 +0100 2012" uid="1" user="" lat="50.7482723" lon="7.0541782">
    <tag k="name" v="Dr. med. Wolf-Dietrich Honig Facharzt für Allgemeinmedizin"/>
    <tag k="wheelchair" v="limited"/>
    <tag k="addr:city" v="Bonn"/>
    <tag k="addr:postcode" v="53119 "/>
    <tag k="addr:housenumber" v="33"/>
    <tag k="addr:street" v="Oppelnerstr"/>
    <tag k="amenity" v="doctors"/>
    <tag k="website" v="http://www.dr-honig.de/"/>
    <tag k="phone" v="0228/661069"/>
  </node>
</osm>
