<?xml version='1.0' encoding='UTF-8'?>
<osm version="0.6" generator="Osmosis 0.39">
  <node id="-35" version="0" timestamp="Fri Feb 24 10:53:32 +0100 2012" uid="1" user="" lat="51.5785733" lon="7.0523355">
    <tag k="name" v="Immobilien-Management Hundt"/>
    <tag k="wheelchair" v="yes"/>
    <tag k="addr:city" v="Gelsenkirchen-Buer"/>
    <tag k="addr:postcode" v="45894"/>
    <tag k="addr:housenumber" v="15"/>
    <tag k="addr:street" v="Luciagasse"/>
    <tag k="wheelchair:description" v="Immobilienmakler und Sachverständiger "/>
    <tag k="website" v="http://www.HUNDT.IM"/>
    <tag k="phone" v="0209 17839900"/>
  </node>
  <node id="-93" version="0" timestamp="Fri Feb 24 10:53:32 +0100 2012" uid="1" user="" lat="51.9777733" lon="7.4120464">
    <tag k="name" v="Rundfunkmuseum Holtstiege"/>
    <tag k="wheelchair" v="unknown"/>
    <tag k="addr:city" v="Havixbeck"/>
    <tag k="addr:postcode" v="48329"/>
    <tag k="addr:housenumber" v="22"/>
    <tag k="tourism" v="museum"/>
    <tag k="addr:street" v="Altenberger Straße"/>
    <tag k="website" v="http://www.rundfunkmuseum.baumberge.net"/>
    <tag k="phone" v="+49 177 4330154"/>
  </node>
  <node id="-95" version="0" timestamp="Fri Feb 24 10:53:32 +0100 2012" uid="1" user="" lat="51.9794069" lon="7.4069757">
    <tag k="name" v="ARTelier f. Bildhauerei"/>
    <tag k="wheelchair" v="yes"/>
    <tag k="addr:city" v="Havixbeck"/>
    <tag k="addr:postcode" v="48329"/>
    <tag k="addr:housenumber" v="9"/>
    <tag k="tourism" v="attraction"/>
    <tag k="addr:street" v="Gennerich"/>
    <tag k="wheelchair:description" v="Die Räume sind barrierefrei zugänglich - Bildhauerkurse für Menschen mit Handycaps"/>
    <tag k="website" v="http://www.artelier.de"/>
    <tag k="phone" v="+49 2507 982505"/>
  </node>
  <node id="-104" version="0" timestamp="Fri Feb 24 10:53:32 +0100 2012" uid="1" user="" lat="51.9712486" lon="7.5036494">
    <tag k="name" v="Burg Hülshoff"/>
    <tag k="wheelchair" v="limited"/>
    <tag k="addr:city" v="Havixbeck"/>
    <tag k="addr:postcode" v="48329"/>
    <tag k="addr:housenumber" v="6"/>
    <tag k="addr:street" v="Schonebeck"/>
    <tag k="wheelchair:description" v="Der Park der Burg ist barrierefrei zugänglich. Das Museum in den Innenräumen der Burg ist leider nur über eine Treppe erreichbar "/>
    <tag k="website" v="http://www.burg-huelshoff.de"/>
    <tag k="phone" v="+49 2534/1052"/>
    <tag k="historic" v="castle"/>
  </node>
  <node id="-322" version="0" timestamp="Fri Feb 24 10:53:32 +0100 2012" uid="1" user="" lat="51.8234587" lon="8.1567508">
    <tag k="shop" v="bakery"/>
    <tag k="name" v="Bäckerei Gerd"/>
    <tag k="wheelchair" v="no"/>
    <tag k="addr:city" v="Oelde"/>
    <tag k="addr:postcode" v="59302"/>
    <tag k="addr:housenumber" v="10"/>
    <tag k="addr:street" v="Am Urnenfeld"/>
  </node>
  <node id="-323" version="0" timestamp="Fri Feb 24 10:53:32 +0100 2012" uid="1" user="" lat="51.8265564" lon="8.142907">
    <tag k="name" v="Arztpraxis Blicharski"/>
    <tag k="wheelchair" v="yes"/>
    <tag k="addr:city" v="Oelde"/>
    <tag k="addr:postcode" v="59302"/>
    <tag k="addr:housenumber" v="4"/>
    <tag k="addr:street" v="Bernhard-Raestrup-Platz "/>
    <tag k="amenity" v="doctors"/>
  </node>
  <node id="-342" version="0" timestamp="Fri Feb 24 10:53:32 +0100 2012" uid="1" user="" lat="51.92594" lon="7.6703807">
    <tag k="name" v="Linie 6 Paul-Engelhard-Weg Stadteinwärts"/>
    <tag k="wheelchair" v="no"/>
    <tag k="amenity" v="bus_station"/>
  </node>
  <node id="-347" version="0" timestamp="Fri Feb 24 10:53:32 +0100 2012" uid="1" user="" lat="51.92805" lon="7.6683">
    <tag k="shop" v="supermarket"/>
    <tag k="name" v="EDEKA Markt Wiewel"/>
    <tag k="wheelchair" v="limited"/>
    <tag k="addr:city" v="Münster"/>
    <tag k="addr:postcode" v="48167"/>
    <tag k="addr:housenumber" v="445"/>
    <tag k="addr:street" v="Albersloher Weg "/>
    <tag k="wheelchair:description" v="Zwar ohne Stufen, aber etwas eng und vor allem im Kassenbereich kurvig."/>
    <tag k="website" v="http://www.wiewel.eu/index.php?id=26"/>
    <tag k="phone" v="+49 251 61372"/>
  </node>
  <node id="-350" version="0" timestamp="Fri Feb 24 10:53:32 +0100 2012" uid="1" user="" lat="51.9268336" lon="7.6697564">
    <tag k="shop" v="florist"/>
    <tag k="name" v="Blumen-Atelier Torsten Hanhart"/>
    <tag k="wheelchair" v="no"/>
    <tag k="addr:city" v="Münster"/>
    <tag k="addr:postcode" v="48167"/>
    <tag k="addr:housenumber" v="463"/>
    <tag k="addr:street" v="Albersloher Weg"/>
    <tag k="wheelchair:description" v="Hohe Treppe"/>
    <tag k="website" v="http://www.bluetezeit.de/"/>
    <tag k="phone" v="+49 251 616678"/>
  </node>
  <node id="-406" version="0" timestamp="Fri Feb 24 10:53:32 +0100 2012" uid="1" user="" lat="51.5514735" lon="7.3016013">
    <tag k="name" v="Metaxa"/>
    <tag k="wheelchair" v="yes"/>
    <tag k="addr:city" v="Castrop-Rauxel"/>
    <tag k="addr:postcode" v="44575"/>
    <tag k="addr:housenumber" v="26"/>
    <tag k="addr:street" v="Bladenhorster Str."/>
    <tag k="wheelchair:description" v="Rampe am Eingang, Toilette, keine Stufen im Innenraum"/>
    <tag k="amenity" v="restaurant"/>
    <tag k="phone" v="+49 2305 14405"/>
  </node>
  <node id="-477" version="0" timestamp="Fri Feb 24 10:53:32 +0100 2012" uid="1" user="" lat="51.9258702" lon="7.6706676">
    <tag k="shop" v="supermarket"/>
    <tag k="name" v="Schlecker"/>
    <tag k="wheelchair" v="yes"/>
    <tag k="addr:city" v="Münster"/>
    <tag k="addr:postcode" v="48167"/>
    <tag k="addr:street" v="Albersloher Weg / Paul-Engelhard-Weg"/>
  </node>
  <node id="-478" version="0" timestamp="Fri Feb 24 10:53:32 +0100 2012" uid="1" user="" lat="51.9261247" lon="7.6704501">
    <tag k="shop" v="clothes"/>
    <tag k="name" v="Atelier Krekel (Schneiderei)"/>
    <tag k="wheelchair" v="no"/>
    <tag k="addr:city" v="Münster"/>
    <tag k="addr:postcode" v="48167"/>
    <tag k="addr:housenumber" v="473"/>
    <tag k="addr:street" v="Albersloher Weg"/>
    <tag k="wheelchair:description" v="Hohe Treppe"/>
  </node>
  <node id="-561" version="0" timestamp="Fri Feb 24 10:53:32 +0100 2012" uid="1" user="" lat="51.75095" lon="7.19256">
    <tag k="shop" v="supermarket"/>
    <tag k="name" v="Aldi"/>
    <tag k="wheelchair" v="yes"/>
  </node>
  <node id="-562" version="0" timestamp="Fri Feb 24 10:53:32 +0100 2012" uid="1" user="" lat="51.75114" lon="7.19172">
    <tag k="shop" v="supermarket"/>
    <tag k="name" v="Lidl"/>
    <tag k="wheelchair" v="yes"/>
  </node>
  <node id="-563" version="0" timestamp="Fri Feb 24 10:53:32 +0100 2012" uid="1" user="" lat="51.75056" lon="7.19503">
    <tag k="shop" v="supermarket"/>
    <tag k="name" v="Aldi"/>
    <tag k="wheelchair" v="yes"/>
  </node>
  <node id="-564" version="0" timestamp="Fri Feb 24 10:53:32 +0100 2012" uid="1" user="" lat="51.73861" lon="7.18241">
    <tag k="name" v="Joseph-König-Gymansium"/>
    <tag k="wheelchair" v="limited"/>
    <tag k="wheelchair:description" v="Nur Erdgeschoss"/>
    <tag k="amenity" v="school"/>
  </node>
  <node id="-639" version="0" timestamp="Fri Feb 24 10:53:32 +0100 2012" uid="1" user="" lat="51.62102" lon="6.97293">
    <tag k="name" v="Movie Park Germany"/>
    <tag k="wheelchair" v="limited"/>
    <tag k="addr:city" v="Bottrop"/>
    <tag k="addr:postcode" v="46244"/>
    <tag k="addr:housenumber" v="1"/>
    <tag k="tourism" v="theme_park"/>
    <tag k="addr:street" v="Warner Allee"/>
    <tag k="website" v="http://www.movieparkgermany.de"/>
    <tag k="phone" v="+4918052045899"/>
  </node>
  <node id="-643" version="0" timestamp="Fri Feb 24 10:53:32 +0100 2012" uid="1" user="" lat="51.74157" lon="7.18329">
    <tag k="shop" v="hairdresser"/>
    <tag k="name" v="Hanewinkel -HaarModen-"/>
    <tag k="wheelchair" v="yes"/>
    <tag k="addr:city" v="Haltern am See"/>
    <tag k="addr:postcode" v="45721"/>
    <tag k="addr:housenumber" v="5"/>
    <tag k="addr:street" v="Koeppstraße"/>
    <tag k="wheelchair:description" v="Ebener breiter Eingang; ebener und sehr großzügig gestaltetes Friseurgeschäft"/>
    <tag k="website" v="http://www.hanewinkel.de"/>
    <tag k="phone" v="02364-5474"/>
  </node>
  <node id="-712" version="0" timestamp="Fri Feb 24 10:53:32 +0100 2012" uid="1" user="" lat="52.2751915" lon="7.7136485">
    <tag k="name" v="blick.punkt"/>
    <tag k="wheelchair" v="yes"/>
    <tag k="amenity" v="place_of_worship"/>
  </node>
  <node id="-758" version="0" timestamp="Fri Feb 24 10:53:32 +0100 2012" uid="1" user="" lat="51.9538922" lon="7.6308455">
    <tag k="name" v="Techniker Krankenkasse"/>
    <tag k="wheelchair" v="yes"/>
    <tag k="addr:city" v="Münster"/>
    <tag k="addr:postcode" v="48153"/>
    <tag k="addr:housenumber" v="32"/>
    <tag k="addr:street" v="Hafenstr."/>
    <tag k="website" v="http://www.tk.de"/>
  </node>
  <node id="-759" version="0" timestamp="Fri Feb 24 10:53:32 +0100 2012" uid="1" user="" lat="51.917" lon="7.73041">
    <tag k="name" v="Kiepe"/>
    <tag k="wheelchair" v="limited"/>
    <tag k="amenity" v="restaurant"/>
  </node>
  <node id="-1013" version="0" timestamp="Fri Feb 24 10:53:33 +0100 2012" uid="1" user="" lat="51.76249" lon="7.39441">
    <tag k="name" v="Bäckerei Holtermann"/>
    <tag k="wheelchair" v="yes"/>
    <tag k="addr:city" v="Lüdinghausen"/>
    <tag k="addr:postcode" v="59348"/>
    <tag k="addr:housenumber" v="5"/>
    <tag k="addr:street" v="Kirchplatz"/>
    <tag k="amenity" v="cafe"/>
    <tag k="website" v="http://www.baeckerei-holtermann.de"/>
    <tag k="phone" v="+49 2591 8182"/>
  </node>
  <node id="-1053" version="0" timestamp="Fri Feb 24 10:53:33 +0100 2012" uid="1" user="" lat="52.2869531" lon="7.7346091">
    <tag k="name" v="Bergbaumuseum Ibbenbüren"/>
    <tag k="wheelchair" v="unknown"/>
    <tag k="addr:city" v="Ibbenbüren"/>
    <tag k="addr:postcode" v="49477"/>
    <tag k="addr:housenumber" v="112"/>
    <tag k="addr:street" v="Osnabrücker Straße "/>
    <tag k="amenity" v="bank"/>
  </node>
  <node id="-1170" version="0" timestamp="Fri Feb 24 10:53:33 +0100 2012" uid="1" user="" lat="52.2873941" lon="7.6241434">
    <tag k="name" v="Kloster Gravenhorst"/>
    <tag k="wheelchair" v="unknown"/>
    <tag k="addr:city" v="Hörstel"/>
    <tag k="addr:postcode" v="48477"/>
    <tag k="addr:housenumber" v="10"/>
    <tag k="addr:street" v="Klosterstraße "/>
    <tag k="amenity" v="arts_centre"/>
  </node>
  <node id="-1177" version="0" timestamp="Fri Feb 24 10:53:33 +0100 2012" uid="1" user="" lat="52.2499863" lon="7.7055484">
    <tag k="name" v="Sommerrodelbahn mit Märchenwald"/>
    <tag k="wheelchair" v="unknown"/>
    <tag k="addr:city" v="Ibbenbüren"/>
    <tag k="addr:postcode" v="49479 "/>
    <tag k="addr:housenumber" v="265"/>
    <tag k="tourism" v="theme_park"/>
    <tag k="addr:street" v="Münsterstraße"/>
  </node>
  <node id="-1181" version="0" timestamp="Fri Feb 24 10:53:33 +0100 2012" uid="1" user="" lat="52.2832285" lon="7.5689711">
    <tag k="name" v="Erholungsgebiet Torfmoorsee"/>
    <tag k="wheelchair" v="yes"/>
    <tag k="addr:city" v="Hörstel"/>
    <tag k="addr:postcode" v="48477"/>
    <tag k="addr:street" v="Am Torfmoorsee"/>
    <tag k="amenity" v="bank"/>
  </node>
  <node id="-1185" version="0" timestamp="Fri Feb 24 10:53:33 +0100 2012" uid="1" user="" lat="52.2412281" lon="7.6769024">
    <tag k="name" v="Naturgart Naturerlebnispark und Unterwasserwelt"/>
    <tag k="wheelchair" v="unknown"/>
    <tag k="addr:city" v="Ibbenbüren"/>
    <tag k="addr:postcode" v="49479"/>
    <tag k="addr:housenumber" v="63 - 65 "/>
    <tag k="tourism" v="attraction"/>
    <tag k="addr:street" v="Riesenbecker Str. "/>
  </node>
  <node id="-1413" version="0" timestamp="Fri Feb 24 10:53:33 +0100 2012" uid="1" user="" lat="51.66762" lon="6.98536">
    <tag k="name" v="Glück Auf Grill"/>
    <tag k="wheelchair" v="yes"/>
    <tag k="amenity" v="fast_food"/>
  </node>
  <node id="-1425" version="0" timestamp="Fri Feb 24 10:53:33 +0100 2012" uid="1" user="" lat="51.6601897" lon="6.968148">
    <tag k="name" v="Johanneskirche"/>
    <tag k="wheelchair" v="yes"/>
    <tag k="addr:city" v="Dorsten"/>
    <tag k="addr:postcode" v="46282"/>
    <tag k="addr:housenumber" v="1"/>
    <tag k="addr:street" v="Südwall"/>
    <tag k="amenity" v="place_of_worship"/>
    <tag k="website" v="http://www.jokido.de"/>
  </node>
  <node id="-1427" version="0" timestamp="Fri Feb 24 10:53:33 +0100 2012" uid="1" user="" lat="51.66009" lon="6.96783">
    <tag k="name" v="Ev. Kirche"/>
    <tag k="wheelchair" v="limited"/>
    <tag k="addr:city" v="Dorsten"/>
    <tag k="addr:postcode" v="46282"/>
    <tag k="addr:housenumber" v="11"/>
    <tag k="addr:street" v="Gräwingheide"/>
    <tag k="wheelchair:description" v="es steht eine Rampe zur Verfügung"/>
    <tag k="amenity" v="place_of_worship"/>
    <tag k="website" v="http://www.jokido.de"/>
  </node>
  <node id="-1428" version="0" timestamp="Fri Feb 24 10:53:33 +0100 2012" uid="1" user="" lat="51.636995" lon="7.0120267">
    <tag k="name" v="Ev. Kirche"/>
    <tag k="wheelchair" v="limited"/>
    <tag k="addr:city" v="D"/>
    <tag k="addr:postcode" v="46282"/>
    <tag k="addr:housenumber" v="11"/>
    <tag k="addr:street" v="Gräwingheide"/>
    <tag k="wheelchair:description" v="es steht eine Rampe zur Verfügung"/>
    <tag k="amenity" v="place_of_worship"/>
    <tag k="website" v="http://www.jokido.de"/>
  </node>
  <node id="-1432" version="0" timestamp="Fri Feb 24 10:53:33 +0100 2012" uid="1" user="" lat="51.6653067" lon="7.1232983">
    <tag k="name" v="Evangelische Freikirche Gemeinde Gottes Marl"/>
    <tag k="wheelchair" v="limited"/>
    <tag k="addr:city" v="Marl"/>
    <tag k="addr:postcode" v="45770"/>
    <tag k="addr:housenumber" v="7"/>
    <tag k="addr:street" v="Kinderheimstraße"/>
    <tag k="wheelchair:description" v="Rollstuhlgerechter Zugang, allerdings keine rollstuhlgerchten Toiletten"/>
    <tag k="amenity" v="place_of_worship"/>
    <tag k="website" v="http://www.gego-marl.de"/>
    <tag k="phone" v="+49 2365 8092565"/>
  </node>
  <node id="-1451" version="0" timestamp="Fri Feb 24 10:53:33 +0100 2012" uid="1" user="" lat="51.7196492" lon="7.2309668">
    <tag k="shop" v="bakery"/>
    <tag k="name" v="Pick-Up snack &amp; service"/>
    <tag k="wheelchair" v="limited"/>
    <tag k="addr:city" v="Haltern am See"/>
    <tag k="addr:postcode" v="45721"/>
    <tag k="addr:housenumber" v="346"/>
    <tag k="addr:street" v="Flaesheimer Straße"/>
    <tag k="wheelchair:description" v="Eingangsbereich hat Rampe, keine Stufen"/>
    <tag k="website" v="http://www.pick-up-kiosk.de/index.htm"/>
  </node>
  <node id="-1521" version="0" timestamp="Fri Feb 24 10:53:33 +0100 2012" uid="1" user="" lat="52.2731598" lon="7.7151895">
    <tag k="name" v="Volksbank Tecklenburger Land e.G."/>
    <tag k="wheelchair" v="yes"/>
    <tag k="amenity" v="bank"/>
  </node>
  <node id="-1522" version="0" timestamp="Fri Feb 24 10:53:33 +0100 2012" uid="1" user="" lat="52.2744982" lon="7.7139492">
    <tag k="name" v="Ledig&apos;s Anna"/>
    <tag k="wheelchair" v="no"/>
    <tag k="wheelchair:description" v="befahrbar über Wintergarten - kein Anschluss an Toilette"/>
    <tag k="amenity" v="restaurant"/>
  </node>
  <node id="-1694" version="0" timestamp="Fri Feb 24 10:53:33 +0100 2012" uid="1" user="" lat="51.7536699" lon="8.0403594">
    <tag k="name" v="WC"/>
    <tag k="wheelchair" v="yes"/>
    <tag k="amenity" v="toilets"/>
  </node>
  <node id="-1698" version="0" timestamp="Fri Feb 24 10:53:33 +0100 2012" uid="1" user="" lat="51.8181408" lon="8.1400014">
    <tag k="name" v="Restaurant Poseidon"/>
    <tag k="wheelchair" v="limited"/>
    <tag k="addr:city" v="Oelde"/>
    <tag k="addr:postcode" v="59302"/>
    <tag k="addr:housenumber" v="17"/>
    <tag k="addr:street" v="In der Geist"/>
    <tag k="wheelchair:description" v="Hintereingang eine Stufe, mobile Rampe vorhanden,"/>
    <tag k="amenity" v="restaurant"/>
    <tag k="phone" v="02522/4588 "/>
  </node>
  <node id="-1765" version="0" timestamp="Fri Feb 24 10:53:33 +0100 2012" uid="1" user="" lat="51.9371875" lon="7.1687636">
    <tag k="name" v="Easy-Fzness"/>
    <tag k="wheelchair" v="limited"/>
    <tag k="wheelchair:description" v="Barrierefreier Eingang aber Toiletten nicht Rolligerecht"/>
    <tag k="leisure" v="sports_centre"/>
  </node>
  <node id="-1766" version="0" timestamp="Fri Feb 24 10:53:33 +0100 2012" uid="1" user="" lat="51.9412831" lon="7.1639206">
    <tag k="shop" v="electronics"/>
    <tag k="name" v="Expert"/>
    <tag k="wheelchair" v="yes"/>
  </node>
  <node id="-1767" version="0" timestamp="Fri Feb 24 10:53:33 +0100 2012" uid="1" user="" lat="51.6578433" lon="6.955598">
    <tag k="name" v="Se. Elisabeth Hospital"/>
    <tag k="wheelchair" v="yes"/>
    <tag k="amenity" v="bus_station"/>
  </node>
  <node id="-1768" version="0" timestamp="Fri Feb 24 10:53:33 +0100 2012" uid="1" user="" lat="51.6575362" lon="6.9598336">
    <tag k="name" v="Hülskampsweg"/>
    <tag k="wheelchair" v="yes"/>
    <tag k="amenity" v="bus_station"/>
  </node>
  <node id="-1769" version="0" timestamp="Fri Feb 24 10:53:33 +0100 2012" uid="1" user="" lat="51.6562569" lon="6.9606262">
    <tag k="name" v="Amtsgericht Dorsten"/>
    <tag k="wheelchair" v="yes"/>
    <tag k="wheelchair:description" v="Rampe hinter dem Gerichtsgebäude. Aufzug im Gebäude."/>
    <tag k="amenity" v="courthouse"/>
  </node>
  <node id="-1770" version="0" timestamp="Fri Feb 24 10:53:33 +0100 2012" uid="1" user="" lat="51.6669295" lon="6.9644711">
    <tag k="name" v="Freizeitbad Atlantis"/>
    <tag k="wheelchair" v="yes"/>
    <tag k="amenity" v="swimming_pool"/>
  </node>
  <node id="-1771" version="0" timestamp="Fri Feb 24 10:53:33 +0100 2012" uid="1" user="" lat="51.6693978" lon="6.9650809">
    <tag k="shop" v="supermarket"/>
    <tag k="name" v="Lidl"/>
    <tag k="wheelchair" v="yes"/>
  </node>
  <node id="-1772" version="0" timestamp="Fri Feb 24 10:53:33 +0100 2012" uid="1" user="" lat="51.6697163" lon="6.9672234">
    <tag k="name" v="Stadtverwaltung (Neubau)"/>
    <tag k="wheelchair" v="limited"/>
    <tag k="wheelchair:description" v="Erdgeschoß ok. Aufzug bleibt mit E-Rolli hängen."/>
    <tag k="amenity" v="bank"/>
  </node>
  <node id="-1774" version="0" timestamp="Fri Feb 24 10:53:33 +0100 2012" uid="1" user="" lat="51.6697133" lon="6.9687328">
    <tag k="name" v="Stadtverwaltung (Haupthaus)"/>
    <tag k="wheelchair" v="limited"/>
    <tag k="wheelchair:description" v="Erdgeschoss ok.  Aufzug eventuell zu eng für E-Rolli."/>
  </node>
  <node id="-1781" version="0" timestamp="Fri Feb 24 10:53:33 +0100 2012" uid="1" user="" lat="51.6588791" lon="6.966698">
    <tag k="name" v="Sparkasse"/>
    <tag k="wheelchair" v="yes"/>
    <tag k="amenity" v="bank"/>
  </node>
  <node id="-1782" version="0" timestamp="Fri Feb 24 10:53:33 +0100 2012" uid="1" user="" lat="51.6589366" lon="6.9664801">
    <tag k="name" v="Volksbank"/>
    <tag k="wheelchair" v="yes"/>
    <tag k="amenity" v="bank"/>
  </node>
  <node id="-1854" version="0" timestamp="Fri Feb 24 10:53:33 +0100 2012" uid="1" user="" lat="52.07002" lon="6.9735">
    <tag k="name" v="Heimat"/>
    <tag k="wheelchair" v="yes"/>
    <tag k="addr:city" v="Ahaus"/>
    <tag k="addr:postcode" v="48683"/>
    <tag k="addr:housenumber" v="62a"/>
    <tag k="addr:street" v="Lange Strasse"/>
  </node>
  <node id="-1908" version="0" timestamp="Fri Feb 24 10:53:33 +0100 2012" uid="1" user="" lat="51.6682297" lon="6.987723">
    <tag k="name" v="Glück-Auf-Grill"/>
    <tag k="wheelchair" v="yes"/>
    <tag k="amenity" v="fast_food"/>
  </node>
  <node id="-1909" version="0" timestamp="Fri Feb 24 10:53:33 +0100 2012" uid="1" user="" lat="51.6683668" lon="6.9810433">
    <tag k="shop" v="supermarket"/>
    <tag k="name" v="Aldi"/>
    <tag k="wheelchair" v="yes"/>
  </node>
  <node id="-1910" version="0" timestamp="Fri Feb 24 10:53:33 +0100 2012" uid="1" user="" lat="51.6702493" lon="6.9816104">
    <tag k="shop" v="supermarket"/>
    <tag k="name" v="Netto"/>
    <tag k="wheelchair" v="limited"/>
    <tag k="wheelchair:description" v="Gänge eng und teilweise zugestellt."/>
  </node>
  <node id="-1911" version="0" timestamp="Fri Feb 24 10:53:33 +0100 2012" uid="1" user="" lat="51.6702665" lon="6.9784982">
    <tag k="name" v="Sparkasse"/>
    <tag k="wheelchair" v="yes"/>
    <tag k="amenity" v="bank"/>
  </node>
  <node id="-1913" version="0" timestamp="Fri Feb 24 10:53:33 +0100 2012" uid="1" user="" lat="51.6713635" lon="6.9904306">
    <tag k="name" v="Sparkasse"/>
    <tag k="wheelchair" v="yes"/>
    <tag k="amenity" v="bank"/>
  </node>
  <node id="-2029" version="0" timestamp="Fri Feb 24 10:53:34 +0100 2012" uid="1" user="" lat="52.2831309" lon="7.569092">
    <tag k="name" v="Erholungsgebiet Torfmoorsee"/>
    <tag k="wheelchair" v="yes"/>
    <tag k="addr:city" v="Hörstel"/>
    <tag k="addr:postcode" v="48477 "/>
    <tag k="tourism" v="attraction"/>
    <tag k="wheelchair:description" v="Ebenerdiger Rundwanderweg"/>
  </node>
  <node id="-2031" version="0" timestamp="Fri Feb 24 10:53:34 +0100 2012" uid="1" user="" lat="52.2405965" lon="7.6764131">
    <tag k="name" v="Naturgart Naturerlebnispark und Unterwasserwelt"/>
    <tag k="wheelchair" v="yes"/>
    <tag k="addr:city" v="Ibbenbüren"/>
    <tag k="addr:postcode" v="49479 "/>
    <tag k="addr:housenumber" v="63 - 65 "/>
    <tag k="tourism" v="theme_park"/>
    <tag k="addr:street" v="Riesenbecker Str. "/>
  </node>
  <node id="-2035" version="0" timestamp="Fri Feb 24 10:53:34 +0100 2012" uid="1" user="" lat="52.2502557" lon="7.7051983">
    <tag k="name" v="Sommerrodelbahn mit Märchenwald"/>
    <tag k="wheelchair" v="yes"/>
    <tag k="addr:city" v="Ibbenbüren"/>
    <tag k="addr:postcode" v="49479 "/>
    <tag k="addr:housenumber" v="265"/>
    <tag k="tourism" v="theme_park"/>
    <tag k="addr:street" v="Münsterstraße"/>
  </node>
  <node id="-2144" version="0" timestamp="Fri Feb 24 10:53:34 +0100 2012" uid="1" user="" lat="51.74293" lon="7.18789">
    <tag k="shop" v="department_store"/>
    <tag k="name" v="Sanitätshaus Rohde"/>
    <tag k="wheelchair" v="yes"/>
    <tag k="addr:city" v="Haltern am See"/>
    <tag k="addr:postcode" v="45721"/>
    <tag k="addr:housenumber" v="22"/>
    <tag k="addr:street" v="Lippstrasse"/>
  </node>
  <node id="-2660" version="0" timestamp="Fri Feb 24 10:53:34 +0100 2012" uid="1" user="" lat="51.9524594" lon="7.9911421">
    <tag k="name" v="Psychologische Praxis Pietsch"/>
    <tag k="wheelchair" v="no"/>
    <tag k="addr:city" v="Warendorf"/>
    <tag k="addr:postcode" v="48231"/>
    <tag k="addr:housenumber" v="18"/>
    <tag k="addr:street" v="Kirchstraße"/>
    <tag k="amenity" v="doctors"/>
  </node>
  <node id="-2734" version="0" timestamp="Fri Feb 24 10:53:34 +0100 2012" uid="1" user="" lat="51.7165873" lon="7.0116679">
    <tag k="shop" v="supermarket"/>
    <tag k="name" v="Am Braunturm"/>
    <tag k="wheelchair" v="limited"/>
    <tag k="addr:city" v="Dorsten "/>
    <tag k="addr:postcode" v="46286"/>
    <tag k="addr:street" v="Am Brauturm"/>
    <tag k="wheelchair:description" v="Geschäfte rollstuhlgerecht anliegende Kneipe über seiteneingang erreichbar, mit Rollitoilette im UG per Aufzug"/>
  </node>
  <node id="-2736" version="0" timestamp="Fri Feb 24 10:53:34 +0100 2012" uid="1" user="" lat="51.7175229" lon="7.0130272">
    <tag k="shop" v="electronics"/>
    <tag k="name" v="Sprenger GmbH"/>
    <tag k="wheelchair" v="yes"/>
    <tag k="addr:city" v="Dorsten "/>
    <tag k="addr:postcode" v="46286"/>
    <tag k="addr:housenumber" v="2"/>
    <tag k="addr:street" v="Ubierweg"/>
    <tag k="wheelchair:description" v="Geschäft stufenlos erreichbar "/>
  </node>
  <node id="-3115" version="0" timestamp="Fri Feb 24 10:53:35 +0100 2012" uid="1" user="" lat="51.8385" lon="6.61646">
    <tag k="name" v="Neue Eintracht"/>
    <tag k="wheelchair" v="yes"/>
    <tag k="addr:city" v="Bocholt"/>
    <tag k="addr:postcode" v="46397"/>
    <tag k="addr:housenumber" v="28"/>
    <tag k="addr:street" v="Königstrasse"/>
    <tag k="amenity" v="restaurant"/>
    <tag k="website" v="http://www.neue-eintracht.de"/>
    <tag k="phone" v="+ 49 28 71 / 24 16 35 0"/>
  </node>
  <node id="-3116" version="0" timestamp="Fri Feb 24 10:53:35 +0100 2012" uid="1" user="" lat="51.8382245" lon="6.6174095">
    <tag k="name" v="Neue Eintracht"/>
    <tag k="wheelchair" v="yes"/>
    <tag k="amenity" v="restaurant"/>
  </node>
  <node id="-3119" version="0" timestamp="Fri Feb 24 10:53:35 +0100 2012" uid="1" user="" lat="51.8384726" lon="6.6172527">
    <tag k="shop" v="clothes"/>
    <tag k="name" v="Die Wäschetruhe"/>
    <tag k="wheelchair" v="limited"/>
    <tag k="addr:city" v="Bocholt"/>
    <tag k="addr:postcode" v="46397"/>
    <tag k="addr:housenumber" v="26-28"/>
    <tag k="addr:street" v="Osterstrasse"/>
    <tag k="wheelchair:description" v="Barrierefrei, keine Toiletten"/>
    <tag k="phone" v="+49 28 71-18 15 64"/>
  </node>
  <node id="-3126" version="0" timestamp="Fri Feb 24 10:53:35 +0100 2012" uid="1" user="" lat="52.1761972" lon="7.5298857">
    <tag k="name" v="Wefers Bistro"/>
    <tag k="wheelchair" v="unknown"/>
    <tag k="addr:city" v="Emsdetten"/>
    <tag k="addr:postcode" v="48282"/>
    <tag k="addr:housenumber" v="19"/>
    <tag k="addr:street" v="Emsstr. "/>
    <tag k="amenity" v="restaurant"/>
  </node>
  <node id="-3192" version="0" timestamp="Fri Feb 24 10:53:35 +0100 2012" uid="1" user="" lat="51.9333" lon="7.85">
    <tag k="name" v="Ruhmöller"/>
    <tag k="wheelchair" v="yes"/>
    <tag k="addr:city" v="Saerbeck"/>
    <tag k="addr:postcode" v="48369"/>
    <tag k="addr:housenumber" v="40"/>
    <tag k="addr:street" v="Sinningen "/>
    <tag k="amenity" v="restaurant"/>
    <tag k="phone" v="02572151015"/>
  </node>
  <node id="-3232" version="0" timestamp="Fri Feb 24 10:53:35 +0100 2012" uid="1" user="" lat="52.1677013" lon="7.5018278">
    <tag k="shop" v="supermarket"/>
    <tag k="name" v="fressnapf"/>
    <tag k="wheelchair" v="yes"/>
  </node>
  <node id="-3246" version="0" timestamp="Fri Feb 24 10:53:35 +0100 2012" uid="1" user="" lat="51.9098469" lon="7.6892469">
    <tag k="shop" v="florist"/>
    <tag k="name" v="Blumen Dahlmann"/>
    <tag k="wheelchair" v="limited"/>
    <tag k="addr:city" v="Münster"/>
    <tag k="addr:postcode" v="48165"/>
    <tag k="addr:housenumber" v="250"/>
    <tag k="addr:street" v="Osttor"/>
    <tag k="wheelchair:description" v="ebenerdig ohne Stufen, kein Rolli WC oder Parkplatz"/>
    <tag k="website" v="http://www.blumen-dahlmann.de"/>
    <tag k="phone" v="+49 2501 3755"/>
  </node>
  <node id="-3247" version="0" timestamp="Fri Feb 24 10:53:35 +0100 2012" uid="1" user="" lat="51.9043172" lon="7.6464384">
    <tag k="shop" v="doityourself"/>
    <tag k="name" v="ATM Gardinen"/>
    <tag k="wheelchair" v="limited"/>
    <tag k="addr:city" v="Münster"/>
    <tag k="addr:postcode" v="48165"/>
    <tag k="addr:housenumber" v="56"/>
    <tag k="addr:street" v="Marktallee "/>
    <tag k="wheelchair:description" v="ebenerdig ohne Stufen, kein Rolli WC "/>
    <tag k="phone" v="+49 2501 988498"/>
  </node>
  <node id="-3262" version="0" timestamp="Fri Feb 24 10:53:35 +0100 2012" uid="1" user="" lat="51.98347" lon="7.76573">
    <tag k="name" v="Cafe Clemens"/>
    <tag k="wheelchair" v="yes"/>
    <tag k="addr:city" v="Telgte"/>
    <tag k="addr:postcode" v="48291"/>
    <tag k="addr:housenumber" v="22"/>
    <tag k="addr:street" v="Mönkediek "/>
    <tag k="amenity" v="cafe"/>
    <tag k="phone" v="0049 2504 7 39 93 19"/>
  </node>
  <node id="-3264" version="0" timestamp="Fri Feb 24 10:53:35 +0100 2012" uid="1" user="" lat="51.98443" lon="7.78417">
    <tag k="name" v="Altes Gasthaus Pohlmeier"/>
    <tag k="wheelchair" v="limited"/>
    <tag k="addr:city" v="Telgte"/>
    <tag k="addr:postcode" v="48291"/>
    <tag k="addr:housenumber" v="30"/>
    <tag k="addr:street" v="Steinstraße "/>
    <tag k="amenity" v="restaurant"/>
    <tag k="website" v="http://www.pohlmeier-bracht.de"/>
    <tag k="phone" v="0049 - 2504 - 4560"/>
  </node>
  <node id="-3543" version="0" timestamp="Fri Feb 24 10:53:35 +0100 2012" uid="1" user="" lat="51.9667" lon="7.6333">
    <tag k="shop" v="bakery"/>
    <tag k="name" v="cibaria vollkornbäckerei"/>
    <tag k="wheelchair" v="limited"/>
    <tag k="addr:city" v="Münster"/>
    <tag k="addr:postcode" v="48155"/>
    <tag k="addr:housenumber" v="56"/>
    <tag k="addr:street" v="Bremerstrasse"/>
    <tag k="wheelchair:description" v="Laden ist komplett Barrierefrei Toiletten nicht"/>
    <tag k="website" v="http://www.cibaria.de"/>
    <tag k="phone" v="025167547"/>
  </node>
  <node id="-3712" version="0" timestamp="Fri Feb 24 10:53:35 +0100 2012" uid="1" user="" lat="51.5849167" lon="7.1585581">
    <tag k="name" v="Sportanlage Katzenbusch"/>
    <tag k="wheelchair" v="limited"/>
    <tag k="addr:city" v="Herten"/>
    <tag k="addr:postcode" v="45678"/>
    <tag k="addr:street" v="Am Katzenbusch"/>
    <tag k="wheelchair:description" v="Eine Stufe zum Hauptraum des Vereinsheimes"/>
    <tag k="leisure" v="stadium"/>
    <tag k="website" v="http://www.DJKSpVggHerten.de"/>
    <tag k="phone" v="+49 2366 87515"/>
  </node>
  <node id="-3871" version="0" timestamp="Fri Feb 24 10:53:35 +0100 2012" uid="1" user="" lat="52.093023" lon="7.61255">
    <tag k="name" v="Cafe Liesenkötter"/>
    <tag k="wheelchair" v="yes"/>
    <tag k="addr:city" v="Greven"/>
    <tag k="addr:postcode" v="48268"/>
    <tag k="addr:street" v="Am Marktplatz"/>
    <tag k="wheelchair:description" v="Eingang ebenerdig, Rolli-Toilette"/>
    <tag k="amenity" v="cafe"/>
    <tag k="website" v="http://www.baeckerei-liesenkoetter.de"/>
    <tag k="phone" v=" 02571/584 7020"/>
  </node>
  <node id="-3902" version="0" timestamp="Fri Feb 24 10:53:35 +0100 2012" uid="1" user="" lat="51.51192" lon="7.09895">
    <tag k="name" v="Consilium IrishPub"/>
    <tag k="wheelchair" v="limited"/>
    <tag k="addr:city" v="Gelsenkirchen"/>
    <tag k="addr:postcode" v="45879"/>
    <tag k="addr:housenumber" v="1"/>
    <tag k="addr:street" v="Wanner Str."/>
    <tag k="wheelchair:description" v="Eingang sowie Tresen Ebenerdig Toiletten und Tische über 1 oder mehrere Stufen."/>
    <tag k="amenity" v="pub"/>
    <tag k="phone" v="0209 145238"/>
  </node>
  <node id="-4026" version="0" timestamp="Fri Feb 24 10:53:36 +0100 2012" uid="1" user="" lat="52.17482" lon="7.52862">
    <tag k="shop" v="mall"/>
    <tag k="name" v="tchibo Emsdetten"/>
    <tag k="wheelchair" v="limited"/>
    <tag k="wheelchair:description" v="enge Gänge"/>
  </node>
  <node id="-4027" version="0" timestamp="Fri Feb 24 10:53:36 +0100 2012" uid="1" user="" lat="52.17476" lon="7.5306151">
    <tag k="shop" v="florist"/>
    <tag k="name" v="Blumen Risse"/>
    <tag k="wheelchair" v="no"/>
  </node>
  <node id="-4028" version="0" timestamp="Fri Feb 24 10:53:36 +0100 2012" uid="1" user="" lat="52.17395" lon="7.52713">
    <tag k="shop" v="books"/>
    <tag k="name" v="Buchhandlung Wagner"/>
    <tag k="wheelchair" v="limited"/>
  </node>
  <node id="-4029" version="0" timestamp="Fri Feb 24 10:53:36 +0100 2012" uid="1" user="" lat="52.17385" lon="7.52917">
    <tag k="name" v="öffentliche Toiletten"/>
    <tag k="wheelchair" v="unknown"/>
    <tag k="wheelchair:description" v="0,20 € Einwurf"/>
    <tag k="amenity" v="toilets"/>
  </node>
  <node id="-4101" version="0" timestamp="Fri Feb 24 10:53:36 +0100 2012" uid="1" user="" lat="52.1773853" lon="7.5245697">
    <tag k="name" v="forum vital"/>
    <tag k="wheelchair" v="yes"/>
    <tag k="amenity" v="doctors"/>
  </node>
  <node id="-4187" version="0" timestamp="Fri Feb 24 10:53:36 +0100 2012" uid="1" user="" lat="51.6087569" lon="7.1379508">
    <tag k="name" v="Sporthalle der Rosa-Parks Schule der Stadt Herten"/>
    <tag k="wheelchair" v="limited"/>
    <tag k="addr:city" v="Herten"/>
    <tag k="addr:postcode" v="45701"/>
    <tag k="addr:housenumber" v="2"/>
    <tag k="addr:street" v="Fritz-Erler-Straße"/>
    <tag k="wheelchair:description" v="Kleine Stufen am Haupteingang. Stufenloser Hintereingang."/>
    <tag k="amenity" v="school"/>
    <tag k="website" v="http://www.rps-herten.de/"/>
    <tag k="phone" v="+49 2366 3037-20"/>
  </node>
  <node id="-4501" version="0" timestamp="Fri Feb 24 10:53:36 +0100 2012" uid="1" user="" lat="52.1737" lon="7.52899">
    <tag k="name" v="Korfu"/>
    <tag k="wheelchair" v="no"/>
    <tag k="wheelchair:description" v="steile Treppen in den Keller"/>
    <tag k="amenity" v="restaurant"/>
  </node>
  <node id="-4643" version="0" timestamp="Fri Feb 24 10:53:36 +0100 2012" uid="1" user="" lat="51.7206266" lon="7.0178946">
    <tag k="name" v="Matthäusschule"/>
    <tag k="wheelchair" v="no"/>
    <tag k="addr:city" v="Dorsten"/>
    <tag k="addr:postcode" v="46286"/>
    <tag k="addr:housenumber" v="2"/>
    <tag k="addr:street" v="Kleiner Ring"/>
    <tag k="amenity" v="school"/>
    <tag k="website" v="http://www.matthaeusschule.de"/>
  </node>
  <node id="-4644" version="0" timestamp="Fri Feb 24 10:53:36 +0100 2012" uid="1" user="" lat="51.71995" lon="7.01298">
    <tag k="shop" v="bakery"/>
    <tag k="name" v="Bäckerei Sanders"/>
    <tag k="wheelchair" v="yes"/>
    <tag k="addr:city" v="Dorsten-Wulfen"/>
    <tag k="addr:postcode" v="46286"/>
    <tag k="addr:housenumber" v="14"/>
    <tag k="addr:street" v="Hervester Straße"/>
    <tag k="phone" v="02369 20 60 53"/>
  </node>
  <node id="-4652" version="0" timestamp="Fri Feb 24 10:53:36 +0100 2012" uid="1" user="" lat="51.7182069" lon="7.0155516">
    <tag k="name" v="Kleiner Ring"/>
    <tag k="wheelchair" v="yes"/>
    <tag k="amenity" v="bus_station"/>
  </node>
  <node id="-4770" version="0" timestamp="Fri Feb 24 10:53:36 +0100 2012" uid="1" user="" lat="51.9607563" lon="7.613976">
    <tag k="shop" v="second_hand"/>
    <tag k="name" v="Flohmarkt Münster Promenade"/>
    <tag k="wheelchair" v="limited"/>
    <tag k="addr:city" v="Münster"/>
    <tag k="addr:postcode" v="48149"/>
    <tag k="wheelchair:description" v="Promenade komplett Rollstuhlgerecht, Toilettenwagen nicht, aber umliegende Gastronomie."/>
    <tag k="website" v="http://event-catering-muenster.de"/>
  </node>
  <node id="-4916" version="0" timestamp="Fri Feb 24 10:53:36 +0100 2012" uid="1" user="" lat="51.9450565" lon="7.6298407">
    <tag k="name" v="Herz Apotheke"/>
    <tag k="wheelchair" v="yes"/>
    <tag k="addr:city" v="Münster"/>
    <tag k="addr:postcode" v="48153"/>
    <tag k="addr:housenumber" v="134"/>
    <tag k="addr:street" v="Friedrich-Ebert-Straße"/>
    <tag k="amenity" v="pharmacy"/>
    <tag k="website" v="http://www.herz-apotheke-ms.de"/>
    <tag k="phone" v="+49 251 7132894"/>
  </node>
  <node id="-4917" version="0" timestamp="Fri Feb 24 10:53:36 +0100 2012" uid="1" user="" lat="51.9569803" lon="7.6263771">
    <tag k="shop" v="hairdresser"/>
    <tag k="name" v="Culthair"/>
    <tag k="wheelchair" v="limited"/>
    <tag k="addr:city" v="Münster"/>
    <tag k="addr:postcode" v="48143"/>
    <tag k="addr:housenumber" v="67-69"/>
    <tag k="addr:street" v="Ludgeristr."/>
    <tag k="website" v="http://www.culthair.de/"/>
  </node>
  <node id="-4918" version="0" timestamp="Fri Feb 24 10:53:36 +0100 2012" uid="1" user="" lat="51.9569899" lon="7.626321">
    <tag k="name" v="Delucious "/>
    <tag k="wheelchair" v="limited"/>
    <tag k="addr:city" v="Münster"/>
    <tag k="addr:postcode" v="48143"/>
    <tag k="addr:housenumber" v="67-69"/>
    <tag k="addr:street" v="Ludgeristraße"/>
    <tag k="amenity" v="cafe"/>
    <tag k="website" v="http://www.delucious.de"/>
    <tag k="phone" v="+49 251 2846667"/>
  </node>
  <node id="-4959" version="0" timestamp="Fri Feb 24 10:53:36 +0100 2012" uid="1" user="" lat="51.9435915" lon="7.1652253">
    <tag k="name" v="Reisebüro Schlagheck"/>
    <tag k="wheelchair" v="yes"/>
    <tag k="office" v="company"/>
  </node>
  <node id="-4960" version="0" timestamp="Fri Feb 24 10:53:36 +0100 2012" uid="1" user="" lat="51.94359" lon="7.16523">
    <tag k="shop" v="photo"/>
    <tag k="name" v="Wolbring"/>
    <tag k="wheelchair" v="yes"/>
  </node>
  <node id="-4961" version="0" timestamp="Fri Feb 24 10:53:36 +0100 2012" uid="1" user="" lat="51.94359" lon="7.16523">
    <tag k="shop" v="photo"/>
    <tag k="name" v="Wolbring"/>
    <tag k="wheelchair" v="yes"/>
  </node>
  <node id="-4962" version="0" timestamp="Fri Feb 24 10:53:36 +0100 2012" uid="1" user="" lat="51.9440247" lon="7.1667115">
    <tag k="shop" v="photo"/>
    <tag k="name" v="Wolbring"/>
    <tag k="wheelchair" v="yes"/>
  </node>
  <node id="-4963" version="0" timestamp="Fri Feb 24 10:53:36 +0100 2012" uid="1" user="" lat="51.9436" lon="7.1652348">
    <tag k="name" v="Reisebüro Schlagheck"/>
    <tag k="wheelchair" v="yes"/>
    <tag k="office" v="company"/>
  </node>
  <node id="-4986" version="0" timestamp="Fri Feb 24 10:53:36 +0100 2012" uid="1" user="" lat="51.9436077" lon="7.1652322">
    <tag k="name" v="Reisebüro Schlagheck"/>
    <tag k="wheelchair" v="yes"/>
    <tag k="office" v="company"/>
  </node>
  <node id="-4987" version="0" timestamp="Fri Feb 24 10:53:36 +0100 2012" uid="1" user="" lat="51.9437257" lon="7.1654821">
    <tag k="shop" v="bakery"/>
    <tag k="name" v="Ebbing Cafe"/>
    <tag k="wheelchair" v="yes"/>
  </node>
  <node id="-4995" version="0" timestamp="Fri Feb 24 10:53:36 +0100 2012" uid="1" user="" lat="52.2239223" lon="7.7447779">
    <tag k="name" v="Kreissparkasse Steinfurt"/>
    <tag k="wheelchair" v="yes"/>
    <tag k="addr:city" v="Tecklenburg"/>
    <tag k="addr:postcode" v="49545"/>
    <tag k="addr:housenumber" v="1"/>
    <tag k="addr:street" v="Dörenther Straße"/>
    <tag k="amenity" v="bank"/>
    <tag k="website" v="https://www.ksk-steinfurt.de/privatkunden/index.php"/>
    <tag k="phone" v="05451 55-0"/>
  </node>
  <node id="-4996" version="0" timestamp="Fri Feb 24 10:53:36 +0100 2012" uid="1" user="" lat="52.27392" lon="7.58347">
    <tag k="name" v="Kreissparkasse Steinfurt"/>
    <tag k="wheelchair" v="yes"/>
    <tag k="addr:city" v="Hörstel"/>
    <tag k="addr:postcode" v="48477"/>
    <tag k="addr:housenumber" v="2"/>
    <tag k="addr:street" v="Von-Galen-Straße"/>
    <tag k="amenity" v="bank"/>
    <tag k="website" v="https://www.ksk-steinfurt.de/privatkunden/index.php"/>
    <tag k="phone" v="05451 55-0"/>
  </node>
  <node id="-4997" version="0" timestamp="Fri Feb 24 10:53:36 +0100 2012" uid="1" user="" lat="52.2992756" lon="7.5887707">
    <tag k="name" v="Kreissparkasse Steinfurt"/>
    <tag k="wheelchair" v="yes"/>
    <tag k="addr:city" v="Hörstel"/>
    <tag k="addr:postcode" v="48477"/>
    <tag k="addr:housenumber" v="18"/>
    <tag k="addr:street" v="Bahnhofstraße"/>
    <tag k="amenity" v="bank"/>
    <tag k="website" v="https://www.ksk-steinfurt.de/privatkunden/index.php"/>
    <tag k="phone" v="05451 55-0"/>
  </node>
  <node id="-4998" version="0" timestamp="Fri Feb 24 10:53:36 +0100 2012" uid="1" user="" lat="52.30269" lon="7.62972">
    <tag k="name" v="Kreissparkasse Steinfurt"/>
    <tag k="wheelchair" v="yes"/>
    <tag k="addr:city" v="Ibbenbüren"/>
    <tag k="addr:postcode" v="49479"/>
    <tag k="addr:housenumber" v="2"/>
    <tag k="addr:street" v="Jordanstraße"/>
    <tag k="amenity" v="bank"/>
    <tag k="website" v="https://www.ksk-steinfurt.de/privatkunden/index.php"/>
    <tag k="phone" v="05451 55-0"/>
  </node>
  <node id="-4999" version="0" timestamp="Fri Feb 24 10:53:36 +0100 2012" uid="1" user="" lat="52.367342" lon="7.7182842">
    <tag k="name" v="Kreissparkasse Steinfurt"/>
    <tag k="wheelchair" v="yes"/>
    <tag k="addr:city" v="Recke"/>
    <tag k="addr:postcode" v="49509"/>
    <tag k="addr:housenumber" v="30"/>
    <tag k="addr:street" v="Hauptstraße"/>
    <tag k="amenity" v="bank"/>
    <tag k="website" v="https://www.ksk-steinfurt.de/privatkunden/index.php"/>
    <tag k="phone" v="05451 55-0"/>
  </node>
  <node id="-5000" version="0" timestamp="Fri Feb 24 10:53:36 +0100 2012" uid="1" user="" lat="52.3318613" lon="7.5041772">
    <tag k="name" v="Kreissparkasse Steinfurt"/>
    <tag k="wheelchair" v="yes"/>
    <tag k="addr:city" v="Hörstel"/>
    <tag k="addr:postcode" v="48477"/>
    <tag k="addr:housenumber" v="2"/>
    <tag k="addr:street" v="Südstraße"/>
    <tag k="amenity" v="bank"/>
    <tag k="website" v="https://www.ksk-steinfurt.de/privatkunden/index.php"/>
    <tag k="phone" v="05451 55-0"/>
  </node>
  <node id="-5001" version="0" timestamp="Fri Feb 24 10:53:36 +0100 2012" uid="1" user="" lat="52.2193738" lon="7.3959781">
    <tag k="name" v="Kreissparkasse Steinfurt"/>
    <tag k="wheelchair" v="yes"/>
    <tag k="addr:city" v="Neuenkirchen"/>
    <tag k="addr:postcode" v="48485"/>
    <tag k="addr:housenumber" v="20"/>
    <tag k="addr:street" v="Paul-Keller-Straße"/>
    <tag k="amenity" v="bank"/>
    <tag k="website" v="https://www.ksk-steinfurt.de/privatkunden/index.php"/>
    <tag k="phone" v="05451 55-0"/>
  </node>
  <node id="-5002" version="0" timestamp="Fri Feb 24 10:53:36 +0100 2012" uid="1" user="" lat="52.083288" lon="7.4750179">
    <tag k="name" v="Kreissparkasse Steinfurt"/>
    <tag k="wheelchair" v="yes"/>
    <tag k="addr:city" v="Nordwalde"/>
    <tag k="addr:postcode" v="48356"/>
    <tag k="addr:housenumber" v="8"/>
    <tag k="addr:street" v="Bahnhofstraße"/>
    <tag k="amenity" v="bank"/>
    <tag k="website" v="https://www.ksk-steinfurt.de/privatkunden/index.php"/>
    <tag k="phone" v="05451 55-0"/>
  </node>
  <node id="-5003" version="0" timestamp="Fri Feb 24 10:53:36 +0100 2012" uid="1" user="" lat="52.0984207" lon="7.6112266">
    <tag k="name" v="Kreissparkasse Steinfurt"/>
    <tag k="wheelchair" v="yes"/>
    <tag k="addr:city" v="Greven"/>
    <tag k="addr:postcode" v="48268"/>
    <tag k="addr:housenumber" v="46"/>
    <tag k="addr:street" v="Saerbecker Straße"/>
    <tag k="amenity" v="bank"/>
    <tag k="website" v="https://www.ksk-steinfurt.de/privatkunden/index.php"/>
    <tag k="phone" v="05451 55-0"/>
  </node>
  <node id="-5004" version="0" timestamp="Fri Feb 24 10:53:36 +0100 2012" uid="1" user="" lat="52.0858021" lon="7.6178099">
    <tag k="name" v="Kreissparkasse Steinfurt"/>
    <tag k="wheelchair" v="yes"/>
    <tag k="addr:city" v="Greven"/>
    <tag k="addr:postcode" v="48268"/>
    <tag k="addr:housenumber" v="10"/>
    <tag k="addr:street" v="Schützenstraße"/>
    <tag k="amenity" v="bank"/>
    <tag k="website" v="https://www.ksk-steinfurt.de/privatkunden/index.php"/>
    <tag k="phone" v="05451 55-0"/>
  </node>
  <node id="-5005" version="0" timestamp="Fri Feb 24 10:53:36 +0100 2012" uid="1" user="" lat="52.0969402" lon="7.5910523">
    <tag k="name" v="Kreissparkasse Steinfurt"/>
    <tag k="wheelchair" v="yes"/>
    <tag k="addr:city" v="Greven"/>
    <tag k="addr:postcode" v="48268"/>
    <tag k="addr:housenumber" v="13-19"/>
    <tag k="addr:street" v="Emsdettener Straße"/>
    <tag k="amenity" v="bank"/>
    <tag k="website" v="https://www.ksk-steinfurt.de/privatkunden/index.php"/>
    <tag k="phone" v="05451 55-0"/>
  </node>
  <node id="-5006" version="0" timestamp="Fri Feb 24 10:53:36 +0100 2012" uid="1" user="" lat="52.1749786" lon="7.6312107">
    <tag k="name" v="Kreissparkasse Steinfurt"/>
    <tag k="wheelchair" v="yes"/>
    <tag k="addr:city" v="Saerbeck"/>
    <tag k="addr:postcode" v="48369"/>
    <tag k="addr:housenumber" v="7"/>
    <tag k="addr:street" v="Ferrières-Straße"/>
    <tag k="amenity" v="bank"/>
    <tag k="website" v="https://www.ksk-steinfurt.de/privatkunden/index.php"/>
    <tag k="phone" v="05451 55-0"/>
  </node>
  <node id="-5007" version="0" timestamp="Fri Feb 24 10:53:36 +0100 2012" uid="1" user="" lat="51.94262" lon="7.16729">
    <tag k="shop" v="kiosk"/>
    <tag k="name" v="Blachnitzki-Lotto-Tabak-Zeitschriften"/>
    <tag k="wheelchair" v="yes"/>
  </node>
  <node id="-5308" version="0" timestamp="Fri Feb 24 10:53:37 +0100 2012" uid="1" user="" lat="52.281" lon="7.44256">
    <tag k="name" v="Kaffeehaus"/>
    <tag k="wheelchair" v="yes"/>
    <tag k="amenity" v="cafe"/>
  </node>
  <node id="-5339" version="0" timestamp="Fri Feb 24 10:53:37 +0100 2012" uid="1" user="" lat="51.9405131" lon="7.6215588">
    <tag k="shop" v="chemist"/>
    <tag k="name" v="Schlecker"/>
    <tag k="wheelchair" v="unknown"/>
  </node>
  <node id="-5396" version="0" timestamp="Fri Feb 24 10:53:37 +0100 2012" uid="1" user="" lat="51.65351" lon="7.0966">
    <tag k="name" v="Behinderten WC"/>
    <tag k="wheelchair" v="yes"/>
    <tag k="wheelchair:description" v="Mit Euro WC Schlüssel kostenfrei"/>
    <tag k="amenity" v="toilets"/>
  </node>
  <node id="-5397" version="0" timestamp="Fri Feb 24 10:53:37 +0100 2012" uid="1" user="" lat="51.6535433" lon="7.0988316">
    <tag k="name" v="Behinderten WC"/>
    <tag k="wheelchair" v="yes"/>
    <tag k="wheelchair:description" v="Mit Euru WC Schlüssel kostenfrei"/>
    <tag k="amenity" v="toilets"/>
  </node>
  <node id="-5398" version="0" timestamp="Fri Feb 24 10:53:37 +0100 2012" uid="1" user="" lat="51.6441629" lon="7.10253">
    <tag k="name" v="MC Donald´s"/>
    <tag k="wheelchair" v="yes"/>
    <tag k="wheelchair:description" v="Mit Behinderten WC"/>
    <tag k="amenity" v="restaurant"/>
  </node>
  <node id="-5399" version="0" timestamp="Fri Feb 24 10:53:37 +0100 2012" uid="1" user="" lat="51.6404806" lon="7.1008029">
    <tag k="name" v="Cafe Del Soll"/>
    <tag k="wheelchair" v="yes"/>
    <tag k="wheelchair:description" v="Mit Behinderten WC / 2 Parkplätze / Innen eine Stufe"/>
    <tag k="amenity" v="cafe"/>
  </node>
  <node id="-5400" version="0" timestamp="Fri Feb 24 10:53:37 +0100 2012" uid="1" user="" lat="51.6618263" lon="7.125778">
    <tag k="name" v="Neurologe/Urologe/HNO/Haut-/Augenarzt/Ergotherapi-/Logopadiepraxis"/>
    <tag k="wheelchair" v="unknown"/>
    <tag k="addr:city" v="Marl"/>
    <tag k="addr:postcode" v="45770"/>
    <tag k="addr:housenumber" v="9"/>
    <tag k="addr:street" v="Lipperweg"/>
    <tag k="wheelchair:description" v="Behinderten Parkplätze kostenpflichtig im Parkhaus"/>
    <tag k="amenity" v="doctors"/>
  </node>
  <node id="-5401" version="0" timestamp="Fri Feb 24 10:53:37 +0100 2012" uid="1" user="" lat="51.666327" lon="7.1357418">
    <tag k="name" v="PhysioActive GbR"/>
    <tag k="wheelchair" v="yes"/>
    <tag k="addr:city" v="Marl"/>
    <tag k="addr:postcode" v="45772"/>
    <tag k="addr:housenumber" v="59"/>
    <tag k="addr:street" v="Victoriastrasse"/>
    <tag k="leisure" v="sports_centre"/>
    <tag k="website" v="http://www.physioactive.de"/>
    <tag k="phone" v="02365 959525"/>
  </node>
  <node id="-5402" version="0" timestamp="Fri Feb 24 10:53:37 +0100 2012" uid="1" user="" lat="51.6618056" lon="7.1257631">
    <tag k="name" v="Neurologe/Urologe/HNO/Augen-/Hautarzt/Ergotherapie-/Logoädiepraxis"/>
    <tag k="wheelchair" v="yes"/>
    <tag k="addr:city" v="Marl"/>
    <tag k="addr:postcode" v="45770"/>
    <tag k="addr:housenumber" v="9"/>
    <tag k="addr:street" v="Lipper Weg"/>
    <tag k="wheelchair:description" v="mit Aufzug"/>
    <tag k="amenity" v="doctors"/>
  </node>
  <node id="-5403" version="0" timestamp="Fri Feb 24 10:53:37 +0100 2012" uid="1" user="" lat="51.6642248" lon="7.121513">
    <tag k="name" v="Fiedlers Äskulap Apotheke"/>
    <tag k="wheelchair" v="limited"/>
    <tag k="addr:city" v="Marl"/>
    <tag k="addr:postcode" v="45770"/>
    <tag k="addr:housenumber" v="17"/>
    <tag k="addr:street" v="Lipper Weg "/>
    <tag k="wheelchair:description" v="Kein WC "/>
    <tag k="amenity" v="pharmacy"/>
    <tag k="website" v="http://www.apothekerfiedler.de"/>
    <tag k="phone" v="02365 35710"/>
  </node>
  <node id="-5410" version="0" timestamp="Fri Feb 24 10:53:37 +0100 2012" uid="1" user="" lat="51.96655" lon="7.62314">
    <tag k="name" v="Santander Consumer Bank"/>
    <tag k="wheelchair" v="limited"/>
    <tag k="addr:city" v="Münster"/>
    <tag k="addr:postcode" v="48143"/>
    <tag k="addr:housenumber" v="10"/>
    <tag k="addr:street" v="Bergstraße"/>
    <tag k="amenity" v="bank"/>
    <tag k="website" v="http://www.santander.de"/>
  </node>
</osm>
