<?xml version='1.0' encoding='UTF-8'?>
<osm version="0.6" generator="Osmosis 0.39">
  <node id="-1535" version="0" timestamp="Fri Feb 24 10:53:33 +0100 2012" uid="1" user="" lat="52.771" lon="-1.20635">
    <tag k="name" v="HSBC"/>
    <tag k="wheelchair" v="yes"/>
    <tag k="addr:city" v="Loughborough"/>
    <tag k="addr:street" v="Market Place"/>
    <tag k="amenity" v="bank"/>
  </node>
  <node id="-1536" version="0" timestamp="Fri Feb 24 10:53:33 +0100 2012" uid="1" user="" lat="52.7716896" lon="-1.2066381">
    <tag k="name" v="Boots"/>
    <tag k="wheelchair" v="yes"/>
    <tag k="addr:city" v="Loughborough"/>
    <tag k="addr:street" v="Market Place"/>
    <tag k="amenity" v="pharmacy"/>
  </node>
  <node id="-1537" version="0" timestamp="Fri Feb 24 10:53:33 +0100 2012" uid="1" user="" lat="52.7716558" lon="-1.2071897">
    <tag k="shop" v="bakery"/>
    <tag k="name" v="Birds"/>
    <tag k="wheelchair" v="yes"/>
    <tag k="addr:city" v="Loughborough"/>
  </node>
  <node id="-1538" version="0" timestamp="Fri Feb 24 10:53:33 +0100 2012" uid="1" user="" lat="52.76545" lon="-1.22276">
    <tag k="name" v="Loughborough Design School"/>
    <tag k="wheelchair" v="yes"/>
    <tag k="addr:city" v="Loughborough"/>
    <tag k="addr:postcode" v="LE11 3TU"/>
    <tag k="wheelchair:description" v="Loughborough University Building"/>
    <tag k="amenity" v="university"/>
  </node>
  <node id="-1540" version="0" timestamp="Fri Feb 24 10:53:33 +0100 2012" uid="1" user="" lat="52.7711163" lon="-1.2070094">
    <tag k="name" v="Costa"/>
    <tag k="wheelchair" v="limited"/>
    <tag k="addr:city" v="Loughborough"/>
    <tag k="amenity" v="cafe"/>
  </node>
  <node id="-1541" version="0" timestamp="Fri Feb 24 10:53:33 +0100 2012" uid="1" user="" lat="52.768802" lon="-1.2080275">
    <tag k="name" v="The Orange Tree"/>
    <tag k="wheelchair" v="no"/>
    <tag k="addr:city" v="Loughborough"/>
    <tag k="wheelchair:description" v="Not too bad inside, but step to get in and no disabled toilet"/>
    <tag k="amenity" v="pub"/>
  </node>
  <node id="-1542" version="0" timestamp="Fri Feb 24 10:53:33 +0100 2012" uid="1" user="" lat="52.7735769" lon="-1.2101318">
    <tag k="name" v="The Swan In The Rushes"/>
    <tag k="wheelchair" v="unknown"/>
    <tag k="addr:city" v="Loughborough"/>
    <tag k="wheelchair:description" v="Step to get in, no ramp, steps on the inside and no disabled toilet"/>
    <tag k="amenity" v="pub"/>
  </node>
  <node id="-1544" version="0" timestamp="Fri Feb 24 10:53:33 +0100 2012" uid="1" user="" lat="52.7743182" lon="-1.2082364">
    <tag k="shop" v="supermarket"/>
    <tag k="name" v="Tesco"/>
    <tag k="wheelchair" v="yes"/>
    <tag k="addr:city" v="Loughborough"/>
  </node>
  <node id="-1545" version="0" timestamp="Fri Feb 24 10:53:33 +0100 2012" uid="1" user="" lat="52.7735566" lon="-1.2101397">
    <tag k="name" v="The Swan In The Rushes"/>
    <tag k="wheelchair" v="no"/>
    <tag k="addr:city" v="Loughborough"/>
    <tag k="wheelchair:description" v="Step to get in, no ramp, steps on the inside and no disabled toilet"/>
    <tag k="amenity" v="pub"/>
  </node>
  <node id="-1546" version="0" timestamp="Fri Feb 24 10:53:33 +0100 2012" uid="1" user="" lat="52.7632414" lon="-1.2372639">
    <tag k="name" v="Loughborough University Library"/>
    <tag k="wheelchair" v="yes"/>
    <tag k="addr:city" v="Loughborough"/>
    <tag k="wheelchair:description" v="University Library"/>
    <tag k="amenity" v="library"/>
  </node>
  <node id="-1547" version="0" timestamp="Fri Feb 24 10:53:33 +0100 2012" uid="1" user="" lat="52.7721753" lon="-1.2060531">
    <tag k="name" v="McDonalds"/>
    <tag k="wheelchair" v="limited"/>
    <tag k="addr:city" v="Loughborough"/>
    <tag k="addr:street" v="Swan Street"/>
    <tag k="wheelchair:description" v="No access to top floor, but 100% fine downstairs"/>
    <tag k="amenity" v="fast_food"/>
  </node>
</osm>
