<?xml version='1.0' encoding='UTF-8'?>
<osm version="0.6" generator="Osmosis 0.39">
  <node id="-3089" version="0" timestamp="Fri Feb 24 10:53:35 +0100 2012" uid="1" user="" lat="51.4183318" lon="-0.4112244">
    <tag k="name" v="Sunbury Methodist Church"/>
    <tag k="wheelchair" v="yes"/>
    <tag k="addr:postcode" v="TW16 5AD"/>
    <tag k="addr:street" v="Staines Road East"/>
    <tag k="amenity" v="place_of_worship"/>
    <tag k="website" v="http://www.sunbury.tmcc.org.uk/"/>
  </node>
  <node id="-5522" version="0" timestamp="Fri Feb 24 10:53:37 +0100 2012" uid="1" user="" lat="51.4263367" lon="-0.563237">
    <tag k="name" v="Bourne Laboratories Entrance"/>
    <tag k="wheelchair" v="yes"/>
    <tag k="wheelchair:description" v="Automatic doors."/>
    <tag k="amenity" v="university"/>
  </node>
  <node id="-5523" version="0" timestamp="Fri Feb 24 10:53:37 +0100 2012" uid="1" user="" lat="51.4266477" lon="-0.5628645">
    <tag k="name" v="Munro Fox Entrance"/>
    <tag k="wheelchair" v="limited"/>
    <tag k="wheelchair:description" v="Accessible only through Bourne Laboratories"/>
    <tag k="amenity" v="university"/>
  </node>
  <node id="-5524" version="0" timestamp="Fri Feb 24 10:53:37 +0100 2012" uid="1" user="" lat="51.424798" lon="-0.5660485">
    <tag k="name" v="Quad Entrance/Exit"/>
    <tag k="wheelchair" v="no"/>
    <tag k="wheelchair:description" v="Side doors into the North and South Quad are not accessible via a wheelchair or mobility impaired people due to steps only no ramp."/>
    <tag k="amenity" v="university"/>
  </node>
  <node id="-5525" version="0" timestamp="Fri Feb 24 10:53:37 +0100 2012" uid="1" user="" lat="51.424917" lon="-0.5658706">
    <tag k="name" v="Side Entrance to Founders"/>
    <tag k="wheelchair" v="yes"/>
    <tag k="wheelchair:description" v="Ramp and electric door. Very accessible."/>
    <tag k="amenity" v="university"/>
  </node>
  <node id="-5526" version="0" timestamp="Fri Feb 24 10:53:37 +0100 2012" uid="1" user="" lat="51.4247768" lon="-0.5674445">
    <tag k="name" v="Quad Entrance/Exit"/>
    <tag k="wheelchair" v="no"/>
    <tag k="wheelchair:description" v="Side entrances to North and South Quads are not accessible to wheelchair or mobility impaired people. Access here is by steps only."/>
    <tag k="amenity" v="university"/>
  </node>
  <node id="-5527" version="0" timestamp="Fri Feb 24 10:53:37 +0100 2012" uid="1" user="" lat="51.4252249" lon="-0.5666997">
    <tag k="name" v="Quad Entrance/Exit"/>
    <tag k="wheelchair" v="no"/>
    <tag k="wheelchair:description" v="Side entrances to North and South Quads are not accessible to wheelchair or mobility impaired people. Access here is by steps only."/>
    <tag k="amenity" v="university"/>
  </node>
  <node id="-5528" version="0" timestamp="Fri Feb 24 10:53:37 +0100 2012" uid="1" user="" lat="51.42457" lon="-0.567">
    <tag k="name" v="Quad Entrance/Exit"/>
    <tag k="wheelchair" v="no"/>
    <tag k="wheelchair:description" v="Side entrances to North and South Quads are not accessible to wheelchair or mobility impaired people. Access here is by steps only."/>
    <tag k="amenity" v="university"/>
  </node>
  <node id="-5529" version="0" timestamp="Fri Feb 24 10:53:37 +0100 2012" uid="1" user="" lat="51.42525" lon="-0.56624">
    <tag k="name" v="Founder&apos;s Main Entrance"/>
    <tag k="wheelchair" v="no"/>
    <tag k="wheelchair:description" v="Not accessible by wheelchair or mobility impaired people. Steps only."/>
    <tag k="amenity" v="university"/>
  </node>
</osm>
