<?xml version='1.0' encoding='UTF-8'?>
<osm version="0.6" generator="Osmosis 0.39">
  <node id="-3733" version="0" timestamp="Fri Feb 24 10:53:35 +0100 2012" uid="1" user="" lat="52.2020497" lon="11.6193555">
    <tag k="name" v="Volksbanken/Raiffeisenbanken"/>
    <tag k="wheelchair" v="yes"/>
    <tag k="addr:city" v="Barleben"/>
    <tag k="addr:postcode" v="39179"/>
    <tag k="addr:street" v="Breiteweg"/>
    <tag k="amenity" v="atm"/>
  </node>
  <node id="-3867" version="0" timestamp="Fri Feb 24 10:53:35 +0100 2012" uid="1" user="" lat="52.20311" lon="11.61825">
    <tag k="name" v="Frau Dr. Birk"/>
    <tag k="wheelchair" v="yes"/>
    <tag k="addr:city" v="Barleben"/>
    <tag k="addr:postcode" v="39179"/>
    <tag k="addr:housenumber" v="49"/>
    <tag k="addr:street" v="Breiteweg"/>
    <tag k="amenity" v="doctors"/>
  </node>
  <node id="-3868" version="0" timestamp="Fri Feb 24 10:53:35 +0100 2012" uid="1" user="" lat="52.203139" lon="11.6189069">
    <tag k="name" v="sanitätshaus Burg"/>
    <tag k="wheelchair" v="yes"/>
    <tag k="addr:city" v="Barleben"/>
    <tag k="addr:postcode" v="39179"/>
    <tag k="addr:housenumber" v="49"/>
    <tag k="addr:street" v="Breiteweg"/>
    <tag k="amenity" v="pharmacy"/>
  </node>
  <node id="-3907" version="0" timestamp="Fri Feb 24 10:53:35 +0100 2012" uid="1" user="" lat="52.2026966" lon="11.6182703">
    <tag k="name" v="ReisebüroSchnelle"/>
    <tag k="wheelchair" v="yes"/>
  </node>
</osm>
