<?xml version='1.0' encoding='UTF-8'?>
<osm version="0.6" generator="Osmosis 0.39">
  <node id="-980" version="0" timestamp="Fri Feb 24 10:53:33 +0100 2012" uid="1" user="" lat="51.20058" lon="11.97217">
    <tag k="name" v="Stadtverwaltung"/>
    <tag k="wheelchair" v="no"/>
    <tag k="addr:city" v="Weißenfels"/>
    <tag k="addr:postcode" v="06667"/>
    <tag k="addr:housenumber" v="1"/>
    <tag k="addr:street" v="Markt"/>
    <tag k="website" v="http://www.weissenfels.de"/>
    <tag k="phone" v="03443/ 370-0"/>
  </node>
  <node id="-989" version="0" timestamp="Fri Feb 24 10:53:33 +0100 2012" uid="1" user="" lat="51.193653" lon="11.9571876">
    <tag k="name" v="Asklepios Klinik Weißenfels"/>
    <tag k="wheelchair" v="yes"/>
    <tag k="addr:city" v="Weißenfels"/>
    <tag k="addr:postcode" v="06667"/>
    <tag k="addr:housenumber" v="76"/>
    <tag k="addr:street" v="Naumburger Straße"/>
    <tag k="amenity" v="hospital"/>
    <tag k="website" v="http://www.asklepios.com"/>
    <tag k="phone" v="+49 3443 40-0"/>
  </node>
  <node id="-998" version="0" timestamp="Fri Feb 24 10:53:33 +0100 2012" uid="1" user="" lat="51.2013497" lon="11.9706432">
    <tag k="name" v="Gemeinschaftspraxis Dr. med. Frank Geissler &amp; Dr. med. Lore Geissler"/>
    <tag k="wheelchair" v="yes"/>
    <tag k="addr:city" v="Weißenfels"/>
    <tag k="addr:postcode" v="06667"/>
    <tag k="addr:housenumber" v="13"/>
    <tag k="addr:street" v="Jüdenstraße"/>
    <tag k="amenity" v="doctors"/>
    <tag k="phone" v="03443/ 303265"/>
  </node>
  <node id="-999" version="0" timestamp="Fri Feb 24 10:53:33 +0100 2012" uid="1" user="" lat="51.1965771" lon="11.9800321">
    <tag k="name" v="Dipl.-Med. Sigrid Jacob"/>
    <tag k="wheelchair" v="no"/>
    <tag k="addr:city" v="Weißenfels"/>
    <tag k="addr:postcode" v="06667"/>
    <tag k="addr:housenumber" v="13"/>
    <tag k="addr:street" v="Pestalozzistraße"/>
    <tag k="amenity" v="doctors"/>
    <tag k="phone" v="03443/ 302758"/>
  </node>
  <node id="-1000" version="0" timestamp="Fri Feb 24 10:53:33 +0100 2012" uid="1" user="" lat="51.1916797" lon="11.9642689">
    <tag k="name" v="Dipl. Med. Ortrun Schreiter "/>
    <tag k="wheelchair" v="yes"/>
    <tag k="addr:city" v="Weißenfels"/>
    <tag k="addr:postcode" v="06667"/>
    <tag k="addr:housenumber" v="141"/>
    <tag k="addr:street" v="Südring"/>
    <tag k="amenity" v="doctors"/>
    <tag k="phone" v="03443/ 801076"/>
  </node>
  <node id="-1001" version="0" timestamp="Fri Feb 24 10:53:33 +0100 2012" uid="1" user="" lat="51.2020701" lon="11.9672171">
    <tag k="name" v="Dipl.-Med. Gabriele Lasse "/>
    <tag k="wheelchair" v="no"/>
    <tag k="addr:city" v="Weißenfels"/>
    <tag k="addr:postcode" v="06667"/>
    <tag k="addr:housenumber" v="42"/>
    <tag k="addr:street" v="Saalstraße"/>
    <tag k="amenity" v="doctors"/>
    <tag k="phone" v="03443/ 306553"/>
  </node>
  <node id="-1003" version="0" timestamp="Fri Feb 24 10:53:33 +0100 2012" uid="1" user="" lat="51.1998336" lon="11.9706102">
    <tag k="name" v="Dipl.-Med. Petra Strunk-Prötzig"/>
    <tag k="wheelchair" v="yes"/>
    <tag k="addr:city" v="Weißenfels"/>
    <tag k="addr:postcode" v="06667"/>
    <tag k="addr:housenumber" v="14"/>
    <tag k="addr:street" v="Klosterstraße"/>
    <tag k="amenity" v="doctors"/>
    <tag k="phone" v="03443/ 302408"/>
  </node>
  <node id="-1004" version="0" timestamp="Fri Feb 24 10:53:33 +0100 2012" uid="1" user="" lat="51.2080248" lon="11.9668556">
    <tag k="name" v="Dr. med. Christine Zirkenbach"/>
    <tag k="wheelchair" v="no"/>
    <tag k="addr:city" v="Weißenfels"/>
    <tag k="addr:postcode" v="06667"/>
    <tag k="addr:housenumber" v="36"/>
    <tag k="addr:street" v="Merseburger Straße"/>
    <tag k="amenity" v="doctors"/>
    <tag k="phone" v="03443/ 203343"/>
  </node>
  <node id="-1189" version="0" timestamp="Fri Feb 24 10:53:33 +0100 2012" uid="1" user="" lat="51.2010861" lon="11.9706273">
    <tag k="name" v="Dipl.-Med. Sabine Heinrich"/>
    <tag k="wheelchair" v="yes"/>
    <tag k="addr:city" v="Weißenfels"/>
    <tag k="addr:postcode" v="06667"/>
    <tag k="addr:housenumber" v="12"/>
    <tag k="addr:street" v="Jüdenstraße"/>
    <tag k="amenity" v="doctors"/>
    <tag k="phone" v="03443/ 302927"/>
  </node>
  <node id="-1190" version="0" timestamp="Fri Feb 24 10:53:33 +0100 2012" uid="1" user="" lat="51.2024837" lon="11.9713432">
    <tag k="name" v="Dipl.-Med. Thomas Meinhard"/>
    <tag k="wheelchair" v="no"/>
    <tag k="addr:city" v="Weißenfels"/>
    <tag k="addr:postcode" v="06667"/>
    <tag k="addr:housenumber" v="36"/>
    <tag k="addr:street" v="Promenade"/>
    <tag k="amenity" v="doctors"/>
    <tag k="phone" v="03443/ 300219"/>
  </node>
  <node id="-1197" version="0" timestamp="Fri Feb 24 10:53:33 +0100 2012" uid="1" user="" lat="51.1989191" lon="11.9447789">
    <tag k="name" v="Dipl.-Med. Ines Fischer "/>
    <tag k="wheelchair" v="yes"/>
    <tag k="addr:city" v="Weißenfels"/>
    <tag k="addr:postcode" v="06667"/>
    <tag k="addr:housenumber" v="91F"/>
    <tag k="addr:street" v="Beuditzstraße"/>
    <tag k="amenity" v="doctors"/>
    <tag k="phone" v="03443/ 802939"/>
  </node>
  <node id="-1199" version="0" timestamp="Fri Feb 24 10:53:33 +0100 2012" uid="1" user="" lat="51.1938853" lon="11.9706805">
    <tag k="name" v="Dr. med. Helga Karl"/>
    <tag k="wheelchair" v="yes"/>
    <tag k="addr:city" v="Weißenfels"/>
    <tag k="addr:postcode" v="06667"/>
    <tag k="addr:housenumber" v="2"/>
    <tag k="addr:street" v="Am Kugelberg"/>
    <tag k="amenity" v="doctors"/>
    <tag k="phone" v="03443/ 802082"/>
  </node>
  <node id="-1201" version="0" timestamp="Fri Feb 24 10:53:33 +0100 2012" uid="1" user="" lat="51.2023073" lon="11.9721912">
    <tag k="name" v="Dr. med. Elvira Keucher"/>
    <tag k="wheelchair" v="no"/>
    <tag k="addr:city" v="Weißenfels"/>
    <tag k="addr:postcode" v="06667"/>
    <tag k="addr:housenumber" v="2"/>
    <tag k="addr:street" v="Große Kalandstraße"/>
    <tag k="amenity" v="doctors"/>
    <tag k="phone" v="03443/ 303879"/>
  </node>
  <node id="-1202" version="0" timestamp="Fri Feb 24 10:53:33 +0100 2012" uid="1" user="" lat="51.2010743" lon="11.9657732">
    <tag k="name" v="Sandra Störer F.A. für Frauenheilkunde und Geburtenhilfe"/>
    <tag k="wheelchair" v="no"/>
    <tag k="addr:city" v="Weißenfels"/>
    <tag k="addr:postcode" v="06667"/>
    <tag k="addr:housenumber" v="8"/>
    <tag k="addr:street" v="Leopold-Kell-Straße"/>
    <tag k="amenity" v="doctors"/>
    <tag k="phone" v="03443/ 302409"/>
  </node>
  <node id="-1203" version="0" timestamp="Fri Feb 24 10:53:33 +0100 2012" uid="1" user="" lat="51.1997128" lon="11.9662372">
    <tag k="name" v="Dipl.-Med. Bassam Al-Khouri"/>
    <tag k="wheelchair" v="no"/>
    <tag k="addr:city" v="Weißenfels"/>
    <tag k="addr:postcode" v="06667"/>
    <tag k="addr:housenumber" v="2"/>
    <tag k="addr:street" v="Beuditzstraße"/>
    <tag k="amenity" v="doctors"/>
    <tag k="phone" v="03443/ 303354"/>
  </node>
  <node id="-1205" version="0" timestamp="Fri Feb 24 10:53:33 +0100 2012" uid="1" user="" lat="51.1970544" lon="11.9727463">
    <tag k="name" v="Dr. med.  Kay Andrä"/>
    <tag k="wheelchair" v="no"/>
    <tag k="addr:city" v="Weißenfels"/>
    <tag k="addr:postcode" v="06667"/>
    <tag k="addr:housenumber" v="1"/>
    <tag k="addr:street" v="Am Stadtpark"/>
    <tag k="amenity" v="doctors"/>
    <tag k="phone" v="03443/ 205243"/>
  </node>
  <node id="-1206" version="0" timestamp="Fri Feb 24 10:53:33 +0100 2012" uid="1" user="" lat="51.200195" lon="11.9586971">
    <tag k="name" v="Dr. med. Gabriela Fiedler"/>
    <tag k="wheelchair" v="no"/>
    <tag k="addr:city" v="Weißenfels"/>
    <tag k="addr:postcode" v="06667"/>
    <tag k="addr:housenumber" v="59"/>
    <tag k="addr:street" v="Beuditzstraße"/>
    <tag k="amenity" v="doctors"/>
    <tag k="phone" v="03443/ 302958"/>
  </node>
  <node id="-1207" version="0" timestamp="Fri Feb 24 10:53:33 +0100 2012" uid="1" user="" lat="51.2003522" lon="11.9804823">
    <tag k="name" v="BAG Dr. med. Becher, Hartmut/ Bernhard Blum"/>
    <tag k="wheelchair" v="no"/>
    <tag k="addr:city" v="Weißenfels"/>
    <tag k="addr:postcode" v="06667"/>
    <tag k="addr:housenumber" v="40"/>
    <tag k="addr:street" v="Zeitzer Straße"/>
    <tag k="amenity" v="doctors"/>
    <tag k="phone" v="03443/ 302635"/>
  </node>
  <node id="-1210" version="0" timestamp="Fri Feb 24 10:53:33 +0100 2012" uid="1" user="" lat="51.2010639" lon="11.9625348">
    <tag k="name" v="Dipl.-Med. Antje Bornschein"/>
    <tag k="wheelchair" v="yes"/>
    <tag k="addr:city" v="Weißenfels"/>
    <tag k="addr:postcode" v="06667"/>
    <tag k="addr:housenumber" v="23"/>
    <tag k="addr:street" v="Leopold-Kell-Straße"/>
    <tag k="amenity" v="doctors"/>
    <tag k="phone" v="03443/ 303789"/>
  </node>
  <node id="-1324" version="0" timestamp="Fri Feb 24 10:53:33 +0100 2012" uid="1" user="" lat="51.2558204" lon="12.1399397">
    <tag k="name" v="Sparkasse Burgenlandkreis Geschäftsstelle Lützen"/>
    <tag k="wheelchair" v="yes"/>
    <tag k="addr:city" v="Lützen"/>
    <tag k="addr:postcode" v="06686"/>
    <tag k="addr:housenumber" v="7"/>
    <tag k="addr:street" v="Pestalozzistraße"/>
    <tag k="amenity" v="bank"/>
    <tag k="website" v="http://www.spk-burgenlandkreis.de"/>
    <tag k="phone" v="034444/ 4130"/>
  </node>
  <node id="-1325" version="0" timestamp="Fri Feb 24 10:53:33 +0100 2012" uid="1" user="" lat="51.2536341" lon="12.1402684">
    <tag k="name" v="Volks- und Raiffeisenbank Saale-Unstrut eG"/>
    <tag k="wheelchair" v="no"/>
    <tag k="addr:city" v="Lützen"/>
    <tag k="addr:postcode" v="06686"/>
    <tag k="addr:housenumber" v="23"/>
    <tag k="addr:street" v="Schlossstraße"/>
    <tag k="amenity" v="bank"/>
    <tag k="phone" v="034444/ 20068"/>
  </node>
  <node id="-1326" version="0" timestamp="Fri Feb 24 10:53:33 +0100 2012" uid="1" user="" lat="51.2557209" lon="12.1438813">
    <tag k="name" v="Wohnbau Lützen GmbH"/>
    <tag k="wheelchair" v="no"/>
    <tag k="addr:city" v="Lützen"/>
    <tag k="addr:postcode" v="06686"/>
    <tag k="addr:housenumber" v="1"/>
    <tag k="addr:street" v="Dr.-Voigt-Straße"/>
    <tag k="phone" v="034444/ 20088 oder 20376"/>
  </node>
  <node id="-1327" version="0" timestamp="Fri Feb 24 10:53:33 +0100 2012" uid="1" user="" lat="51.2572506" lon="12.141175">
    <tag k="name" v="Dr. med. Jörg Schleinitz (Allgemeinmedizin, Phlebologie, Lymphologie)"/>
    <tag k="wheelchair" v="no"/>
    <tag k="addr:city" v="Lützen"/>
    <tag k="addr:postcode" v="06686"/>
    <tag k="addr:housenumber" v="19"/>
    <tag k="addr:street" v="Ernst-Thälmann-Straße"/>
    <tag k="amenity" v="doctors"/>
    <tag k="phone" v="034444/ 20404"/>
  </node>
  <node id="-1328" version="0" timestamp="Fri Feb 24 10:53:33 +0100 2012" uid="1" user="" lat="51.2568499" lon="12.1412049">
    <tag k="name" v="Sabine Liebert, Prakt. Ärztin; Winfried Liebert, Zahnarzt"/>
    <tag k="wheelchair" v="yes"/>
    <tag k="addr:city" v="Lützen"/>
    <tag k="addr:postcode" v="06686"/>
    <tag k="addr:housenumber" v="15"/>
    <tag k="addr:street" v="Ernst-Thälmann-Straße"/>
    <tag k="amenity" v="doctors"/>
    <tag k="phone" v="034444/ 20172"/>
  </node>
  <node id="-1329" version="0" timestamp="Fri Feb 24 10:53:33 +0100 2012" uid="1" user="" lat="51.2509948" lon="12.1394153">
    <tag k="name" v="Dr. med. Brigitte Thieme"/>
    <tag k="wheelchair" v="no"/>
    <tag k="addr:city" v="Lützen"/>
    <tag k="addr:postcode" v="06686"/>
    <tag k="addr:housenumber" v="2a"/>
    <tag k="addr:street" v="Am Bahnhof"/>
    <tag k="amenity" v="doctors"/>
    <tag k="phone" v="034444/ 20262"/>
  </node>
  <node id="-1371" version="0" timestamp="Fri Feb 24 10:53:33 +0100 2012" uid="1" user="" lat="51.2582574" lon="12.1414843">
    <tag k="name" v="Dipl.-Med. Silvana Richter"/>
    <tag k="wheelchair" v="no"/>
    <tag k="addr:city" v="Lützen"/>
    <tag k="addr:postcode" v="06686"/>
    <tag k="addr:housenumber" v="18"/>
    <tag k="addr:street" v="Ernst-Thälmann-Straße"/>
    <tag k="amenity" v="doctors"/>
    <tag k="phone" v="034444/ 20204"/>
  </node>
  <node id="-1373" version="0" timestamp="Fri Feb 24 10:53:33 +0100 2012" uid="1" user="" lat="51.2626543" lon="12.1496478">
    <tag k="name" v="Dipl.-med. Michael Götze"/>
    <tag k="wheelchair" v="yes"/>
    <tag k="addr:city" v="Lützen"/>
    <tag k="addr:postcode" v="06686"/>
    <tag k="addr:housenumber" v="20"/>
    <tag k="addr:street" v="Lindenweg"/>
    <tag k="amenity" v="doctors"/>
    <tag k="phone" v="034444/ 23356"/>
  </node>
  <node id="-1374" version="0" timestamp="Fri Feb 24 10:53:33 +0100 2012" uid="1" user="" lat="51.2573824" lon="12.1430704">
    <tag k="name" v="Dipl.-Med. Kerstin Reinhardt"/>
    <tag k="wheelchair" v="no"/>
    <tag k="addr:city" v="Lützen"/>
    <tag k="addr:postcode" v="06686"/>
    <tag k="addr:housenumber" v="33"/>
    <tag k="addr:street" v="Rudolf-Breitscheid-Straße"/>
    <tag k="amenity" v="doctors"/>
    <tag k="phone" v="034444/ 20315"/>
  </node>
  <node id="-1375" version="0" timestamp="Fri Feb 24 10:53:33 +0100 2012" uid="1" user="" lat="51.2555556" lon="12.1407324">
    <tag k="name" v="Zahnarztpraxis Dr. Ramona Hinz"/>
    <tag k="wheelchair" v="no"/>
    <tag k="addr:city" v="Lützen"/>
    <tag k="addr:postcode" v="06686"/>
    <tag k="addr:housenumber" v="2"/>
    <tag k="addr:street" v="Pestalozzistraße"/>
    <tag k="amenity" v="doctors"/>
    <tag k="phone" v="034444/ 20359"/>
  </node>
  <node id="-1376" version="0" timestamp="Fri Feb 24 10:53:33 +0100 2012" uid="1" user="" lat="51.2500228" lon="12.1087298">
    <tag k="name" v="Zahnarztpraxis Dr. Dorit Rosenheim"/>
    <tag k="wheelchair" v="yes"/>
    <tag k="addr:city" v="Lützen OT Bothfeld"/>
    <tag k="addr:postcode" v="06686"/>
    <tag k="addr:housenumber" v="18"/>
    <tag k="addr:street" v="Korbethaer Straße"/>
    <tag k="amenity" v="doctors"/>
    <tag k="phone" v="034444/ 20500"/>
  </node>
  <node id="-1377" version="0" timestamp="Fri Feb 24 10:53:33 +0100 2012" uid="1" user="" lat="51.259769" lon="12.1415302">
    <tag k="name" v="Dipl.-Stom. Udo Weber"/>
    <tag k="wheelchair" v="limited"/>
    <tag k="addr:city" v="Lützen"/>
    <tag k="addr:postcode" v="06686"/>
    <tag k="addr:housenumber" v="1b"/>
    <tag k="addr:street" v="Gustav-Adolf-Straße"/>
    <tag k="amenity" v="doctors"/>
    <tag k="phone" v="034444/ 20365"/>
  </node>
  <node id="-1378" version="0" timestamp="Fri Feb 24 10:53:33 +0100 2012" uid="1" user="" lat="51.2562324" lon="12.14184">
    <tag k="name" v="Schloss Apotheke"/>
    <tag k="wheelchair" v="yes"/>
    <tag k="addr:city" v="Lützen"/>
    <tag k="addr:postcode" v="06686"/>
    <tag k="addr:housenumber" v="2"/>
    <tag k="addr:street" v="Markt"/>
    <tag k="amenity" v="pharmacy"/>
    <tag k="website" v="http://www.schlossapothekeluetzen.de"/>
    <tag k="phone" v="0"/>
  </node>
  <node id="-1380" version="0" timestamp="Fri Feb 24 10:53:33 +0100 2012" uid="1" user="" lat="51.2571431" lon="12.1411919">
    <tag k="name" v="Adler-Apotheke"/>
    <tag k="wheelchair" v="no"/>
    <tag k="addr:city" v="Lützen"/>
    <tag k="addr:postcode" v="06686"/>
    <tag k="addr:housenumber" v="19"/>
    <tag k="addr:street" v="Ernst-Thälmann-Straße"/>
    <tag k="amenity" v="pharmacy"/>
    <tag k="phone" v="034444/ 790521"/>
  </node>
  <node id="-1383" version="0" timestamp="Fri Feb 24 10:53:33 +0100 2012" uid="1" user="" lat="51.2564436" lon="12.1412417">
    <tag k="name" v="Sanitätshaus Grünau; Orthopädietechnik GmbH; Gesundheitshaus Lützen"/>
    <tag k="wheelchair" v="yes"/>
    <tag k="addr:city" v="Lützen"/>
    <tag k="addr:postcode" v="06686"/>
    <tag k="addr:housenumber" v="11"/>
    <tag k="addr:street" v="Ernst-Thälmann-Straße"/>
    <tag k="amenity" v="pharmacy"/>
    <tag k="phone" v="034444/ 741075"/>
  </node>
  <node id="-1384" version="0" timestamp="Fri Feb 24 10:53:33 +0100 2012" uid="1" user="" lat="51.2559961" lon="12.1410457">
    <tag k="name" v="Therapiezentrum &quot;Am Holländer&quot;; Logopädie, Ergotherapie, Physiotherapie"/>
    <tag k="wheelchair" v="limited"/>
    <tag k="addr:city" v="Lützen"/>
    <tag k="addr:postcode" v="06686"/>
    <tag k="addr:housenumber" v="5"/>
    <tag k="addr:street" v="Ernst-Thälmann-Straße"/>
    <tag k="amenity" v="doctors"/>
    <tag k="phone" v="034444/ 741086"/>
  </node>
  <node id="-1385" version="0" timestamp="Fri Feb 24 10:53:33 +0100 2012" uid="1" user="" lat="51.2597206" lon="12.1415222">
    <tag k="name" v="Physiotherapie Viola Hase"/>
    <tag k="wheelchair" v="limited"/>
    <tag k="addr:city" v="Lützen"/>
    <tag k="addr:postcode" v="06686"/>
    <tag k="addr:housenumber" v="1"/>
    <tag k="addr:street" v="Gustav-Adolf-Straße"/>
    <tag k="amenity" v="doctors"/>
    <tag k="phone" v="034444/ 20241"/>
  </node>
  <node id="-1387" version="0" timestamp="Fri Feb 24 10:53:33 +0100 2012" uid="1" user="" lat="51.2632522" lon="12.1493629">
    <tag k="name" v="DRK Pflegeheim &quot;Drei Villen&quot;"/>
    <tag k="wheelchair" v="yes"/>
    <tag k="addr:city" v="Lützen"/>
    <tag k="addr:postcode" v="06686"/>
    <tag k="addr:housenumber" v="32"/>
    <tag k="addr:street" v="Gustav-Adolf-Straße"/>
    <tag k="amenity" v="doctors"/>
    <tag k="phone" v="034444/ 3130"/>
  </node>
  <node id="-1388" version="0" timestamp="Fri Feb 24 10:53:33 +0100 2012" uid="1" user="" lat="51.2553297" lon="12.1412139">
    <tag k="name" v="Betreutes Wohnen"/>
    <tag k="wheelchair" v="yes"/>
    <tag k="addr:city" v="Lützen"/>
    <tag k="addr:postcode" v="06686"/>
    <tag k="addr:housenumber" v="3"/>
    <tag k="addr:street" v="Schlossstraße"/>
    <tag k="amenity" v="doctors"/>
    <tag k="phone" v="0174 90 13 298"/>
  </node>
  <node id="-1426" version="0" timestamp="Fri Feb 24 10:53:33 +0100 2012" uid="1" user="" lat="51.2419144" lon="12.1164378">
    <tag k="name" v="Friedrich-Nietzsche-Gedenkstätte Röcken"/>
    <tag k="wheelchair" v="yes"/>
    <tag k="addr:city" v="Röcken"/>
    <tag k="addr:postcode" v="06686"/>
    <tag k="addr:housenumber" v="8"/>
    <tag k="tourism" v="museum"/>
    <tag k="addr:street" v="Teichstraße"/>
    <tag k="phone" v="034444/ 23540"/>
  </node>
  <node id="-1429" version="0" timestamp="Fri Feb 24 10:53:33 +0100 2012" uid="1" user="" lat="51.2547926" lon="12.1397778">
    <tag k="name" v="museum im schloß"/>
    <tag k="wheelchair" v="no"/>
    <tag k="addr:city" v="Lützen"/>
    <tag k="addr:postcode" v="06686 "/>
    <tag k="addr:housenumber" v="4"/>
    <tag k="tourism" v="museum"/>
    <tag k="addr:street" v="Schloßstraße "/>
    <tag k="phone" v="034444/ 90692 oder 20228"/>
  </node>
  <node id="-1437" version="0" timestamp="Fri Feb 24 10:53:33 +0100 2012" uid="1" user="" lat="51.2676901" lon="12.1568622">
    <tag k="name" v="Gedenkstätte Gustav-Adolf"/>
    <tag k="wheelchair" v="yes"/>
    <tag k="addr:city" v="Lützen"/>
    <tag k="addr:postcode" v="06686"/>
    <tag k="addr:housenumber" v="42"/>
    <tag k="tourism" v="museum"/>
    <tag k="addr:street" v="Gustav- Adolf-Straße "/>
    <tag k="phone" v="034444/ 20317"/>
  </node>
  <node id="-1441" version="0" timestamp="Fri Feb 24 10:53:33 +0100 2012" uid="1" user="" lat="51.2551599" lon="12.1433415">
    <tag k="name" v="Stadtbibliothek Lützen"/>
    <tag k="wheelchair" v="no"/>
    <tag k="addr:city" v="Lützen"/>
    <tag k="addr:postcode" v="06686"/>
    <tag k="addr:housenumber" v="1"/>
    <tag k="addr:street" v="Güntherstraße"/>
    <tag k="amenity" v="library"/>
    <tag k="phone" v="034444/ 20223"/>
  </node>
  <node id="-1445" version="0" timestamp="Fri Feb 24 10:53:33 +0100 2012" uid="1" user="" lat="51.1920911" lon="12.1203702">
    <tag k="name" v="Bibliothek Muschwitz"/>
    <tag k="wheelchair" v="no"/>
    <tag k="addr:postcode" v="06679"/>
    <tag k="addr:housenumber" v="120"/>
    <tag k="addr:street" v="Safranberg "/>
    <tag k="amenity" v="library"/>
  </node>
  <node id="-1446" version="0" timestamp="Fri Feb 24 10:53:33 +0100 2012" uid="1" user="" lat="51.2553725" lon="12.1417582">
    <tag k="name" v="Evangelische Kirchgemeinde Lützen"/>
    <tag k="wheelchair" v="no"/>
    <tag k="addr:city" v="Lützen"/>
    <tag k="addr:postcode" v="06686"/>
    <tag k="addr:housenumber" v="13"/>
    <tag k="addr:street" v="Güntherstraße"/>
    <tag k="amenity" v="place_of_worship"/>
    <tag k="phone" v="034444/ 20264"/>
  </node>
  <node id="-1447" version="0" timestamp="Fri Feb 24 10:53:33 +0100 2012" uid="1" user="" lat="51.242061" lon="12.1162886">
    <tag k="name" v="Pfarramt Röcken"/>
    <tag k="wheelchair" v="no"/>
    <tag k="addr:city" v="Röcken"/>
    <tag k="addr:postcode" v="06686"/>
    <tag k="addr:housenumber" v="8"/>
    <tag k="addr:street" v="Teichstraße"/>
    <tag k="phone" v="034444/ 23540; 034444/ 20546; 01621724452"/>
  </node>
  <node id="-1449" version="0" timestamp="Fri Feb 24 10:53:33 +0100 2012" uid="1" user="" lat="51.260397" lon="12.1404378">
    <tag k="name" v="Sommerbad Lützen"/>
    <tag k="wheelchair" v="yes"/>
    <tag k="addr:city" v="Lützen"/>
    <tag k="addr:postcode" v="06686"/>
    <tag k="addr:housenumber" v="1"/>
    <tag k="addr:street" v="Merseburger Straße"/>
    <tag k="amenity" v="swimming_pool"/>
    <tag k="phone" v="034444/ 21582"/>
  </node>
  <node id="-1458" version="0" timestamp="Fri Feb 24 10:53:33 +0100 2012" uid="1" user="" lat="51.2654153" lon="12.1573323">
    <tag k="name" v="Martzschpark mit Tiergehege"/>
    <tag k="wheelchair" v="yes"/>
    <tag k="addr:city" v="Lützen"/>
    <tag k="addr:postcode" v="06686"/>
    <tag k="addr:housenumber" v="42"/>
    <tag k="tourism" v="attraction"/>
    <tag k="addr:street" v="Gustav- Adolf- Straße"/>
    <tag k="website" v="http://www.kletterwald.de"/>
    <tag k="phone" v="01731999224"/>
  </node>
  <node id="-1460" version="0" timestamp="Fri Feb 24 10:53:33 +0100 2012" uid="1" user="" lat="51.1882362" lon="12.0488104">
    <tag k="name" v="Naherholungsgebiet Auensee"/>
    <tag k="wheelchair" v="yes"/>
    <tag k="addr:city" v="Granschütz"/>
    <tag k="addr:postcode" v="06679"/>
    <tag k="addr:street" v="Am Auensee"/>
    <tag k="amenity" v="swimming_pool"/>
    <tag k="phone" v="034441/ 93941"/>
  </node>
  <node id="-1462" version="0" timestamp="Fri Feb 24 10:53:33 +0100 2012" uid="1" user="" lat="51.18667" lon="12.04893">
    <tag k="name" v="Campingplatz am Auensee"/>
    <tag k="wheelchair" v="yes"/>
    <tag k="addr:city" v="Granschütz"/>
    <tag k="addr:postcode" v="06679 "/>
    <tag k="tourism" v="caravan_site"/>
    <tag k="addr:street" v="Am Auensee"/>
    <tag k="phone" v="034441/ 93941"/>
  </node>
  <node id="-1464" version="0" timestamp="Fri Feb 24 10:53:33 +0100 2012" uid="1" user="" lat="51.2198918" lon="12.1079708">
    <tag k="name" v="Pension H. Fleischhauer"/>
    <tag k="wheelchair" v="yes"/>
    <tag k="addr:city" v="Lützen"/>
    <tag k="addr:postcode" v="06686"/>
    <tag k="addr:housenumber" v="2"/>
    <tag k="tourism" v="bed_and_breakfast"/>
    <tag k="addr:street" v="Starsiedeler Straße"/>
    <tag k="phone" v="034444/ 20495"/>
  </node>
  <node id="-1466" version="0" timestamp="Fri Feb 24 10:53:33 +0100 2012" uid="1" user="" lat="51.21823" lon="12.1385801">
    <tag k="name" v="Pension &quot;Am Rathaus&quot;"/>
    <tag k="wheelchair" v="no"/>
    <tag k="addr:city" v="Lützen"/>
    <tag k="addr:postcode" v="06686"/>
    <tag k="addr:housenumber" v="25"/>
    <tag k="tourism" v="bed_and_breakfast"/>
    <tag k="addr:street" v="Ernst-Thälmann-Straße"/>
    <tag k="phone" v="034444/ 3060"/>
  </node>
  <node id="-1469" version="0" timestamp="Fri Feb 24 10:53:33 +0100 2012" uid="1" user="" lat="51.2565076" lon="12.141719">
    <tag k="name" v="Historischer Gasthof &quot;Roter Löwe&quot;"/>
    <tag k="wheelchair" v="yes"/>
    <tag k="addr:city" v="Lützen"/>
    <tag k="addr:postcode" v="06686"/>
    <tag k="addr:housenumber" v="9"/>
    <tag k="tourism" v="guest_house"/>
    <tag k="addr:street" v="Ernst-Thälmann-Straße "/>
    <tag k="phone" v="034444/ 23332"/>
  </node>
  <node id="-1473" version="0" timestamp="Fri Feb 24 10:53:33 +0100 2012" uid="1" user="" lat="51.1926903" lon="12.0782556">
    <tag k="name" v="Gaststätte Volkshaus &quot;Zum Rippachtal&quot;"/>
    <tag k="wheelchair" v="yes"/>
    <tag k="addr:city" v="Taucha"/>
    <tag k="addr:postcode" v="06679"/>
    <tag k="addr:housenumber" v="1"/>
    <tag k="addr:street" v="Weißenfelser Straße"/>
    <tag k="amenity" v="restaurant"/>
    <tag k="phone" v="034441/ 509447"/>
  </node>
  <node id="-1474" version="0" timestamp="Fri Feb 24 10:53:33 +0100 2012" uid="1" user="" lat="51.2162372" lon="12.1830444">
    <tag k="name" v="Scharnhorstklause"/>
    <tag k="wheelchair" v="limited"/>
    <tag k="addr:city" v="Lützen OT Großgörschen"/>
    <tag k="addr:postcode" v="06686"/>
    <tag k="addr:housenumber" v="12"/>
    <tag k="addr:street" v="Scharnhorststraße"/>
    <tag k="amenity" v="restaurant"/>
    <tag k="phone" v="034444/ 20524"/>
  </node>
  <node id="-1475" version="0" timestamp="Fri Feb 24 10:53:33 +0100 2012" uid="1" user="" lat="51.2141755" lon="12.0818459">
    <tag k="name" v="Gaststätte &quot;Zum Amboß&quot;"/>
    <tag k="wheelchair" v="limited"/>
    <tag k="addr:city" v="Poserna"/>
    <tag k="addr:postcode" v="06686"/>
    <tag k="addr:housenumber" v="2"/>
    <tag k="addr:street" v="Tauchaer Straße"/>
    <tag k="amenity" v="restaurant"/>
    <tag k="phone" v="03443/ 279921"/>
  </node>
  <node id="-1507" version="0" timestamp="Fri Feb 24 10:53:33 +0100 2012" uid="1" user="" lat="51.2641004" lon="12.1573296">
    <tag k="name" v="Tierparkklause (im Martzschpark)"/>
    <tag k="wheelchair" v="yes"/>
    <tag k="addr:city" v="Lützen"/>
    <tag k="addr:postcode" v="06686"/>
    <tag k="addr:housenumber" v="42"/>
    <tag k="addr:street" v="Gustav-Adolf-Straße"/>
    <tag k="amenity" v="restaurant"/>
    <tag k="phone" v="034444/ 41780"/>
  </node>
  <node id="-1512" version="0" timestamp="Fri Feb 24 10:53:33 +0100 2012" uid="1" user="" lat="51.2537371" lon="12.140286">
    <tag k="name" v="Pizza Express"/>
    <tag k="wheelchair" v="yes"/>
    <tag k="addr:city" v="Lützen"/>
    <tag k="addr:postcode" v="06686"/>
    <tag k="addr:housenumber" v="10"/>
    <tag k="addr:street" v="Schloßstraße"/>
    <tag k="amenity" v="fast_food"/>
    <tag k="phone" v="034444/ 90555"/>
  </node>
  <node id="-1513" version="0" timestamp="Fri Feb 24 10:53:33 +0100 2012" uid="1" user="" lat="51.2562916" lon="12.1419622">
    <tag k="name" v="Konditorei-Café Frank Tetzner"/>
    <tag k="wheelchair" v="limited"/>
    <tag k="addr:city" v="Lützen"/>
    <tag k="addr:postcode" v="06686"/>
    <tag k="addr:housenumber" v="5"/>
    <tag k="addr:street" v="Am Markt"/>
    <tag k="amenity" v="cafe"/>
    <tag k="phone" v="034444/ 20676"/>
  </node>
  <node id="-1514" version="0" timestamp="Fri Feb 24 10:53:33 +0100 2012" uid="1" user="" lat="51.2544734" lon="12.1404802">
    <tag k="name" v="Schlosscafé &quot;Wallensteins Stube&quot;"/>
    <tag k="wheelchair" v="limited"/>
    <tag k="addr:city" v="Lützen"/>
    <tag k="addr:postcode" v="06686"/>
    <tag k="addr:housenumber" v="4"/>
    <tag k="addr:street" v="Schloßstraße"/>
    <tag k="amenity" v="cafe"/>
    <tag k="phone" v="034444/ 90692"/>
  </node>
  <node id="-1518" version="0" timestamp="Fri Feb 24 10:53:33 +0100 2012" uid="1" user="" lat="51.2229516" lon="12.0573836">
    <tag k="shop" v="supermarket"/>
    <tag k="name" v="Norma-Discount"/>
    <tag k="wheelchair" v="yes"/>
    <tag k="addr:city" v="Lützen"/>
    <tag k="addr:postcode" v="06686"/>
    <tag k="addr:housenumber" v="7"/>
    <tag k="addr:street" v="Weißenfelser Straße"/>
    <tag k="website" v="http://www.norma-online.de"/>
  </node>
  <node id="-1520" version="0" timestamp="Fri Feb 24 10:53:33 +0100 2012" uid="1" user="" lat="51.2616853" lon="12.1488664">
    <tag k="shop" v="supermarket"/>
    <tag k="name" v="Edeka"/>
    <tag k="wheelchair" v="yes"/>
    <tag k="addr:city" v="Lützen"/>
    <tag k="addr:postcode" v="06686"/>
    <tag k="addr:street" v="Lindenweg"/>
    <tag k="website" v="http://www.edeka.de"/>
  </node>
  <node id="-1523" version="0" timestamp="Fri Feb 24 10:53:33 +0100 2012" uid="1" user="" lat="51.2629453" lon="12.1463995">
    <tag k="shop" v="supermarket"/>
    <tag k="name" v="Netto Marken Discount"/>
    <tag k="wheelchair" v="yes"/>
    <tag k="addr:city" v="Lützen"/>
    <tag k="addr:postcode" v="06686"/>
    <tag k="addr:housenumber" v="31a"/>
    <tag k="addr:street" v="Gustav-Adolf-Straße"/>
    <tag k="website" v="http://www.netto-online.de"/>
  </node>
  <node id="-1524" version="0" timestamp="Fri Feb 24 10:53:33 +0100 2012" uid="1" user="" lat="51.2497034" lon="12.1380706">
    <tag k="shop" v="supermarket"/>
    <tag k="name" v="Netto Marken Discount"/>
    <tag k="wheelchair" v="yes"/>
    <tag k="addr:city" v="Lützen"/>
    <tag k="addr:postcode" v="06686"/>
    <tag k="addr:housenumber" v="21"/>
    <tag k="addr:street" v="Starsiedler Straße"/>
    <tag k="website" v="http://www.netto-online.de"/>
  </node>
  <node id="-1525" version="0" timestamp="Fri Feb 24 10:53:33 +0100 2012" uid="1" user="" lat="51.2564094" lon="12.142386">
    <tag k="shop" v="butcher"/>
    <tag k="name" v="Lützner Fleisch- und Wurstwaren GmbH"/>
    <tag k="wheelchair" v="yes"/>
    <tag k="addr:city" v="Lützen"/>
    <tag k="addr:postcode" v="06686"/>
    <tag k="addr:housenumber" v="7"/>
    <tag k="addr:street" v="Markt"/>
    <tag k="phone" v="034444/ 20505"/>
  </node>
  <node id="-1526" version="0" timestamp="Fri Feb 24 10:53:33 +0100 2012" uid="1" user="" lat="51.2621894" lon="12.1458983">
    <tag k="shop" v="butcher"/>
    <tag k="name" v="Fleischerei Wolf GmbH"/>
    <tag k="wheelchair" v="yes"/>
    <tag k="addr:city" v="Lützen"/>
    <tag k="addr:postcode" v="06686"/>
    <tag k="addr:housenumber" v="31a"/>
    <tag k="addr:street" v="Gustav-Adolf-Straße"/>
    <tag k="phone" v="034444/ 20045"/>
  </node>
  <node id="-1527" version="0" timestamp="Fri Feb 24 10:53:33 +0100 2012" uid="1" user="" lat="51.1928171" lon="12.0794994">
    <tag k="shop" v="bakery"/>
    <tag k="name" v="Bäckerei Barthold"/>
    <tag k="wheelchair" v="limited"/>
    <tag k="addr:city" v="Taucha"/>
    <tag k="addr:postcode" v="06679"/>
    <tag k="addr:housenumber" v="3"/>
    <tag k="addr:street" v="Lange Straße"/>
    <tag k="phone" v="0344441/ 92560"/>
  </node>
  <node id="-1528" version="0" timestamp="Fri Feb 24 10:53:33 +0100 2012" uid="1" user="" lat="51.2581892" lon="12.1412539">
    <tag k="shop" v="bakery"/>
    <tag k="name" v="Bäckerei Sommer GmbH"/>
    <tag k="wheelchair" v="limited"/>
    <tag k="addr:city" v="Lützen"/>
    <tag k="addr:postcode" v="06686"/>
    <tag k="addr:housenumber" v="37"/>
    <tag k="addr:street" v="Ernst-Thälmann-Straße"/>
    <tag k="phone" v="034444/ 23072"/>
  </node>
  <node id="-1529" version="0" timestamp="Fri Feb 24 10:53:33 +0100 2012" uid="1" user="" lat="51.2506972" lon="12.1394215">
    <tag k="shop" v="bakery"/>
    <tag k="name" v="Konditorei Wendl GmbH"/>
    <tag k="wheelchair" v="yes"/>
    <tag k="addr:city" v="Lützen"/>
    <tag k="addr:postcode" v="06686"/>
    <tag k="addr:housenumber" v="21"/>
    <tag k="addr:street" v="Starsiedeler Straße"/>
    <tag k="phone" v="034444/ 41376"/>
  </node>
  <node id="-1607" version="0" timestamp="Fri Feb 24 10:53:33 +0100 2012" uid="1" user="" lat="51.2525733" lon="12.13757">
    <tag k="shop" v="supermarket"/>
    <tag k="name" v="Norma--Discount"/>
    <tag k="wheelchair" v="yes"/>
    <tag k="addr:city" v="Lützen"/>
    <tag k="addr:postcode" v="06686"/>
    <tag k="addr:street" v="Göteborger Straße"/>
    <tag k="website" v="http://www.norma-online.de"/>
  </node>
  <node id="-1608" version="0" timestamp="Fri Feb 24 10:53:33 +0100 2012" uid="1" user="" lat="51.256373" lon="12.1414414">
    <tag k="shop" v="florist"/>
    <tag k="name" v="Blumenhaus am Markt"/>
    <tag k="wheelchair" v="yes"/>
    <tag k="addr:city" v="Lützen"/>
    <tag k="addr:postcode" v="06686"/>
    <tag k="addr:housenumber" v="4"/>
    <tag k="addr:street" v="Markt"/>
    <tag k="phone" v="034444/ 23211"/>
  </node>
  <node id="-1609" version="0" timestamp="Fri Feb 24 10:53:33 +0100 2012" uid="1" user="" lat="51.2541201" lon="12.1404849">
    <tag k="shop" v="florist"/>
    <tag k="name" v="Blumenhaus Meier"/>
    <tag k="wheelchair" v="yes"/>
    <tag k="addr:city" v="Lützen"/>
    <tag k="addr:postcode" v="06686"/>
    <tag k="addr:housenumber" v="21"/>
    <tag k="addr:street" v="Schloßstraße"/>
    <tag k="phone" v="034444/ 20246"/>
  </node>
  <node id="-1610" version="0" timestamp="Fri Feb 24 10:53:33 +0100 2012" uid="1" user="" lat="51.2533844" lon="12.1399281">
    <tag k="shop" v="hairdresser"/>
    <tag k="name" v="Friseursalon Zimmermann"/>
    <tag k="wheelchair" v="no"/>
    <tag k="addr:city" v="Lützen"/>
    <tag k="addr:postcode" v="06686"/>
    <tag k="addr:housenumber" v="12"/>
    <tag k="addr:street" v="Schloßstraße"/>
    <tag k="phone" v="034444/ 90388"/>
  </node>
  <node id="-1611" version="0" timestamp="Fri Feb 24 10:53:33 +0100 2012" uid="1" user="" lat="51.2597527" lon="12.1413813">
    <tag k="shop" v="hairdresser"/>
    <tag k="name" v="Friseursalon Böttcher"/>
    <tag k="wheelchair" v="limited"/>
    <tag k="addr:city" v="Lützen"/>
    <tag k="addr:postcode" v="06686"/>
    <tag k="addr:housenumber" v="1"/>
    <tag k="addr:street" v="Gustav-Adolf-Straße"/>
    <tag k="phone" v="034444/ 22275"/>
  </node>
  <node id="-1613" version="0" timestamp="Fri Feb 24 10:53:33 +0100 2012" uid="1" user="" lat="51.2548437" lon="12.1411897">
    <tag k="shop" v="hairdresser"/>
    <tag k="name" v="Haarmoden GmbH"/>
    <tag k="wheelchair" v="no"/>
    <tag k="addr:city" v="Lützen"/>
    <tag k="addr:postcode" v="06686"/>
    <tag k="addr:housenumber" v="13"/>
    <tag k="addr:street" v="Schloßstraße"/>
    <tag k="phone" v="034444/ 20469"/>
  </node>
  <node id="-1614" version="0" timestamp="Fri Feb 24 10:53:33 +0100 2012" uid="1" user="" lat="51.2512579" lon="12.1373739">
    <tag k="name" v="Auto-Schubert Lützen GmbH/ Tankstelle"/>
    <tag k="wheelchair" v="unknown"/>
    <tag k="addr:city" v="Lützen"/>
    <tag k="addr:postcode" v="06686"/>
    <tag k="addr:housenumber" v="12"/>
    <tag k="addr:street" v="Weißenfelser Straße"/>
    <tag k="amenity" v="fuel"/>
    <tag k="phone" v="034444/ 20030"/>
  </node>
  <node id="-1615" version="0" timestamp="Fri Feb 24 10:53:33 +0100 2012" uid="1" user="" lat="51.2520273" lon="12.1379609">
    <tag k="name" v="Autowerkstatt Engelhardt &amp; Engelhardt"/>
    <tag k="wheelchair" v="yes"/>
    <tag k="addr:city" v="Lützen"/>
    <tag k="addr:postcode" v="06686"/>
    <tag k="addr:housenumber" v="3"/>
    <tag k="addr:street" v="Weißenfelser Straße"/>
    <tag k="amenity" v="parking"/>
    <tag k="phone" v="034444/ 23382"/>
  </node>
  <node id="-1616" version="0" timestamp="Fri Feb 24 10:53:33 +0100 2012" uid="1" user="" lat="51.2529491" lon="12.1399021">
    <tag k="name" v="Autocentrum Lützen"/>
    <tag k="wheelchair" v="yes"/>
    <tag k="addr:city" v="Lützen"/>
    <tag k="addr:postcode" v="06686"/>
    <tag k="addr:housenumber" v="3"/>
    <tag k="addr:street" v="Starsiedeler Straße"/>
    <tag k="amenity" v="parking"/>
    <tag k="phone" v="034444/ 21863"/>
  </node>
  <node id="-1617" version="0" timestamp="Fri Feb 24 10:53:33 +0100 2012" uid="1" user="" lat="51.2570118" lon="12.1412042">
    <tag k="shop" v="optician"/>
    <tag k="name" v="Augenoptikermeisterin Petra Eichner"/>
    <tag k="wheelchair" v="limited"/>
    <tag k="addr:city" v="Lützen"/>
    <tag k="addr:postcode" v="06686"/>
    <tag k="addr:housenumber" v="17"/>
    <tag k="addr:street" v="Ernst-Thälmann-Straße"/>
    <tag k="phone" v="034444/ 20516"/>
  </node>
  <node id="-1618" version="0" timestamp="Fri Feb 24 10:53:33 +0100 2012" uid="1" user="" lat="51.2580316" lon="12.1412383">
    <tag k="shop" v="clothes"/>
    <tag k="name" v="Charisma - Damen- und Herrenmode"/>
    <tag k="wheelchair" v="limited"/>
    <tag k="addr:city" v="Lützen"/>
    <tag k="addr:postcode" v="06686"/>
    <tag k="addr:housenumber" v="33"/>
    <tag k="addr:street" v="Ernst-Thälmann-Straße"/>
    <tag k="phone" v="034444/ 20533"/>
  </node>
  <node id="-1619" version="0" timestamp="Fri Feb 24 10:53:33 +0100 2012" uid="1" user="" lat="51.2584699" lon="12.1475836">
    <tag k="name" v="Taxiunternehmen Heßler"/>
    <tag k="wheelchair" v="yes"/>
    <tag k="addr:city" v="Lützen"/>
    <tag k="addr:postcode" v="06686"/>
    <tag k="addr:housenumber" v="25"/>
    <tag k="addr:street" v="Siedlung"/>
    <tag k="wheelchair:description" v="nur Falt-Rollstühle transportierbar"/>
    <tag k="amenity" v="parking"/>
    <tag k="phone" v="034444/ 20205"/>
  </node>
  <node id="-1621" version="0" timestamp="Fri Feb 24 10:53:33 +0100 2012" uid="1" user="" lat="51.2174466" lon="12.1395977">
    <tag k="shop" v="hardware"/>
    <tag k="name" v="Hausmeisterservice Detlef Wiemer"/>
    <tag k="wheelchair" v="yes"/>
    <tag k="addr:city" v="Lützen OT Starsiedel"/>
    <tag k="addr:postcode" v="06686"/>
    <tag k="addr:housenumber" v="11"/>
    <tag k="addr:street" v="Friedensstraße"/>
    <tag k="phone" v="034444/ 22858"/>
  </node>
  <node id="-1622" version="0" timestamp="Fri Feb 24 10:53:33 +0100 2012" uid="1" user="" lat="51.1511155" lon="11.8237433">
    <tag k="name" v="Kreisverwaltung Burgenlandkreis"/>
    <tag k="wheelchair" v="yes"/>
    <tag k="addr:city" v="Naumburg"/>
    <tag k="addr:postcode" v="06618"/>
    <tag k="addr:housenumber" v="41"/>
    <tag k="addr:street" v="Schöneburger Straße"/>
    <tag k="phone" v="03445/ 73-0"/>
  </node>
  <node id="-1623" version="0" timestamp="Fri Feb 24 10:53:33 +0100 2012" uid="1" user="" lat="51.1526726" lon="11.8090104">
    <tag k="name" v="Stadtverwaltung Naumburg"/>
    <tag k="wheelchair" v="yes"/>
    <tag k="addr:city" v="Naumburg"/>
    <tag k="addr:postcode" v="06618"/>
    <tag k="addr:housenumber" v="1"/>
    <tag k="addr:street" v="Markt"/>
    <tag k="phone" v="03445/ 2730"/>
  </node>
  <node id="-1624" version="0" timestamp="Fri Feb 24 10:53:33 +0100 2012" uid="1" user="" lat="51.1529632" lon="11.8100576">
    <tag k="name" v="Stadtverwaltung Bürgerdienstehaus"/>
    <tag k="wheelchair" v="yes"/>
    <tag k="addr:city" v="Naumburg"/>
    <tag k="addr:postcode" v="06618"/>
    <tag k="addr:housenumber" v="12"/>
    <tag k="addr:street" v="Markt"/>
    <tag k="phone" v="03445/ 273113"/>
  </node>
  <node id="-1625" version="0" timestamp="Fri Feb 24 10:53:33 +0100 2012" uid="1" user="" lat="51.1472444" lon="11.7963161">
    <tag k="name" v="Technisches Rathaus"/>
    <tag k="wheelchair" v="no"/>
    <tag k="addr:city" v="Naumburg"/>
    <tag k="addr:postcode" v="06618"/>
    <tag k="addr:housenumber" v="44"/>
    <tag k="addr:street" v="Fröbelstraße"/>
    <tag k="phone" v="03445/ 273252"/>
  </node>
  <node id="-1626" version="0" timestamp="Fri Feb 24 10:53:33 +0100 2012" uid="1" user="" lat="51.1530183" lon="11.8084935">
    <tag k="name" v="Bürgerbüro"/>
    <tag k="wheelchair" v="yes"/>
    <tag k="addr:city" v="Naumburg"/>
    <tag k="addr:postcode" v="06618"/>
    <tag k="addr:street" v="Herrenstraße"/>
    <tag k="phone" v="03445/ 273-280"/>
  </node>
  <node id="-1627" version="0" timestamp="Fri Feb 24 10:53:33 +0100 2012" uid="1" user="" lat="51.1583162" lon="11.8199783">
    <tag k="name" v="Finanzamt Naumburg"/>
    <tag k="wheelchair" v="yes"/>
    <tag k="addr:city" v="Naumburg"/>
    <tag k="addr:postcode" v="06618"/>
    <tag k="addr:housenumber" v="26/26a"/>
    <tag k="addr:street" v="Oststraße"/>
    <tag k="phone" v="03445/ 753-0"/>
  </node>
  <node id="-1628" version="0" timestamp="Fri Feb 24 10:53:33 +0100 2012" uid="1" user="" lat="51.1529967" lon="11.809993">
    <tag k="name" v="Stadt Naumburg Kultur und Tourismus"/>
    <tag k="wheelchair" v="yes"/>
    <tag k="addr:city" v="Naumburg"/>
    <tag k="addr:postcode" v="06618"/>
    <tag k="addr:housenumber" v="12"/>
    <tag k="addr:street" v="Markt"/>
    <tag k="phone" v="03445/ 2733125"/>
  </node>
  <node id="-1629" version="0" timestamp="Fri Feb 24 10:53:33 +0100 2012" uid="1" user="" lat="51.1431471" lon="11.8254029">
    <tag k="name" v="TWN Technische Werke Naumburg GmbH"/>
    <tag k="wheelchair" v="yes"/>
    <tag k="addr:city" v="Naumburg"/>
    <tag k="addr:postcode" v="06618"/>
    <tag k="addr:housenumber" v="9"/>
    <tag k="addr:street" v="Steinkreuzweg"/>
    <tag k="phone" v="03445/ 755-0"/>
  </node>
  <node id="-1630" version="0" timestamp="Fri Feb 24 10:53:33 +0100 2012" uid="1" user="" lat="51.1517949" lon="11.8086085">
    <tag k="name" v="TWN Technische Werke Naumburg Kundenberatungszentrum"/>
    <tag k="wheelchair" v="limited"/>
    <tag k="addr:city" v="Naumburg"/>
    <tag k="addr:postcode" v="06618"/>
    <tag k="addr:housenumber" v="1"/>
    <tag k="addr:street" v="Salzstraße"/>
    <tag k="phone" v="03445/ 755167"/>
  </node>
  <node id="-1631" version="0" timestamp="Fri Feb 24 10:53:33 +0100 2012" uid="1" user="" lat="51.1622734" lon="11.8219858">
    <tag k="name" v="Jobcenter Burgenlandkreis"/>
    <tag k="wheelchair" v="yes"/>
    <tag k="addr:city" v="Naumburg"/>
    <tag k="addr:postcode" v="06618"/>
    <tag k="addr:housenumber" v="60"/>
    <tag k="addr:street" v="Hallesche Straße"/>
    <tag k="phone" v="01801/ 555-111 (Arbeitnehmer); 01801/ 664-466 (Arbeitnehmer)"/>
  </node>
  <node id="-1632" version="0" timestamp="Fri Feb 24 10:53:33 +0100 2012" uid="1" user="" lat="51.1514659" lon="11.8093136">
    <tag k="name" v="Sparkasse Burgenlandkreis"/>
    <tag k="wheelchair" v="yes"/>
    <tag k="addr:city" v="Naumburg"/>
    <tag k="addr:postcode" v="06618"/>
    <tag k="addr:housenumber" v="6"/>
    <tag k="addr:street" v="Topfmarkt"/>
    <tag k="amenity" v="bank"/>
    <tag k="phone" v="01801/ 80053000"/>
  </node>
  <node id="-1633" version="0" timestamp="Fri Feb 24 10:53:33 +0100 2012" uid="1" user="" lat="51.151027" lon="11.7984676">
    <tag k="name" v="Volks- und Raifeisenbank"/>
    <tag k="wheelchair" v="yes"/>
    <tag k="addr:city" v="Naumburg"/>
    <tag k="addr:postcode" v="06618"/>
    <tag k="addr:housenumber" v="47"/>
    <tag k="addr:street" v="Weimarer Straße"/>
    <tag k="amenity" v="bank"/>
    <tag k="phone" v="03445/ 7820-15"/>
  </node>
  <node id="-1636" version="0" timestamp="Fri Feb 24 10:53:33 +0100 2012" uid="1" user="" lat="51.1520879" lon="11.7986451">
    <tag k="name" v="Mieterverein im Burgenlandkreis"/>
    <tag k="wheelchair" v="yes"/>
    <tag k="addr:city" v="Naumburg"/>
    <tag k="addr:postcode" v="06618"/>
    <tag k="addr:housenumber" v="47"/>
    <tag k="addr:street" v="Michaelisstraße"/>
    <tag k="phone" v="03445/ 772007"/>
  </node>
  <node id="-1955" version="0" timestamp="Fri Feb 24 10:53:33 +0100 2012" uid="1" user="" lat="51.1553086" lon="11.813695">
    <tag k="name" v="Kinder- und Jugendbibliothek"/>
    <tag k="wheelchair" v="yes"/>
    <tag k="addr:city" v="Naumburg"/>
    <tag k="addr:postcode" v="06618"/>
    <tag k="addr:housenumber" v="1"/>
    <tag k="addr:street" v="Heinrich-von-Stephan-Platz"/>
    <tag k="amenity" v="library"/>
    <tag k="phone" v="03445/ 703191"/>
  </node>
  <node id="-1956" version="0" timestamp="Fri Feb 24 10:53:33 +0100 2012" uid="1" user="" lat="51.1623555" lon="11.7988521">
    <tag k="name" v="Vita Apotheke am Hauptbahnhof"/>
    <tag k="wheelchair" v="yes"/>
    <tag k="addr:city" v="Naumburg"/>
    <tag k="addr:postcode" v="06618"/>
    <tag k="addr:housenumber" v="37"/>
    <tag k="addr:street" v="Bahnhofstraße"/>
    <tag k="wheelchair:description" v="auch Hausbringe-Service"/>
    <tag k="amenity" v="pharmacy"/>
    <tag k="phone" v="03445/ 234646"/>
  </node>
  <node id="-1957" version="0" timestamp="Fri Feb 24 10:53:33 +0100 2012" uid="1" user="" lat="51.1520048" lon="11.7992075">
    <tag k="name" v="Dom Apotheke"/>
    <tag k="wheelchair" v="yes"/>
    <tag k="addr:city" v="Naumburg"/>
    <tag k="addr:postcode" v="06618"/>
    <tag k="addr:housenumber" v="60"/>
    <tag k="addr:street" v="Michaelisstraße"/>
    <tag k="amenity" v="pharmacy"/>
    <tag k="phone" v="03445/ 717110"/>
  </node>
  <node id="-1958" version="0" timestamp="Fri Feb 24 10:53:33 +0100 2012" uid="1" user="" lat="51.1523721" lon="11.8106852">
    <tag k="name" v="Bären Apotheke"/>
    <tag k="wheelchair" v="yes"/>
    <tag k="addr:city" v="Naumburg"/>
    <tag k="addr:postcode" v="06618"/>
    <tag k="addr:housenumber" v="37"/>
    <tag k="addr:street" v="Jakobsstraße"/>
    <tag k="amenity" v="pharmacy"/>
    <tag k="phone" v="03445/ 201192"/>
  </node>
  <node id="-1960" version="0" timestamp="Fri Feb 24 10:53:33 +0100 2012" uid="1" user="" lat="51.1523374" lon="11.8092985">
    <tag k="name" v="Löwen Apotheke"/>
    <tag k="wheelchair" v="yes"/>
    <tag k="addr:city" v="Naumburg"/>
    <tag k="addr:postcode" v="06618"/>
    <tag k="addr:housenumber" v="2"/>
    <tag k="addr:street" v="Markt"/>
    <tag k="amenity" v="pharmacy"/>
    <tag k="phone" v="03445/ 24110"/>
  </node>
  <node id="-1961" version="0" timestamp="Fri Feb 24 10:53:33 +0100 2012" uid="1" user="" lat="51.1530391" lon="11.8085311">
    <tag k="name" v="Lorbeerbaumapotheke"/>
    <tag k="wheelchair" v="limited"/>
    <tag k="addr:city" v="Naumburg"/>
    <tag k="addr:postcode" v="06618"/>
    <tag k="addr:housenumber" v="2"/>
    <tag k="addr:street" v="Herrenstraße"/>
    <tag k="amenity" v="pharmacy"/>
    <tag k="phone" v="03445/ 202218"/>
  </node>
  <node id="-1963" version="0" timestamp="Fri Feb 24 10:53:34 +0100 2012" uid="1" user="" lat="51.1523405" lon="11.8114623">
    <tag k="name" v="Physiotherapie Andreas Hurik"/>
    <tag k="wheelchair" v="limited"/>
    <tag k="addr:city" v="Naumburg"/>
    <tag k="addr:postcode" v="06618"/>
    <tag k="addr:housenumber" v="5-6"/>
    <tag k="addr:street" v="Jakobstraße"/>
    <tag k="amenity" v="doctors"/>
    <tag k="phone" v="03445/ 202315"/>
  </node>
  <node id="-1965" version="0" timestamp="Fri Feb 24 10:53:34 +0100 2012" uid="1" user="" lat="51.1507038" lon="11.8220638">
    <tag k="name" v="Physiotherapie Sebastian Weiland"/>
    <tag k="wheelchair" v="yes"/>
    <tag k="addr:city" v="Naumburg"/>
    <tag k="addr:postcode" v="06618"/>
    <tag k="addr:housenumber" v="24"/>
    <tag k="addr:street" v="Rosa-Luxemburg-Straße"/>
    <tag k="amenity" v="doctors"/>
    <tag k="phone" v="03445/ 702853"/>
  </node>
  <node id="-1967" version="0" timestamp="Fri Feb 24 10:53:34 +0100 2012" uid="1" user="" lat="51.1591283" lon="11.8027113">
    <tag k="name" v="Physiotherapie Silke &amp; Hilmer Priese GbR"/>
    <tag k="wheelchair" v="no"/>
    <tag k="addr:city" v="Naumburg"/>
    <tag k="addr:postcode" v="06618"/>
    <tag k="addr:housenumber" v="1"/>
    <tag k="addr:street" v="Spechsart"/>
    <tag k="amenity" v="doctors"/>
    <tag k="phone" v="03445/ 203289"/>
  </node>
  <node id="-1968" version="0" timestamp="Fri Feb 24 10:53:34 +0100 2012" uid="1" user="" lat="51.1538416" lon="11.8195756">
    <tag k="name" v="Physiotherapie Thomas Fuchs"/>
    <tag k="wheelchair" v="no"/>
    <tag k="addr:city" v="Naumburg"/>
    <tag k="addr:postcode" v="06618"/>
    <tag k="addr:housenumber" v="41"/>
    <tag k="addr:street" v="Grochlitzer Straße"/>
    <tag k="amenity" v="doctors"/>
    <tag k="phone" v="03445/ 237966"/>
  </node>
  <node id="-1970" version="0" timestamp="Fri Feb 24 10:53:34 +0100 2012" uid="1" user="" lat="51.158035" lon="11.8199746">
    <tag k="name" v="Physiotherapie Gisela Noske"/>
    <tag k="wheelchair" v="no"/>
    <tag k="addr:city" v="Naumburg"/>
    <tag k="addr:postcode" v="06618"/>
    <tag k="addr:housenumber" v="33"/>
    <tag k="addr:street" v="Oststraße"/>
    <tag k="amenity" v="doctors"/>
    <tag k="phone" v="0"/>
  </node>
  <node id="-2000" version="0" timestamp="Fri Feb 24 10:53:34 +0100 2012" uid="1" user="" lat="51.1486301" lon="11.8015834">
    <tag k="name" v="Physiotherapie Annett Sauer"/>
    <tag k="wheelchair" v="yes"/>
    <tag k="addr:city" v="Naumburg"/>
    <tag k="addr:postcode" v="06618"/>
    <tag k="addr:housenumber" v="19"/>
    <tag k="addr:street" v="Jenaer Straße"/>
    <tag k="amenity" v="doctors"/>
    <tag k="phone" v="03445/ 711455"/>
  </node>
  <node id="-2001" version="0" timestamp="Fri Feb 24 10:53:34 +0100 2012" uid="1" user="" lat="51.1390684" lon="11.7796528">
    <tag k="name" v="Physiotherapie"/>
    <tag k="wheelchair" v="yes"/>
    <tag k="addr:city" v="Naumburg"/>
    <tag k="addr:postcode" v="06618"/>
    <tag k="addr:housenumber" v="156"/>
    <tag k="addr:street" v="Flemminger Weg"/>
    <tag k="amenity" v="doctors"/>
    <tag k="phone" v="03445/ 237337"/>
  </node>
  <node id="-2002" version="0" timestamp="Fri Feb 24 10:53:34 +0100 2012" uid="1" user="" lat="51.1492875" lon="11.8077453">
    <tag k="name" v="Physiotherapie AlexA"/>
    <tag k="wheelchair" v="yes"/>
    <tag k="addr:city" v="Naumburg"/>
    <tag k="addr:postcode" v="06618"/>
    <tag k="addr:housenumber" v="5"/>
    <tag k="addr:street" v="Wenzelsring"/>
    <tag k="amenity" v="doctors"/>
    <tag k="phone" v="03445/ 756182"/>
  </node>
  <node id="-2003" version="0" timestamp="Fri Feb 24 10:53:34 +0100 2012" uid="1" user="" lat="51.151558" lon="11.8075456">
    <tag k="name" v="Physiotherapie Claudia Gnichwitz"/>
    <tag k="wheelchair" v="yes"/>
    <tag k="addr:city" v="Naumburg"/>
    <tag k="addr:postcode" v="06618"/>
    <tag k="addr:housenumber" v="34"/>
    <tag k="addr:street" v="Salzstraße "/>
    <tag k="amenity" v="doctors"/>
    <tag k="phone" v="03445/ 710890"/>
  </node>
  <node id="-2005" version="0" timestamp="Fri Feb 24 10:53:34 +0100 2012" uid="1" user="" lat="51.1515836" lon="11.8078933">
    <tag k="name" v="Heilpraktikerin für Physiotherapie Heide Hey"/>
    <tag k="wheelchair" v="yes"/>
    <tag k="addr:city" v="Naumburg"/>
    <tag k="addr:postcode" v="06618"/>
    <tag k="addr:housenumber" v="35"/>
    <tag k="addr:street" v="Salzstraße"/>
    <tag k="amenity" v="doctors"/>
    <tag k="phone" v="03445/ 6596282"/>
  </node>
  <node id="-2006" version="0" timestamp="Fri Feb 24 10:53:34 +0100 2012" uid="1" user="" lat="51.1612035" lon="11.8146297">
    <tag k="name" v="Klinikum Burgenlandkreis GmbH"/>
    <tag k="wheelchair" v="yes"/>
    <tag k="addr:city" v="Naumburg"/>
    <tag k="addr:postcode" v="06618"/>
    <tag k="addr:housenumber" v="31"/>
    <tag k="addr:street" v="Humboldtstraße"/>
    <tag k="amenity" v="hospital"/>
    <tag k="phone" v="03445/ 72-0"/>
  </node>
  <node id="-2009" version="0" timestamp="Fri Feb 24 10:53:34 +0100 2012" uid="1" user="" lat="51.15237" lon="11.8109597">
    <tag k="shop" v="optician"/>
    <tag k="name" v="Klotz Augenoptik &amp; Hörakustik"/>
    <tag k="wheelchair" v="yes"/>
    <tag k="addr:city" v="Naumburg"/>
    <tag k="addr:postcode" v="06618"/>
    <tag k="addr:housenumber" v="3"/>
    <tag k="addr:street" v="Jakobstraße "/>
    <tag k="phone" v="03445/ 202027"/>
  </node>
  <node id="-2010" version="0" timestamp="Fri Feb 24 10:53:34 +0100 2012" uid="1" user="" lat="51.1516803" lon="11.8077161">
    <tag k="shop" v="optician"/>
    <tag k="name" v="Meisterbetrieb für Brillen und Hörakustik A&amp;O Nasenfahrrad UG"/>
    <tag k="wheelchair" v="yes"/>
    <tag k="addr:city" v="Naumburg"/>
    <tag k="addr:postcode" v="06618"/>
    <tag k="addr:housenumber" v="9"/>
    <tag k="addr:street" v="Salzstraße"/>
    <tag k="phone" v="03445/ 202211"/>
  </node>
  <node id="-2011" version="0" timestamp="Fri Feb 24 10:53:34 +0100 2012" uid="1" user="" lat="51.1529504" lon="11.8109399">
    <tag k="shop" v="optician"/>
    <tag k="name" v="Apollo Optik"/>
    <tag k="wheelchair" v="yes"/>
    <tag k="addr:city" v="Naumburg"/>
    <tag k="addr:postcode" v="06618"/>
    <tag k="addr:housenumber" v="9/10"/>
    <tag k="addr:street" v="Markt"/>
    <tag k="phone" v="03445/ 234992"/>
  </node>
  <node id="-2012" version="0" timestamp="Fri Feb 24 10:53:34 +0100 2012" uid="1" user="" lat="51.1516248" lon="11.8065494">
    <tag k="shop" v="optician"/>
    <tag k="name" v="Fielmann"/>
    <tag k="wheelchair" v="yes"/>
    <tag k="addr:city" v="Naumburg"/>
    <tag k="addr:postcode" v="06618"/>
    <tag k="addr:housenumber" v="15"/>
    <tag k="addr:street" v="Salzstraße"/>
    <tag k="phone" v="03445/ 208970"/>
  </node>
  <node id="-2013" version="0" timestamp="Fri Feb 24 10:53:34 +0100 2012" uid="1" user="" lat="51.1492506" lon="11.8092293">
    <tag k="name" v="Phönix Soziale Dienste gGmbH"/>
    <tag k="wheelchair" v="no"/>
    <tag k="addr:city" v="Naumburg"/>
    <tag k="addr:postcode" v="06618"/>
    <tag k="addr:housenumber" v="8"/>
    <tag k="addr:street" v="Wenzelsring"/>
    <tag k="phone" v="03445/ 237879"/>
  </node>
  <node id="-2014" version="0" timestamp="Fri Feb 24 10:53:34 +0100 2012" uid="1" user="" lat="51.1531175" lon="11.8143981">
    <tag k="name" v="Hilfsverein für psychisch Kranke e.V. Tagesstätte für seelisch Behinderte"/>
    <tag k="wheelchair" v="limited"/>
    <tag k="addr:city" v="Naumburg"/>
    <tag k="addr:postcode" v="06618"/>
    <tag k="addr:housenumber" v="14"/>
    <tag k="addr:street" v="Marienring"/>
    <tag k="phone" v="03445/ 703155"/>
  </node>
  <node id="-2015" version="0" timestamp="Fri Feb 24 10:53:34 +0100 2012" uid="1" user="" lat="51.1522051" lon="11.8091875">
    <tag k="name" v="Lebenshilfe"/>
    <tag k="wheelchair" v="limited"/>
    <tag k="addr:city" v="Naumburg"/>
    <tag k="addr:postcode" v="06618"/>
    <tag k="addr:housenumber" v="3"/>
    <tag k="addr:street" v="Markt"/>
    <tag k="phone" v="03445/ 702828"/>
  </node>
  <node id="-2016" version="0" timestamp="Fri Feb 24 10:53:34 +0100 2012" uid="1" user="" lat="51.1588668" lon="11.8035857">
    <tag k="name" v="Pflege- und Betreuungszentrum Spätsommer; VOLKSSOLIDARITÄT Spätsommer gGmbH"/>
    <tag k="wheelchair" v="yes"/>
    <tag k="addr:city" v="Naumburg"/>
    <tag k="addr:postcode" v="06618"/>
    <tag k="addr:housenumber" v="1"/>
    <tag k="addr:street" v="Jägerstraße"/>
    <tag k="phone" v="03445/ 2306810"/>
  </node>
  <node id="-2017" version="0" timestamp="Fri Feb 24 10:53:34 +0100 2012" uid="1" user="" lat="51.1514546" lon="11.8227453">
    <tag k="name" v="Deutsches Rotes Kreuz; Seniorenzentrum &quot;Henry Dunant&quot;"/>
    <tag k="wheelchair" v="yes"/>
    <tag k="addr:city" v="Naumburg"/>
    <tag k="addr:postcode" v="06618"/>
    <tag k="addr:housenumber" v="31"/>
    <tag k="addr:street" v="Schöneburger Straße"/>
    <tag k="phone" v="03445/ 782414"/>
  </node>
  <node id="-2018" version="0" timestamp="Fri Feb 24 10:53:34 +0100 2012" uid="1" user="" lat="51.1400107" lon="11.8088494">
    <tag k="name" v="AWO Seniorenheim &quot;Am Rosengarten&quot; gGmbH"/>
    <tag k="wheelchair" v="yes"/>
    <tag k="addr:city" v="Naumburg"/>
    <tag k="addr:postcode" v="06618"/>
    <tag k="addr:housenumber" v="31"/>
    <tag k="addr:street" v="Neidschützer Straße"/>
    <tag k="phone" v="03445/ 232-0"/>
  </node>
  <node id="-2019" version="0" timestamp="Fri Feb 24 10:53:34 +0100 2012" uid="1" user="" lat="51.1525912" lon="11.8049243">
    <tag k="name" v="AWO Soziale Dinste Sachsen-Anhalt GmbH; August-Renstein-Haus"/>
    <tag k="wheelchair" v="yes"/>
    <tag k="addr:city" v="Naumburg"/>
    <tag k="addr:postcode" v="06618"/>
    <tag k="addr:housenumber" v="3"/>
    <tag k="addr:street" v="Othmarsplatz"/>
    <tag k="phone" v="03445/ 23490"/>
  </node>
  <node id="-2020" version="0" timestamp="Fri Feb 24 10:53:34 +0100 2012" uid="1" user="" lat="51.1594834" lon="11.8126111">
    <tag k="name" v="Caritas-Pflegeheim Luisenhaus (Katholische Einrichtung)"/>
    <tag k="wheelchair" v="yes"/>
    <tag k="addr:city" v="Naumburg"/>
    <tag k="addr:postcode" v="06618/"/>
    <tag k="addr:housenumber" v="11"/>
    <tag k="addr:street" v="Humboldtstraße"/>
  </node>
  <node id="-2021" version="0" timestamp="Fri Feb 24 10:53:34 +0100 2012" uid="1" user="" lat="51.1594834" lon="11.8126111">
    <tag k="name" v="Caritas-Pflegeheim Luisenhaus (Katholische Einrichtung)"/>
    <tag k="wheelchair" v="yes"/>
    <tag k="addr:city" v="Naumburg"/>
    <tag k="addr:postcode" v="06618/"/>
    <tag k="addr:housenumber" v="11"/>
    <tag k="addr:street" v="Humboldtstraße"/>
  </node>
  <node id="-2023" version="0" timestamp="Fri Feb 24 10:53:34 +0100 2012" uid="1" user="" lat="51.149218" lon="11.8240163">
    <tag k="name" v="Käthe-Kruse-Schule Naumburg (Förderschule)"/>
    <tag k="wheelchair" v="yes"/>
    <tag k="addr:city" v="Naumburg"/>
    <tag k="addr:postcode" v="06618"/>
    <tag k="addr:housenumber" v="3"/>
    <tag k="addr:street" v="Carl-Broche-Straße"/>
    <tag k="amenity" v="school"/>
    <tag k="phone" v="03445/ 773215"/>
  </node>
  <node id="-2024" version="0" timestamp="Fri Feb 24 10:53:34 +0100 2012" uid="1" user="" lat="51.152525" lon="11.8064085">
    <tag k="shop" v="department_store"/>
    <tag k="name" v="Medizinischer Bedarf, Handel und Verleih M. Wassermann"/>
    <tag k="wheelchair" v="limited"/>
    <tag k="addr:city" v="Naumburg"/>
    <tag k="addr:postcode" v="06618"/>
    <tag k="addr:housenumber" v="5/6"/>
    <tag k="addr:street" v="Lindenring"/>
    <tag k="phone" v="03445/ 70530"/>
  </node>
  <node id="-2025" version="0" timestamp="Fri Feb 24 10:53:34 +0100 2012" uid="1" user="" lat="51.156287" lon="11.8143542">
    <tag k="name" v="Ergo Therapie Zentrum Naumburg GbR"/>
    <tag k="wheelchair" v="no"/>
    <tag k="addr:city" v="Naumburg"/>
    <tag k="addr:postcode" v="06618"/>
    <tag k="addr:housenumber" v="4"/>
    <tag k="addr:street" v="Heinrich-von-Stephan-Platz"/>
    <tag k="amenity" v="doctors"/>
    <tag k="phone" v="03445/ 6592820"/>
  </node>
  <node id="-2026" version="0" timestamp="Fri Feb 24 10:53:34 +0100 2012" uid="1" user="" lat="51.147325" lon="11.8085628">
    <tag k="name" v="Praxis für Ergotherapie Christin Meyer"/>
    <tag k="wheelchair" v="limited"/>
    <tag k="addr:city" v="Naumburg"/>
    <tag k="addr:postcode" v="06618"/>
    <tag k="addr:housenumber" v="8"/>
    <tag k="addr:street" v="Parkstraße"/>
    <tag k="amenity" v="doctors"/>
    <tag k="phone" v="03445/ 231838"/>
  </node>
  <node id="-2067" version="0" timestamp="Fri Feb 24 10:53:34 +0100 2012" uid="1" user="" lat="51.162319" lon="11.7990162">
    <tag k="name" v="Frauen Elan Fitness"/>
    <tag k="wheelchair" v="limited"/>
    <tag k="addr:city" v="Naumburg"/>
    <tag k="addr:postcode" v="06618"/>
    <tag k="addr:housenumber" v="35"/>
    <tag k="addr:street" v="Bahnhofstraße"/>
    <tag k="leisure" v="sports_centre"/>
    <tag k="phone" v="03445/ 201112"/>
  </node>
  <node id="-2069" version="0" timestamp="Fri Feb 24 10:53:34 +0100 2012" uid="1" user="" lat="51.1614268" lon="11.7966393">
    <tag k="name" v="AOK Sachsen Anhalt Kundencenter"/>
    <tag k="wheelchair" v="yes"/>
    <tag k="addr:city" v="Naumburg"/>
    <tag k="addr:postcode" v="06618"/>
    <tag k="addr:housenumber" v="48"/>
    <tag k="addr:street" v="Markgrafenweg"/>
    <tag k="phone" v="01802265726"/>
  </node>
  <node id="-2071" version="0" timestamp="Fri Feb 24 10:53:34 +0100 2012" uid="1" user="" lat="51.1522094" lon="11.809943">
    <tag k="name" v="DAK-Unternehmen Leben"/>
    <tag k="wheelchair" v="no"/>
    <tag k="addr:city" v="Naumburg"/>
    <tag k="addr:postcode" v="06618"/>
    <tag k="addr:housenumber" v="14"/>
    <tag k="addr:street" v="Markt"/>
    <tag k="phone" v="03445/ 2614-160"/>
  </node>
  <node id="-2072" version="0" timestamp="Fri Feb 24 10:53:34 +0100 2012" uid="1" user="" lat="51.1524581" lon="11.8105284">
    <tag k="name" v="BARMER GEK"/>
    <tag k="wheelchair" v="no"/>
    <tag k="addr:city" v="Naumburg"/>
    <tag k="addr:postcode" v="06618"/>
    <tag k="addr:housenumber" v="8"/>
    <tag k="addr:street" v="Markt"/>
    <tag k="phone" v="01850018-6300 oder 03454832 1 18-6300"/>
  </node>
  <node id="-2073" version="0" timestamp="Fri Feb 24 10:53:34 +0100 2012" uid="1" user="" lat="51.1512201" lon="11.8081016">
    <tag k="name" v="IKK gesund plus"/>
    <tag k="wheelchair" v="yes"/>
    <tag k="addr:city" v="Naumburg"/>
    <tag k="addr:postcode" v="06618"/>
    <tag k="addr:housenumber" v="38"/>
    <tag k="addr:street" v="Salzstraße"/>
    <tag k="phone" v="03445/ 23531-0"/>
  </node>
  <node id="-2074" version="0" timestamp="Fri Feb 24 10:53:34 +0100 2012" uid="1" user="" lat="51.1517166" lon="11.8270693">
    <tag k="name" v="Zahnärztin Dr. Ute Söll"/>
    <tag k="wheelchair" v="yes"/>
    <tag k="addr:city" v="Naumburg"/>
    <tag k="addr:postcode" v="06618"/>
    <tag k="addr:housenumber" v="1b"/>
    <tag k="addr:street" v="Kroppentalstraße"/>
    <tag k="amenity" v="doctors"/>
    <tag k="phone" v="03445/ 703515"/>
  </node>
  <node id="-2078" version="0" timestamp="Fri Feb 24 10:53:34 +0100 2012" uid="1" user="" lat="51.15074" lon="11.82215">
    <tag k="name" v="Zahnärztin Karen Unger-Göring"/>
    <tag k="wheelchair" v="limited"/>
    <tag k="addr:city" v="Naumburg"/>
    <tag k="addr:postcode" v="06618"/>
    <tag k="addr:housenumber" v="24"/>
    <tag k="addr:street" v="rosa-Luxemburg-Straße"/>
    <tag k="amenity" v="doctors"/>
    <tag k="phone" v="03445/ 704200"/>
  </node>
  <node id="-2080" version="0" timestamp="Fri Feb 24 10:53:34 +0100 2012" uid="1" user="" lat="51.1308355" lon="11.7154374">
    <tag k="name" v="Tierarztpraxis Dr. Ilka Pfeffer; Fachärztin für Kleintiere"/>
    <tag k="wheelchair" v="limited"/>
    <tag k="addr:city" v="Bad Kösen"/>
    <tag k="addr:postcode" v="06628"/>
    <tag k="addr:housenumber" v="18"/>
    <tag k="addr:street" v="Burgstraße"/>
    <tag k="amenity" v="doctors"/>
    <tag k="phone" v="034463/ 27209"/>
  </node>
  <node id="-2082" version="0" timestamp="Fri Feb 24 10:53:34 +0100 2012" uid="1" user="" lat="51.1543361" lon="11.8258556">
    <tag k="name" v="Tierarztpraxis Dr. Med. Vet. Andreas Franz"/>
    <tag k="wheelchair" v="limited"/>
    <tag k="addr:city" v="Naumburg"/>
    <tag k="addr:postcode" v="06618"/>
    <tag k="addr:housenumber" v="4"/>
    <tag k="addr:street" v="Amsdorfstraße"/>
    <tag k="amenity" v="veterinary"/>
    <tag k="phone" v="03445/ 778189"/>
  </node>
  <node id="-2083" version="0" timestamp="Fri Feb 24 10:53:34 +0100 2012" uid="1" user="" lat="51.1515993" lon="11.8080666">
    <tag k="shop" v="mall"/>
    <tag k="name" v="Einkaufscenter Citykaufhaus"/>
    <tag k="wheelchair" v="yes"/>
    <tag k="addr:city" v="Naumburg"/>
    <tag k="addr:postcode" v="06618"/>
    <tag k="addr:housenumber" v="35-37"/>
    <tag k="addr:street" v="Salzstraße"/>
  </node>
  <node id="-2084" version="0" timestamp="Fri Feb 24 10:53:34 +0100 2012" uid="1" user="" lat="51.1517901" lon="11.8122688">
    <tag k="shop" v="supermarket"/>
    <tag k="name" v="Schlecker Drogeriemarkt"/>
    <tag k="wheelchair" v="no"/>
    <tag k="addr:city" v="Naumburg"/>
    <tag k="addr:postcode" v="06618"/>
    <tag k="addr:housenumber" v="2-3"/>
    <tag k="addr:street" v="Holzmarkt"/>
  </node>
  <node id="-2085" version="0" timestamp="Fri Feb 24 10:53:34 +0100 2012" uid="1" user="" lat="51.1484071" lon="11.8010742">
    <tag k="shop" v="supermarket"/>
    <tag k="name" v="Schlecker Drogeriemarkt"/>
    <tag k="wheelchair" v="limited"/>
    <tag k="addr:city" v="Naumburg"/>
    <tag k="addr:postcode" v="06618"/>
    <tag k="addr:housenumber" v="23-25"/>
    <tag k="addr:street" v="Jenaer Straße"/>
  </node>
  <node id="-2087" version="0" timestamp="Fri Feb 24 10:53:34 +0100 2012" uid="1" user="" lat="51.1522032" lon="11.7925832">
    <tag k="shop" v="supermarket"/>
    <tag k="name" v="Schlecker Drogeriemarkt"/>
    <tag k="wheelchair" v="limited"/>
    <tag k="addr:city" v="Naumburg"/>
    <tag k="addr:postcode" v="06618"/>
    <tag k="addr:housenumber" v="36-40"/>
    <tag k="addr:street" v="Kösener Straße"/>
  </node>
  <node id="-2092" version="0" timestamp="Fri Feb 24 10:53:34 +0100 2012" uid="1" user="" lat="51.1532952" lon="11.8075074">
    <tag k="shop" v="department_store"/>
    <tag k="name" v="Rossmann Filiale"/>
    <tag k="wheelchair" v="yes"/>
    <tag k="addr:city" v="Naumburg"/>
    <tag k="addr:postcode" v="06618"/>
    <tag k="addr:housenumber" v="16-17"/>
    <tag k="addr:street" v="Herrenstraße"/>
  </node>
  <node id="-2093" version="0" timestamp="Fri Feb 24 10:53:34 +0100 2012" uid="1" user="" lat="51.1529382" lon="11.8111094">
    <tag k="shop" v="florist"/>
    <tag k="name" v="Flori-Lori"/>
    <tag k="wheelchair" v="limited"/>
    <tag k="addr:city" v="Naumburg"/>
    <tag k="addr:postcode" v="06618"/>
    <tag k="addr:housenumber" v="9"/>
    <tag k="addr:street" v="Markt"/>
    <tag k="phone" v="03445/ 261172"/>
  </node>
  <node id="-2095" version="0" timestamp="Fri Feb 24 10:53:34 +0100 2012" uid="1" user="" lat="51.1529312" lon="11.810474">
    <tag k="shop" v="florist"/>
    <tag k="name" v="Blumenhaus am Markt"/>
    <tag k="wheelchair" v="limited"/>
    <tag k="addr:city" v="Naumburg"/>
    <tag k="addr:postcode" v="06618"/>
    <tag k="addr:housenumber" v="10"/>
    <tag k="addr:street" v="Markt"/>
    <tag k="phone" v="03445/ 202140"/>
  </node>
  <node id="-2096" version="0" timestamp="Fri Feb 24 10:53:34 +0100 2012" uid="1" user="" lat="51.1560336" lon="11.8099983">
    <tag k="shop" v="florist"/>
    <tag k="name" v="Blumenhaus B.&amp;U. Büttner"/>
    <tag k="wheelchair" v="limited"/>
    <tag k="addr:city" v="Naumburg"/>
    <tag k="addr:postcode" v="06618"/>
    <tag k="addr:housenumber" v="7-8"/>
    <tag k="addr:street" v="Poststraße"/>
    <tag k="phone" v="03445/ 700407"/>
  </node>
  <node id="-2101" version="0" timestamp="Fri Feb 24 10:53:34 +0100 2012" uid="1" user="" lat="51.1515356" lon="11.8077071">
    <tag k="shop" v="florist"/>
    <tag k="name" v="Blumenfachgeschäft"/>
    <tag k="wheelchair" v="limited"/>
    <tag k="addr:city" v="Naumburg"/>
    <tag k="addr:postcode" v="06618"/>
    <tag k="addr:housenumber" v="8"/>
    <tag k="addr:street" v="Salzstraße"/>
    <tag k="phone" v="03445/ 206000"/>
  </node>
  <node id="-2103" version="0" timestamp="Fri Feb 24 10:53:34 +0100 2012" uid="1" user="" lat="51.1520626" lon="11.8131913">
    <tag k="shop" v="florist"/>
    <tag k="name" v="Blumenhaus am Boulevard"/>
    <tag k="wheelchair" v="yes"/>
    <tag k="addr:city" v="Naumburg"/>
    <tag k="addr:postcode" v="06618"/>
    <tag k="addr:housenumber" v="15"/>
    <tag k="addr:street" v="Jakobstraße"/>
    <tag k="phone" v="03445/ 208494"/>
  </node>
  <node id="-2106" version="0" timestamp="Fri Feb 24 10:53:34 +0100 2012" uid="1" user="" lat="51.1533793" lon="11.8073281">
    <tag k="shop" v="department_store"/>
    <tag k="name" v="Spielzeit (Spielladen)"/>
    <tag k="wheelchair" v="limited"/>
    <tag k="addr:city" v="Naumburg"/>
    <tag k="addr:postcode" v="06618"/>
    <tag k="addr:housenumber" v="12"/>
    <tag k="addr:street" v="Herrenstraße"/>
    <tag k="phone" v="03445/ 201921"/>
  </node>
  <node id="-2109" version="0" timestamp="Fri Feb 24 10:53:34 +0100 2012" uid="1" user="" lat="51.1552551" lon="11.8111844">
    <tag k="shop" v="hardware"/>
    <tag k="name" v="Ga Wa; Haus- und Energietechnik e.G."/>
    <tag k="wheelchair" v="limited"/>
    <tag k="addr:city" v="Naumburg"/>
    <tag k="addr:postcode" v="06618"/>
    <tag k="addr:housenumber" v="10"/>
    <tag k="addr:street" v="Postring"/>
    <tag k="phone" v="03445/ 202553"/>
  </node>
  <node id="-2110" version="0" timestamp="Fri Feb 24 10:53:34 +0100 2012" uid="1" user="" lat="51.1552398" lon="11.8117564">
    <tag k="shop" v="dry_cleaning"/>
    <tag k="name" v="Änderungsschneiderei Cornelia Veit"/>
    <tag k="wheelchair" v="yes"/>
    <tag k="addr:city" v="Naumburg"/>
    <tag k="addr:postcode" v="06618"/>
    <tag k="addr:housenumber" v="12"/>
    <tag k="addr:street" v="Postring"/>
    <tag k="phone" v="03445/ 201560"/>
  </node>
  <node id="-2111" version="0" timestamp="Fri Feb 24 10:53:34 +0100 2012" uid="1" user="" lat="51.1538605" lon="11.8089376">
    <tag k="shop" v="hairdresser"/>
    <tag k="name" v="Friseurin Anja Geisler"/>
    <tag k="wheelchair" v="limited"/>
    <tag k="addr:city" v="Naumburg"/>
    <tag k="addr:postcode" v="06618"/>
    <tag k="addr:housenumber" v="20"/>
    <tag k="addr:street" v="Reußenplatz"/>
    <tag k="phone" v="03445/ 710571"/>
  </node>
  <node id="-2112" version="0" timestamp="Fri Feb 24 10:53:34 +0100 2012" uid="1" user="" lat="51.1517254" lon="11.8077717">
    <tag k="shop" v="department_store"/>
    <tag k="name" v="Porzellan Müller"/>
    <tag k="wheelchair" v="limited"/>
    <tag k="addr:city" v="Naumburg"/>
    <tag k="addr:postcode" v="06618"/>
    <tag k="addr:housenumber" v="7"/>
    <tag k="addr:street" v="Salzstraße"/>
    <tag k="phone" v="03445/ 2413-0"/>
  </node>
  <node id="-2113" version="0" timestamp="Fri Feb 24 10:53:34 +0100 2012" uid="1" user="" lat="51.1521156" lon="11.8085791">
    <tag k="shop" v="department_store"/>
    <tag k="name" v="Reinhard Keller Besteck u. Gourmet Studio"/>
    <tag k="wheelchair" v="limited"/>
    <tag k="addr:city" v="Naumburg"/>
    <tag k="addr:postcode" v="06618"/>
    <tag k="addr:housenumber" v="13"/>
    <tag k="addr:street" v="Engelgasse"/>
    <tag k="phone" v="03445/ 2413-0"/>
  </node>
  <node id="-2114" version="0" timestamp="Fri Feb 24 10:53:34 +0100 2012" uid="1" user="" lat="51.1531259" lon="11.8080563">
    <tag k="shop" v="department_store"/>
    <tag k="name" v="Xenos Haushaltswaren"/>
    <tag k="wheelchair" v="limited"/>
    <tag k="addr:city" v="Naumburg"/>
    <tag k="addr:postcode" v="06618"/>
    <tag k="addr:housenumber" v="20"/>
    <tag k="addr:street" v="Herrenstraße"/>
    <tag k="phone" v="03445/ 201524"/>
  </node>
  <node id="-2115" version="0" timestamp="Fri Feb 24 10:53:34 +0100 2012" uid="1" user="" lat="51.1515946" lon="11.8080957">
    <tag k="shop" v="bakery"/>
    <tag k="name" v="Bäckerei Block (im Citykaufhaus)"/>
    <tag k="wheelchair" v="yes"/>
    <tag k="addr:city" v="Naumburg"/>
    <tag k="addr:postcode" v="06618"/>
    <tag k="addr:housenumber" v="35-37"/>
    <tag k="addr:street" v="Salzstraße"/>
    <tag k="phone" v="03445/ 205800"/>
  </node>
  <node id="-2117" version="0" timestamp="Fri Feb 24 10:53:34 +0100 2012" uid="1" user="" lat="51.1522381" lon="11.7922746">
    <tag k="shop" v="supermarket"/>
    <tag k="name" v="Netto-Marken-Discount"/>
    <tag k="wheelchair" v="yes"/>
    <tag k="addr:city" v="Naumburg"/>
    <tag k="addr:postcode" v="06618"/>
    <tag k="addr:housenumber" v="36"/>
    <tag k="addr:street" v="Bad-Kösener-Straße"/>
    <tag k="website" v="http://www.netto.online.de"/>
  </node>
  <node id="-2121" version="0" timestamp="Fri Feb 24 10:53:34 +0100 2012" uid="1" user="" lat="51.1533921" lon="11.8072045">
    <tag k="shop" v="department_store"/>
    <tag k="name" v="Louis Römbach KG"/>
    <tag k="wheelchair" v="yes"/>
    <tag k="addr:city" v="Naumburg"/>
    <tag k="addr:postcode" v="06618"/>
    <tag k="addr:housenumber" v="13"/>
    <tag k="addr:street" v="Herrenstraße"/>
    <tag k="phone" v="03445/ 202930"/>
  </node>
  <node id="-2122" version="0" timestamp="Fri Feb 24 10:53:34 +0100 2012" uid="1" user="" lat="51.1619597" lon="11.8083089">
    <tag k="name" v="Taxi-Fischer"/>
    <tag k="wheelchair" v="yes"/>
    <tag k="addr:city" v="Naumburg"/>
    <tag k="addr:postcode" v="06618"/>
    <tag k="addr:housenumber" v="68"/>
    <tag k="addr:street" v="Franz-Ludwig-Rasch-Straße"/>
    <tag k="wheelchair:description" v="Behindertenfahrdienst"/>
    <tag k="amenity" v="car_sharing"/>
    <tag k="phone" v="03445/ 750110"/>
  </node>
  <node id="-2130" version="0" timestamp="Fri Feb 24 10:53:34 +0100 2012" uid="1" user="" lat="51.1559059" lon="11.8065191">
    <tag k="name" v="Taxi-Marno"/>
    <tag k="wheelchair" v="yes"/>
    <tag k="addr:city" v="Naumburg"/>
    <tag k="addr:postcode" v="06618"/>
    <tag k="addr:housenumber" v="24"/>
    <tag k="addr:street" v="Windmühlenstraße"/>
    <tag k="wheelchair:description" v="Behindertenfahrdienste"/>
    <tag k="amenity" v="car_sharing"/>
    <tag k="website" v="http://www.taxi-marno.de"/>
    <tag k="phone" v="03445/ 261601"/>
  </node>
  <node id="-2132" version="0" timestamp="Fri Feb 24 10:53:34 +0100 2012" uid="1" user="" lat="51.1583689" lon="11.8125442">
    <tag k="name" v="Taxi-Central Rolf Bethge"/>
    <tag k="wheelchair" v="yes"/>
    <tag k="addr:city" v="Naumburg"/>
    <tag k="addr:postcode" v="06618"/>
    <tag k="addr:housenumber" v="11"/>
    <tag k="addr:street" v="Thomas-Müntzer-Straße"/>
    <tag k="wheelchair:description" v="Behindertenfahrdienste"/>
    <tag k="amenity" v="car_sharing"/>
    <tag k="phone" v="03445/ 701801"/>
  </node>
  <node id="-2133" version="0" timestamp="Fri Feb 24 10:53:34 +0100 2012" uid="1" user="" lat="51.1571686" lon="11.8076673">
    <tag k="name" v="Taxi-Lindner"/>
    <tag k="wheelchair" v="yes"/>
    <tag k="addr:city" v="Naumburg"/>
    <tag k="addr:postcode" v="06618"/>
    <tag k="addr:housenumber" v="23"/>
    <tag k="addr:street" v="Poststraße"/>
    <tag k="wheelchair:description" v="Behindertenfahrdienst; Nur Faltrollstühle"/>
    <tag k="amenity" v="car_sharing"/>
    <tag k="phone" v="03445/ 702244"/>
  </node>
  <node id="-2135" version="0" timestamp="Fri Feb 24 10:53:34 +0100 2012" uid="1" user="" lat="51.1445697" lon="11.8030641">
    <tag k="name" v="Taxi-Duschkewitz"/>
    <tag k="wheelchair" v="yes"/>
    <tag k="addr:city" v="Naumburg"/>
    <tag k="addr:postcode" v="06618"/>
    <tag k="addr:housenumber" v="41"/>
    <tag k="addr:street" v="Lutherstraße"/>
    <tag k="amenity" v="car_sharing"/>
    <tag k="website" v="http://www.taxibetrieb-duschkewitz.de"/>
    <tag k="phone" v="03445/ 201110"/>
  </node>
  <node id="-2137" version="0" timestamp="Fri Feb 24 10:53:34 +0100 2012" uid="1" user="" lat="51.1651936" lon="11.8086008">
    <tag k="name" v="Taxi-Rößler"/>
    <tag k="wheelchair" v="yes"/>
    <tag k="addr:city" v="Naumburg"/>
    <tag k="addr:postcode" v="06618"/>
    <tag k="addr:housenumber" v="11"/>
    <tag k="addr:street" v="Domblick"/>
    <tag k="wheelchair:description" v="Behindertenfahrdienst; nur Faltrollstühle"/>
    <tag k="amenity" v="car_sharing"/>
    <tag k="phone" v="03445/ 202864"/>
  </node>
  <node id="-2138" version="0" timestamp="Fri Feb 24 10:53:34 +0100 2012" uid="1" user="" lat="51.15688" lon="11.86783">
    <tag k="name" v="Sylvia&apos;s Fahrdienst"/>
    <tag k="wheelchair" v="yes"/>
    <tag k="addr:city" v="Schönburg"/>
    <tag k="addr:postcode" v="06618"/>
    <tag k="addr:housenumber" v="18"/>
    <tag k="addr:street" v="Am Pöllnitzgraben"/>
    <tag k="wheelchair:description" v="Behindertenfahrdienst; nur Faltrollstühle"/>
    <tag k="amenity" v="car_sharing"/>
    <tag k="phone" v="03445/ 237587"/>
  </node>
  <node id="-2141" version="0" timestamp="Fri Feb 24 10:53:34 +0100 2012" uid="1" user="" lat="51.1536164" lon="11.8037511">
    <tag k="name" v="Öffentliche Toilette"/>
    <tag k="wheelchair" v="yes"/>
    <tag k="addr:city" v="Naumburg"/>
    <tag k="addr:postcode" v="06618"/>
    <tag k="addr:street" v="Freyburger Straße"/>
    <tag k="wheelchair:description" v="Mo.-Sa. 09:00-18:00Uhr, So. 10:00-18:00, Nov.-Feb. 10:00-16:00Uhr"/>
    <tag k="amenity" v="toilets"/>
  </node>
  <node id="-2143" version="0" timestamp="Fri Feb 24 10:53:34 +0100 2012" uid="1" user="" lat="51.15632" lon="11.81612">
    <tag k="name" v="Öffentliche Toilette"/>
    <tag k="wheelchair" v="yes"/>
    <tag k="addr:city" v="Naumburg"/>
    <tag k="addr:postcode" v="06618"/>
    <tag k="addr:street" v="Hallesche Straße"/>
    <tag k="wheelchair:description" v="tagsüber geöffnet, nachts geschlossen"/>
    <tag k="amenity" v="toilets"/>
  </node>
  <node id="-2145" version="0" timestamp="Fri Feb 24 10:53:34 +0100 2012" uid="1" user="" lat="51.1522154" lon="11.8104416">
    <tag k="name" v="Öffentliche Toilette"/>
    <tag k="wheelchair" v="yes"/>
    <tag k="addr:city" v="Naumburg"/>
    <tag k="addr:postcode" v="06618"/>
    <tag k="addr:housenumber" v="12"/>
    <tag k="addr:street" v="Markt"/>
    <tag k="wheelchair:description" v="Öffnungszeiten am Bürgerdiensthaus abgebildet"/>
    <tag k="amenity" v="toilets"/>
  </node>
  <node id="-2146" version="0" timestamp="Fri Feb 24 10:53:34 +0100 2012" uid="1" user="" lat="51.1602292" lon="11.8102812">
    <tag k="name" v="St. Wenzel"/>
    <tag k="wheelchair" v="yes"/>
    <tag k="addr:city" v="Naumburg"/>
    <tag k="addr:postcode" v="06618"/>
    <tag k="addr:housenumber" v="21"/>
    <tag k="tourism" v="hotel"/>
    <tag k="addr:street" v="Friedrich-Nietzsche-Straße"/>
    <tag k="phone" v="03445/ 7179-0"/>
  </node>
  <node id="-2189" version="0" timestamp="Fri Feb 24 10:53:34 +0100 2012" uid="1" user="" lat="51.1545729" lon="11.8040802">
    <tag k="name" v="Naumburger Dom"/>
    <tag k="wheelchair" v="limited"/>
    <tag k="addr:city" v="Naumburg"/>
    <tag k="addr:postcode" v="06618"/>
    <tag k="addr:housenumber" v="16/17"/>
    <tag k="tourism" v="attraction"/>
    <tag k="addr:street" v="Domplatz"/>
    <tag k="website" v="http://www.vereinigtedomstifter.de"/>
    <tag k="phone" v="03445/ 2301103"/>
  </node>
  <node id="-2191" version="0" timestamp="Fri Feb 24 10:53:34 +0100 2012" uid="1" user="" lat="51.131033" lon="11.7213751">
    <tag k="name" v="Kurbetriebsgesellschaft Bad Kösen mbH/ Gradierwerk Bad Kösen"/>
    <tag k="wheelchair" v="yes"/>
    <tag k="addr:city" v="Bad Kösen"/>
    <tag k="addr:postcode" v="06628"/>
    <tag k="addr:housenumber" v="4-6"/>
    <tag k="tourism" v="attraction"/>
    <tag k="addr:street" v="Parkstraße"/>
    <tag k="website" v="http://www.badkoesen.de"/>
    <tag k="phone" v="034463/ 3440"/>
  </node>
  <node id="-2214" version="0" timestamp="Fri Feb 24 10:53:34 +0100 2012" uid="1" user="" lat="51.1495539" lon="11.7965426">
    <tag k="name" v="Kreismusikschule Burgenlandkreis &quot;Heinrich von Veldecke&quot; Naumburg"/>
    <tag k="wheelchair" v="limited"/>
    <tag k="addr:city" v="Naumburg"/>
    <tag k="addr:postcode" v="06618"/>
    <tag k="addr:housenumber" v="1"/>
    <tag k="addr:street" v="Seminarstraße"/>
    <tag k="amenity" v="school"/>
    <tag k="phone" v="03445/ 261640"/>
  </node>
  <node id="-2215" version="0" timestamp="Fri Feb 24 10:53:34 +0100 2012" uid="1" user="" lat="51.1494793" lon="11.7965132">
    <tag k="name" v="Volkshochschule Burgenlandkreis &quot;Dr. Wilhelm Harnisch&quot;"/>
    <tag k="wheelchair" v="no"/>
    <tag k="addr:city" v="Naumburg"/>
    <tag k="addr:postcode" v="06618"/>
    <tag k="addr:housenumber" v="1"/>
    <tag k="addr:street" v="Seminarstraße"/>
    <tag k="amenity" v="school"/>
    <tag k="phone" v="03445/ 703125"/>
  </node>
  <node id="-2217" version="0" timestamp="Fri Feb 24 10:53:34 +0100 2012" uid="1" user="" lat="51.1832011" lon="11.9641118">
    <tag k="name" v="Pflegeheim Christoph Buchen &amp; Co.KG"/>
    <tag k="wheelchair" v="yes"/>
    <tag k="addr:city" v="Weißenfels"/>
    <tag k="addr:postcode" v="06667"/>
    <tag k="addr:housenumber" v="2"/>
    <tag k="addr:street" v="Christoph-Buchen-Straße"/>
    <tag k="phone" v="03443/ 29250"/>
  </node>
  <node id="-2221" version="0" timestamp="Fri Feb 24 10:53:34 +0100 2012" uid="1" user="" lat="51.1532067" lon="11.8090562">
    <tag k="name" v="Stadtmuseum &quot;Hohe Lilie&quot;"/>
    <tag k="wheelchair" v="yes"/>
    <tag k="addr:city" v="Naumburg"/>
    <tag k="addr:postcode" v="06618"/>
    <tag k="addr:housenumber" v="18"/>
    <tag k="tourism" v="museum"/>
    <tag k="addr:street" v="Markt"/>
    <tag k="phone" v="03445/ 703503 oder 200648"/>
  </node>
  <node id="-2224" version="0" timestamp="Fri Feb 24 10:53:34 +0100 2012" uid="1" user="" lat="51.1589582" lon="11.810312">
    <tag k="name" v="Internationale Bund Bildungszentrum"/>
    <tag k="wheelchair" v="no"/>
    <tag k="addr:city" v="Naumburg"/>
    <tag k="addr:postcode" v="06618"/>
    <tag k="addr:housenumber" v="1"/>
    <tag k="addr:street" v="Friedrich-Nietzsche-Straße"/>
    <tag k="amenity" v="school"/>
    <tag k="phone" v="03445/ 23040"/>
  </node>
  <node id="-2227" version="0" timestamp="Fri Feb 24 10:53:34 +0100 2012" uid="1" user="" lat="51.1376729" lon="11.7212936">
    <tag k="shop" v="department_store"/>
    <tag k="name" v="Kösener Spielzeug Manufaktur GmbH"/>
    <tag k="wheelchair" v="yes"/>
    <tag k="addr:city" v="Bad Kösen"/>
    <tag k="addr:postcode" v="06628"/>
    <tag k="addr:housenumber" v="13"/>
    <tag k="addr:street" v="Naumburger Straße"/>
  </node>
  <node id="-2230" version="0" timestamp="Fri Feb 24 10:53:34 +0100 2012" uid="1" user="" lat="51.1246888" lon="11.7161793">
    <tag k="name" v="Kösener Spielzeugmanufaktur GmbH"/>
    <tag k="wheelchair" v="limited"/>
    <tag k="addr:city" v="Bad Kösen"/>
    <tag k="addr:postcode" v="06628"/>
    <tag k="addr:housenumber" v="20c"/>
    <tag k="tourism" v="museum"/>
    <tag k="addr:street" v="Rudelsburgpromenade"/>
    <tag k="website" v="http://www.koesener.de"/>
    <tag k="phone" v="034463/ 33-0"/>
  </node>
  <node id="-2385" version="0" timestamp="Fri Feb 24 10:53:34 +0100 2012" uid="1" user="" lat="51.1523791" lon="11.8113733">
    <tag k="shop" v="shoes"/>
    <tag k="name" v="Röder Schuhhaus &amp;Schuhorthopädie"/>
    <tag k="wheelchair" v="yes"/>
    <tag k="addr:city" v="Naumburg"/>
    <tag k="addr:postcode" v="06618"/>
    <tag k="addr:housenumber" v="5-6"/>
    <tag k="addr:street" v="Jakobstraße"/>
    <tag k="phone" v="03445/ 201594 (Schuhhaus) oder 201593 (Schuhorthopädie)"/>
  </node>
  <node id="-2386" version="0" timestamp="Fri Feb 24 10:53:34 +0100 2012" uid="1" user="" lat="51.1523598" lon="11.8114558">
    <tag k="name" v="Fußpflege für Körper und Seele im Schuhhaus Röder"/>
    <tag k="wheelchair" v="yes"/>
    <tag k="addr:city" v="Naumburg"/>
    <tag k="addr:postcode" v="06618"/>
    <tag k="addr:housenumber" v="5-6"/>
    <tag k="addr:street" v="Jakobstraße"/>
    <tag k="amenity" v="doctors"/>
    <tag k="phone" v="03445/ 2610909"/>
  </node>
  <node id="-2387" version="0" timestamp="Fri Feb 24 10:53:34 +0100 2012" uid="1" user="" lat="51.2004425" lon="11.9729425">
    <tag k="name" v="IHK Bildungszentrum Halle-Dessau GmbH Standort Weißenfels"/>
    <tag k="wheelchair" v="yes"/>
    <tag k="addr:city" v="Weißenfels"/>
    <tag k="addr:postcode" v="06667"/>
    <tag k="addr:housenumber" v="6"/>
    <tag k="addr:street" v="Markt"/>
    <tag k="phone" v="03443/ 3414-0"/>
  </node>
  <node id="-2388" version="0" timestamp="Fri Feb 24 10:53:34 +0100 2012" uid="1" user="" lat="51.202332" lon="11.9715756">
    <tag k="name" v="PRO FAMILIE Erziehungsberatung in Weißenfels, Außenstelle von Zeitz"/>
    <tag k="wheelchair" v="no"/>
    <tag k="addr:city" v="Weißenfels"/>
    <tag k="addr:postcode" v="06667"/>
    <tag k="addr:housenumber" v="7"/>
    <tag k="addr:street" v="Große Kalandstraße"/>
    <tag k="phone" v="03443/ 238468"/>
  </node>
  <node id="-2389" version="0" timestamp="Fri Feb 24 10:53:34 +0100 2012" uid="1" user="" lat="51.117237" lon="12.0226805">
    <tag k="name" v="Altenpflegeheim Sankt Georg-Stift; Diakonie Naumburg-Zeitz"/>
    <tag k="wheelchair" v="yes"/>
    <tag k="addr:city" v="Teuchern"/>
    <tag k="addr:postcode" v="06682"/>
    <tag k="addr:housenumber" v="16-17"/>
    <tag k="addr:street" v="Straße des Friedens "/>
    <tag k="phone" v="0"/>
  </node>
  <node id="-2392" version="0" timestamp="Fri Feb 24 10:53:34 +0100 2012" uid="1" user="" lat="51.115225" lon="11.5543092">
    <tag k="shop" v="supermarket"/>
    <tag k="name" v="NETTO Marken-Disount"/>
    <tag k="wheelchair" v="yes"/>
    <tag k="addr:city" v="Eckartsberga"/>
    <tag k="addr:postcode" v="06648"/>
    <tag k="addr:housenumber" v="41"/>
    <tag k="addr:street" v="Thomas-Müntzer-Straße"/>
  </node>
  <node id="-2393" version="0" timestamp="Fri Feb 24 10:53:34 +0100 2012" uid="1" user="" lat="51.1206565" lon="11.5470707">
    <tag k="shop" v="supermarket"/>
    <tag k="name" v="Tegut-Markt Elke Kratz"/>
    <tag k="wheelchair" v="yes"/>
    <tag k="addr:city" v="Eckartsberga"/>
    <tag k="addr:postcode" v="06648"/>
    <tag k="addr:housenumber" v="14"/>
    <tag k="addr:street" v="Buttstädter Straße"/>
    <tag k="phone" v="034467/ 20818"/>
  </node>
  <node id="-2395" version="0" timestamp="Fri Feb 24 10:53:34 +0100 2012" uid="1" user="" lat="51.121014" lon="11.5464236">
    <tag k="shop" v="supermarket"/>
    <tag k="name" v="SCHLECKER-Drogeriemarkt"/>
    <tag k="wheelchair" v="limited"/>
    <tag k="addr:city" v="Eckartsberga"/>
    <tag k="addr:postcode" v="06648"/>
    <tag k="addr:housenumber" v="14"/>
    <tag k="addr:street" v="Buttstädter Straße"/>
    <tag k="wheelchair:description" v="innen relativ eng"/>
  </node>
  <node id="-2397" version="0" timestamp="Fri Feb 24 10:53:34 +0100 2012" uid="1" user="" lat="51.1211922" lon="11.5470502">
    <tag k="name" v="Volks- und Raiffeisenbank Saale-Unstrut eG "/>
    <tag k="wheelchair" v="yes"/>
    <tag k="addr:city" v="Eckartsberga"/>
    <tag k="addr:postcode" v="06648"/>
    <tag k="addr:housenumber" v="3"/>
    <tag k="addr:street" v="Finnepark"/>
    <tag k="amenity" v="bank"/>
    <tag k="phone" v="034467/ 20613"/>
  </node>
  <node id="-2399" version="0" timestamp="Fri Feb 24 10:53:34 +0100 2012" uid="1" user="" lat="51.1208685" lon="11.5478535">
    <tag k="shop" v="beverages"/>
    <tag k="name" v="Fristo Getränkemarkt"/>
    <tag k="wheelchair" v="yes"/>
    <tag k="addr:city" v="Eckartsberga"/>
    <tag k="addr:postcode" v="06648"/>
    <tag k="addr:housenumber" v="2"/>
    <tag k="addr:street" v="Finnepark"/>
    <tag k="phone" v="034467/ 20946"/>
  </node>
  <node id="-2400" version="0" timestamp="Fri Feb 24 10:53:34 +0100 2012" uid="1" user="" lat="51.1210417" lon="11.5475281">
    <tag k="name" v="Capri Döner Pizzeria"/>
    <tag k="wheelchair" v="yes"/>
    <tag k="addr:city" v="Eckartsberga"/>
    <tag k="addr:postcode" v="06648"/>
    <tag k="addr:street" v="Finnepark"/>
    <tag k="amenity" v="fast_food"/>
    <tag k="phone" v="034467/ 90895"/>
  </node>
  <node id="-2402" version="0" timestamp="Fri Feb 24 10:53:34 +0100 2012" uid="1" user="" lat="51.1229998" lon="11.561546">
    <tag k="name" v="Sparkasse Burgenlandkreis"/>
    <tag k="wheelchair" v="yes"/>
    <tag k="addr:city" v="Eckartsberga"/>
    <tag k="addr:postcode" v="06648"/>
    <tag k="addr:housenumber" v="110"/>
    <tag k="addr:street" v="Neue Straße"/>
    <tag k="amenity" v="bank"/>
    <tag k="website" v="http://www.spk-burgenlandkreis.de"/>
    <tag k="phone" v="0180180053000"/>
  </node>
  <node id="-2404" version="0" timestamp="Fri Feb 24 10:53:34 +0100 2012" uid="1" user="" lat="51.1229596" lon="11.5615124">
    <tag k="shop" v="beverages"/>
    <tag k="name" v="Schluckspecht-Getränkemarkt"/>
    <tag k="wheelchair" v="yes"/>
    <tag k="addr:city" v="Eckartsberga"/>
    <tag k="addr:postcode" v="06648"/>
    <tag k="addr:housenumber" v="110"/>
    <tag k="addr:street" v="Neue Straße"/>
    <tag k="phone" v="034467/ 20177"/>
  </node>
  <node id="-2405" version="0" timestamp="Fri Feb 24 10:53:34 +0100 2012" uid="1" user="" lat="51.1227209" lon="11.5613598">
    <tag k="name" v="Hotel Am Markt"/>
    <tag k="wheelchair" v="no"/>
    <tag k="addr:city" v="Eckartsberga"/>
    <tag k="addr:postcode" v="06648"/>
    <tag k="addr:housenumber" v="111"/>
    <tag k="tourism" v="hotel"/>
    <tag k="addr:street" v="Hauptstraße"/>
    <tag k="website" v="http://www.hotel-eckartsberga.de/"/>
    <tag k="phone" v="034467/ 40021"/>
  </node>
  <node id="-2408" version="0" timestamp="Fri Feb 24 10:53:34 +0100 2012" uid="1" user="" lat="51.1226695" lon="11.5615156">
    <tag k="name" v="Adler Apotheke"/>
    <tag k="wheelchair" v="no"/>
    <tag k="addr:city" v="Eckartsberga"/>
    <tag k="addr:postcode" v="06648"/>
    <tag k="addr:housenumber" v="112"/>
    <tag k="addr:street" v="Hauptstraße"/>
    <tag k="amenity" v="pharmacy"/>
    <tag k="phone" v="034467/ 20222"/>
  </node>
  <node id="-2410" version="0" timestamp="Fri Feb 24 10:53:34 +0100 2012" uid="1" user="" lat="51.1228215" lon="11.5613913">
    <tag k="shop" v="hairdresser"/>
    <tag k="name" v="Friseur- und Kosmetiksalon"/>
    <tag k="wheelchair" v="yes"/>
    <tag k="addr:city" v="Eckartsberga"/>
    <tag k="addr:postcode" v="06648"/>
    <tag k="addr:housenumber" v="111"/>
    <tag k="addr:street" v="Hauptstraße"/>
    <tag k="phone" v="034467/ 20908"/>
  </node>
  <node id="-2413" version="0" timestamp="Fri Feb 24 10:53:34 +0100 2012" uid="1" user="" lat="51.122933" lon="11.5574138">
    <tag k="shop" v="hardware"/>
    <tag k="name" v="Raifeisen Baustoffhandel"/>
    <tag k="wheelchair" v="yes"/>
    <tag k="addr:city" v="Eckartsberga"/>
    <tag k="addr:postcode" v="06648"/>
    <tag k="addr:housenumber" v="84"/>
    <tag k="addr:street" v="Hauptstraße"/>
  </node>
  <node id="-2414" version="0" timestamp="Fri Feb 24 10:53:34 +0100 2012" uid="1" user="" lat="51.1234754" lon="11.5596856">
    <tag k="shop" v="department_store"/>
    <tag k="name" v="Romankiewicz Schreibwarenladen"/>
    <tag k="wheelchair" v="no"/>
    <tag k="addr:city" v="Eckartsberga"/>
    <tag k="addr:postcode" v="06648"/>
    <tag k="addr:housenumber" v="194"/>
    <tag k="addr:street" v="Neue Straße"/>
  </node>
  <node id="-2415" version="0" timestamp="Fri Feb 24 10:53:34 +0100 2012" uid="1" user="" lat="51.1193686" lon="11.5617984">
    <tag k="name" v="Sommerrodelbahn Eckartsberga"/>
    <tag k="wheelchair" v="yes"/>
    <tag k="addr:city" v="Eckartsberga"/>
    <tag k="addr:postcode" v="06648"/>
    <tag k="addr:housenumber" v="3"/>
    <tag k="tourism" v="attraction"/>
    <tag k="addr:street" v="Burgstraße"/>
    <tag k="phone" v="034467/ 20019"/>
  </node>
  <node id="-2416" version="0" timestamp="Fri Feb 24 10:53:34 +0100 2012" uid="1" user="" lat="51.1189887" lon="11.5679099">
    <tag k="name" v="Irrgarten Eckartsberga"/>
    <tag k="wheelchair" v="no"/>
    <tag k="addr:city" v="Eckartsberga"/>
    <tag k="addr:postcode" v="06648"/>
    <tag k="addr:housenumber" v="4"/>
    <tag k="tourism" v="attraction"/>
    <tag k="addr:street" v="Burgstraße"/>
    <tag k="website" v="http://rocoto033.server4you.de/cms_freizeit/cms/front_content.php?idcat=5"/>
    <tag k="phone" v="034467/ 40359"/>
  </node>
  <node id="-2419" version="0" timestamp="Fri Feb 24 10:53:34 +0100 2012" uid="1" user="" lat="51.1190722" lon="11.5624623">
    <tag k="name" v="Minigolfanlage Eckartsberga"/>
    <tag k="wheelchair" v="yes"/>
    <tag k="addr:city" v="Eckartsberga"/>
    <tag k="addr:postcode" v="06648"/>
    <tag k="addr:housenumber" v="2"/>
    <tag k="tourism" v="attraction"/>
    <tag k="addr:street" v="Burgstraße"/>
    <tag k="website" v="http://www.minigolf-eckartsberga.de"/>
    <tag k="phone" v="034467/ 90745"/>
  </node>
  <node id="-2421" version="0" timestamp="Fri Feb 24 10:53:34 +0100 2012" uid="1" user="" lat="51.1198624" lon="11.5606127">
    <tag k="name" v="Burgenland Eckartsberga"/>
    <tag k="wheelchair" v="yes"/>
    <tag k="addr:city" v="Eckartsberga"/>
    <tag k="addr:postcode" v="06648"/>
    <tag k="addr:housenumber" v="1"/>
    <tag k="tourism" v="attraction"/>
    <tag k="addr:street" v="Burgstraße"/>
    <tag k="website" v="http://www.freizeitspass-eckartsberga.de"/>
    <tag k="phone" v="034467/ 40373"/>
  </node>
  <node id="-2425" version="0" timestamp="Fri Feb 24 10:53:34 +0100 2012" uid="1" user="" lat="51.1229478" lon="11.5614406">
    <tag k="shop" v="bakery"/>
    <tag k="name" v="Bäckerei"/>
    <tag k="wheelchair" v="yes"/>
    <tag k="addr:city" v="Eckartsberga"/>
    <tag k="addr:postcode" v="06648"/>
    <tag k="addr:housenumber" v="111"/>
    <tag k="addr:street" v="Hauptstraße"/>
  </node>
  <node id="-2426" version="0" timestamp="Fri Feb 24 10:53:34 +0100 2012" uid="1" user="" lat="51.1228625" lon="11.5614454">
    <tag k="shop" v="florist"/>
    <tag k="name" v="Gärtnerei"/>
    <tag k="wheelchair" v="limited"/>
    <tag k="addr:city" v="Eckartsberga"/>
    <tag k="addr:postcode" v="06648"/>
    <tag k="addr:housenumber" v="111"/>
    <tag k="addr:street" v="Hauptstraße"/>
  </node>
  <node id="-2427" version="0" timestamp="Fri Feb 24 10:53:34 +0100 2012" uid="1" user="" lat="51.12278" lon="11.56155">
    <tag k="name" v="Rathaus Stadt Eckartsberga"/>
    <tag k="wheelchair" v="no"/>
    <tag k="addr:city" v="Eckartsberga"/>
    <tag k="addr:postcode" v="06648"/>
    <tag k="addr:street" v="Markt"/>
  </node>
  <node id="-2429" version="0" timestamp="Fri Feb 24 10:53:34 +0100 2012" uid="1" user="" lat="51.1144862" lon="11.5570604">
    <tag k="shop" v="hardware"/>
    <tag k="name" v="Lackierer Torsten Eicker"/>
    <tag k="wheelchair" v="limited"/>
    <tag k="addr:city" v="Eckartsberga"/>
    <tag k="addr:postcode" v="06648"/>
    <tag k="addr:housenumber" v="2"/>
    <tag k="addr:street" v="Alter Schenkweg"/>
    <tag k="phone" v="034467/ 20088"/>
  </node>
  <node id="-2430" version="0" timestamp="Fri Feb 24 10:53:34 +0100 2012" uid="1" user="" lat="51.1211086" lon="11.5472728">
    <tag k="shop" v="hairdresser"/>
    <tag k="name" v="Friseursalon Seiler"/>
    <tag k="wheelchair" v="yes"/>
    <tag k="addr:city" v="Frankroda"/>
    <tag k="addr:postcode" v="06648"/>
    <tag k="addr:housenumber" v="2"/>
    <tag k="addr:street" v="Finnepark"/>
  </node>
  <node id="-2431" version="0" timestamp="Fri Feb 24 10:53:34 +0100 2012" uid="1" user="" lat="51.1583192" lon="11.5663105">
    <tag k="name" v="Heimatverein Frankroda e.V."/>
    <tag k="wheelchair" v="no"/>
    <tag k="addr:city" v="Frankroda"/>
    <tag k="addr:postcode" v="06647"/>
    <tag k="tourism" v="attraction"/>
  </node>
  <node id="-2469" version="0" timestamp="Fri Feb 24 10:53:34 +0100 2012" uid="1" user="" lat="51.1522867" lon="11.8127545">
    <tag k="name" v="Praxis für Nervenheilkunde, Kinder- und Jugendpsychatrie"/>
    <tag k="wheelchair" v="yes"/>
    <tag k="addr:city" v="Naumburg"/>
    <tag k="addr:postcode" v="06618"/>
    <tag k="addr:housenumber" v="26"/>
    <tag k="addr:street" v="Jakobsstraße"/>
    <tag k="amenity" v="doctors"/>
    <tag k="phone" v="03445266863"/>
  </node>
  <node id="-2479" version="0" timestamp="Fri Feb 24 10:53:34 +0100 2012" uid="1" user="" lat="51.2019916" lon="11.5792668">
    <tag k="name" v="Sekundar- und Grundschule Bad Bibra"/>
    <tag k="wheelchair" v="limited"/>
    <tag k="addr:city" v="Bad Bibra"/>
    <tag k="addr:postcode" v="06647"/>
    <tag k="addr:housenumber" v="2"/>
    <tag k="addr:street" v="Steinbacher Straße"/>
    <tag k="amenity" v="school"/>
    <tag k="phone" v="034465/ 20259"/>
  </node>
  <node id="-2484" version="0" timestamp="Fri Feb 24 10:53:34 +0100 2012" uid="1" user="" lat="51.2076406" lon="11.5897779">
    <tag k="shop" v="department_store"/>
    <tag k="name" v="Kiebitz Markt"/>
    <tag k="wheelchair" v="yes"/>
    <tag k="addr:city" v="Bad Bibra"/>
    <tag k="addr:postcode" v="06647"/>
    <tag k="addr:housenumber" v="50"/>
    <tag k="addr:street" v="Lauchaer Straße"/>
    <tag k="website" v="http://www.kiebitzmarkt.de/"/>
    <tag k="phone" v="034465/ 20262"/>
  </node>
  <node id="-2485" version="0" timestamp="Fri Feb 24 10:53:34 +0100 2012" uid="1" user="" lat="51.2071034" lon="11.5837996">
    <tag k="name" v="Engel Apotheke"/>
    <tag k="wheelchair" v="limited"/>
    <tag k="addr:city" v="Bad Bibra"/>
    <tag k="addr:postcode" v="06647"/>
    <tag k="addr:housenumber" v="3"/>
    <tag k="addr:street" v="Promenade"/>
    <tag k="wheelchair:description" v="Eingangstür geht schwer auf"/>
    <tag k="amenity" v="pharmacy"/>
    <tag k="website" v="http://www.apotheke-bad-bibra.de/"/>
    <tag k="phone" v="034465/ 20376"/>
  </node>
  <node id="-2486" version="0" timestamp="Fri Feb 24 10:53:34 +0100 2012" uid="1" user="" lat="51.206606" lon="11.5835747">
    <tag k="name" v="Döner"/>
    <tag k="wheelchair" v="yes"/>
    <tag k="addr:city" v="Bad Bibra"/>
    <tag k="addr:postcode" v="06647"/>
    <tag k="addr:street" v="Kleine Angerstraße"/>
    <tag k="amenity" v="fast_food"/>
    <tag k="phone" v="034465/ 70568"/>
  </node>
  <node id="-2487" version="0" timestamp="Fri Feb 24 10:53:34 +0100 2012" uid="1" user="" lat="51.207704" lon="11.5861531">
    <tag k="name" v="Pizzeria"/>
    <tag k="wheelchair" v="limited"/>
    <tag k="addr:city" v="Bad Bibra"/>
    <tag k="addr:postcode" v="06647"/>
    <tag k="addr:housenumber" v="64"/>
    <tag k="addr:street" v="Lauchaer Straße"/>
    <tag k="amenity" v="fast_food"/>
  </node>
  <node id="-2488" version="0" timestamp="Fri Feb 24 10:53:34 +0100 2012" uid="1" user="" lat="51.2065748" lon="11.5825624">
    <tag k="name" v="Volksbank Halle (Saale) eG"/>
    <tag k="wheelchair" v="yes"/>
    <tag k="addr:city" v="Bad Bibra"/>
    <tag k="addr:postcode" v="06647"/>
    <tag k="addr:housenumber" v="6"/>
    <tag k="addr:street" v="Lauchaer Straße"/>
    <tag k="amenity" v="bank"/>
    <tag k="phone" v="034465/ 601-0"/>
  </node>
  <node id="-3271" version="0" timestamp="Fri Feb 24 10:53:35 +0100 2012" uid="1" user="" lat="51.15181" lon="11.80736">
    <tag k="name" v="Ratskeller Naumburg"/>
    <tag k="wheelchair" v="no"/>
    <tag k="addr:city" v="Naumburg"/>
    <tag k="addr:postcode" v="06618"/>
    <tag k="addr:housenumber" v="1"/>
    <tag k="addr:street" v="markt"/>
    <tag k="amenity" v="bank"/>
  </node>
  <node id="-3431" version="0" timestamp="Fri Feb 24 10:53:35 +0100 2012" uid="1" user="" lat="51.15676" lon="12.09823">
    <tag k="name" v="Rathaus "/>
    <tag k="wheelchair" v="yes"/>
    <tag k="addr:city" v="Hohenmölsen"/>
    <tag k="addr:postcode" v="06679"/>
    <tag k="addr:housenumber" v="1 "/>
    <tag k="addr:street" v="Markt "/>
  </node>
  <node id="-3445" version="0" timestamp="Fri Feb 24 10:53:35 +0100 2012" uid="1" user="" lat="51.15676" lon="12.09823">
    <tag k="name" v="Rathaus(Bürgerbüro/Einwohnermeldeamt/Standesamt)"/>
    <tag k="wheelchair" v="yes"/>
    <tag k="addr:city" v="Hohenmölsen"/>
    <tag k="addr:postcode" v="06679 "/>
    <tag k="addr:housenumber" v="13"/>
    <tag k="addr:street" v="Markt "/>
  </node>
  <node id="-3446" version="0" timestamp="Fri Feb 24 10:53:35 +0100 2012" uid="1" user="" lat="51.15186" lon="12.09855">
    <tag k="name" v="Ordnungsamt/Gewerbeamt "/>
    <tag k="wheelchair" v="yes"/>
    <tag k="addr:city" v="Hohenmölsen "/>
    <tag k="addr:postcode" v="06679"/>
    <tag k="addr:housenumber" v="2 "/>
    <tag k="addr:street" v="Großgrimmaer Straße "/>
  </node>
  <node id="-3447" version="0" timestamp="Fri Feb 24 10:53:35 +0100 2012" uid="1" user="" lat="51.15262" lon="12.0988">
    <tag k="name" v="Stadtbauamt "/>
    <tag k="wheelchair" v="yes"/>
    <tag k="addr:city" v="Hohenmölsen "/>
    <tag k="addr:postcode" v="06679 "/>
    <tag k="addr:housenumber" v="2 "/>
    <tag k="addr:street" v="Platz des Bergmanns "/>
  </node>
  <node id="-3448" version="0" timestamp="Fri Feb 24 10:53:35 +0100 2012" uid="1" user="" lat="51.15242" lon="12.10084">
    <tag k="name" v="Bürgerhaus "/>
    <tag k="wheelchair" v="yes"/>
    <tag k="addr:city" v="Hohenmölsen "/>
    <tag k="addr:postcode" v="06679"/>
    <tag k="addr:housenumber" v="02"/>
    <tag k="addr:street" v="Dr.-Walter-Friedrich-Straße "/>
    <tag k="phone" v="034441/42-250"/>
  </node>
  <node id="-3449" version="0" timestamp="Fri Feb 24 10:53:35 +0100 2012" uid="1" user="" lat="51.15242" lon="12.10084">
    <tag k="name" v="ARGE SGB II Burgenlandkreis"/>
    <tag k="wheelchair" v="yes"/>
    <tag k="addr:city" v="Hohenmölsen "/>
    <tag k="addr:postcode" v="06679"/>
    <tag k="addr:housenumber" v="9a "/>
    <tag k="addr:street" v="Friedensstraße "/>
    <tag k="phone" v="034441/ 27410"/>
  </node>
  <node id="-3465" version="0" timestamp="Fri Feb 24 10:53:35 +0100 2012" uid="1" user="" lat="51.15649" lon="12.09923">
    <tag k="name" v="ARGE SGB II Burgenlandkreis "/>
    <tag k="wheelchair" v="yes"/>
    <tag k="addr:city" v="Hohenmölsen "/>
    <tag k="addr:postcode" v="06679"/>
    <tag k="addr:housenumber" v="9a "/>
    <tag k="addr:street" v="Friedensstraße "/>
    <tag k="phone" v="034441/ 27410"/>
  </node>
  <node id="-3468" version="0" timestamp="Fri Feb 24 10:53:35 +0100 2012" uid="1" user="" lat="51.15882" lon="12.09843">
    <tag k="name" v="WOBAU Hohenmölsen GmbH "/>
    <tag k="wheelchair" v="yes"/>
    <tag k="addr:city" v="Hohenmölsen "/>
    <tag k="addr:postcode" v="06679 "/>
    <tag k="addr:housenumber" v="28 "/>
    <tag k="addr:street" v="Clara-Zetkin-Straße "/>
    <tag k="phone" v="034441/ 4830"/>
  </node>
  <node id="-3470" version="0" timestamp="Fri Feb 24 10:53:35 +0100 2012" uid="1" user="" lat="51.15678" lon="12.10481">
    <tag k="name" v="Fachärztin für Allgemeinmedizin Dipl.-Med. Cornelia Martin) "/>
    <tag k="wheelchair" v="yes"/>
    <tag k="addr:city" v="Hohenmölsen "/>
    <tag k="addr:postcode" v="06679"/>
    <tag k="addr:housenumber" v="35a "/>
    <tag k="addr:street" v="Goethestraße "/>
    <tag k="amenity" v="doctors"/>
    <tag k="phone" v="034441/ 23665"/>
  </node>
  <node id="-3471" version="0" timestamp="Fri Feb 24 10:53:35 +0100 2012" uid="1" user="" lat="51.15679" lon="12.09719">
    <tag k="name" v="Prakt. Arzt,Sportarzt,Diabetologe,Arzt für Ernährungsmedizin Dr. Med. Karsten Milek "/>
    <tag k="wheelchair" v="yes"/>
    <tag k="addr:city" v="Hohenmölsen "/>
    <tag k="addr:postcode" v="06679"/>
    <tag k="addr:housenumber" v="5 "/>
    <tag k="addr:street" v="An der Pforte "/>
    <tag k="amenity" v="doctors"/>
    <tag k="phone" v="034441/ 990299"/>
  </node>
  <node id="-3472" version="0" timestamp="Fri Feb 24 10:53:35 +0100 2012" uid="1" user="" lat="51.16219" lon="12.09352">
    <tag k="name" v="FA für Allgemeinmedizin/Phlebologie "/>
    <tag k="wheelchair" v="yes"/>
    <tag k="addr:city" v="Hohenmölsen "/>
    <tag k="addr:postcode" v="06679"/>
    <tag k="addr:housenumber" v="8 "/>
    <tag k="addr:street" v="Wilhelm-Külz-Straße "/>
    <tag k="amenity" v="doctors"/>
    <tag k="phone" v="034441/ 23931"/>
  </node>
  <node id="-3474" version="0" timestamp="Fri Feb 24 10:53:35 +0100 2012" uid="1" user="" lat="51.1576" lon="12.09911">
    <tag k="name" v="Fachärztin für Allgemeinmedizin Dipl.-Med. Grazyna Weber "/>
    <tag k="wheelchair" v="no"/>
    <tag k="addr:city" v="Hohenmölsen "/>
    <tag k="addr:postcode" v="06679"/>
    <tag k="addr:housenumber" v="37"/>
    <tag k="addr:street" v="Friedensstraße "/>
    <tag k="amenity" v="doctors"/>
    <tag k="phone" v="034441/ 22086"/>
  </node>
  <node id="-3475" version="0" timestamp="Fri Feb 24 10:53:35 +0100 2012" uid="1" user="" lat="51.15896" lon="12.10225">
    <tag k="name" v="Fachärztin für HNO-Heilkunde Dipl.-Med. Manuela Schubert "/>
    <tag k="wheelchair" v="yes"/>
    <tag k="addr:city" v="Hohenmölsen "/>
    <tag k="addr:postcode" v="06679"/>
    <tag k="addr:housenumber" v="11 "/>
    <tag k="addr:street" v="Oststraße "/>
    <tag k="amenity" v="doctors"/>
    <tag k="phone" v="034441/ 22120"/>
  </node>
  <node id="-3476" version="0" timestamp="Fri Feb 24 10:53:35 +0100 2012" uid="1" user="" lat="51.15557" lon="12.09818">
    <tag k="name" v="Facharzt für Innere Medizin "/>
    <tag k="wheelchair" v="yes"/>
    <tag k="addr:city" v="Hohenmölsen "/>
    <tag k="addr:postcode" v="06679"/>
    <tag k="addr:housenumber" v="4"/>
    <tag k="addr:street" v="Mauerstraße "/>
    <tag k="amenity" v="doctors"/>
    <tag k="phone" v="034441/ 33130"/>
  </node>
  <node id="-3477" version="0" timestamp="Fri Feb 24 10:53:35 +0100 2012" uid="1" user="" lat="51.15754" lon="12.09966">
    <tag k="name" v="Facharzt für Innere Medizin Dipl.-Med. Thomas Pillert "/>
    <tag k="wheelchair" v="yes"/>
    <tag k="addr:city" v="Hohenmölsen "/>
    <tag k="addr:postcode" v="06679"/>
    <tag k="addr:housenumber" v="9 "/>
    <tag k="addr:street" v="Bad Friedrichshaller Straße "/>
    <tag k="amenity" v="doctors"/>
    <tag k="phone" v="034441/ 4750"/>
  </node>
  <node id="-3478" version="0" timestamp="Fri Feb 24 10:53:35 +0100 2012" uid="1" user="" lat="51.15553" lon="12.10143">
    <tag k="name" v="Kinder- und Jugendärztin Dipl.-Med. Birgit Nitsch "/>
    <tag k="wheelchair" v="limited"/>
    <tag k="addr:city" v="Hohenmölsen "/>
    <tag k="addr:postcode" v="06679"/>
    <tag k="addr:housenumber" v="5 "/>
    <tag k="addr:street" v="Ernst-Thälmann-Straße "/>
    <tag k="amenity" v="doctors"/>
    <tag k="phone" v="034441/ 22195"/>
  </node>
  <node id="-3479" version="0" timestamp="Fri Feb 24 10:53:35 +0100 2012" uid="1" user="" lat="51.15557" lon="12.09818">
    <tag k="name" v="Zahnarztpraxis Dr.-Med.dent. M. Hellmuth "/>
    <tag k="wheelchair" v="limited"/>
    <tag k="addr:city" v="Hohenmölsen "/>
    <tag k="addr:postcode" v="06679"/>
    <tag k="addr:housenumber" v="5 "/>
    <tag k="addr:street" v="Mauerstraße "/>
    <tag k="amenity" v="doctors"/>
    <tag k="phone" v="034441/ 25906 "/>
  </node>
  <node id="-3481" version="0" timestamp="Fri Feb 24 10:53:35 +0100 2012" uid="1" user="" lat="51.16303" lon="12.09328">
    <tag k="name" v="Zahnarzt Dr.-Med. dent. Lutz Knauer "/>
    <tag k="wheelchair" v="yes"/>
    <tag k="addr:city" v="Hohenmölsen "/>
    <tag k="addr:postcode" v="06679"/>
    <tag k="addr:housenumber" v="8"/>
    <tag k="addr:street" v="Wilhelm-Külz-Straße "/>
    <tag k="amenity" v="doctors"/>
    <tag k="phone" v="034441/22218"/>
  </node>
  <node id="-3483" version="0" timestamp="Fri Feb 24 10:53:35 +0100 2012" uid="1" user="" lat="51.15557" lon="12.09818">
    <tag k="name" v="Zahnarzt Dr.-Med. dent. M. Hellmuth"/>
    <tag k="wheelchair" v="limited"/>
    <tag k="addr:city" v="Hohenmölsen "/>
    <tag k="addr:postcode" v="06679"/>
    <tag k="addr:housenumber" v="5"/>
    <tag k="addr:street" v="Mauerstraße "/>
    <tag k="amenity" v="doctors"/>
    <tag k="phone" v="034441/ 25906"/>
  </node>
  <node id="-3485" version="0" timestamp="Fri Feb 24 10:53:35 +0100 2012" uid="1" user="" lat="51.15899" lon="12.09794">
    <tag k="name" v="Gemeinschaftspraxis Dipl.-Med. dent. Marianne Oppel und Dipl.-Med. dent. Andreas Wenk "/>
    <tag k="wheelchair" v="no"/>
    <tag k="addr:city" v="Hohenmölsen "/>
    <tag k="addr:postcode" v="06679"/>
    <tag k="addr:housenumber" v="22"/>
    <tag k="addr:street" v="Clara-Zetkin-Straße "/>
    <tag k="amenity" v="doctors"/>
    <tag k="phone" v="034441/ 22408"/>
  </node>
  <node id="-3487" version="0" timestamp="Fri Feb 24 10:53:35 +0100 2012" uid="1" user="" lat="51.16757" lon="12.06641">
    <tag k="name" v="Zahnarztpraxis Dipl.-Med. dent. C. Siegmund "/>
    <tag k="wheelchair" v="no"/>
    <tag k="addr:city" v="Hohenmölsen OT Rössuln "/>
    <tag k="addr:postcode" v="06679"/>
    <tag k="addr:housenumber" v="5 "/>
    <tag k="addr:street" v="Am Werk "/>
    <tag k="amenity" v="doctors"/>
    <tag k="phone" v="034441/ 20190"/>
  </node>
  <node id="-3489" version="0" timestamp="Fri Feb 24 10:53:35 +0100 2012" uid="1" user="" lat="51.1584" lon="12.09633">
    <tag k="name" v="Zahnärztin Dipl.Stom. A. Stein "/>
    <tag k="wheelchair" v="no"/>
    <tag k="addr:city" v="Hohenmölsen "/>
    <tag k="addr:postcode" v="06679"/>
    <tag k="addr:housenumber" v="14 "/>
    <tag k="addr:street" v="August-Bebel-Straße "/>
    <tag k="amenity" v="doctors"/>
    <tag k="phone" v="034441/ 22066"/>
  </node>
  <node id="-3491" version="0" timestamp="Fri Feb 24 10:53:35 +0100 2012" uid="1" user="" lat="51.15557" lon="12.09818">
    <tag k="name" v="Dipl.-Psychologe,Psychotherapeut Dr. D. Sonntag "/>
    <tag k="wheelchair" v="no"/>
    <tag k="addr:city" v="Hohenmölsen "/>
    <tag k="addr:postcode" v="06679"/>
    <tag k="addr:housenumber" v="4"/>
    <tag k="addr:street" v="Mauerstraße"/>
    <tag k="amenity" v="doctors"/>
    <tag k="phone" v="034441/ 22408"/>
  </node>
  <node id="-3493" version="0" timestamp="Fri Feb 24 10:53:35 +0100 2012" uid="1" user="" lat="51.15768" lon="12.09855">
    <tag k="shop" v="shoes"/>
    <tag k="name" v="Orthopädieschuhtechnik "/>
    <tag k="wheelchair" v="yes"/>
    <tag k="addr:city" v="Hohenmölsen "/>
    <tag k="addr:postcode" v="06679"/>
    <tag k="addr:housenumber" v="17 "/>
    <tag k="addr:street" v="Badergasse "/>
    <tag k="phone" v="034441/ 39378"/>
  </node>
  <node id="-3497" version="0" timestamp="Fri Feb 24 10:53:35 +0100 2012" uid="1" user="" lat="51.15644" lon="12.09679">
    <tag k="name" v="Praxis für Physiotherapie "/>
    <tag k="wheelchair" v="yes"/>
    <tag k="addr:city" v="Hohenmölsen "/>
    <tag k="addr:postcode" v="06679"/>
    <tag k="addr:housenumber" v="6"/>
    <tag k="addr:street" v="Marienstraße "/>
    <tag k="leisure" v="sports_centre"/>
    <tag k="phone" v="034441/ 24256 "/>
  </node>
  <node id="-3500" version="0" timestamp="Fri Feb 24 10:53:35 +0100 2012" uid="1" user="" lat="51.15675" lon="12.10475">
    <tag k="name" v="Praxis für Physiotherapie "/>
    <tag k="wheelchair" v="yes"/>
    <tag k="addr:street" v="Goethe Straße 15 "/>
    <tag k="amenity" v="doctors"/>
  </node>
  <node id="-3501" version="0" timestamp="Fri Feb 24 10:53:35 +0100 2012" uid="1" user="" lat="51.15745" lon="12.0997">
    <tag k="name" v="Praxis für Physiotherapie Cornelia Ziegler "/>
    <tag k="wheelchair" v="no"/>
    <tag k="addr:city" v="Hohenmölsen "/>
    <tag k="addr:postcode" v="06679"/>
    <tag k="addr:housenumber" v="8 "/>
    <tag k="addr:street" v="Friedensstraße "/>
    <tag k="amenity" v="doctors"/>
    <tag k="phone" v="034441/ 22561 "/>
  </node>
  <node id="-3503" version="0" timestamp="Fri Feb 24 10:53:35 +0100 2012" uid="1" user="" lat="51.15679" lon="12.09776">
    <tag k="name" v="Podologische Praxis Marikka Bach "/>
    <tag k="wheelchair" v="yes"/>
    <tag k="addr:city" v="Hohenmölsen"/>
    <tag k="addr:postcode" v="06679"/>
    <tag k="addr:housenumber" v="13 "/>
    <tag k="addr:street" v="Markt "/>
    <tag k="amenity" v="doctors"/>
    <tag k="phone" v="034441/ 39449"/>
  </node>
  <node id="-3507" version="0" timestamp="Fri Feb 24 10:53:35 +0100 2012" uid="1" user="" lat="51.15902" lon="12.09605">
    <tag k="name" v="Naturheilpraktiker Jan Buschardt "/>
    <tag k="wheelchair" v="yes"/>
    <tag k="addr:city" v="Hohenmölsen "/>
    <tag k="addr:postcode" v="06679"/>
    <tag k="addr:housenumber" v="1"/>
    <tag k="addr:street" v="August-Bebel-Straße "/>
    <tag k="amenity" v="doctors"/>
    <tag k="phone" v="034441/ 24256"/>
  </node>
  <node id="-3508" version="0" timestamp="Fri Feb 24 10:53:35 +0100 2012" uid="1" user="" lat="51.15696" lon="12.098">
    <tag k="name" v="Therapiezentrum &quot;Am Holländer&quot; Außenstelle Hohenmölsen Logopädie,Ergotherapie "/>
    <tag k="wheelchair" v="yes"/>
    <tag k="addr:city" v="Hohenmölsen "/>
    <tag k="addr:postcode" v="06679"/>
    <tag k="addr:housenumber" v="12"/>
    <tag k="addr:street" v="Markt "/>
    <tag k="amenity" v="doctors"/>
    <tag k="phone" v="034441/ 50777"/>
  </node>
  <node id="-3509" version="0" timestamp="Fri Feb 24 10:53:35 +0100 2012" uid="1" user="" lat="51.15899" lon="12.09794">
    <tag k="name" v="Praxis für Ergotherapie Sylivia Knüpfer "/>
    <tag k="wheelchair" v="yes"/>
    <tag k="addr:city" v="Hohenmölsen "/>
    <tag k="addr:postcode" v="06679"/>
    <tag k="addr:housenumber" v="20 "/>
    <tag k="addr:street" v="Clara-Zetkin-Straße "/>
    <tag k="amenity" v="doctors"/>
    <tag k="phone" v="034441/ 50418"/>
  </node>
  <node id="-3510" version="0" timestamp="Fri Feb 24 10:53:35 +0100 2012" uid="1" user="" lat="51.15899" lon="12.09794">
    <tag k="name" v="AWO Pflegeheim "/>
    <tag k="wheelchair" v="yes"/>
    <tag k="addr:city" v="Hohenmölsen "/>
    <tag k="addr:postcode" v="06679"/>
    <tag k="addr:housenumber" v="20 "/>
    <tag k="addr:street" v="Clara-Zetkin-Straße "/>
    <tag k="phone" v="034441/ 445 30 "/>
  </node>
  <node id="-3511" version="0" timestamp="Fri Feb 24 10:53:35 +0100 2012" uid="1" user="" lat="51.15745" lon="12.0997">
    <tag k="name" v="Kranken- und Altenpflege "/>
    <tag k="wheelchair" v="unknown"/>
    <tag k="addr:city" v="Hohenmölsen OT Webau "/>
    <tag k="addr:postcode" v="06679"/>
    <tag k="addr:housenumber" v="9 "/>
    <tag k="addr:street" v="Friedensstraße "/>
    <tag k="phone" v="03441/ 2 52 58"/>
  </node>
  <node id="-3513" version="0" timestamp="Fri Feb 24 10:53:35 +0100 2012" uid="1" user="" lat="51.15899" lon="12.09794">
    <tag k="name" v="AWO Schwangerschaftsberatungsstelle Silvia Krämer "/>
    <tag k="wheelchair" v="yes"/>
    <tag k="addr:city" v="Hohenmölsen "/>
    <tag k="addr:postcode" v="06679"/>
    <tag k="addr:housenumber" v="20"/>
    <tag k="addr:street" v="Clara-Zetkin-Straße "/>
    <tag k="phone" v="034441/ 44535 "/>
  </node>
  <node id="-3514" version="0" timestamp="Fri Feb 24 10:53:35 +0100 2012" uid="1" user="" lat="51.16161" lon="12.09849">
    <tag k="name" v="DRK Haus der sozialen Dienste "/>
    <tag k="wheelchair" v="yes"/>
    <tag k="addr:city" v="Hohenmölsen "/>
    <tag k="addr:postcode" v="06679"/>
    <tag k="addr:housenumber" v="17 "/>
    <tag k="addr:street" v="Werkstraße "/>
    <tag k="phone" v="034441/ 48920 "/>
  </node>
  <node id="-3515" version="0" timestamp="Fri Feb 24 10:53:35 +0100 2012" uid="1" user="" lat="51.16096" lon="12.10122">
    <tag k="name" v="Hebammenpraxis &quot;Kugelrund&quot; "/>
    <tag k="wheelchair" v="no"/>
    <tag k="addr:city" v="Hohenmölsen "/>
    <tag k="addr:postcode" v="06679"/>
    <tag k="addr:housenumber" v="4 "/>
    <tag k="addr:street" v="Lindenstraße "/>
    <tag k="amenity" v="doctors"/>
    <tag k="phone" v="034441/ 50755 "/>
  </node>
  <node id="-3516" version="0" timestamp="Fri Feb 24 10:53:35 +0100 2012" uid="1" user="" lat="51.15635" lon="12.09753">
    <tag k="name" v="Facharzt für Frauenheilkunde und Geburtshilfe MU Dr. Med. Carsten Schumann "/>
    <tag k="wheelchair" v="yes"/>
    <tag k="addr:city" v="Hohenmölsen "/>
    <tag k="addr:postcode" v="06679"/>
    <tag k="addr:housenumber" v="4 "/>
    <tag k="addr:street" v="Altmarkt "/>
    <tag k="amenity" v="doctors"/>
    <tag k="phone" v="034441/ 22703"/>
  </node>
  <node id="-3517" version="0" timestamp="Fri Feb 24 10:53:35 +0100 2012" uid="1" user="" lat="51.15474" lon="12.1013">
    <tag k="name" v="Katholische Kirche "/>
    <tag k="wheelchair" v="yes"/>
    <tag k="addr:city" v="Hohenmölsen "/>
    <tag k="addr:postcode" v="06679"/>
    <tag k="addr:housenumber" v="22"/>
    <tag k="addr:street" v="Ernst-Thälmann-Straße "/>
    <tag k="amenity" v="place_of_worship"/>
    <tag k="phone" v="034441/ 22802 "/>
  </node>
  <node id="-3518" version="0" timestamp="Fri Feb 24 10:53:35 +0100 2012" uid="1" user="" lat="51.15533" lon="12.10163">
    <tag k="name" v="Gemeindehaus &quot;Sankt Ägidius&quot; "/>
    <tag k="wheelchair" v="no"/>
    <tag k="addr:city" v="Hohenmölsen "/>
    <tag k="addr:postcode" v="06679"/>
    <tag k="addr:housenumber" v="22a "/>
    <tag k="addr:street" v="Ernst-Thälmann-Straße "/>
    <tag k="amenity" v="place_of_worship"/>
    <tag k="phone" v="034441/ 22802 "/>
  </node>
  <node id="-3519" version="0" timestamp="Fri Feb 24 10:53:35 +0100 2012" uid="1" user="" lat="51.15745" lon="12.0997">
    <tag k="name" v="ANTEA Bestattungen Gerhardt GmbH "/>
    <tag k="wheelchair" v="no"/>
    <tag k="addr:city" v="Hohenmölsen "/>
    <tag k="addr:postcode" v="06679"/>
    <tag k="addr:housenumber" v="9 "/>
    <tag k="addr:street" v="Friedensstraße "/>
    <tag k="phone" v="034441/ 41009 "/>
  </node>
  <node id="-3520" version="0" timestamp="Fri Feb 24 10:53:35 +0100 2012" uid="1" user="" lat="51.15696" lon="12.098">
    <tag k="name" v="Comitari Bestattungen Ilona Müller GmbH "/>
    <tag k="wheelchair" v="limited"/>
    <tag k="addr:city" v="Hohenmölsen "/>
    <tag k="addr:postcode" v="06679"/>
    <tag k="addr:housenumber" v="8 "/>
    <tag k="addr:street" v="Markt "/>
    <tag k="phone" v="034441/ 34840"/>
  </node>
  <node id="-3521" version="0" timestamp="Fri Feb 24 10:53:35 +0100 2012" uid="1" user="" lat="51.15609" lon="12.09533">
    <tag k="name" v="T&amp;F Bestattungen Tamara Pinter "/>
    <tag k="wheelchair" v="yes"/>
    <tag k="addr:city" v="Hohenmölsen "/>
    <tag k="addr:postcode" v="06679"/>
    <tag k="addr:housenumber" v="4 "/>
    <tag k="addr:street" v="Franz-Spiller-Platz "/>
    <tag k="phone" v="034441/ 22360"/>
  </node>
  <node id="-3523" version="0" timestamp="Fri Feb 24 10:53:35 +0100 2012" uid="1" user="" lat="51.15696" lon="12.098">
    <tag k="name" v="Reisebüro am Markt "/>
    <tag k="wheelchair" v="no"/>
    <tag k="addr:city" v="Hohenmölsen "/>
    <tag k="addr:postcode" v="06679"/>
    <tag k="addr:housenumber" v="5"/>
    <tag k="addr:street" v="Markt "/>
    <tag k="phone" v="034441/ 4760"/>
  </node>
  <node id="-3525" version="0" timestamp="Fri Feb 24 10:53:35 +0100 2012" uid="1" user="" lat="51.16303" lon="12.09328">
    <tag k="name" v="Wellness - Passage - Fitness-Center Iris Fulczynski"/>
    <tag k="wheelchair" v="yes"/>
    <tag k="addr:city" v="Hohenmölsen "/>
    <tag k="addr:postcode" v="06679"/>
    <tag k="addr:housenumber" v="8 "/>
    <tag k="addr:street" v="Wilhelm-Külz-Straße "/>
    <tag k="leisure" v="sports_centre"/>
    <tag k="phone" v="034441/ 20855 "/>
  </node>
  <node id="-3526" version="0" timestamp="Fri Feb 24 10:53:35 +0100 2012" uid="1" user="" lat="51.1531" lon="12.09982">
    <tag k="name" v="Bürgerhaus "/>
    <tag k="wheelchair" v="yes"/>
    <tag k="addr:city" v="Hohenmölsen "/>
    <tag k="addr:postcode" v="06679"/>
    <tag k="addr:housenumber" v="2"/>
    <tag k="addr:street" v="Dr. - Walter - Friedrich - Straße "/>
    <tag k="phone" v="034441/ 42250 "/>
  </node>
  <node id="-3527" version="0" timestamp="Fri Feb 24 10:53:35 +0100 2012" uid="1" user="" lat="51.15553" lon="12.10143">
    <tag k="name" v="&quot;Am Wasserturm&quot; "/>
    <tag k="wheelchair" v="no"/>
    <tag k="addr:city" v="Hohenmölsen "/>
    <tag k="addr:postcode" v="06679"/>
    <tag k="addr:housenumber" v="19"/>
    <tag k="tourism" v="attraction"/>
    <tag k="addr:street" v="Ernst-Thälmann-Straße "/>
    <tag k="phone" v="034441/ 50838"/>
  </node>
  <node id="-3528" version="0" timestamp="Fri Feb 24 10:53:35 +0100 2012" uid="1" user="" lat="51.13613" lon="12.12951">
    <tag k="name" v="Freizeitpark Pirkau &quot;Der Mondsee&quot; "/>
    <tag k="wheelchair" v="unknown"/>
    <tag k="addr:city" v="Hohenmölsen "/>
    <tag k="addr:postcode" v="06679"/>
    <tag k="tourism" v="theme_park"/>
    <tag k="phone" v="034441/ 20388 "/>
  </node>
  <node id="-3529" version="0" timestamp="Fri Feb 24 10:53:35 +0100 2012" uid="1" user="" lat="51.15424" lon="12.08899">
    <tag k="name" v="Gaststätte &quot;Am Bahnhof&quot; "/>
    <tag k="wheelchair" v="yes"/>
    <tag k="addr:city" v="Hohenmölsen "/>
    <tag k="addr:postcode" v="06679"/>
    <tag k="addr:housenumber" v="20 "/>
    <tag k="addr:street" v="Naumburger Straße "/>
    <tag k="amenity" v="restaurant"/>
    <tag k="phone" v="034441/ 22792 "/>
  </node>
  <node id="-3531" version="0" timestamp="Fri Feb 24 10:53:35 +0100 2012" uid="1" user="" lat="51.14704" lon="12.11045">
    <tag k="name" v="Gasthof Jaucha mit Pension "/>
    <tag k="wheelchair" v="limited"/>
    <tag k="addr:city" v="Hohenmölsen/Jaucha "/>
    <tag k="addr:postcode" v="06679"/>
    <tag k="addr:housenumber" v="2"/>
    <tag k="tourism" v="guest_house"/>
    <tag k="addr:street" v="Pirkauer Straße "/>
    <tag k="phone" v="034441/ 22720 "/>
  </node>
  <node id="-3533" version="0" timestamp="Fri Feb 24 10:53:35 +0100 2012" uid="1" user="" lat="51.15676" lon="12.09798">
    <tag k="name" v="Gaststätte &quot;Ratskeller&quot; "/>
    <tag k="wheelchair" v="limited"/>
    <tag k="addr:city" v="Hohenmölsen "/>
    <tag k="addr:postcode" v="06679"/>
    <tag k="addr:housenumber" v="1 "/>
    <tag k="addr:street" v="Markt "/>
    <tag k="amenity" v="restaurant"/>
    <tag k="phone" v="034441/ 22342"/>
  </node>
  <node id="-3535" version="0" timestamp="Fri Feb 24 10:53:35 +0100 2012" uid="1" user="" lat="51.15632" lon="12.09481">
    <tag k="name" v="Volkshaus "/>
    <tag k="wheelchair" v="yes"/>
    <tag k="addr:city" v="Hohenmölsen "/>
    <tag k="addr:postcode" v="06679"/>
    <tag k="addr:housenumber" v="5 "/>
    <tag k="addr:street" v="Franz-Spiller-Platz "/>
    <tag k="phone" v="034441/ 22516"/>
  </node>
  <node id="-3536" version="0" timestamp="Fri Feb 24 10:53:35 +0100 2012" uid="1" user="" lat="51.16351" lon="12.09786">
    <tag k="shop" v="supermarket"/>
    <tag k="name" v="Aldi-Nord "/>
    <tag k="wheelchair" v="limited"/>
    <tag k="addr:city" v="Hohenmölsen "/>
    <tag k="addr:postcode" v="06679"/>
    <tag k="addr:housenumber" v="16 "/>
    <tag k="addr:street" v="Lützener Straße "/>
  </node>
  <node id="-3537" version="0" timestamp="Fri Feb 24 10:53:35 +0100 2012" uid="1" user="" lat="51.15675" lon="12.10475">
    <tag k="shop" v="bakery"/>
    <tag k="name" v="Bäckerei Barthold "/>
    <tag k="wheelchair" v="limited"/>
    <tag k="addr:city" v="Hohenmölsen "/>
    <tag k="addr:postcode" v="06679"/>
    <tag k="addr:housenumber" v="13 "/>
    <tag k="addr:street" v="Goethestraße "/>
    <tag k="phone" v="034441/ 50801"/>
  </node>
  <node id="-3538" version="0" timestamp="Fri Feb 24 10:53:35 +0100 2012" uid="1" user="" lat="51.15702" lon="12.09906">
    <tag k="shop" v="bakery"/>
    <tag k="name" v="Backstube Siebrecht "/>
    <tag k="wheelchair" v="limited"/>
    <tag k="addr:city" v="Hohenmölsen "/>
    <tag k="addr:postcode" v="06679"/>
    <tag k="addr:housenumber" v="6"/>
    <tag k="addr:street" v="Bad Friedrichshaller Straße "/>
    <tag k="phone" v="034441/ 22042 "/>
  </node>
  <node id="-3540" version="0" timestamp="Fri Feb 24 10:53:35 +0100 2012" uid="1" user="" lat="51.15902" lon="12.09605">
    <tag k="shop" v="bakery"/>
    <tag k="name" v="Bäckerei Werner "/>
    <tag k="wheelchair" v="limited"/>
    <tag k="addr:city" v="Hohenmölsen "/>
    <tag k="addr:postcode" v="06679 "/>
    <tag k="addr:housenumber" v="25 "/>
    <tag k="addr:street" v="August-Bebel-Straße "/>
    <tag k="phone" v="034441/ 22061"/>
  </node>
  <node id="-3541" version="0" timestamp="Fri Feb 24 10:53:35 +0100 2012" uid="1" user="" lat="51.15557" lon="12.09818">
    <tag k="shop" v="florist"/>
    <tag k="name" v="Blumenhaus am Südhang "/>
    <tag k="wheelchair" v="limited"/>
    <tag k="addr:city" v="Hohenmölsen "/>
    <tag k="addr:postcode" v="06679"/>
    <tag k="addr:housenumber" v="5a "/>
    <tag k="addr:street" v="Mauerstraße "/>
    <tag k="phone" v="034441/ 41803"/>
  </node>
  <node id="-3545" version="0" timestamp="Fri Feb 24 10:53:35 +0100 2012" uid="1" user="" lat="51.15745" lon="12.0997">
    <tag k="shop" v="department_store"/>
    <tag k="name" v="Drogerie H. Augustin"/>
    <tag k="wheelchair" v="limited"/>
    <tag k="addr:city" v="Hohenmölsen "/>
    <tag k="addr:postcode" v="06679"/>
    <tag k="addr:housenumber" v="2-3 "/>
    <tag k="addr:street" v="Friedensstraße "/>
    <tag k="phone" v="034441/ 33093"/>
  </node>
  <node id="-3546" version="0" timestamp="Fri Feb 24 10:53:35 +0100 2012" uid="1" user="" lat="51.15579" lon="12.10489">
    <tag k="shop" v="department_store"/>
    <tag k="name" v="Geschenke,Holz,Korb,Glas und Keramik"/>
    <tag k="wheelchair" v="limited"/>
    <tag k="addr:city" v="Hohenmölsen "/>
    <tag k="addr:postcode" v="06679"/>
    <tag k="addr:housenumber" v="1 "/>
    <tag k="addr:street" v="Goethestraße "/>
    <tag k="phone" v="034441/ 21405"/>
  </node>
  <node id="-3547" version="0" timestamp="Fri Feb 24 10:53:35 +0100 2012" uid="1" user="" lat="51.16303" lon="12.09328">
    <tag k="shop" v="department_store"/>
    <tag k="name" v="Schreibwaren Truxa "/>
    <tag k="wheelchair" v="yes"/>
    <tag k="addr:city" v="Hohenmölsen "/>
    <tag k="addr:postcode" v="06679"/>
    <tag k="addr:housenumber" v="8 "/>
    <tag k="addr:street" v="Wilhelm-Külz-Straße "/>
    <tag k="phone" v="034441/ 994531"/>
  </node>
  <node id="-3548" version="0" timestamp="Fri Feb 24 10:53:35 +0100 2012" uid="1" user="" lat="51.15768" lon="12.09855">
    <tag k="shop" v="department_store"/>
    <tag k="name" v="Bestell-Shop Petra Lisker und Ute Kalisch "/>
    <tag k="wheelchair" v="limited"/>
    <tag k="addr:city" v="Hohenmölsen "/>
    <tag k="addr:postcode" v="06679"/>
    <tag k="addr:housenumber" v="6 "/>
    <tag k="addr:street" v="Badergasse "/>
    <tag k="phone" v="034441/ 22932"/>
  </node>
  <node id="-3549" version="0" timestamp="Fri Feb 24 10:53:35 +0100 2012" uid="1" user="" lat="51.15702" lon="12.09906">
    <tag k="shop" v="shoes"/>
    <tag k="name" v="Schuhmode Karin Baumer "/>
    <tag k="wheelchair" v="limited"/>
    <tag k="addr:city" v="Hohenmölsen "/>
    <tag k="addr:postcode" v="06679"/>
    <tag k="addr:housenumber" v="3"/>
    <tag k="addr:street" v="Bad Friedrichshaller Straße "/>
    <tag k="phone" v="034441/ 24387"/>
  </node>
  <node id="-3550" version="0" timestamp="Fri Feb 24 10:53:35 +0100 2012" uid="1" user="" lat="51.15696" lon="12.098">
    <tag k="shop" v="department_store"/>
    <tag k="name" v="Foto-Uhren-Schmuck "/>
    <tag k="wheelchair" v="limited"/>
    <tag k="addr:city" v="Hohenmölsen "/>
    <tag k="addr:postcode" v="06679"/>
    <tag k="addr:housenumber" v="7 "/>
    <tag k="addr:street" v="Markt "/>
    <tag k="phone" v="034441/ 22892"/>
  </node>
  <node id="-3551" version="0" timestamp="Fri Feb 24 10:53:35 +0100 2012" uid="1" user="" lat="51.15696" lon="12.098">
    <tag k="shop" v="books"/>
    <tag k="name" v="Weltladen und Bücherstube "/>
    <tag k="wheelchair" v="limited"/>
    <tag k="addr:city" v="Hohenmölsen "/>
    <tag k="addr:postcode" v="06679"/>
    <tag k="addr:housenumber" v="10 "/>
    <tag k="addr:street" v="Markt "/>
    <tag k="phone" v="034441/ 449422"/>
  </node>
  <node id="-3552" version="0" timestamp="Fri Feb 24 10:53:35 +0100 2012" uid="1" user="" lat="51.15745" lon="12.0997">
    <tag k="shop" v="clothes"/>
    <tag k="name" v="Kids Corner Kinderbegleitung "/>
    <tag k="wheelchair" v="no"/>
    <tag k="addr:city" v="Hohenmölsen "/>
    <tag k="addr:postcode" v="06679"/>
    <tag k="addr:housenumber" v="39 "/>
    <tag k="addr:street" v="Friedensstraße "/>
    <tag k="phone" v="034441/ 50817 "/>
  </node>
  <node id="-3554" version="0" timestamp="Fri Feb 24 10:53:35 +0100 2012" uid="1" user="" lat="51.15696" lon="12.098">
    <tag k="shop" v="hairdresser"/>
    <tag k="name" v="Friseur &quot;Babier B&quot; "/>
    <tag k="wheelchair" v="unknown"/>
    <tag k="addr:city" v="Hohenmölsen "/>
    <tag k="addr:postcode" v="06679"/>
    <tag k="addr:housenumber" v="13 "/>
    <tag k="addr:street" v="Markt "/>
    <tag k="phone" v="034441/ 20228"/>
  </node>
  <node id="-3555" version="0" timestamp="Fri Feb 24 10:53:35 +0100 2012" uid="1" user="" lat="51.15608" lon="12.09666">
    <tag k="shop" v="hairdresser"/>
    <tag k="name" v="Hair-Look GmbH "/>
    <tag k="wheelchair" v="limited"/>
    <tag k="addr:city" v="Hohenmölsen "/>
    <tag k="addr:postcode" v="06679"/>
    <tag k="addr:housenumber" v="3 "/>
    <tag k="addr:street" v="Herrenstraße "/>
    <tag k="phone" v="034441/ 22390"/>
  </node>
  <node id="-3556" version="0" timestamp="Fri Feb 24 10:53:35 +0100 2012" uid="1" user="" lat="51.16303" lon="12.09328">
    <tag k="shop" v="hairdresser"/>
    <tag k="name" v="Hair-Look GmbH "/>
    <tag k="wheelchair" v="limited"/>
    <tag k="addr:city" v="Hohenmölsen "/>
    <tag k="addr:postcode" v="06679"/>
    <tag k="addr:housenumber" v="5 "/>
    <tag k="addr:street" v="Wilhelm-Külz-Straße "/>
    <tag k="phone" v="034441/ 22109"/>
  </node>
  <node id="-3557" version="0" timestamp="Fri Feb 24 10:53:35 +0100 2012" uid="1" user="" lat="51.15557" lon="12.09818">
    <tag k="shop" v="hairdresser"/>
    <tag k="name" v="Friseuren-Boutique "/>
    <tag k="wheelchair" v="no"/>
    <tag k="addr:city" v="Hohenmölsen "/>
    <tag k="addr:postcode" v="06679"/>
    <tag k="addr:housenumber" v="5 "/>
    <tag k="addr:street" v="Mauerstraße "/>
    <tag k="phone" v="034441/ 21823 "/>
  </node>
  <node id="-3558" version="0" timestamp="Fri Feb 24 10:53:35 +0100 2012" uid="1" user="" lat="51.17642" lon="12.0618">
    <tag k="shop" v="hairdresser"/>
    <tag k="name" v="Friseuren-Boutique "/>
    <tag k="wheelchair" v="limited"/>
    <tag k="addr:city" v="Hohenmölsen "/>
    <tag k="addr:postcode" v="06679"/>
    <tag k="addr:housenumber" v="3"/>
    <tag k="addr:street" v="Weißenfelser Straße "/>
    <tag k="phone" v="034441/ 24714"/>
  </node>
  <node id="-3559" version="0" timestamp="Fri Feb 24 10:53:35 +0100 2012" uid="1" user="" lat="51.15745" lon="12.0997">
    <tag k="shop" v="department_store"/>
    <tag k="name" v="Innovative Kosmetik "/>
    <tag k="wheelchair" v="limited"/>
    <tag k="addr:city" v="Hohenmölsen "/>
    <tag k="addr:postcode" v="06679"/>
    <tag k="addr:housenumber" v="38 "/>
    <tag k="addr:street" v="Friedensstraße "/>
    <tag k="phone" v="034441/ 21898"/>
  </node>
  <node id="-3560" version="0" timestamp="Fri Feb 24 10:53:35 +0100 2012" uid="1" user="" lat="51.15745" lon="12.0997">
    <tag k="shop" v="department_store"/>
    <tag k="name" v="Ramonas Kosmetikstudio "/>
    <tag k="wheelchair" v="limited"/>
    <tag k="addr:city" v="Hohenmölsen "/>
    <tag k="addr:postcode" v="06679"/>
    <tag k="addr:housenumber" v="18 "/>
    <tag k="addr:street" v="Friedensstraße "/>
    <tag k="phone" v="034441/ 21881"/>
  </node>
  <node id="-3561" version="0" timestamp="Fri Feb 24 10:53:35 +0100 2012" uid="1" user="" lat="51.16096" lon="12.10122">
    <tag k="shop" v="department_store"/>
    <tag k="name" v="Kosmetik-und Fußpflegesalon Nagelstudio und Solarium "/>
    <tag k="wheelchair" v="no"/>
    <tag k="addr:city" v="Hohenmölsen "/>
    <tag k="addr:postcode" v="06679"/>
    <tag k="addr:housenumber" v="3"/>
    <tag k="addr:street" v="Lindenstraße "/>
    <tag k="phone" v="034441/ 99638"/>
  </node>
  <node id="-3564" version="0" timestamp="Fri Feb 24 10:53:35 +0100 2012" uid="1" user="" lat="51.15702" lon="12.09906">
    <tag k="shop" v="mall"/>
    <tag k="name" v="Optiker Krüger "/>
    <tag k="wheelchair" v="no"/>
    <tag k="addr:city" v="Hohenmölsen "/>
    <tag k="addr:postcode" v="06679"/>
    <tag k="addr:housenumber" v="3 "/>
    <tag k="addr:street" v="Bad Friedrichshaller Straße "/>
    <tag k="phone" v="034441/ 24123"/>
  </node>
  <node id="-3569" version="0" timestamp="Fri Feb 24 10:53:35 +0100 2012" uid="1" user="" lat="51.15745" lon="12.0997">
    <tag k="shop" v="optician"/>
    <tag k="name" v="Hörakustik Klotz "/>
    <tag k="wheelchair" v="limited"/>
    <tag k="addr:city" v="Hohenmölsen "/>
    <tag k="addr:postcode" v="06679"/>
    <tag k="addr:housenumber" v="31b "/>
    <tag k="addr:street" v="Friedensstraße "/>
    <tag k="phone" v="034441/ 20797"/>
  </node>
  <node id="-3570" version="0" timestamp="Fri Feb 24 10:53:35 +0100 2012" uid="1" user="" lat="51.15902" lon="12.09605">
    <tag k="shop" v="laundry"/>
    <tag k="name" v="Das Nähstübchen "/>
    <tag k="wheelchair" v="limited"/>
    <tag k="addr:city" v="Hohenmölsen "/>
    <tag k="addr:postcode" v="06679"/>
    <tag k="addr:housenumber" v="3a "/>
    <tag k="addr:street" v="August-Bebel-Straße "/>
    <tag k="phone" v="034441/ 39366"/>
  </node>
  <node id="-3571" version="0" timestamp="Fri Feb 24 10:53:35 +0100 2012" uid="1" user="" lat="51.15608" lon="12.09666">
    <tag k="shop" v="hairdresser"/>
    <tag k="name" v="Fahrrad Brückner Schlüsseldienst "/>
    <tag k="wheelchair" v="limited"/>
    <tag k="addr:city" v="Hohenmölsen "/>
    <tag k="addr:postcode" v="06679"/>
    <tag k="addr:housenumber" v="2 "/>
    <tag k="addr:street" v="Herrenstraße "/>
    <tag k="phone" v="034441/ 22605 "/>
  </node>
  <node id="-3572" version="0" timestamp="Fri Feb 24 10:53:35 +0100 2012" uid="1" user="" lat="51.15553" lon="12.10143">
    <tag k="shop" v="doityourself"/>
    <tag k="name" v="Der Teppichprofi "/>
    <tag k="wheelchair" v="limited"/>
    <tag k="addr:city" v="Hohenmölsen "/>
    <tag k="addr:postcode" v="06679"/>
    <tag k="addr:housenumber" v="26 "/>
    <tag k="addr:street" v="Ernst-Thälmann-Straße "/>
    <tag k="phone" v="034441/ 20011"/>
  </node>
  <node id="-3573" version="0" timestamp="Fri Feb 24 10:53:35 +0100 2012" uid="1" user="" lat="51.15235" lon="12.09179">
    <tag k="name" v="Autoservice Bernt GmbH "/>
    <tag k="wheelchair" v="limited"/>
    <tag k="addr:city" v="Hohenmölsen "/>
    <tag k="addr:postcode" v="06679"/>
    <tag k="addr:housenumber" v="2 "/>
    <tag k="addr:street" v="An der Aue "/>
    <tag k="amenity" v="car_rental"/>
    <tag k="phone" v="034441/ 2770"/>
  </node>
  <node id="-3574" version="0" timestamp="Fri Feb 24 10:53:35 +0100 2012" uid="1" user="" lat="51.15204" lon="12.12021">
    <tag k="name" v="Autohaus Reinhardt "/>
    <tag k="wheelchair" v="limited"/>
    <tag k="addr:city" v="Hohenmölsen "/>
    <tag k="addr:postcode" v="06679"/>
    <tag k="addr:housenumber" v="2 "/>
    <tag k="addr:street" v="Im Gewerbegebiet "/>
    <tag k="amenity" v="car_rental"/>
    <tag k="phone" v="034441/ 25718 "/>
  </node>
  <node id="-3575" version="0" timestamp="Fri Feb 24 10:53:35 +0100 2012" uid="1" user="" lat="51.14975" lon="12.12056">
    <tag k="name" v="Rübner Automobile GmbH "/>
    <tag k="wheelchair" v="limited"/>
    <tag k="addr:city" v="Hohenmölsen "/>
    <tag k="addr:postcode" v="06679"/>
    <tag k="addr:housenumber" v="3 "/>
    <tag k="addr:street" v="Dobergaster Straße "/>
    <tag k="amenity" v="car_rental"/>
    <tag k="phone" v="034441/ 3349899"/>
  </node>
  <node id="-3576" version="0" timestamp="Fri Feb 24 10:53:35 +0100 2012" uid="1" user="" lat="51.16595" lon="12.09977">
    <tag k="name" v="Menü-Service "/>
    <tag k="wheelchair" v="unknown"/>
    <tag k="addr:city" v="Hohenmölsen "/>
    <tag k="addr:postcode" v="06679"/>
    <tag k="addr:housenumber" v="3 "/>
    <tag k="addr:street" v="Sankt-Barbara-Straße "/>
    <tag k="amenity" v="restaurant"/>
    <tag k="phone" v="034441/ 29292"/>
  </node>
  <node id="-3577" version="0" timestamp="Fri Feb 24 10:53:35 +0100 2012" uid="1" user="" lat="51.15745" lon="12.0997">
    <tag k="name" v="Taxibetrieb Petra Knapp "/>
    <tag k="wheelchair" v="unknown"/>
    <tag k="addr:city" v="Hohenmölsen "/>
    <tag k="addr:postcode" v="06679"/>
    <tag k="addr:housenumber" v="14 "/>
    <tag k="addr:street" v="Friedensstraße "/>
    <tag k="amenity" v="car_sharing"/>
    <tag k="phone" v="034441/ 22946 "/>
  </node>
  <node id="-3578" version="0" timestamp="Fri Feb 24 10:53:35 +0100 2012" uid="1" user="" lat="51.15436" lon="12.11024">
    <tag k="name" v="Taxi- und Mietwagenbetrieb Joachim Sieler "/>
    <tag k="wheelchair" v="unknown"/>
    <tag k="addr:city" v="Hohenmölsen "/>
    <tag k="addr:postcode" v="06679"/>
    <tag k="addr:housenumber" v="33"/>
    <tag k="addr:street" v="Wilhelm-Pieck-Straße "/>
    <tag k="amenity" v="car_sharing"/>
    <tag k="phone" v="034441/ 33000"/>
  </node>
  <node id="-3579" version="0" timestamp="Fri Feb 24 10:53:35 +0100 2012" uid="1" user="" lat="51.15676" lon="12.09798">
    <tag k="name" v="Behindertentoilette "/>
    <tag k="wheelchair" v="yes"/>
    <tag k="addr:city" v="Hohenmölsen "/>
    <tag k="addr:postcode" v="06679"/>
    <tag k="addr:housenumber" v="1 "/>
    <tag k="addr:street" v="Markt "/>
    <tag k="amenity" v="toilets"/>
  </node>
  <node id="-3580" version="0" timestamp="Fri Feb 24 10:53:35 +0100 2012" uid="1" user="" lat="51.25687" lon="12.14175">
    <tag k="name" v="Rathaus "/>
    <tag k="wheelchair" v="unknown"/>
    <tag k="addr:city" v="Lützen "/>
    <tag k="addr:postcode" v="06686 "/>
    <tag k="addr:housenumber" v="1 "/>
    <tag k="addr:street" v="Markt "/>
    <tag k="phone" v="034444/ 315"/>
  </node>
  <node id="-3581" version="0" timestamp="Fri Feb 24 10:53:35 +0100 2012" uid="1" user="" lat="51.21819" lon="12.06661">
    <tag k="name" v="Dr. Med. Brigitte Thieme, Prakt. Ärztin "/>
    <tag k="wheelchair" v="no"/>
    <tag k="addr:city" v="Lützen "/>
    <tag k="addr:postcode" v="06686"/>
    <tag k="addr:housenumber" v="2a "/>
    <tag k="addr:street" v="Am Bahnhof "/>
    <tag k="amenity" v="doctors"/>
    <tag k="phone" v="034444/ 20262"/>
  </node>
  <node id="-3582" version="0" timestamp="Fri Feb 24 10:53:35 +0100 2012" uid="1" user="" lat="51.26391" lon="12.14771">
    <tag k="name" v="Dipl.-Stom. Udo Weber "/>
    <tag k="wheelchair" v="limited"/>
    <tag k="addr:city" v="Lützen "/>
    <tag k="addr:postcode" v="06686 "/>
    <tag k="addr:housenumber" v="1b"/>
    <tag k="addr:street" v="Gustav-Adolf-Straße "/>
    <tag k="amenity" v="doctors"/>
    <tag k="phone" v="034444/ 20365"/>
  </node>
  <node id="-3583" version="0" timestamp="Fri Feb 24 10:53:35 +0100 2012" uid="1" user="" lat="51.26304" lon="12.14802">
    <tag k="name" v="Physiotherapie Viola Hase "/>
    <tag k="wheelchair" v="limited"/>
    <tag k="addr:city" v="Lützen "/>
    <tag k="addr:postcode" v="06686"/>
    <tag k="addr:housenumber" v="1 "/>
    <tag k="addr:street" v="Gustav-Adolf-Straße "/>
    <tag k="amenity" v="doctors"/>
    <tag k="phone" v="034444/ 20241"/>
  </node>
  <node id="-3585" version="0" timestamp="Fri Feb 24 10:53:35 +0100 2012" uid="1" user="" lat="51.24774" lon="12.17655">
    <tag k="name" v="Dorfmuseum Großgörschen "/>
    <tag k="wheelchair" v="unknown"/>
    <tag k="addr:city" v="Großgörschen "/>
    <tag k="addr:postcode" v="06686"/>
    <tag k="addr:housenumber" v="13"/>
    <tag k="tourism" v="attraction"/>
    <tag k="addr:street" v="Thomas-Müntzer-Straße "/>
    <tag k="phone" v="034444/ 20249 "/>
  </node>
  <node id="-3586" version="0" timestamp="Fri Feb 24 10:53:35 +0100 2012" uid="1" user="" lat="51.25625" lon="12.14507">
    <tag k="name" v="Friedrich-Nietzsche-Gedenkstätte Röcken "/>
    <tag k="wheelchair" v="limited"/>
    <tag k="addr:city" v="Röcken "/>
    <tag k="addr:postcode" v="06686"/>
    <tag k="addr:housenumber" v="8 "/>
    <tag k="addr:street" v="Teichstraße "/>
    <tag k="phone" v="034444/ 23540"/>
    <tag k="historic" v="memorial"/>
  </node>
  <node id="-3587" version="0" timestamp="Fri Feb 24 10:53:35 +0100 2012" uid="1" user="" lat="51.25625" lon="12.14507">
    <tag k="name" v="Pfarramt Röcken "/>
    <tag k="wheelchair" v="no"/>
    <tag k="addr:city" v="Lützen OT Röcken "/>
    <tag k="addr:postcode" v="06686"/>
    <tag k="addr:housenumber" v="8 "/>
    <tag k="addr:street" v="Teichstraße "/>
    <tag k="amenity" v="place_of_worship"/>
    <tag k="phone" v="034444/ 23540"/>
  </node>
  <node id="-3588" version="0" timestamp="Fri Feb 24 10:53:35 +0100 2012" uid="1" user="" lat="51.2584" lon="12.14215">
    <tag k="name" v="Pension &quot;Am Rathaus&quot; "/>
    <tag k="wheelchair" v="no"/>
    <tag k="addr:city" v="Lützen "/>
    <tag k="addr:postcode" v="06686"/>
    <tag k="addr:housenumber" v="25 "/>
    <tag k="tourism" v="guest_house"/>
    <tag k="addr:street" v="Ernst-Thälmann-Straße "/>
    <tag k="phone" v="034444/ 3060 "/>
  </node>
  <node id="-3589" version="0" timestamp="Fri Feb 24 10:53:35 +0100 2012" uid="1" user="" lat="51.21164" lon="12.08328">
    <tag k="name" v="Gaststätte &quot;Zum Amboß&quot; "/>
    <tag k="wheelchair" v="limited"/>
    <tag k="addr:city" v="Lützen OT Poserna "/>
    <tag k="addr:postcode" v="06686"/>
    <tag k="addr:housenumber" v="2"/>
    <tag k="addr:street" v="Tauchaer Straße"/>
    <tag k="amenity" v="restaurant"/>
    <tag k="phone" v="03443/ 279921"/>
  </node>
  <node id="-3590" version="0" timestamp="Fri Feb 24 10:53:35 +0100 2012" uid="1" user="" lat="51.22068" lon="12.09475">
    <tag k="name" v="Gaststätte &quot;Zum Bauernhof Rippachtal&quot; "/>
    <tag k="wheelchair" v="limited"/>
    <tag k="addr:city" v="Lützen OT Kleingöhren "/>
    <tag k="addr:postcode" v="06686 "/>
    <tag k="addr:housenumber" v="32 "/>
    <tag k="addr:street" v="Großgörschener Straße "/>
    <tag k="amenity" v="restaurant"/>
    <tag k="phone" v="03443/ 800710"/>
  </node>
  <node id="-3591" version="0" timestamp="Fri Feb 24 10:53:35 +0100 2012" uid="1" user="" lat="51.25503" lon="12.14162">
    <tag k="shop" v="supermarket"/>
    <tag k="name" v="Netto Marken Discount "/>
    <tag k="wheelchair" v="limited"/>
    <tag k="addr:city" v="Lützen "/>
    <tag k="addr:postcode" v="06686"/>
    <tag k="addr:housenumber" v="21 "/>
    <tag k="addr:street" v="Starsiedeler Straße "/>
    <tag k="phone" v="034444/ 41247"/>
  </node>
  <node id="-3592" version="0" timestamp="Fri Feb 24 10:53:35 +0100 2012" uid="1" user="" lat="51.19419" lon="12.08283">
    <tag k="shop" v="bakery"/>
    <tag k="name" v="Bäckerei Barthold "/>
    <tag k="wheelchair" v="unknown"/>
    <tag k="addr:city" v="Taucha "/>
    <tag k="addr:postcode" v="06679"/>
    <tag k="addr:housenumber" v="3 "/>
    <tag k="addr:street" v="Lange Straße "/>
    <tag k="phone" v="034441/ 92560"/>
  </node>
  <node id="-3593" version="0" timestamp="Fri Feb 24 10:53:35 +0100 2012" uid="1" user="" lat="51.11952" lon="12.02151">
    <tag k="name" v="Kreissparkasse Burgenlandkreis "/>
    <tag k="wheelchair" v="limited"/>
    <tag k="addr:city" v="Teuchern "/>
    <tag k="addr:postcode" v="06682"/>
    <tag k="addr:housenumber" v="14 "/>
    <tag k="addr:street" v="Markt "/>
    <tag k="amenity" v="bank"/>
    <tag k="phone" v="034443/ 6220 "/>
  </node>
  <node id="-3594" version="0" timestamp="Fri Feb 24 10:53:35 +0100 2012" uid="1" user="" lat="51.11912" lon="12.02187">
    <tag k="name" v="Volks- und Raiffeisenbank Saale-Unstrut eG "/>
    <tag k="wheelchair" v="no"/>
    <tag k="addr:city" v="Teuchern "/>
    <tag k="addr:postcode" v="06682"/>
    <tag k="addr:housenumber" v="8 "/>
    <tag k="addr:street" v="Straße des Friedens "/>
    <tag k="amenity" v="bank"/>
    <tag k="phone" v="034443/ 20709"/>
  </node>
  <node id="-3604" version="0" timestamp="Fri Feb 24 10:53:35 +0100 2012" uid="1" user="" lat="51.11912" lon="12.02187">
    <tag k="name" v="Postagentur "/>
    <tag k="wheelchair" v="limited"/>
    <tag k="addr:city" v="Teuchern "/>
    <tag k="addr:postcode" v="06682"/>
    <tag k="addr:housenumber" v="8 "/>
    <tag k="addr:street" v="Straße des Friedens "/>
    <tag k="amenity" v="post_office"/>
    <tag k="phone" v="034443/ 62308"/>
  </node>
  <node id="-3605" version="0" timestamp="Fri Feb 24 10:53:35 +0100 2012" uid="1" user="" lat="51.11912" lon="12.02187">
    <tag k="name" v="Altenhilfezentrum &quot;Sankt-Georg-Stift&quot;"/>
    <tag k="wheelchair" v="yes"/>
    <tag k="addr:city" v="Teuchern "/>
    <tag k="addr:postcode" v="06682"/>
    <tag k="addr:housenumber" v="16/17 "/>
    <tag k="addr:street" v="Straße des Friedens "/>
    <tag k="phone" v="034443/ 62280 "/>
  </node>
  <node id="-3606" version="0" timestamp="Fri Feb 24 10:53:35 +0100 2012" uid="1" user="" lat="51.12013" lon="12.02521">
    <tag k="name" v="Kranken- und Altenpflege Monika Reimann "/>
    <tag k="wheelchair" v="unknown"/>
    <tag k="addr:city" v="Teuchern "/>
    <tag k="addr:postcode" v="06682"/>
    <tag k="addr:housenumber" v="1"/>
    <tag k="addr:street" v="Platz an der Mühlstraße "/>
    <tag k="phone" v="034443/ 21138"/>
  </node>
  <node id="-3607" version="0" timestamp="Fri Feb 24 10:53:35 +0100 2012" uid="1" user="" lat="51.12013" lon="12.02521">
    <tag k="name" v="Allgemeinmedizinische Praxis "/>
    <tag k="wheelchair" v="no"/>
    <tag k="addr:city" v="Teuchern"/>
    <tag k="addr:postcode" v="06682"/>
    <tag k="addr:housenumber" v="1 "/>
    <tag k="addr:street" v="Platz an der Mühlstraße "/>
    <tag k="amenity" v="doctors"/>
    <tag k="phone" v="034443/ 20139"/>
  </node>
  <node id="-3608" version="0" timestamp="Fri Feb 24 10:53:35 +0100 2012" uid="1" user="" lat="51.11952" lon="12.02151">
    <tag k="name" v="Internistisches Facharztzentrum Dr. med. V. Schlegel ; Facharzt A. Mühle "/>
    <tag k="wheelchair" v="yes"/>
    <tag k="addr:city" v="Teuchern "/>
    <tag k="addr:postcode" v="06682 "/>
    <tag k="addr:housenumber" v="7 "/>
    <tag k="addr:street" v="Markt "/>
    <tag k="amenity" v="doctors"/>
    <tag k="phone" v="034443/ 6140"/>
  </node>
  <node id="-3609" version="0" timestamp="Fri Feb 24 10:53:35 +0100 2012" uid="1" user="" lat="51.11531" lon="12.0153">
    <tag k="name" v="Zahnarztpraxis Dipl. Med. Detlef Göhring ; Dipl. Med. Ute Gieler "/>
    <tag k="wheelchair" v="no"/>
    <tag k="addr:city" v="Teuchern "/>
    <tag k="addr:postcode" v="06682"/>
    <tag k="addr:housenumber" v="1a "/>
    <tag k="addr:street" v="Weg nach Schortau "/>
    <tag k="amenity" v="doctors"/>
    <tag k="phone" v="034443/ 20220"/>
  </node>
  <node id="-3610" version="0" timestamp="Fri Feb 24 10:53:35 +0100 2012" uid="1" user="" lat="51.12001" lon="12.02729">
    <tag k="name" v="POLYDORM Mitteldeutsche Fachklinik für Schlafmedizin Teuchern "/>
    <tag k="wheelchair" v="no"/>
    <tag k="addr:city" v="Teuchern "/>
    <tag k="addr:postcode" v="06682"/>
    <tag k="addr:housenumber" v="23 "/>
    <tag k="addr:street" v="Schützenstraße "/>
    <tag k="amenity" v="hospital"/>
    <tag k="phone" v="034443/ 20304"/>
  </node>
  <node id="-3611" version="0" timestamp="Fri Feb 24 10:53:35 +0100 2012" uid="1" user="" lat="51.11927" lon="12.02151">
    <tag k="name" v="Stadt - Apotheke Teuchern "/>
    <tag k="wheelchair" v="limited"/>
    <tag k="addr:city" v="Teuchern "/>
    <tag k="addr:postcode" v="06682"/>
    <tag k="addr:housenumber" v="6 "/>
    <tag k="addr:street" v="Markt "/>
    <tag k="amenity" v="pharmacy"/>
    <tag k="phone" v="034443/ 20304"/>
  </node>
  <node id="-3612" version="0" timestamp="Fri Feb 24 10:53:35 +0100 2012" uid="1" user="" lat="51.11816" lon="12.0214">
    <tag k="name" v="Physiotherapie Alexander Feder "/>
    <tag k="wheelchair" v="yes"/>
    <tag k="addr:city" v="Teuchern "/>
    <tag k="addr:postcode" v="06682"/>
    <tag k="addr:housenumber" v="6 "/>
    <tag k="addr:street" v="Oberstraße "/>
    <tag k="amenity" v="doctors"/>
    <tag k="phone" v="034443/ 22743"/>
  </node>
  <node id="-3613" version="0" timestamp="Fri Feb 24 10:53:35 +0100 2012" uid="1" user="" lat="51.12616" lon="12.02356">
    <tag k="name" v="Physiotherapie Mehlhorn "/>
    <tag k="wheelchair" v="yes"/>
    <tag k="addr:city" v="Teuchern "/>
    <tag k="addr:postcode" v="06682"/>
    <tag k="addr:housenumber" v="21 "/>
    <tag k="addr:street" v="Borkener Straße "/>
    <tag k="amenity" v="doctors"/>
    <tag k="phone" v="034443/ 21713"/>
  </node>
  <node id="-3614" version="0" timestamp="Fri Feb 24 10:53:35 +0100 2012" uid="1" user="" lat="51.12013" lon="12.02521">
    <tag k="name" v="Bibliothek/Jugendclub/Freizeittreff "/>
    <tag k="wheelchair" v="no"/>
    <tag k="addr:city" v="Teuchern "/>
    <tag k="addr:postcode" v="06682"/>
    <tag k="addr:housenumber" v="3"/>
    <tag k="addr:street" v="Platz an der Mühlstraße "/>
    <tag k="amenity" v="library"/>
    <tag k="phone" v="034443/ 62370"/>
  </node>
  <node id="-3615" version="0" timestamp="Fri Feb 24 10:53:35 +0100 2012" uid="1" user="" lat="51.1194" lon="12.02308">
    <tag k="name" v="Katholische Kirche "/>
    <tag k="wheelchair" v="yes"/>
    <tag k="addr:city" v="Teuchern "/>
    <tag k="addr:postcode" v="06682"/>
    <tag k="addr:housenumber" v="1"/>
    <tag k="addr:street" v="Steinweg "/>
    <tag k="amenity" v="place_of_worship"/>
    <tag k="phone" v="034443/ 21207 "/>
  </node>
  <node id="-3616" version="0" timestamp="Fri Feb 24 10:53:35 +0100 2012" uid="1" user="" lat="51.11952" lon="12.02151">
    <tag k="name" v="Ratskeller Teuchern "/>
    <tag k="wheelchair" v="limited"/>
    <tag k="addr:city" v="Teuchern "/>
    <tag k="addr:postcode" v="06682"/>
    <tag k="addr:housenumber" v="21"/>
    <tag k="addr:street" v="Markt "/>
    <tag k="amenity" v="restaurant"/>
    <tag k="phone" v="034443/ 20428"/>
  </node>
  <node id="-3617" version="0" timestamp="Fri Feb 24 10:53:35 +0100 2012" uid="1" user="" lat="51.12259" lon="12.02603">
    <tag k="name" v="Gaststätte Angermann "/>
    <tag k="wheelchair" v="no"/>
    <tag k="addr:city" v="Teuchern "/>
    <tag k="addr:postcode" v="06682"/>
    <tag k="addr:housenumber" v="12 "/>
    <tag k="addr:street" v="Goethestraße "/>
    <tag k="amenity" v="restaurant"/>
    <tag k="phone" v="034443/ 20295"/>
  </node>
  <node id="-3618" version="0" timestamp="Fri Feb 24 10:53:35 +0100 2012" uid="1" user="" lat="51.11952" lon="12.02151">
    <tag k="name" v="Eiscafé am Markt "/>
    <tag k="wheelchair" v="yes"/>
    <tag k="addr:city" v="Teuchern "/>
    <tag k="addr:postcode" v="06682"/>
    <tag k="addr:housenumber" v="1 "/>
    <tag k="addr:street" v="Markt "/>
    <tag k="amenity" v="cafe"/>
    <tag k="phone" v="034443/20979"/>
  </node>
  <node id="-3619" version="0" timestamp="Fri Feb 24 10:53:35 +0100 2012" uid="1" user="" lat="51.11527" lon="12.01924">
    <tag k="name" v="Turnhalle Teuchern ; Stadion "/>
    <tag k="wheelchair" v="unknown"/>
    <tag k="addr:city" v="Teuchern "/>
    <tag k="addr:postcode" v="06682"/>
    <tag k="addr:housenumber" v="1 "/>
    <tag k="addr:street" v="Am Stadion "/>
    <tag k="leisure" v="arena"/>
    <tag k="phone" v="034443/ 21183"/>
  </node>
  <node id="-3620" version="0" timestamp="Fri Feb 24 10:53:35 +0100 2012" uid="1" user="" lat="51.12259" lon="12.02603">
    <tag k="name" v="Sportplatz Teuchern "/>
    <tag k="wheelchair" v="unknown"/>
    <tag k="addr:city" v="Teuchern "/>
    <tag k="addr:postcode" v="06682"/>
    <tag k="addr:street" v="Goethestraße "/>
    <tag k="leisure" v="stadium"/>
  </node>
  <node id="-3621" version="0" timestamp="Fri Feb 24 10:53:35 +0100 2012" uid="1" user="" lat="51.11564" lon="12.02248">
    <tag k="shop" v="supermarket"/>
    <tag k="name" v="NP-Markt "/>
    <tag k="wheelchair" v="yes"/>
    <tag k="addr:city" v="Teuchern "/>
    <tag k="addr:postcode" v="06682"/>
    <tag k="addr:housenumber" v="15 "/>
    <tag k="addr:street" v="Gartenstraße "/>
    <tag k="phone" v="034443/ 20326"/>
  </node>
  <node id="-3622" version="0" timestamp="Fri Feb 24 10:53:35 +0100 2012" uid="1" user="" lat="51.12259" lon="12.02603">
    <tag k="shop" v="supermarket"/>
    <tag k="name" v="Penny Markt "/>
    <tag k="wheelchair" v="yes"/>
    <tag k="addr:city" v="Teuchern "/>
    <tag k="addr:postcode" v="06682"/>
    <tag k="addr:housenumber" v="2a "/>
    <tag k="addr:street" v="Goethestraße "/>
    <tag k="phone" v="034443/ 20835"/>
  </node>
  <node id="-3623" version="0" timestamp="Fri Feb 24 10:53:35 +0100 2012" uid="1" user="" lat="51.11912" lon="12.02187">
    <tag k="shop" v="supermarket"/>
    <tag k="name" v="Edeka Aktiv Markt "/>
    <tag k="wheelchair" v="yes"/>
    <tag k="addr:city" v="Teuchern "/>
    <tag k="addr:postcode" v="06682"/>
    <tag k="addr:housenumber" v="32 "/>
    <tag k="addr:street" v="Straße des Friedens "/>
    <tag k="phone" v="034443/ 31864"/>
  </node>
  <node id="-3624" version="0" timestamp="Fri Feb 24 10:53:35 +0100 2012" uid="1" user="" lat="51.11816" lon="12.0214">
    <tag k="shop" v="department_store"/>
    <tag k="name" v="Schlecker "/>
    <tag k="wheelchair" v="no"/>
    <tag k="addr:city" v="Teuchern "/>
    <tag k="addr:postcode" v="06682"/>
    <tag k="addr:housenumber" v="6 "/>
    <tag k="addr:street" v="Oberstraße "/>
  </node>
  <node id="-3625" version="0" timestamp="Fri Feb 24 10:53:35 +0100 2012" uid="1" user="" lat="51.11906" lon="12.02085">
    <tag k="shop" v="department_store"/>
    <tag k="name" v="Drogerie &quot;Feel Good&quot; "/>
    <tag k="wheelchair" v="no"/>
    <tag k="addr:city" v="Teuchern "/>
    <tag k="addr:postcode" v="06682"/>
    <tag k="addr:housenumber" v="2"/>
    <tag k="addr:street" v="Straße des Friedens "/>
    <tag k="phone" v="034443/ 20214"/>
  </node>
  <node id="-3626" version="0" timestamp="Fri Feb 24 10:53:35 +0100 2012" uid="1" user="" lat="51.11952" lon="12.02151">
    <tag k="shop" v="florist"/>
    <tag k="name" v="Osterland Teuchern Blumenladen "/>
    <tag k="wheelchair" v="no"/>
    <tag k="addr:city" v="Teuchern "/>
    <tag k="addr:postcode" v="06682"/>
    <tag k="addr:housenumber" v="17 "/>
    <tag k="addr:street" v="Markt "/>
    <tag k="phone" v="034443/ 20276"/>
  </node>
  <node id="-3627" version="0" timestamp="Fri Feb 24 10:53:35 +0100 2012" uid="1" user="" lat="51.1278849" lon="12.0214813">
    <tag k="shop" v="florist"/>
    <tag k="name" v="Blumenladen Sabine Jeschag "/>
    <tag k="wheelchair" v="no"/>
  </node>
  <node id="-3628" version="0" timestamp="Fri Feb 24 10:53:35 +0100 2012" uid="1" user="" lat="51.12001" lon="12.02729">
    <tag k="shop" v="bakery"/>
    <tag k="name" v="Bäckerei Roger Hünniger "/>
    <tag k="wheelchair" v="no"/>
    <tag k="addr:city" v="Teuchern "/>
    <tag k="addr:postcode" v="06682 "/>
    <tag k="addr:housenumber" v="18 "/>
    <tag k="addr:street" v="Schützenstraße "/>
    <tag k="phone" v="034443/ 20281"/>
  </node>
  <node id="-3629" version="0" timestamp="Fri Feb 24 10:53:35 +0100 2012" uid="1" user="" lat="51.1198163" lon="12.0211774">
    <tag k="shop" v="bakery"/>
    <tag k="name" v="Backstube Siebrecht GmbH &amp; Co.oHG "/>
    <tag k="wheelchair" v="yes"/>
    <tag k="addr:city" v="Teuchern "/>
    <tag k="addr:postcode" v="06682"/>
    <tag k="addr:housenumber" v="19 "/>
    <tag k="addr:street" v="Markt "/>
    <tag k="phone" v="034443/ 31920"/>
  </node>
  <node id="-3630" version="0" timestamp="Fri Feb 24 10:53:35 +0100 2012" uid="1" user="" lat="51.1276088" lon="12.0214598">
    <tag k="shop" v="alcohol"/>
    <tag k="name" v="Getränkemarkt Walter "/>
    <tag k="wheelchair" v="yes"/>
    <tag k="addr:city" v="Teuchern "/>
    <tag k="addr:postcode" v="06682"/>
    <tag k="addr:housenumber" v="45"/>
    <tag k="addr:street" v="Bahnstraße "/>
    <tag k="phone" v="034443/ 20370"/>
  </node>
  <node id="-3631" version="0" timestamp="Fri Feb 24 10:53:35 +0100 2012" uid="1" user="" lat="51.12125" lon="12.02119">
    <tag k="shop" v="alcohol"/>
    <tag k="name" v="Getränkemarkt Beutler "/>
    <tag k="wheelchair" v="unknown"/>
    <tag k="addr:city" v="Teuchern "/>
    <tag k="addr:postcode" v="06682"/>
    <tag k="addr:housenumber" v="7 "/>
    <tag k="addr:street" v="Grüner Weg "/>
    <tag k="phone" v="034443/ 21635"/>
  </node>
  <node id="-3632" version="0" timestamp="Fri Feb 24 10:53:35 +0100 2012" uid="1" user="" lat="51.1187967" lon="12.0220738">
    <tag k="shop" v="department_store"/>
    <tag k="name" v="Goldschmiedin Heike Heinecke "/>
    <tag k="wheelchair" v="no"/>
    <tag k="addr:city" v="Teuchern "/>
    <tag k="addr:postcode" v="06682 "/>
    <tag k="addr:housenumber" v="7"/>
    <tag k="addr:street" v="Straße des Friedens "/>
    <tag k="phone" v="034443/ 20113"/>
  </node>
  <node id="-3633" version="0" timestamp="Fri Feb 24 10:53:35 +0100 2012" uid="1" user="" lat="51.1213173" lon="12.0207233">
    <tag k="shop" v="clothes"/>
    <tag k="name" v="Textil Gaudigs "/>
    <tag k="wheelchair" v="no"/>
    <tag k="addr:city" v="Teuchern "/>
    <tag k="addr:postcode" v="06682"/>
    <tag k="addr:housenumber" v="3 "/>
    <tag k="addr:street" v="Grüner Weg "/>
    <tag k="phone" v="034443/ 21576"/>
  </node>
  <node id="-3634" version="0" timestamp="Fri Feb 24 10:53:35 +0100 2012" uid="1" user="" lat="51.1189685" lon="12.0220417">
    <tag k="shop" v="department_store"/>
    <tag k="name" v="Geschenk- und Bestellshop "/>
    <tag k="wheelchair" v="no"/>
    <tag k="addr:city" v="Teuchern "/>
    <tag k="addr:postcode" v="06682"/>
    <tag k="addr:housenumber" v="41 "/>
    <tag k="addr:street" v="Straße des Friedens "/>
    <tag k="phone" v="034443/ 620099"/>
  </node>
  <node id="-3635" version="0" timestamp="Fri Feb 24 10:53:35 +0100 2012" uid="1" user="" lat="51.1181937" lon="12.0210513">
    <tag k="shop" v="optician"/>
    <tag k="name" v="Optiker Klotz "/>
    <tag k="wheelchair" v="yes"/>
    <tag k="addr:city" v="Teuchern "/>
    <tag k="addr:postcode" v="06682"/>
    <tag k="addr:housenumber" v="5 "/>
    <tag k="addr:street" v="Oberstraße "/>
    <tag k="phone" v="034443/ 20454"/>
  </node>
  <node id="-3636" version="0" timestamp="Fri Feb 24 10:53:35 +0100 2012" uid="1" user="" lat="51.1199948" lon="12.021569">
    <tag k="shop" v="hairdresser"/>
    <tag k="name" v="Haarmoden GmbH "/>
    <tag k="wheelchair" v="unknown"/>
    <tag k="addr:city" v="Teuchern "/>
    <tag k="addr:postcode" v="06682"/>
    <tag k="addr:housenumber" v="13 "/>
    <tag k="addr:street" v="Markt "/>
    <tag k="phone" v="034443/ 62157"/>
  </node>
  <node id="-3637" version="0" timestamp="Fri Feb 24 10:53:35 +0100 2012" uid="1" user="" lat="51.1194615" lon="12.0219949">
    <tag k="shop" v="hairdresser"/>
    <tag k="name" v="Heydel,Yvonne "/>
    <tag k="wheelchair" v="unknown"/>
    <tag k="addr:city" v="Teuchern "/>
    <tag k="addr:postcode" v="06682"/>
    <tag k="addr:housenumber" v="6 "/>
    <tag k="addr:street" v="Straße des Friedens "/>
    <tag k="phone" v="034443/ 21045"/>
  </node>
  <node id="-3638" version="0" timestamp="Fri Feb 24 10:53:35 +0100 2012" uid="1" user="" lat="51.1184934" lon="12.0209118">
    <tag k="shop" v="hairdresser"/>
    <tag k="name" v="Hair Look GmbH &amp; Co.KG "/>
    <tag k="wheelchair" v="limited"/>
    <tag k="addr:city" v="Teuchern "/>
    <tag k="addr:postcode" v="06682"/>
    <tag k="addr:housenumber" v="10 "/>
    <tag k="addr:street" v="Oberstraße "/>
    <tag k="phone" v="034443/ 20445"/>
  </node>
  <node id="-3639" version="0" timestamp="Fri Feb 24 10:53:35 +0100 2012" uid="1" user="" lat="51.1223981" lon="12.0253648">
    <tag k="name" v="Tankstelle Teuchern "/>
    <tag k="wheelchair" v="yes"/>
    <tag k="addr:city" v="Teuchern "/>
    <tag k="addr:postcode" v="06682"/>
    <tag k="addr:housenumber" v="5 "/>
    <tag k="addr:street" v="Goethestraße "/>
    <tag k="amenity" v="fuel"/>
    <tag k="phone" v="034443/ 21397"/>
  </node>
  <node id="-3640" version="0" timestamp="Fri Feb 24 10:53:35 +0100 2012" uid="1" user="" lat="51.119685" lon="12.0214295">
    <tag k="name" v="ANTEA Bestattungen "/>
    <tag k="wheelchair" v="yes"/>
    <tag k="addr:city" v="Teuchern "/>
    <tag k="addr:postcode" v="06682"/>
    <tag k="addr:housenumber" v="2 "/>
    <tag k="addr:street" v="Markt "/>
    <tag k="phone" v="034443/ 31003"/>
  </node>
  <node id="-3642" version="0" timestamp="Fri Feb 24 10:53:35 +0100 2012" uid="1" user="" lat="51.1997857" lon="11.9697294">
    <tag k="name" v="Novalishaus "/>
    <tag k="wheelchair" v="no"/>
    <tag k="addr:city" v="Weißenfels "/>
    <tag k="addr:postcode" v="06667 "/>
    <tag k="addr:housenumber" v="24 "/>
    <tag k="addr:street" v="Klosterstraße "/>
  </node>
  <node id="-3643" version="0" timestamp="Fri Feb 24 10:53:35 +0100 2012" uid="1" user="" lat="51.1998707" lon="11.9694028">
    <tag k="name" v="Stadtbibliothek "/>
    <tag k="wheelchair" v="no"/>
    <tag k="addr:city" v="Weißenfels "/>
    <tag k="addr:postcode" v="06667 "/>
    <tag k="addr:housenumber" v="24 "/>
    <tag k="addr:street" v="Klosterstraße "/>
    <tag k="amenity" v="library"/>
  </node>
  <node id="-3644" version="0" timestamp="Fri Feb 24 10:53:35 +0100 2012" uid="1" user="" lat="51.1996918" lon="11.9691962">
    <tag k="name" v="Dienststelle Saalstraße "/>
    <tag k="wheelchair" v="no"/>
    <tag k="addr:city" v="Weißenfels "/>
    <tag k="addr:postcode" v="06667 "/>
    <tag k="addr:housenumber" v="5"/>
    <tag k="addr:street" v="Saalstraße "/>
  </node>
  <node id="-3645" version="0" timestamp="Fri Feb 24 10:53:35 +0100 2012" uid="1" user="" lat="51.2010072" lon="11.963568">
    <tag k="name" v="Dienststelle Leopold-Kell-Straße "/>
    <tag k="wheelchair" v="no"/>
    <tag k="addr:city" v="Weißenfels "/>
    <tag k="addr:postcode" v="06667 "/>
    <tag k="addr:housenumber" v="14"/>
    <tag k="addr:street" v="Leopold-Kell-Straße "/>
  </node>
  <node id="-3646" version="0" timestamp="Fri Feb 24 10:53:35 +0100 2012" uid="1" user="" lat="51.2048907" lon="11.9712619">
    <tag k="name" v="Reiseagentur A-Z "/>
    <tag k="wheelchair" v="yes"/>
    <tag k="addr:city" v="Weißenfels "/>
    <tag k="addr:postcode" v="06667"/>
    <tag k="addr:housenumber" v="2"/>
    <tag k="addr:street" v="Bahnhofstraße "/>
    <tag k="phone" v="03443/ 336039"/>
  </node>
  <node id="-3647" version="0" timestamp="Fri Feb 24 10:53:35 +0100 2012" uid="1" user="" lat="51.201073" lon="11.9935545">
    <tag k="name" v="Regionalverkehrsgesellschaft mbH "/>
    <tag k="wheelchair" v="unknown"/>
    <tag k="addr:city" v="Weißenfels "/>
    <tag k="addr:postcode" v="06667 "/>
    <tag k="addr:housenumber" v="28 "/>
    <tag k="addr:street" v="Selauer Straße "/>
    <tag k="highway" v="bus_stop"/>
  </node>
  <node id="-3648" version="0" timestamp="Fri Feb 24 10:53:35 +0100 2012" uid="1" user="" lat="51.2060524" lon="11.9669819">
    <tag k="name" v="Taxi - Zentrale Weißenfels "/>
    <tag k="wheelchair" v="unknown"/>
    <tag k="addr:city" v="Weißenfels "/>
    <tag k="addr:postcode" v="06667 "/>
    <tag k="addr:housenumber" v="7 "/>
    <tag k="addr:street" v="Merseburger Straße "/>
    <tag k="amenity" v="car_sharing"/>
    <tag k="phone" v="03443/ 303116 und 03443/ 303117"/>
  </node>
  <node id="-3650" version="0" timestamp="Fri Feb 24 10:53:35 +0100 2012" uid="1" user="" lat="51.2009466" lon="11.9668808">
    <tag k="name" v="Dipl.-Med. Geissler,Frank / Dr. med. Geissler, Lore "/>
    <tag k="wheelchair" v="yes"/>
    <tag k="addr:city" v="Weißenfels "/>
    <tag k="addr:postcode" v="06667 "/>
    <tag k="addr:housenumber" v="13 "/>
    <tag k="addr:street" v="Jüdenstraße "/>
    <tag k="amenity" v="doctors"/>
    <tag k="phone" v="03443/ 303265"/>
  </node>
  <node id="-3651" version="0" timestamp="Fri Feb 24 10:53:35 +0100 2012" uid="1" user="" lat="51.1806887" lon="11.9665138">
    <tag k="name" v="Dipl.-Med. Sigrid Jacob "/>
    <tag k="wheelchair" v="no"/>
    <tag k="addr:city" v="Weißenfels "/>
    <tag k="addr:postcode" v="06667 "/>
    <tag k="addr:housenumber" v="13"/>
    <tag k="addr:street" v="Pestalozzistraße "/>
    <tag k="amenity" v="doctors"/>
    <tag k="phone" v="03443/ 302758"/>
  </node>
  <node id="-3652" version="0" timestamp="Fri Feb 24 10:53:35 +0100 2012" uid="1" user="" lat="51.1895874" lon="11.9634172">
    <tag k="name" v="Dipl.-Med. Ortrun Schreiter "/>
    <tag k="wheelchair" v="yes"/>
    <tag k="addr:city" v="Weißenfels "/>
    <tag k="addr:postcode" v="06667 "/>
    <tag k="addr:housenumber" v="141 "/>
    <tag k="addr:street" v="Südring "/>
    <tag k="amenity" v="doctors"/>
    <tag k="phone" v="03443/801076 "/>
  </node>
  <node id="-3653" version="0" timestamp="Fri Feb 24 10:53:35 +0100 2012" uid="1" user="" lat="51.2079346" lon="11.9670738">
    <tag k="name" v="Dr.med. Christine Zirkenbach "/>
    <tag k="wheelchair" v="no"/>
    <tag k="addr:city" v="Weißenfels "/>
    <tag k="addr:postcode" v="06667"/>
    <tag k="addr:housenumber" v="36 "/>
    <tag k="addr:street" v="Merseburger Straße "/>
    <tag k="amenity" v="doctors"/>
    <tag k="phone" v="03443/ 203343"/>
  </node>
  <node id="-3679" version="0" timestamp="Fri Feb 24 10:53:35 +0100 2012" uid="1" user="" lat="51.2015686" lon="11.968897">
    <tag k="name" v="Dr.med. Stefanie Andrä "/>
    <tag k="wheelchair" v="no"/>
    <tag k="addr:city" v="Weißenfels "/>
    <tag k="addr:postcode" v="06667 "/>
    <tag k="addr:housenumber" v="28 "/>
    <tag k="addr:street" v="Geiger-Passage "/>
    <tag k="amenity" v="doctors"/>
    <tag k="phone" v="03443/ 302166"/>
  </node>
  <node id="-3680" version="0" timestamp="Fri Feb 24 10:53:35 +0100 2012" uid="1" user="" lat="51.2002813" lon="11.9436203">
    <tag k="name" v="Dienststelle J.-R.-Becher-Straße "/>
    <tag k="wheelchair" v="yes"/>
    <tag k="addr:city" v="Weißenfels "/>
    <tag k="addr:postcode" v="06667"/>
    <tag k="addr:housenumber" v="30 "/>
    <tag k="addr:street" v="J.R.-Becher-Straße "/>
    <tag k="phone" v="03443/ 370490 "/>
  </node>
  <node id="-3681" version="0" timestamp="Fri Feb 24 10:53:35 +0100 2012" uid="1" user="" lat="51.20125" lon="11.98021">
    <tag k="name" v="Dr.med. Helga Karl "/>
    <tag k="wheelchair" v="yes"/>
    <tag k="addr:city" v="Weißenfels "/>
    <tag k="addr:postcode" v="06667"/>
    <tag k="addr:housenumber" v="2 "/>
    <tag k="addr:street" v="Am Klemmberg "/>
    <tag k="amenity" v="doctors"/>
    <tag k="phone" v="03443/ 802082"/>
  </node>
  <node id="-3682" version="0" timestamp="Fri Feb 24 10:53:35 +0100 2012" uid="1" user="" lat="51.2010684" lon="11.9489038">
    <tag k="name" v="FA für Innere Medizin/ Hausarzt André Degner "/>
    <tag k="wheelchair" v="no"/>
    <tag k="addr:city" v="Weißenfels "/>
    <tag k="addr:postcode" v="06667 "/>
    <tag k="addr:housenumber" v="89 "/>
    <tag k="addr:street" v="Kirschweg "/>
    <tag k="amenity" v="doctors"/>
    <tag k="phone" v="03443/ 802010"/>
  </node>
  <node id="-3683" version="0" timestamp="Fri Feb 24 10:53:35 +0100 2012" uid="1" user="" lat="51.1998894" lon="11.9565837">
    <tag k="name" v="Dr. med. Kerstin Kittel "/>
    <tag k="wheelchair" v="no"/>
    <tag k="addr:city" v="Weißenfels "/>
    <tag k="addr:postcode" v="06667 "/>
    <tag k="addr:housenumber" v="52 "/>
    <tag k="addr:street" v="Beuditzstraße "/>
    <tag k="amenity" v="doctors"/>
    <tag k="phone" v="03443/ 308485"/>
  </node>
  <node id="-3685" version="0" timestamp="Fri Feb 24 10:53:35 +0100 2012" uid="1" user="" lat="51.2029977" lon="11.9721218">
    <tag k="name" v="Dr. med. Carola Reinbothe "/>
    <tag k="wheelchair" v="no"/>
    <tag k="addr:city" v="Weißenfels "/>
    <tag k="addr:postcode" v="06667 "/>
    <tag k="addr:housenumber" v="32"/>
    <tag k="addr:street" v="Promenade "/>
    <tag k="amenity" v="doctors"/>
    <tag k="phone" v="03443/ 303139"/>
  </node>
  <node id="-3687" version="0" timestamp="Fri Feb 24 10:53:35 +0100 2012" uid="1" user="" lat="51.1997762" lon="11.9644017">
    <tag k="name" v="Dr. med. Amin Yousef "/>
    <tag k="wheelchair" v="no"/>
    <tag k="addr:city" v="Weißenfels "/>
    <tag k="addr:postcode" v="06667"/>
    <tag k="addr:housenumber" v="9 "/>
    <tag k="addr:street" v="Beuditzstraße "/>
    <tag k="amenity" v="doctors"/>
    <tag k="phone" v="03443/ 308480"/>
  </node>
  <node id="-3688" version="0" timestamp="Fri Feb 24 10:53:35 +0100 2012" uid="1" user="" lat="51.2013492" lon="11.9719213">
    <tag k="name" v="Dr. med. Ingrid Bretschneider "/>
    <tag k="wheelchair" v="no"/>
    <tag k="addr:city" v="Weißenfels"/>
    <tag k="addr:postcode" v="06667"/>
    <tag k="addr:housenumber" v="7 "/>
    <tag k="addr:street" v="Markt "/>
    <tag k="amenity" v="doctors"/>
    <tag k="phone" v="03443/ 200179"/>
  </node>
  <node id="-3690" version="0" timestamp="Fri Feb 24 10:53:35 +0100 2012" uid="1" user="" lat="51.199622" lon="11.9644707">
    <tag k="name" v="Gemeinschaftspraxis Dr.med.Andreas Müller ; Dr.med. Ilona Müller ; Dr.med. Felix Rudolph ; Dr.med. Frank Wiegand "/>
    <tag k="wheelchair" v="yes"/>
    <tag k="addr:city" v="Weißenfels "/>
    <tag k="addr:postcode" v="06667"/>
    <tag k="addr:housenumber" v="6"/>
    <tag k="addr:street" v="Beuditzstraße "/>
    <tag k="amenity" v="doctors"/>
    <tag k="phone" v="03443/ 303000"/>
  </node>
  <node id="-3691" version="0" timestamp="Fri Feb 24 10:53:35 +0100 2012" uid="1" user="" lat="51.1993125" lon="11.9587166">
    <tag k="name" v="Dipl.-Psychologe Yves Bolle "/>
    <tag k="wheelchair" v="no"/>
    <tag k="addr:city" v="Weißenfels "/>
    <tag k="addr:postcode" v="06667"/>
    <tag k="addr:housenumber" v="2"/>
    <tag k="addr:street" v="Ladegaststraße "/>
    <tag k="amenity" v="doctors"/>
    <tag k="phone" v="03443/ 334657"/>
  </node>
  <node id="-3692" version="0" timestamp="Fri Feb 24 10:53:35 +0100 2012" uid="1" user="" lat="51.2030275" lon="11.9726606">
    <tag k="name" v="Dipl.-Psychologin Beate Caspar "/>
    <tag k="wheelchair" v="yes"/>
    <tag k="addr:city" v="Weißenfels "/>
    <tag k="addr:postcode" v="06667"/>
    <tag k="addr:housenumber" v="25 "/>
    <tag k="addr:street" v="Promenade "/>
    <tag k="amenity" v="doctors"/>
    <tag k="phone" v="03443/ 302189"/>
  </node>
  <node id="-3693" version="0" timestamp="Fri Feb 24 10:53:35 +0100 2012" uid="1" user="" lat="51.1997636" lon="11.9653175">
    <tag k="name" v="Dipl.-Psychologin Karin Hallensleben "/>
    <tag k="wheelchair" v="no"/>
    <tag k="addr:city" v="Weißenfels "/>
    <tag k="addr:postcode" v="06667"/>
    <tag k="addr:housenumber" v="4b "/>
    <tag k="addr:street" v="Beuditzstraße "/>
    <tag k="amenity" v="doctors"/>
    <tag k="phone" v="03443/ 307978"/>
  </node>
  <node id="-3695" version="0" timestamp="Fri Feb 24 10:53:35 +0100 2012" uid="1" user="" lat="51.2006255" lon="11.9651327">
    <tag k="name" v="Dipl.-Psychologe Raik Hallensleben "/>
    <tag k="wheelchair" v="no"/>
    <tag k="addr:city" v="Weißenfels "/>
    <tag k="addr:postcode" v="06667"/>
    <tag k="addr:housenumber" v="2"/>
    <tag k="addr:street" v="Neue Straße "/>
    <tag k="amenity" v="doctors"/>
    <tag k="phone" v="0344"/>
  </node>
  <node id="-3696" version="0" timestamp="Fri Feb 24 10:53:35 +0100 2012" uid="1" user="" lat="51.2003294" lon="11.980963">
    <tag k="name" v="Radiologische Gemeinschaftspraxis Dr.med. H.-J. Hartmann ; Dr.med. W.-P. Ringleben ; Dr. med. U. Schaumlöffel-Schulze "/>
    <tag k="wheelchair" v="yes"/>
    <tag k="addr:city" v="Weißenfels"/>
    <tag k="addr:postcode" v="06667 "/>
    <tag k="addr:housenumber" v="5"/>
    <tag k="addr:street" v="Selauer Straße "/>
    <tag k="amenity" v="doctors"/>
    <tag k="phone" v="03443/ 302151"/>
  </node>
  <node id="-3701" version="0" timestamp="Fri Feb 24 10:53:35 +0100 2012" uid="1" user="" lat="51.1979028" lon="11.9502334">
    <tag k="name" v="Dr.med. Norbert Michalski "/>
    <tag k="wheelchair" v="no"/>
    <tag k="addr:city" v="Weißenfels "/>
    <tag k="addr:postcode" v="06667"/>
    <tag k="addr:housenumber" v="8"/>
    <tag k="addr:street" v="Telemannstraße "/>
    <tag k="amenity" v="doctors"/>
    <tag k="phone" v="03443/ 801091"/>
  </node>
  <node id="-3703" version="0" timestamp="Fri Feb 24 10:53:35 +0100 2012" uid="1" user="" lat="51.20942" lon="11.9677596">
    <tag k="name" v="Dipl.-Med. dent. Holger Eichardt "/>
    <tag k="wheelchair" v="no"/>
    <tag k="addr:city" v="Weißenfels "/>
    <tag k="addr:postcode" v="06667"/>
    <tag k="addr:housenumber" v="49 "/>
    <tag k="addr:street" v="Merseburger Straße "/>
    <tag k="amenity" v="doctors"/>
    <tag k="phone" v="03443/ 205502"/>
  </node>
  <node id="-3705" version="0" timestamp="Fri Feb 24 10:53:35 +0100 2012" uid="1" user="" lat="51.1931663" lon="11.9825529">
    <tag k="name" v="Dr.med. Constanze Lampe "/>
    <tag k="wheelchair" v="yes"/>
    <tag k="addr:city" v="Weißenfels "/>
    <tag k="addr:postcode" v="06667"/>
    <tag k="addr:housenumber" v="23 "/>
    <tag k="addr:street" v="Seumestraße "/>
    <tag k="amenity" v="doctors"/>
    <tag k="phone" v="03443/ 302983"/>
  </node>
  <node id="-3706" version="0" timestamp="Fri Feb 24 10:53:35 +0100 2012" uid="1" user="" lat="51.2110311" lon="11.9661467">
    <tag k="name" v="Dr.med.dent. Michael Keck "/>
    <tag k="wheelchair" v="yes"/>
    <tag k="addr:city" v="Weißenfels "/>
    <tag k="addr:postcode" v="06667"/>
    <tag k="addr:housenumber" v="41 "/>
    <tag k="addr:street" v="Tagewerbener Straße "/>
    <tag k="amenity" v="doctors"/>
    <tag k="phone" v="03443/ 303095"/>
  </node>
  <node id="-3707" version="0" timestamp="Fri Feb 24 10:53:35 +0100 2012" uid="1" user="" lat="51.2000924" lon="11.9554233">
    <tag k="name" v="Dipl.-Stom. Angela Kloß "/>
    <tag k="wheelchair" v="no"/>
    <tag k="addr:city" v="Weißenfels "/>
    <tag k="addr:postcode" v="06667"/>
    <tag k="addr:housenumber" v="59 "/>
    <tag k="addr:street" v="Beuditzstraße "/>
    <tag k="amenity" v="doctors"/>
    <tag k="phone" v="03443/ 300438"/>
  </node>
  <node id="-3708" version="0" timestamp="Fri Feb 24 10:53:35 +0100 2012" uid="1" user="" lat="51.1912745" lon="11.9631887">
    <tag k="name" v="Dipl.-Med. dent. Annegret Löber "/>
    <tag k="wheelchair" v="no"/>
    <tag k="addr:city" v="Weißenfels "/>
    <tag k="addr:postcode" v="06667"/>
    <tag k="addr:housenumber" v="145 "/>
    <tag k="addr:street" v="Südring "/>
    <tag k="amenity" v="doctors"/>
    <tag k="phone" v="03443/ 803976"/>
  </node>
  <node id="-3709" version="0" timestamp="Fri Feb 24 10:53:35 +0100 2012" uid="1" user="" lat="51.2074307" lon="11.9679416">
    <tag k="name" v="Dipl.-Med. dent. Ramona Löther "/>
    <tag k="wheelchair" v="no"/>
    <tag k="addr:city" v="Weißenfels "/>
    <tag k="addr:postcode" v="06667 "/>
    <tag k="addr:housenumber" v="16 "/>
    <tag k="addr:street" v="Feldstraße "/>
    <tag k="amenity" v="doctors"/>
    <tag k="phone" v="03443/ 208323"/>
  </node>
  <node id="-3710" version="0" timestamp="Fri Feb 24 10:53:35 +0100 2012" uid="1" user="" lat="51.1996023" lon="11.9662472">
    <tag k="name" v="Dr.med.dent. Beatrice Müller "/>
    <tag k="wheelchair" v="no"/>
    <tag k="addr:city" v="Weißenfels "/>
    <tag k="addr:postcode" v="06667"/>
    <tag k="addr:housenumber" v="2 "/>
    <tag k="addr:street" v="Rudolf-Götze-Straße "/>
    <tag k="amenity" v="doctors"/>
    <tag k="phone" v="03443/ 303122"/>
  </node>
  <node id="-3711" version="0" timestamp="Fri Feb 24 10:53:35 +0100 2012" uid="1" user="" lat="51.2011638" lon="11.9804326">
    <tag k="name" v="Dr.med.dent. Karin Richter "/>
    <tag k="wheelchair" v="yes"/>
    <tag k="addr:city" v="Weißenfels "/>
    <tag k="addr:postcode" v="06667"/>
    <tag k="addr:housenumber" v="2 "/>
    <tag k="addr:street" v="Am Klemmberg "/>
    <tag k="amenity" v="doctors"/>
    <tag k="phone" v="03443/ 301089"/>
  </node>
  <node id="-3713" version="0" timestamp="Fri Feb 24 10:53:35 +0100 2012" uid="1" user="" lat="51.1977647" lon="11.9553482">
    <tag k="name" v="Dipl.-Med. dent. Horst Rosenhahn "/>
    <tag k="wheelchair" v="yes"/>
    <tag k="addr:city" v="Weißenfels "/>
    <tag k="addr:postcode" v="06667"/>
    <tag k="addr:housenumber" v="2 "/>
    <tag k="addr:street" v="Moritz-Hill-Straße "/>
    <tag k="amenity" v="doctors"/>
    <tag k="phone" v="03443/ 802728"/>
  </node>
  <node id="-3714" version="0" timestamp="Fri Feb 24 10:53:35 +0100 2012" uid="1" user="" lat="51.2010715" lon="11.9661676">
    <tag k="name" v="Dipl.-Med. dent. Eva Scholz "/>
    <tag k="wheelchair" v="no"/>
    <tag k="addr:city" v="Weißenfels "/>
    <tag k="addr:postcode" v="06667"/>
    <tag k="addr:housenumber" v="3 "/>
    <tag k="addr:street" v="Leopold-Kell-Straße "/>
    <tag k="amenity" v="doctors"/>
    <tag k="phone" v="03443/ 302558"/>
  </node>
  <node id="-3715" version="0" timestamp="Fri Feb 24 10:53:35 +0100 2012" uid="1" user="" lat="51.201309" lon="11.9730069">
    <tag k="name" v="Dipl.-Med. dent. Bettina Wenzel "/>
    <tag k="wheelchair" v="limited"/>
    <tag k="addr:city" v="Weißenfels "/>
    <tag k="addr:postcode" v="06667"/>
    <tag k="addr:housenumber" v="21 "/>
    <tag k="addr:street" v="Markt "/>
    <tag k="amenity" v="doctors"/>
    <tag k="phone" v="03443/302486"/>
  </node>
  <node id="-3716" version="0" timestamp="Fri Feb 24 10:53:35 +0100 2012" uid="1" user="" lat="51.202446" lon="11.9736944">
    <tag k="name" v="Zahnarzt Dr.med. G. Palaske "/>
    <tag k="wheelchair" v="unknown"/>
    <tag k="addr:city" v="Weißenfels "/>
    <tag k="addr:postcode" v="06667"/>
    <tag k="addr:housenumber" v="15 "/>
    <tag k="addr:street" v="Promenade "/>
    <tag k="amenity" v="doctors"/>
    <tag k="phone" v="03443/ 306597"/>
  </node>
  <node id="-3717" version="0" timestamp="Fri Feb 24 10:53:35 +0100 2012" uid="1" user="" lat="51.2023895" lon="11.973808">
    <tag k="name" v="Zahnarzt Dr.med. U. Woytinas "/>
    <tag k="wheelchair" v="no"/>
    <tag k="addr:city" v="Weißenfels "/>
    <tag k="addr:postcode" v="06667"/>
    <tag k="addr:housenumber" v="15 "/>
    <tag k="addr:street" v="Promenade "/>
    <tag k="amenity" v="doctors"/>
    <tag k="phone" v="03443/ 306597"/>
  </node>
  <node id="-3720" version="0" timestamp="Fri Feb 24 10:53:35 +0100 2012" uid="1" user="" lat="51.2024069" lon="11.97212">
    <tag k="name" v="Dipl.-Stom. Thomas Harnisch "/>
    <tag k="wheelchair" v="no"/>
    <tag k="addr:city" v="Weißenfels "/>
    <tag k="addr:postcode" v="06667"/>
    <tag k="addr:housenumber" v="2 "/>
    <tag k="addr:street" v="Große Kalandstraße "/>
    <tag k="amenity" v="doctors"/>
    <tag k="phone" v="03443/ 302922"/>
  </node>
  <node id="-3721" version="0" timestamp="Fri Feb 24 10:53:35 +0100 2012" uid="1" user="" lat="51.2112229" lon="11.9661769">
    <tag k="name" v="Heilpraktiker Baldur Nitschke "/>
    <tag k="wheelchair" v="no"/>
    <tag k="addr:city" v="Weißenfels "/>
    <tag k="addr:postcode" v="06667"/>
    <tag k="addr:housenumber" v="25 "/>
    <tag k="addr:street" v="Tagewerbener Straße "/>
    <tag k="amenity" v="doctors"/>
    <tag k="phone" v="03443/ 208013"/>
  </node>
  <node id="-3722" version="0" timestamp="Fri Feb 24 10:53:35 +0100 2012" uid="1" user="" lat="51.2025434" lon="11.9695226">
    <tag k="name" v="Heilpraktikerin Regina Püschel "/>
    <tag k="wheelchair" v="no"/>
    <tag k="addr:city" v="Weißenfels "/>
    <tag k="addr:postcode" v="06667"/>
    <tag k="addr:housenumber" v="16 "/>
    <tag k="addr:street" v="Dammstraße "/>
    <tag k="amenity" v="doctors"/>
    <tag k="phone" v="03443/ 8200120"/>
  </node>
  <node id="-3723" version="0" timestamp="Fri Feb 24 10:53:35 +0100 2012" uid="1" user="" lat="51.2012596" lon="11.9803989">
    <tag k="name" v="Ergotherapie für Hirnleistungen,Handtherapie,Entspannungstherapie Christine Delitz "/>
    <tag k="wheelchair" v="yes"/>
    <tag k="addr:city" v="Weißenfels "/>
    <tag k="addr:postcode" v="06667"/>
    <tag k="addr:housenumber" v="2 "/>
    <tag k="addr:street" v="Am Klemmberg "/>
    <tag k="amenity" v="doctors"/>
    <tag k="phone" v="03443/ 336494"/>
  </node>
  <node id="-3724" version="0" timestamp="Fri Feb 24 10:53:35 +0100 2012" uid="1" user="" lat="51.2011222" lon="11.9804697">
    <tag k="name" v="Logopädische Praxis Sebastian Schmidt "/>
    <tag k="wheelchair" v="yes"/>
    <tag k="addr:city" v="Weißenfels "/>
    <tag k="addr:postcode" v="06667 "/>
    <tag k="addr:housenumber" v="2 "/>
    <tag k="addr:street" v="Am Klemmberg "/>
    <tag k="amenity" v="doctors"/>
    <tag k="phone" v="03443/ 300362"/>
  </node>
  <node id="-3725" version="0" timestamp="Fri Feb 24 10:53:35 +0100 2012" uid="1" user="" lat="51.193415" lon="11.9700483">
    <tag k="name" v="Therapiezentrum &quot;Am Holländer&quot; , Für Ergotherapie,Logopädie,Physiotherapie "/>
    <tag k="wheelchair" v="yes"/>
    <tag k="addr:city" v="Weißenfels "/>
    <tag k="addr:postcode" v="06667 "/>
    <tag k="addr:housenumber" v="7 "/>
    <tag k="addr:street" v="Heinicke Straße "/>
    <tag k="amenity" v="doctors"/>
    <tag k="phone" v="03443/ 230220"/>
  </node>
  <node id="-3727" version="0" timestamp="Fri Feb 24 10:53:35 +0100 2012" uid="1" user="" lat="51.1921181" lon="11.9862599">
    <tag k="name" v="&quot;Therafit&quot; Physiotherapie Eveline Berg "/>
    <tag k="wheelchair" v="yes"/>
    <tag k="addr:city" v="Weißenfels "/>
    <tag k="addr:postcode" v="06667 "/>
    <tag k="addr:housenumber" v="39a "/>
    <tag k="addr:street" v="Hardenbergstraße "/>
    <tag k="amenity" v="doctors"/>
    <tag k="phone" v="03443/ 336810"/>
  </node>
  <node id="-4287" version="0" timestamp="Fri Feb 24 10:53:36 +0100 2012" uid="1" user="" lat="51.1513623" lon="11.8080687">
    <tag k="name" v="Wahlkreisbüro Jan Wagner"/>
    <tag k="wheelchair" v="limited"/>
    <tag k="addr:city" v="Naumburg"/>
    <tag k="addr:postcode" v="06618"/>
    <tag k="addr:housenumber" v="38"/>
    <tag k="addr:street" v="Salzstraße"/>
    <tag k="office" v="lawyer"/>
  </node>
</osm>
