<?xml version='1.0' encoding='UTF-8'?>
<osm version="0.6" generator="Osmosis 0.39">
  <node id="-567" version="0" timestamp="Fri Feb 24 10:53:32 +0100 2012" uid="1" user="" lat="51.5248872" lon="11.955956">
    <tag k="name" v="Khani`s Döner"/>
    <tag k="wheelchair" v="limited"/>
    <tag k="addr:city" v="Halle/Saale"/>
    <tag k="addr:postcode" v="06118"/>
    <tag k="addr:housenumber" v="31"/>
    <tag k="addr:street" v="Köthener Straße"/>
    <tag k="wheelchair:description" v="kleine Stufe am Eingang"/>
    <tag k="amenity" v="fast_food"/>
  </node>
  <node id="-568" version="0" timestamp="Fri Feb 24 10:53:32 +0100 2012" uid="1" user="" lat="51.5247065" lon="11.9608783">
    <tag k="name" v="Dr. P. Rahn &amp; Partner"/>
    <tag k="wheelchair" v="yes"/>
    <tag k="addr:city" v="Halle/Saale"/>
    <tag k="addr:postcode" v="06118"/>
    <tag k="addr:housenumber" v="7b"/>
    <tag k="addr:street" v="Hans-Dittmar-Straße"/>
    <tag k="amenity" v="school"/>
  </node>
  <node id="-653" version="0" timestamp="Fri Feb 24 10:53:32 +0100 2012" uid="1" user="" lat="51.4913124" lon="11.9743435">
    <tag k="name" v="Physiotherapie Susan Willkommen"/>
    <tag k="wheelchair" v="yes"/>
    <tag k="addr:city" v="Halle (Saale"/>
    <tag k="addr:postcode" v="06108"/>
    <tag k="addr:housenumber" v="11"/>
    <tag k="addr:street" v="Ludwig-Wucherer-Straße"/>
    <tag k="amenity" v="doctors"/>
    <tag k="website" v="http://www.physio-willkommen.de"/>
    <tag k="phone" v="0345 122 969 7"/>
  </node>
  <node id="-1949" version="0" timestamp="Fri Feb 24 10:53:33 +0100 2012" uid="1" user="" lat="51.4955601" lon="11.9569285">
    <tag k="name" v="Clever Fit"/>
    <tag k="wheelchair" v="limited"/>
    <tag k="addr:city" v="Halle (Saale)"/>
    <tag k="addr:postcode" v="06114"/>
    <tag k="addr:housenumber" v="33"/>
    <tag k="addr:street" v="Burgstraße"/>
    <tag k="wheelchair:description" v="Eingang und Kraftkreis stufenlos, Herr­enumkleide nicht barrierefrei"/>
    <tag k="leisure" v="sports_centre"/>
    <tag k="website" v="http://www.clever-fit.com"/>
    <tag k="phone" v="49 (0) 345 68459190"/>
  </node>
  <node id="-5706" version="0" timestamp="Fri Feb 24 10:53:37 +0100 2012" uid="1" user="" lat="51.5" lon="12">
    <tag k="name" v="buw Unternehmensgruppe"/>
    <tag k="wheelchair" v="yes"/>
    <tag k="addr:city" v="Osnabrück"/>
    <tag k="addr:postcode" v="49078"/>
    <tag k="addr:housenumber" v="195"/>
    <tag k="addr:street" v="Rheiner Landstr. "/>
    <tag k="wheelchair:description" v="Gebäude sind mit Fahrstühlen ausgestattet"/>
    <tag k="website" v="http://www.buw.de"/>
    <tag k="phone" v="+49541 9462 0"/>
    <tag k="office" v="company"/>
  </node>
  <node id="-5707" version="0" timestamp="Fri Feb 24 10:53:37 +0100 2012" uid="1" user="" lat="51.5" lon="12">
    <tag k="name" v="buw Unternehmensgruppe"/>
    <tag k="wheelchair" v="limited"/>
    <tag k="addr:city" v="Halle"/>
    <tag k="addr:postcode" v="06112"/>
    <tag k="addr:housenumber" v="21"/>
    <tag k="addr:street" v="Grenzstr."/>
    <tag k="website" v="http://www.buw.de"/>
    <tag k="phone" v="+49345 2395-0"/>
    <tag k="office" v="company"/>
  </node>
  <node id="-5708" version="0" timestamp="Fri Feb 24 10:53:37 +0100 2012" uid="1" user="" lat="51.5" lon="12">
    <tag k="name" v="buw Unternehmensgruppe"/>
    <tag k="wheelchair" v="yes"/>
    <tag k="addr:city" v="Leipzig"/>
    <tag k="addr:postcode" v="04315"/>
    <tag k="addr:housenumber" v="1"/>
    <tag k="addr:street" v="Torgauer Platz"/>
    <tag k="wheelchair:description" v="beide Gebäude sind mit Fahrstühlen ausgestattet"/>
    <tag k="website" v="http://www.buw.de"/>
    <tag k="phone" v="+49341 5941-0"/>
    <tag k="office" v="company"/>
  </node>
</osm>
