<?xml version='1.0' encoding='UTF-8'?>
<osm version="0.6" generator="Osmosis 0.39">
  <node id="-619" version="0" timestamp="Fri Feb 24 10:53:32 +0100 2012" uid="1" user="" lat="51.79082" lon="11.15022">
    <tag k="name" v="KuZ Reichenstrasse"/>
    <tag k="wheelchair" v="yes"/>
    <tag k="addr:city" v="Quedlinburg"/>
    <tag k="addr:postcode" v="06484"/>
    <tag k="addr:housenumber" v="1"/>
    <tag k="addr:street" v="Reichenstrasse "/>
    <tag k="wheelchair:description" v="Rollstuhl WC, Rollstuhllift in die erste Etage zum Kino und Veranstaltungssaal"/>
    <tag k="website" v="http://www.reichenstrasse.de"/>
    <tag k="phone" v="03946-2640"/>
  </node>
  <node id="-620" version="0" timestamp="Fri Feb 24 10:53:32 +0100 2012" uid="1" user="" lat="51.79082" lon="11.15022">
    <tag k="name" v="QTW Tattoo Studio"/>
    <tag k="wheelchair" v="limited"/>
    <tag k="addr:city" v="Quedlinburg"/>
    <tag k="addr:postcode" v="06484"/>
    <tag k="addr:housenumber" v="39"/>
    <tag k="addr:street" v="Reichenstrasse"/>
    <tag k="wheelchair:description" v="Es sind zwar Stufen vorhanden, aber der Tätowierer hat Erfahrung im Umgang mit Rollstühlen und kann jederzeit helfend mit anpacken um mit dem Rolli die Stufen zu überwinden."/>
    <tag k="amenity" v="gallery"/>
    <tag k="website" v="http://www.qtw-tattoo.de"/>
  </node>
  <node id="-1669" version="0" timestamp="Fri Feb 24 10:53:33 +0100 2012" uid="1" user="" lat="51.8204385" lon="10.7573535">
    <tag k="name" v="Hasseröder Ferienpark Spaßbad "/>
    <tag k="wheelchair" v="yes"/>
    <tag k="wheelchair:description" v="Im Bad gibt es eine Toilette für Rollstuhlfahrer. Der Kassenbereich liegt zwar im OG aber ist mit einem Fahrstuhl erreichbar. Im Bad selbst gibt es auch einen Fahrstuhl mit dem mann alle Etagen super erreichen kann."/>
    <tag k="amenity" v="swimming_pool"/>
  </node>
  <node id="-1757" version="0" timestamp="Fri Feb 24 10:53:33 +0100 2012" uid="1" user="" lat="51.8365867" lon="10.7698278">
    <tag k="name" v="Hallenbad "/>
    <tag k="wheelchair" v="no"/>
    <tag k="wheelchair:description" v="Eine menge Stufen Eingang für Rollstuhlfahrer nur mit großem Umweg erreichbar"/>
    <tag k="amenity" v="swimming_pool"/>
  </node>
  <node id="-2574" version="0" timestamp="Fri Feb 24 10:53:34 +0100 2012" uid="1" user="" lat="51.837802" lon="10.8006871">
    <tag k="shop" v="department_store"/>
    <tag k="name" v="Christoph Dunkel Hörakustik"/>
    <tag k="wheelchair" v="yes"/>
    <tag k="addr:city" v="Wernigerode"/>
    <tag k="addr:postcode" v="38855"/>
    <tag k="addr:housenumber" v="2"/>
    <tag k="addr:street" v="Platz des Friedens "/>
    <tag k="wheelchair:description" v="Ebenerdiger Eingang , keine Stufen, Kostenlose Parkplätze ohne Bordsteine"/>
    <tag k="website" v="http://www.einfachbesserhoeren.de"/>
    <tag k="phone" v="+49 3943 266268"/>
  </node>
  <node id="-2576" version="0" timestamp="Fri Feb 24 10:53:34 +0100 2012" uid="1" user="" lat="51.7503996" lon="11.0449756">
    <tag k="shop" v="department_store"/>
    <tag k="name" v="Christoph Dunkel Hörakustik"/>
    <tag k="wheelchair" v="yes"/>
    <tag k="addr:city" v="Thale"/>
    <tag k="addr:postcode" v="06502"/>
    <tag k="addr:housenumber" v="5"/>
    <tag k="addr:street" v="Musestieg"/>
    <tag k="wheelchair:description" v="kostenlose Parkplätze ohne Bordsteine, Ebenerdiger Zugang"/>
    <tag k="website" v="http://www.einfachbesserhoeren.de"/>
    <tag k="phone" v="+49 3947 772121"/>
  </node>
  <node id="-4059" version="0" timestamp="Fri Feb 24 10:53:36 +0100 2012" uid="1" user="" lat="51.7856369" lon="11.148111">
    <tag k="name" v="Hotel &amp; Restaurant Miramion"/>
    <tag k="wheelchair" v="yes"/>
    <tag k="addr:city" v="Quedlinburg"/>
    <tag k="addr:postcode" v="06484"/>
    <tag k="addr:housenumber" v="1"/>
    <tag k="tourism" v="hotel"/>
    <tag k="addr:street" v="Adelheidstraße"/>
    <tag k="wheelchair:description" v="Wir legen im Hotel &amp; Restaurant Miramion besondere Achtsamkeit auf die individuellen Bedürfnisse unserer Gäste und stellen sicher, dass Sie sich überall wohlfühlen."/>
    <tag k="website" v="http://www.hotel-miramion.de"/>
    <tag k="phone" v="03946/527080"/>
  </node>
</osm>
