<?xml version='1.0' encoding='UTF-8'?>
<osm version="0.6" generator="Osmosis 0.39">
  <node id="-4742" version="0" timestamp="Fri Feb 24 10:53:36 +0100 2012" uid="1" user="" lat="52.2708716" lon="11.8461218">
    <tag k="name" v="Stadthalle Burg"/>
    <tag k="wheelchair" v="yes"/>
    <tag k="addr:city" v="Burg"/>
    <tag k="addr:postcode" v="39288"/>
    <tag k="addr:housenumber" v="1"/>
    <tag k="addr:street" v="Platz des Friedens"/>
    <tag k="wheelchair:description" v="Fahrstuhl im Haus"/>
    <tag k="amenity" v="townhall"/>
    <tag k="website" v="http://www.stadt-burg.de"/>
    <tag k="phone" v="+49 3921 727837"/>
  </node>
  <node id="-4884" version="0" timestamp="Fri Feb 24 10:53:36 +0100 2012" uid="1" user="" lat="52.2669533" lon="11.8389952">
    <tag k="name" v="Stadtverwaltung Burg"/>
    <tag k="wheelchair" v="yes"/>
    <tag k="addr:city" v="Burg"/>
    <tag k="addr:postcode" v="39288 "/>
    <tag k="addr:housenumber" v="2"/>
    <tag k="addr:street" v="In der Alten Kaserne 2"/>
    <tag k="wheelchair:description" v="Fahrstuhl an der Stirnseite des Hauses"/>
    <tag k="amenity" v="townhall"/>
    <tag k="website" v="http://www.stadt-burg.de"/>
    <tag k="phone" v="+49 3921 921-0"/>
  </node>
  <node id="-4885" version="0" timestamp="Fri Feb 24 10:53:36 +0100 2012" uid="1" user="" lat="52.2736555" lon="11.8636606">
    <tag k="name" v="Stadtbibliothek &quot;Brigitte Reimann&quot; und BurgInfo"/>
    <tag k="wheelchair" v="yes"/>
    <tag k="addr:city" v="Burg"/>
    <tag k="addr:postcode" v="39288"/>
    <tag k="addr:housenumber" v="38"/>
    <tag k="addr:street" v="Berliner Straße 38"/>
    <tag k="wheelchair:description" v="Fahrstuhl über den Hof"/>
    <tag k="amenity" v="library"/>
    <tag k="website" v="http://www.stadt-burg.de"/>
    <tag k="phone" v="+49 3921 23 31"/>
  </node>
  <node id="-4886" version="0" timestamp="Fri Feb 24 10:53:36 +0100 2012" uid="1" user="" lat="52.2915191" lon="11.7942352">
    <tag k="name" v="Ortschaftsbüro Schartau"/>
    <tag k="wheelchair" v="unknown"/>
    <tag k="addr:city" v="Burg"/>
    <tag k="addr:postcode" v="39288"/>
    <tag k="addr:housenumber" v="8"/>
    <tag k="addr:street" v="Alte Bergstraße"/>
    <tag k="amenity" v="townhall"/>
    <tag k="website" v="http://www.stadt-burg.de"/>
    <tag k="phone" v="+49 3921 52 75"/>
  </node>
  <node id="-4887" version="0" timestamp="Fri Feb 24 10:53:36 +0100 2012" uid="1" user="" lat="52.2664102" lon="11.7575218">
    <tag k="name" v="Ortschaftsbüro Niegripp"/>
    <tag k="wheelchair" v="unknown"/>
    <tag k="addr:city" v=" Burg OT Niegripp"/>
    <tag k="addr:postcode" v="39288"/>
    <tag k="addr:housenumber" v="2a"/>
    <tag k="addr:street" v="Elbwiesenweg 2a"/>
    <tag k="amenity" v="townhall"/>
    <tag k="website" v="http://www.stadt-burg.de"/>
    <tag k="phone" v="+49 3921 994320"/>
  </node>
  <node id="-4888" version="0" timestamp="Fri Feb 24 10:53:36 +0100 2012" uid="1" user="" lat="52.3210715" lon="11.8839425">
    <tag k="name" v="Ortschaftsbüro Parchau"/>
    <tag k="wheelchair" v="unknown"/>
    <tag k="addr:city" v="Burg OT Parchau"/>
    <tag k="addr:postcode" v="39288"/>
    <tag k="addr:housenumber" v="5"/>
    <tag k="addr:street" v="Kleine Schulstraße 5"/>
    <tag k="amenity" v="townhall"/>
    <tag k="website" v="http://www.stadt-burg.de"/>
    <tag k="phone" v="+49 3921 728622"/>
  </node>
  <node id="-4889" version="0" timestamp="Fri Feb 24 10:53:36 +0100 2012" uid="1" user="" lat="52.3291781" lon="11.9154861">
    <tag k="name" v="Ortschaftsbüro Ihleburg"/>
    <tag k="wheelchair" v="unknown"/>
    <tag k="addr:city" v="Burg OT Ihleburg"/>
    <tag k="addr:postcode" v="39288"/>
    <tag k="addr:housenumber" v="1"/>
    <tag k="addr:street" v="Lange Schulstraße"/>
    <tag k="amenity" v="townhall"/>
    <tag k="website" v="http://www.stadt-burg.de"/>
    <tag k="phone" v="+49 3921 994603"/>
  </node>
  <node id="-4890" version="0" timestamp="Fri Feb 24 10:53:36 +0100 2012" uid="1" user="" lat="52.245383" lon="11.810563">
    <tag k="name" v="Ortschaftsbüro Detershagen"/>
    <tag k="wheelchair" v="unknown"/>
    <tag k="addr:city" v="Burg OT Detershagen"/>
    <tag k="addr:postcode" v="39288"/>
    <tag k="addr:housenumber" v="30"/>
    <tag k="addr:street" v="Burger Straße"/>
    <tag k="amenity" v="townhall"/>
    <tag k="website" v="http://www.stadt-burg.de"/>
    <tag k="phone" v="+49 3921 985379"/>
  </node>
  <node id="-4891" version="0" timestamp="Fri Feb 24 10:53:36 +0100 2012" uid="1" user="" lat="52.2835683" lon="11.9381303">
    <tag k="name" v="Ortschaftsbüro Reesen"/>
    <tag k="wheelchair" v="unknown"/>
    <tag k="addr:city" v="Burg OT Reesen "/>
    <tag k="addr:postcode" v="39288"/>
    <tag k="addr:housenumber" v="1"/>
    <tag k="addr:street" v="Reesener Dorfstraße"/>
    <tag k="amenity" v="townhall"/>
    <tag k="website" v="http://www.stadt-burg.de"/>
    <tag k="phone" v="+49 3921 636143"/>
  </node>
</osm>
