<?xml version='1.0' encoding='UTF-8'?>
<osm version="0.6" generator="Osmosis 0.39">
  <node id="-953" version="0" timestamp="Fri Feb 24 10:53:33 +0100 2012" uid="1" user="" lat="52.13159" lon="11.63996">
    <tag k="shop" v="clothes"/>
    <tag k="name" v="Kindermode by Little Lion"/>
    <tag k="wheelchair" v="yes"/>
    <tag k="addr:city" v="Magdeburg"/>
    <tag k="addr:postcode" v="39104"/>
    <tag k="addr:housenumber" v="12"/>
    <tag k="addr:street" v="Domplatz"/>
    <tag k="wheelchair:description" v="Schwere Tür, aber Personal hilft"/>
    <tag k="website" v="http://www.tokimo.de"/>
    <tag k="phone" v="+49 39 15448927"/>
  </node>
  <node id="-1153" version="0" timestamp="Fri Feb 24 10:53:33 +0100 2012" uid="1" user="" lat="52.1284113" lon="11.5860614">
    <tag k="name" v="Toilette auf dem Westfriedhof"/>
    <tag k="wheelchair" v="yes"/>
    <tag k="amenity" v="toilets"/>
  </node>
  <node id="-1208" version="0" timestamp="Fri Feb 24 10:53:33 +0100 2012" uid="1" user="" lat="52.13344" lon="11.63907">
    <tag k="name" v="Hotel Ratswaage"/>
    <tag k="wheelchair" v="yes"/>
    <tag k="tourism" v="hotel"/>
  </node>
  <node id="-2352" version="0" timestamp="Fri Feb 24 10:53:34 +0100 2012" uid="1" user="" lat="52.1471963" lon="11.6458846">
    <tag k="shop" v="department_store"/>
    <tag k="name" v="A&amp;V Total"/>
    <tag k="wheelchair" v="limited"/>
    <tag k="addr:city" v="Magdeburg"/>
    <tag k="addr:postcode" v="39106"/>
    <tag k="addr:housenumber" v="1"/>
    <tag k="addr:street" v="Sieverstorstraße"/>
    <tag k="website" v="http://www.aundvtotal.de/"/>
    <tag k="phone" v="0391 5311305"/>
  </node>
  <node id="-2353" version="0" timestamp="Fri Feb 24 10:53:34 +0100 2012" uid="1" user="" lat="52.1474584" lon="11.6448352">
    <tag k="shop" v="supermarket"/>
    <tag k="name" v="Edeka"/>
    <tag k="wheelchair" v="yes"/>
  </node>
  <node id="-2354" version="0" timestamp="Fri Feb 24 10:53:34 +0100 2012" uid="1" user="" lat="52.1474139" lon="11.6445235">
    <tag k="name" v="Sparkasse"/>
    <tag k="wheelchair" v="yes"/>
    <tag k="amenity" v="bank"/>
  </node>
  <node id="-2355" version="0" timestamp="Fri Feb 24 10:53:34 +0100 2012" uid="1" user="" lat="52.1473902" lon="11.6449867">
    <tag k="shop" v="florist"/>
    <tag k="name" v="Blumenladen"/>
    <tag k="wheelchair" v="yes"/>
  </node>
  <node id="-2356" version="0" timestamp="Fri Feb 24 10:53:34 +0100 2012" uid="1" user="" lat="52.1472565" lon="11.6394431">
    <tag k="name" v="Imbiss"/>
    <tag k="wheelchair" v="no"/>
    <tag k="amenity" v="fast_food"/>
  </node>
  <node id="-2357" version="0" timestamp="Fri Feb 24 10:53:34 +0100 2012" uid="1" user="" lat="52.1430859" lon="11.6383445">
    <tag k="shop" v="bakery"/>
    <tag k="name" v="Bäckerei"/>
    <tag k="wheelchair" v="yes"/>
  </node>
  <node id="-2358" version="0" timestamp="Fri Feb 24 10:53:34 +0100 2012" uid="1" user="" lat="52.1402626" lon="11.6173383">
    <tag k="shop" v="department_store"/>
    <tag k="name" v="PV Automobile"/>
    <tag k="wheelchair" v="yes"/>
  </node>
  <node id="-2360" version="0" timestamp="Fri Feb 24 10:53:34 +0100 2012" uid="1" user="" lat="52.07995" lon="11.6200237">
    <tag k="name" v="Esso Tankstelle"/>
    <tag k="wheelchair" v="unknown"/>
    <tag k="amenity" v="fuel"/>
  </node>
  <node id="-2361" version="0" timestamp="Fri Feb 24 10:53:34 +0100 2012" uid="1" user="" lat="52.0834673" lon="11.5961227">
    <tag k="shop" v="furniture"/>
    <tag k="name" v="Porta Möbelhaus"/>
    <tag k="wheelchair" v="unknown"/>
  </node>
  <node id="-2363" version="0" timestamp="Fri Feb 24 10:53:34 +0100 2012" uid="1" user="" lat="52.149373" lon="11.6386801">
    <tag k="name" v="Jet Tankstelle"/>
    <tag k="wheelchair" v="yes"/>
    <tag k="amenity" v="fuel"/>
  </node>
  <node id="-2364" version="0" timestamp="Fri Feb 24 10:53:34 +0100 2012" uid="1" user="" lat="52.1550411" lon="11.6487573">
    <tag k="shop" v="furniture"/>
    <tag k="name" v="Poco-Domäne"/>
    <tag k="wheelchair" v="yes"/>
  </node>
  <node id="-2722" version="0" timestamp="Fri Feb 24 10:53:34 +0100 2012" uid="1" user="" lat="52.1007515" lon="11.645573">
    <tag k="name" v="Buckau Wasserwerk linie 8"/>
    <tag k="wheelchair" v="yes"/>
    <tag k="addr:city" v="Magdeburg"/>
    <tag k="addr:postcode" v="39104"/>
    <tag k="addr:street" v="Schönebeckerstraße"/>
    <tag k="railway" v="tram_stop"/>
  </node>
  <node id="-2723" version="0" timestamp="Fri Feb 24 10:53:34 +0100 2012" uid="1" user="" lat="52.0925196" lon="11.6558924">
    <tag k="shop" v="supermarket"/>
    <tag k="name" v="Np-Markt"/>
    <tag k="wheelchair" v="yes"/>
    <tag k="addr:city" v="Magdeburg"/>
    <tag k="addr:postcode" v="39122"/>
    <tag k="addr:housenumber" v="84"/>
    <tag k="addr:street" v="Alt Fermersleben "/>
    <tag k="website" v="http://www.niedrig-preis.de"/>
    <tag k="phone" v="0391 5209695"/>
  </node>
  <node id="-3249" version="0" timestamp="Fri Feb 24 10:53:35 +0100 2012" uid="1" user="" lat="52.1377324" lon="11.5997359">
    <tag k="name" v="Caritas Altenpflegeheim Bischof-Weskamm-Haus"/>
    <tag k="wheelchair" v="yes"/>
    <tag k="addr:city" v="Magdeburg"/>
    <tag k="addr:postcode" v="39110"/>
    <tag k="addr:housenumber" v="11"/>
    <tag k="addr:street" v="Neustädter Bierweg"/>
    <tag k="amenity" v="hospital"/>
    <tag k="website" v="http://www.ctm-magdeburg.de"/>
    <tag k="phone" v="+49 391 73251-6"/>
  </node>
  <node id="-3866" version="0" timestamp="Fri Feb 24 10:53:35 +0100 2012" uid="1" user="" lat="52.166117" lon="11.6258465">
    <tag k="name" v="Grieche"/>
    <tag k="wheelchair" v="limited"/>
    <tag k="wheelchair:description" v="evl.keine Toilette vorhanden"/>
    <tag k="amenity" v="restaurant"/>
  </node>
  <node id="-4720" version="0" timestamp="Fri Feb 24 10:53:36 +0100 2012" uid="1" user="" lat="52.1246522" lon="11.634721">
    <tag k="name" v="Magdeburger Dom"/>
    <tag k="wheelchair" v="unknown"/>
    <tag k="addr:city" v="Magdeburg"/>
    <tag k="addr:postcode" v="39104"/>
    <tag k="addr:housenumber" v="1"/>
    <tag k="addr:street" v="Am Dom"/>
    <tag k="amenity" v="place_of_worship"/>
    <tag k="website" v="http://www.magdeburgerdom.de"/>
    <tag k="phone" v="0391 5410436"/>
  </node>
</osm>
