<?xml version='1.0' encoding='UTF-8'?>
<osm version="0.6" generator="Osmosis 0.39">
  <node id="-92" version="0" timestamp="Fri Feb 24 10:53:32 +0100 2012" uid="1" user="" lat="48.0007235" lon="7.7870686">
    <tag k="shop" v="department_store"/>
    <tag k="name" v="AWR Assekuranzservice"/>
    <tag k="wheelchair" v="yes"/>
    <tag k="addr:city" v="Freiburg"/>
    <tag k="addr:postcode" v="79111"/>
    <tag k="addr:housenumber" v="61"/>
    <tag k="addr:street" v="Rieselfeldallee"/>
    <tag k="wheelchair:description" v="Absatzfreier Zugang, Aufzug"/>
    <tag k="website" v="http://www.kv-laden.de"/>
    <tag k="phone" v="0761 7695795"/>
  </node>
  <node id="-147" version="0" timestamp="Fri Feb 24 10:53:32 +0100 2012" uid="1" user="" lat="48.1618987" lon="8.646461">
    <tag k="name" v="ESV-Sportheim - Gaststätte"/>
    <tag k="wheelchair" v="yes"/>
    <tag k="addr:city" v="Rottweil"/>
    <tag k="addr:postcode" v="78628"/>
    <tag k="addr:housenumber" v="8"/>
    <tag k="addr:street" v="Untere Lehrstrasse"/>
    <tag k="wheelchair:description" v="Zugang zum Gastraum, Rollstuhlgerechte Toilette"/>
    <tag k="amenity" v="restaurant"/>
    <tag k="phone" v="+49 741 9410763"/>
  </node>
  <node id="-148" version="0" timestamp="Fri Feb 24 10:53:32 +0100 2012" uid="1" user="" lat="48.1691252" lon="8.626421">
    <tag k="name" v="Dominikaner-Museum"/>
    <tag k="wheelchair" v="yes"/>
    <tag k="addr:city" v="Rottweil"/>
    <tag k="addr:postcode" v="78628"/>
    <tag k="addr:housenumber" v="4"/>
    <tag k="tourism" v="museum"/>
    <tag k="addr:street" v="Kriegsdamm"/>
    <tag k="wheelchair:description" v="Aufzug, WC zu Museumsöffnungszeiten zugänglich"/>
    <tag k="website" v="http://www.dominikanermuseum.de/cms/index.php"/>
    <tag k="phone" v="+49 741 7662"/>
  </node>
  <node id="-149" version="0" timestamp="Fri Feb 24 10:53:32 +0100 2012" uid="1" user="" lat="48.1582988" lon="8.6271934">
    <tag k="name" v="Aquasol"/>
    <tag k="wheelchair" v="yes"/>
    <tag k="addr:city" v="Rottweil"/>
    <tag k="addr:postcode" v="78628"/>
    <tag k="addr:housenumber" v="11"/>
    <tag k="addr:street" v="Bruggerstraße"/>
    <tag k="wheelchair:description" v="vollständig barrierefrei, WC Zugang während der Öffnungszeiten"/>
    <tag k="amenity" v="swimming_pool"/>
    <tag k="website" v="http://www.aquasol-rottweil.de/"/>
    <tag k="phone" v="+49 741.2707-0"/>
  </node>
  <node id="-150" version="0" timestamp="Fri Feb 24 10:53:32 +0100 2012" uid="1" user="" lat="48.166421" lon="8.624462">
    <tag k="name" v="Kapuziner"/>
    <tag k="wheelchair" v="yes"/>
    <tag k="addr:city" v="Rottweil"/>
    <tag k="addr:postcode" v="78628"/>
    <tag k="amenity" v="cafe"/>
    <tag k="website" v="http://www.kapuziner-rottweil.de/"/>
  </node>
  <node id="-151" version="0" timestamp="Fri Feb 24 10:53:32 +0100 2012" uid="1" user="" lat="48.1999348" lon="8.6459342">
    <tag k="name" v="Kristallwelt Museum &amp; Shop"/>
    <tag k="wheelchair" v="yes"/>
    <tag k="addr:city" v="Dietingen"/>
    <tag k="addr:postcode" v="78661"/>
    <tag k="addr:housenumber" v="9"/>
    <tag k="tourism" v="museum"/>
    <tag k="addr:street" v="Fronstraße"/>
    <tag k="website" v="http://www.kristallwelt-dietingen.de"/>
    <tag k="phone" v="+49 741 26950110"/>
  </node>
  <node id="-321" version="0" timestamp="Fri Feb 24 10:53:32 +0100 2012" uid="1" user="" lat="47.69654" lon="9.06312">
    <tag k="name" v="Ganter Hotel &amp; Restaurant Mohren"/>
    <tag k="wheelchair" v="yes"/>
    <tag k="addr:city" v="Reichenau"/>
    <tag k="addr:postcode" v="78479"/>
    <tag k="addr:housenumber" v="141"/>
    <tag k="tourism" v="hotel"/>
    <tag k="addr:street" v="Pirminstrasse "/>
    <tag k="website" v="http://www.mohren-bodensee.de"/>
    <tag k="phone" v="+49 7534 99440"/>
  </node>
  <node id="-331" version="0" timestamp="Fri Feb 24 10:53:32 +0100 2012" uid="1" user="" lat="48.25" lon="8.1167">
    <tag k="name" v="Rechtsanwaelte Hartmann, Czelinski &amp; Kollegen"/>
    <tag k="wheelchair" v="yes"/>
    <tag k="addr:city" v="Offenburg"/>
    <tag k="addr:postcode" v="77652"/>
    <tag k="addr:housenumber" v="5b"/>
    <tag k="addr:street" v="Gaswerkstraße"/>
    <tag k="wheelchair:description" v="Ebenerdiger Zugang, Fahrstuhl"/>
    <tag k="amenity" v="bank"/>
    <tag k="website" v="http://anwaelte-hc.de"/>
    <tag k="phone" v="+49 781 9193180"/>
  </node>
  <node id="-349" version="0" timestamp="Fri Feb 24 10:53:32 +0100 2012" uid="1" user="" lat="48.1328892" lon="8.5289668">
    <tag k="name" v="Sparkasse Schwarzwald-Baar"/>
    <tag k="wheelchair" v="yes"/>
    <tag k="addr:city" v="Niedereschach"/>
    <tag k="addr:postcode" v="78078"/>
    <tag k="addr:housenumber" v="2"/>
    <tag k="addr:street" v="Villinger Straße"/>
    <tag k="amenity" v="bank"/>
    <tag k="phone" v="077203960"/>
  </node>
  <node id="-422" version="0" timestamp="Fri Feb 24 10:53:32 +0100 2012" uid="1" user="" lat="48.11602" lon="8.60567">
    <tag k="shop" v="supermarket"/>
    <tag k="name" v="Netto Einkaufsmarkt"/>
    <tag k="wheelchair" v="yes"/>
    <tag k="addr:city" v="Deißlingen"/>
    <tag k="addr:postcode" v="78652"/>
  </node>
  <node id="-423" version="0" timestamp="Fri Feb 24 10:53:32 +0100 2012" uid="1" user="" lat="48.1139985" lon="8.6041806">
    <tag k="name" v="Katholisches Gemeindezentrum"/>
    <tag k="wheelchair" v="yes"/>
    <tag k="addr:city" v="Deißlingen"/>
    <tag k="addr:postcode" v="78652"/>
    <tag k="addr:street" v="Pfarrgasse"/>
    <tag k="amenity" v="place_of_worship"/>
  </node>
  <node id="-424" version="0" timestamp="Fri Feb 24 10:53:32 +0100 2012" uid="1" user="" lat="48.1132873" lon="8.6040137">
    <tag k="name" v="St. Laurentius"/>
    <tag k="wheelchair" v="yes"/>
    <tag k="addr:city" v="Deißlingen"/>
    <tag k="addr:postcode" v="78652"/>
    <tag k="addr:street" v="Pfarrgasse"/>
    <tag k="amenity" v="place_of_worship"/>
  </node>
  <node id="-425" version="0" timestamp="Fri Feb 24 10:53:32 +0100 2012" uid="1" user="" lat="48.1102736" lon="8.6015924">
    <tag k="shop" v="beverages"/>
    <tag k="name" v="Hengstler Getränke-Fachmarkt"/>
    <tag k="wheelchair" v="yes"/>
    <tag k="addr:city" v="Deißlingen"/>
    <tag k="addr:postcode" v="78652"/>
    <tag k="addr:street" v="Kurze Str."/>
  </node>
  <node id="-426" version="0" timestamp="Fri Feb 24 10:53:32 +0100 2012" uid="1" user="" lat="48.1174141" lon="8.6092666">
    <tag k="name" v="Feuerwehrgerätehaus"/>
    <tag k="wheelchair" v="yes"/>
    <tag k="addr:city" v="Deißlingen"/>
    <tag k="addr:postcode" v="78652"/>
    <tag k="addr:housenumber" v="2"/>
    <tag k="addr:street" v="In Fürsten"/>
    <tag k="website" v="http://www.feuerwehr-deisslingen.de"/>
  </node>
  <node id="-687" version="0" timestamp="Fri Feb 24 10:53:32 +0100 2012" uid="1" user="" lat="47.8" lon="7.6333">
    <tag k="name" v="Gasthaus Schützen und Metzgerei Spath"/>
    <tag k="wheelchair" v="yes"/>
    <tag k="addr:city" v="Elzach"/>
    <tag k="addr:postcode" v="79215"/>
    <tag k="addr:housenumber" v="5"/>
    <tag k="addr:street" v="Waldkircherstraße "/>
    <tag k="wheelchair:description" v="behindertengerechter Fahrstuhl vorhanden"/>
    <tag k="amenity" v="restaurant"/>
    <tag k="website" v="http://www.spath-schuetzen.de"/>
    <tag k="phone" v="+49 7682 1265"/>
  </node>
  <node id="-736" version="0" timestamp="Fri Feb 24 10:53:32 +0100 2012" uid="1" user="" lat="47.99526" lon="7.84848">
    <tag k="name" v="Galeria Kaufhof"/>
    <tag k="wheelchair" v="yes"/>
    <tag k="addr:city" v="Freiburg"/>
    <tag k="addr:street" v="Kaiser-Josef-Strasse"/>
    <tag k="amenity" v="restaurant"/>
  </node>
  <node id="-741" version="0" timestamp="Fri Feb 24 10:53:32 +0100 2012" uid="1" user="" lat="48.5863868" lon="8.1023637">
    <tag k="shop" v="bakery"/>
    <tag k="name" v="Huber - Bäckerei und Konditorei"/>
    <tag k="wheelchair" v="limited"/>
    <tag k="addr:city" v="Kappelrodeck"/>
    <tag k="addr:postcode" v="77876"/>
    <tag k="addr:housenumber" v="4"/>
    <tag k="addr:street" v="Kirchweg"/>
    <tag k="phone" v="+497842462"/>
  </node>
  <node id="-745" version="0" timestamp="Fri Feb 24 10:53:32 +0100 2012" uid="1" user="" lat="48.5862487" lon="8.1030409">
    <tag k="name" v="Sparkasse"/>
    <tag k="wheelchair" v="limited"/>
    <tag k="wheelchair:description" v="Eingang ohne Stufen"/>
    <tag k="amenity" v="bank"/>
  </node>
  <node id="-746" version="0" timestamp="Fri Feb 24 10:53:32 +0100 2012" uid="1" user="" lat="48.5868758" lon="8.1018624">
    <tag k="name" v="Sankt Albin Kirche"/>
    <tag k="wheelchair" v="no"/>
    <tag k="wheelchair:description" v="Mehrere Stufen"/>
    <tag k="amenity" v="place_of_worship"/>
  </node>
  <node id="-747" version="0" timestamp="Fri Feb 24 10:53:32 +0100 2012" uid="1" user="" lat="48.5878749" lon="8.1042989">
    <tag k="name" v="Rodeckstadion"/>
    <tag k="wheelchair" v="limited"/>
    <tag k="wheelchair:description" v="Eingang ohne Stufen"/>
    <tag k="leisure" v="stadium"/>
  </node>
  <node id="-754" version="0" timestamp="Fri Feb 24 10:53:32 +0100 2012" uid="1" user="" lat="47.6607082" lon="7.8366663">
    <tag k="name" v="Parkplatz"/>
    <tag k="wheelchair" v="yes"/>
    <tag k="amenity" v="parking"/>
  </node>
  <node id="-755" version="0" timestamp="Fri Feb 24 10:53:32 +0100 2012" uid="1" user="" lat="47.6631096" lon="7.8385161">
    <tag k="name" v="Friedhof Parkplatz"/>
    <tag k="wheelchair" v="yes"/>
    <tag k="amenity" v="parking"/>
  </node>
  <node id="-756" version="0" timestamp="Fri Feb 24 10:53:32 +0100 2012" uid="1" user="" lat="47.6631926" lon="7.8312365">
    <tag k="name" v="Parkplatz"/>
    <tag k="wheelchair" v="yes"/>
    <tag k="amenity" v="parking"/>
  </node>
  <node id="-757" version="0" timestamp="Fri Feb 24 10:53:32 +0100 2012" uid="1" user="" lat="47.7066969" lon="7.8460039">
    <tag k="name" v="Schule"/>
    <tag k="wheelchair" v="no"/>
    <tag k="amenity" v="school"/>
  </node>
  <node id="-944" version="0" timestamp="Fri Feb 24 10:53:33 +0100 2012" uid="1" user="" lat="48.04302" lon="7.57243">
    <tag k="name" v="Restaurant am Rhein"/>
    <tag k="wheelchair" v="yes"/>
    <tag k="addr:city" v="Breisach"/>
    <tag k="amenity" v="bank"/>
  </node>
  <node id="-947" version="0" timestamp="Fri Feb 24 10:53:33 +0100 2012" uid="1" user="" lat="48.02913" lon="7.8607">
    <tag k="shop" v="supermarket"/>
    <tag k="name" v="Real"/>
    <tag k="wheelchair" v="yes"/>
  </node>
  <node id="-961" version="0" timestamp="Fri Feb 24 10:53:33 +0100 2012" uid="1" user="" lat="47.96571" lon="7.8568">
    <tag k="name" v="Sparkasse"/>
    <tag k="wheelchair" v="yes"/>
    <tag k="amenity" v="bank"/>
  </node>
  <node id="-962" version="0" timestamp="Fri Feb 24 10:53:33 +0100 2012" uid="1" user="" lat="47.9659001" lon="7.8557228">
    <tag k="shop" v="bakery"/>
    <tag k="name" v="Bäckerei"/>
    <tag k="wheelchair" v="yes"/>
  </node>
  <node id="-963" version="0" timestamp="Fri Feb 24 10:53:33 +0100 2012" uid="1" user="" lat="47.9826005" lon="7.854173">
    <tag k="name" v="Paketbox 102"/>
    <tag k="wheelchair" v="yes"/>
    <tag k="amenity" v="post_office"/>
  </node>
  <node id="-964" version="0" timestamp="Fri Feb 24 10:53:33 +0100 2012" uid="1" user="" lat="47.99255" lon="7.84977">
    <tag k="name" v="Haltestelle Holzmarkt"/>
    <tag k="wheelchair" v="yes"/>
    <tag k="railway" v="tram_stop"/>
  </node>
  <node id="-1200" version="0" timestamp="Fri Feb 24 10:53:33 +0100 2012" uid="1" user="" lat="48.2388877" lon="7.712733">
    <tag k="name" v="Hirschen"/>
    <tag k="wheelchair" v="limited"/>
    <tag k="wheelchair:description" v="Stufenloser Eingang (mit kleiner Schwelle) durch den Wintergarten, Toiletten ebenerdig, aber etwas eng"/>
    <tag k="amenity" v="restaurant"/>
  </node>
  <node id="-1212" version="0" timestamp="Fri Feb 24 10:53:33 +0100 2012" uid="1" user="" lat="47.6500725" lon="7.8199508">
    <tag k="name" v="Sonne "/>
    <tag k="wheelchair" v="limited"/>
    <tag k="wheelchair:description" v="WC nicht mit Rollstuhl erreichbar [Einfahrt über Terasse]"/>
    <tag k="amenity" v="restaurant"/>
  </node>
  <node id="-1294" version="0" timestamp="Fri Feb 24 10:53:33 +0100 2012" uid="1" user="" lat="47.9886064" lon="7.8483236">
    <tag k="shop" v="hairdresser"/>
    <tag k="name" v="Salon Krummer"/>
    <tag k="wheelchair" v="yes"/>
    <tag k="addr:city" v="Freiburg"/>
    <tag k="addr:postcode" v="79102"/>
    <tag k="addr:housenumber" v="4"/>
    <tag k="addr:street" v="Talstr."/>
    <tag k="wheelchair:description" v="ohne barrieren"/>
    <tag k="phone" v="0761 75247"/>
  </node>
  <node id="-1403" version="0" timestamp="Fri Feb 24 10:53:33 +0100 2012" uid="1" user="" lat="47.6505032" lon="7.8199876">
    <tag k="name" v="Toscana"/>
    <tag k="wheelchair" v="no"/>
    <tag k="amenity" v="restaurant"/>
  </node>
  <node id="-1405" version="0" timestamp="Fri Feb 24 10:53:33 +0100 2012" uid="1" user="" lat="47.6483162" lon="7.8146353">
    <tag k="shop" v="mall"/>
    <tag k="name" v="Hieber"/>
    <tag k="wheelchair" v="limited"/>
  </node>
  <node id="-1406" version="0" timestamp="Fri Feb 24 10:53:33 +0100 2012" uid="1" user="" lat="47.6496905" lon="7.8201479">
    <tag k="name" v="Bürgerbüro"/>
    <tag k="wheelchair" v="limited"/>
  </node>
  <node id="-1477" version="0" timestamp="Fri Feb 24 10:53:33 +0100 2012" uid="1" user="" lat="47.66054" lon="9.17178">
    <tag k="name" v="Technisches Rathaus / Bürgerbüro"/>
    <tag k="wheelchair" v="yes"/>
    <tag k="addr:city" v="Konstanz"/>
    <tag k="addr:postcode" v="78462"/>
    <tag k="addr:housenumber" v="24"/>
    <tag k="addr:street" v="Untere Laube"/>
    <tag k="phone" v="07531/9000"/>
  </node>
  <node id="-1478" version="0" timestamp="Fri Feb 24 10:53:33 +0100 2012" uid="1" user="" lat="47.68284" lon="9.15783">
    <tag k="name" v="Volksbank"/>
    <tag k="wheelchair" v="yes"/>
    <tag k="addr:city" v="Konstanz"/>
    <tag k="addr:postcode" v="78467"/>
    <tag k="addr:housenumber" v="96"/>
    <tag k="addr:street" v="Fürstenbergstraße"/>
    <tag k="amenity" v="bank"/>
  </node>
  <node id="-1479" version="0" timestamp="Fri Feb 24 10:53:33 +0100 2012" uid="1" user="" lat="47.68765" lon="9.14804">
    <tag k="shop" v="supermarket"/>
    <tag k="name" v="Edeka"/>
    <tag k="wheelchair" v="yes"/>
    <tag k="addr:city" v="Konstanz"/>
    <tag k="addr:postcode" v="78467"/>
    <tag k="addr:housenumber" v="2"/>
    <tag k="addr:street" v="Riedstraße"/>
  </node>
  <node id="-1480" version="0" timestamp="Fri Feb 24 10:53:33 +0100 2012" uid="1" user="" lat="47.6750462" lon="9.1633692">
    <tag k="name" v="Stadtwerke Konstanz"/>
    <tag k="wheelchair" v="yes"/>
  </node>
  <node id="-1481" version="0" timestamp="Fri Feb 24 10:53:33 +0100 2012" uid="1" user="" lat="47.6748468" lon="9.1584075">
    <tag k="shop" v="supermarket"/>
    <tag k="name" v="Aldi Süd"/>
    <tag k="wheelchair" v="yes"/>
  </node>
  <node id="-1482" version="0" timestamp="Fri Feb 24 10:53:33 +0100 2012" uid="1" user="" lat="47.6749403" lon="9.1569723">
    <tag k="shop" v="doityourself"/>
    <tag k="name" v="Praktiker"/>
    <tag k="wheelchair" v="yes"/>
  </node>
  <node id="-1483" version="0" timestamp="Fri Feb 24 10:53:33 +0100 2012" uid="1" user="" lat="47.673975" lon="9.156748">
    <tag k="name" v="Burger King"/>
    <tag k="wheelchair" v="limited"/>
    <tag k="amenity" v="fast_food"/>
  </node>
  <node id="-1484" version="0" timestamp="Fri Feb 24 10:53:33 +0100 2012" uid="1" user="" lat="47.6770923" lon="9.1480748">
    <tag k="shop" v="supermarket"/>
    <tag k="name" v="Kaufland"/>
    <tag k="wheelchair" v="yes"/>
  </node>
  <node id="-1485" version="0" timestamp="Fri Feb 24 10:53:33 +0100 2012" uid="1" user="" lat="47.6796769" lon="9.1480148">
    <tag k="shop" v="shoes"/>
    <tag k="name" v="Reno"/>
    <tag k="wheelchair" v="yes"/>
  </node>
  <node id="-1486" version="0" timestamp="Fri Feb 24 10:53:33 +0100 2012" uid="1" user="" lat="47.6862653" lon="9.1462437">
    <tag k="shop" v="bakery"/>
    <tag k="name" v="Holsteins Backhaus"/>
    <tag k="wheelchair" v="no"/>
  </node>
  <node id="-1487" version="0" timestamp="Fri Feb 24 10:53:33 +0100 2012" uid="1" user="" lat="47.6914625" lon="9.1457449">
    <tag k="shop" v="bakery"/>
    <tag k="name" v="Kopp"/>
    <tag k="wheelchair" v="no"/>
  </node>
  <node id="-1488" version="0" timestamp="Fri Feb 24 10:53:33 +0100 2012" uid="1" user="" lat="47.6901839" lon="9.1469526">
    <tag k="shop" v="supermarket"/>
    <tag k="name" v="Lidl"/>
    <tag k="wheelchair" v="yes"/>
  </node>
  <node id="-1490" version="0" timestamp="Fri Feb 24 10:53:33 +0100 2012" uid="1" user="" lat="47.6723039" lon="9.1942812">
    <tag k="name" v="Dr. Zinsmayer"/>
    <tag k="wheelchair" v="yes"/>
    <tag k="addr:city" v="Konstanz"/>
    <tag k="addr:postcode" v="78464"/>
    <tag k="addr:housenumber" v="2a"/>
    <tag k="addr:street" v="Brandesstr."/>
    <tag k="amenity" v="doctors"/>
  </node>
  <node id="-1497" version="0" timestamp="Fri Feb 24 10:53:33 +0100 2012" uid="1" user="" lat="47.6855136" lon="9.1492331">
    <tag k="name" v="Ried Apotheke"/>
    <tag k="wheelchair" v="yes"/>
    <tag k="addr:city" v="Konstanz"/>
    <tag k="addr:postcode" v="78467"/>
    <tag k="addr:housenumber" v="4"/>
    <tag k="addr:street" v="Breslauerstr."/>
    <tag k="amenity" v="pharmacy"/>
  </node>
  <node id="-1500" version="0" timestamp="Fri Feb 24 10:53:33 +0100 2012" uid="1" user="" lat="47.6794114" lon="9.1699706">
    <tag k="name" v="Suso Apotheke"/>
    <tag k="wheelchair" v="yes"/>
    <tag k="amenity" v="pharmacy"/>
  </node>
  <node id="-1508" version="0" timestamp="Fri Feb 24 10:53:33 +0100 2012" uid="1" user="" lat="47.6640014" lon="9.1728718">
    <tag k="name" v="Amtsgericiht KOnstanz"/>
    <tag k="wheelchair" v="yes"/>
    <tag k="addr:city" v="Konstanz"/>
    <tag k="addr:postcode" v="78462"/>
    <tag k="addr:housenumber" v="12"/>
    <tag k="addr:street" v="Untere Laube"/>
    <tag k="amenity" v="courthouse"/>
  </node>
  <node id="-1509" version="0" timestamp="Fri Feb 24 10:53:33 +0100 2012" uid="1" user="" lat="47.668293" lon="9.1788713">
    <tag k="name" v="Archäologisches Landesmuseum"/>
    <tag k="wheelchair" v="yes"/>
    <tag k="addr:city" v="Konstanz"/>
    <tag k="addr:postcode" v="78467"/>
    <tag k="tourism" v="museum"/>
    <tag k="addr:street" v="Benediktinerplatz"/>
  </node>
  <node id="-1511" version="0" timestamp="Fri Feb 24 10:53:33 +0100 2012" uid="1" user="" lat="47.6695245" lon="9.1771902">
    <tag k="name" v="Landratsamt Konstanz"/>
    <tag k="wheelchair" v="yes"/>
    <tag k="addr:city" v="Konstanz"/>
    <tag k="addr:postcode" v="78467"/>
    <tag k="addr:street" v="Benediktinerplatz"/>
  </node>
  <node id="-1515" version="0" timestamp="Fri Feb 24 10:53:33 +0100 2012" uid="1" user="" lat="47.6808037" lon="9.1629369">
    <tag k="name" v="Caf&apos;e Bistro Journal"/>
    <tag k="wheelchair" v="no"/>
    <tag k="amenity" v="cafe"/>
  </node>
  <node id="-1620" version="0" timestamp="Fri Feb 24 10:53:33 +0100 2012" uid="1" user="" lat="47.6689538" lon="9.1646856">
    <tag k="name" v="Naturfreundehaus Konstanz"/>
    <tag k="wheelchair" v="limited"/>
    <tag k="addr:city" v="Konstanz"/>
    <tag k="addr:postcode" v="78462"/>
    <tag k="addr:housenumber" v="13"/>
    <tag k="addr:street" v="Winterersteig"/>
    <tag k="amenity" v="restaurant"/>
  </node>
  <node id="-1713" version="0" timestamp="Fri Feb 24 10:53:33 +0100 2012" uid="1" user="" lat="48.0759891" lon="8.7305791">
    <tag k="name" v="Stadtpark"/>
    <tag k="wheelchair" v="limited"/>
    <tag k="tourism" v="attraction"/>
    <tag k="wheelchair:description" v="Starke Steigungen, Kiesweg"/>
  </node>
  <node id="-1714" version="0" timestamp="Fri Feb 24 10:53:33 +0100 2012" uid="1" user="" lat="48.0766133" lon="8.724497">
    <tag k="name" v="Tagesklinik"/>
    <tag k="wheelchair" v="yes"/>
    <tag k="amenity" v="hospital"/>
  </node>
  <node id="-1715" version="0" timestamp="Fri Feb 24 10:53:33 +0100 2012" uid="1" user="" lat="48.0764828" lon="8.7346497">
    <tag k="shop" v="supermarket"/>
    <tag k="name" v="REWE Markt"/>
    <tag k="wheelchair" v="yes"/>
    <tag k="wheelchair:description" v="Zugang Behinderten-WC teilweise zugestellt"/>
  </node>
  <node id="-1716" version="0" timestamp="Fri Feb 24 10:53:33 +0100 2012" uid="1" user="" lat="48.075566" lon="8.7371918">
    <tag k="name" v="Ärztehaus"/>
    <tag k="wheelchair" v="yes"/>
    <tag k="addr:city" v="Spaichingen"/>
    <tag k="addr:postcode" v="78549"/>
    <tag k="addr:housenumber" v="2"/>
    <tag k="addr:street" v="Am Marktplatz"/>
    <tag k="amenity" v="doctors"/>
  </node>
  <node id="-1822" version="0" timestamp="Fri Feb 24 10:53:33 +0100 2012" uid="1" user="" lat="47.9948097" lon="7.8457685">
    <tag k="name" v="Parkplatz"/>
    <tag k="wheelchair" v="unknown"/>
    <tag k="wheelchair:description" v="Behindertenparkplatz (2x)"/>
    <tag k="amenity" v="parking"/>
  </node>
  <node id="-1914" version="0" timestamp="Fri Feb 24 10:53:33 +0100 2012" uid="1" user="" lat="48.3349673" lon="8.661984">
    <tag k="name" v="Apotheke-Vöhringen"/>
    <tag k="wheelchair" v="yes"/>
    <tag k="addr:city" v="Vöhringen"/>
    <tag k="addr:postcode" v="72189"/>
    <tag k="addr:housenumber" v="4"/>
    <tag k="addr:street" v="Dorfstraße"/>
    <tag k="amenity" v="pharmacy"/>
    <tag k="website" v="http://www.apotheke-voehringen.de/"/>
  </node>
  <node id="-2150" version="0" timestamp="Fri Feb 24 10:53:34 +0100 2012" uid="1" user="" lat="48.01422" lon="7.84836">
    <tag k="name" v="die kantina"/>
    <tag k="wheelchair" v="yes"/>
    <tag k="addr:city" v="freiburg"/>
    <tag k="addr:postcode" v="79106"/>
    <tag k="addr:housenumber" v="12"/>
    <tag k="addr:street" v="kantinenstr"/>
    <tag k="amenity" v="restaurant"/>
    <tag k="website" v="https://www.facebook.com/pages/die-kantina/256576971045034"/>
  </node>
  <node id="-2199" version="0" timestamp="Fri Feb 24 10:53:34 +0100 2012" uid="1" user="" lat="48.06983" lon="8.74609">
    <tag k="shop" v="supermarket"/>
    <tag k="name" v="LIDL"/>
    <tag k="wheelchair" v="limited"/>
    <tag k="wheelchair:description" v="Kein WC"/>
  </node>
  <node id="-2451" version="0" timestamp="Fri Feb 24 10:53:34 +0100 2012" uid="1" user="" lat="48.04218" lon="7.57394">
    <tag k="name" v="Restaurant am Rhein"/>
    <tag k="wheelchair" v="yes"/>
    <tag k="addr:city" v="Breisach am Rhein"/>
    <tag k="addr:postcode" v="79206"/>
    <tag k="addr:housenumber" v="11"/>
    <tag k="addr:street" v="Hafenstrasse "/>
    <tag k="amenity" v="bank"/>
    <tag k="phone" v="+49 (0) 7667/ 1023"/>
  </node>
  <node id="-2494" version="0" timestamp="Fri Feb 24 10:53:34 +0100 2012" uid="1" user="" lat="48.4610141" lon="7.9261512">
    <tag k="name" v="Bäckerei-Konditorei-Bistro Siegwart KG"/>
    <tag k="wheelchair" v="limited"/>
    <tag k="addr:city" v="Offenburg"/>
    <tag k="addr:postcode" v="77656"/>
    <tag k="addr:housenumber" v="1"/>
    <tag k="addr:street" v="Rabenplatz"/>
    <tag k="wheelchair:description" v="barrierefreier Zugang"/>
    <tag k="amenity" v="cafe"/>
    <tag k="website" v="http://www.baeckerei-siegwart.de"/>
    <tag k="phone" v="0781 66998"/>
  </node>
  <node id="-2510" version="0" timestamp="Fri Feb 24 10:53:34 +0100 2012" uid="1" user="" lat="47.6542145" lon="8.5755656">
    <tag k="name" v="Özan Kebeb"/>
    <tag k="wheelchair" v="no"/>
    <tag k="addr:city" v="Jestetten"/>
    <tag k="addr:postcode" v="79798"/>
    <tag k="addr:street" v="Schaffhauser Straße"/>
    <tag k="amenity" v="fast_food"/>
  </node>
  <node id="-2719" version="0" timestamp="Fri Feb 24 10:53:34 +0100 2012" uid="1" user="" lat="48.3495146" lon="8.5115206">
    <tag k="name" v="Restaurant Farrenstall"/>
    <tag k="wheelchair" v="yes"/>
    <tag k="wheelchair:description" v="vollkommen rollstuhlgerecht"/>
    <tag k="amenity" v="restaurant"/>
  </node>
  <node id="-2720" version="0" timestamp="Fri Feb 24 10:53:34 +0100 2012" uid="1" user="" lat="48.3510901" lon="8.5026531">
    <tag k="name" v="Autohaus Blocher OHG"/>
    <tag k="wheelchair" v="yes"/>
    <tag k="addr:city" v="Dornhan"/>
    <tag k="addr:postcode" v="72175"/>
    <tag k="addr:housenumber" v="6"/>
    <tag k="addr:street" v="Daimlerstr."/>
    <tag k="wheelchair:description" v="für Rollifahrer super"/>
    <tag k="amenity" v="car_rental"/>
    <tag k="website" v="http://www.auto-blocher.de"/>
    <tag k="phone" v="494974559117"/>
  </node>
  <node id="-2721" version="0" timestamp="Fri Feb 24 10:53:34 +0100 2012" uid="1" user="" lat="48.33083" lon="8.53334">
    <tag k="name" v="Hotel Gasthof Löwen"/>
    <tag k="wheelchair" v="yes"/>
    <tag k="wheelchair:description" v="rolligerecht"/>
    <tag k="amenity" v="restaurant"/>
  </node>
  <node id="-2770" version="0" timestamp="Fri Feb 24 10:53:34 +0100 2012" uid="1" user="" lat="48.2116357" lon="8.2309636">
    <tag k="shop" v="dry_cleaning"/>
    <tag k="name" v="Am &quot;Fanti-Eck&quot;"/>
    <tag k="wheelchair" v="yes"/>
    <tag k="addr:city" v="Hornberg"/>
    <tag k="addr:postcode" v="78132"/>
    <tag k="addr:housenumber" v="103"/>
    <tag k="addr:street" v="Hauptstraße"/>
    <tag k="wheelchair:description" v="Ladengeschäft, keine Kundentoiletten vorhanden!"/>
    <tag k="website" v="http://www.taxi-lehmann.de"/>
    <tag k="phone" v="+49 7833 959611"/>
  </node>
  <node id="-2772" version="0" timestamp="Fri Feb 24 10:53:34 +0100 2012" uid="1" user="" lat="48.2140554" lon="8.2302432">
    <tag k="shop" v="supermarket"/>
    <tag k="name" v="Edeka Aktiv-Markt"/>
    <tag k="wheelchair" v="yes"/>
    <tag k="addr:city" v="Hornberg"/>
    <tag k="addr:postcode" v="78132"/>
    <tag k="addr:housenumber" v="9"/>
    <tag k="addr:street" v="Poststraße"/>
  </node>
  <node id="-2902" version="0" timestamp="Fri Feb 24 10:53:34 +0100 2012" uid="1" user="" lat="47.9952549" lon="7.8506524">
    <tag k="name" v="Augenärztin Große-Ryken"/>
    <tag k="wheelchair" v="limited"/>
    <tag k="addr:housenumber" v="179"/>
    <tag k="addr:street" v="Kaiser-Joseph-Str. "/>
    <tag k="wheelchair:description" v="Aufzugtürbreite 76 cm; Innenmaße 114cm x 80cm"/>
    <tag k="amenity" v="doctors"/>
  </node>
  <node id="-2935" version="0" timestamp="Fri Feb 24 10:53:34 +0100 2012" uid="1" user="" lat="47.8" lon="7.6333">
    <tag k="shop" v="furniture"/>
    <tag k="name" v="Akzentro GmbH"/>
    <tag k="wheelchair" v="limited"/>
    <tag k="addr:city" v="Limburgerhof"/>
    <tag k="addr:postcode" v="67117"/>
    <tag k="addr:housenumber" v="12"/>
    <tag k="addr:street" v="Jahnstraße"/>
    <tag k="wheelchair:description" v="Verkaufsraum Erdgeschoss ebenerdig, Toiletten und 1. OG nur über Treppe erreichbar"/>
    <tag k="website" v="http://www.akzentro.de"/>
    <tag k="phone" v="06236/465176"/>
  </node>
  <node id="-3459" version="0" timestamp="Fri Feb 24 10:53:35 +0100 2012" uid="1" user="" lat="48.0999212" lon="7.9163781">
    <tag k="name" v="Linders Weinlädele und Café"/>
    <tag k="wheelchair" v="yes"/>
    <tag k="addr:city" v="Endingen"/>
    <tag k="addr:postcode" v="79346"/>
    <tag k="addr:housenumber" v="12"/>
    <tag k="addr:street" v="Stollbruckstraße "/>
    <tag k="amenity" v="cafe"/>
    <tag k="website" v="http://www.winzerhof-linder.de/weinlaedele.html"/>
    <tag k="phone" v="07642 / 5525"/>
  </node>
  <node id="-3732" version="0" timestamp="Fri Feb 24 10:53:35 +0100 2012" uid="1" user="" lat="48" lon="7.85">
    <tag k="name" v="Restaurant Seehof"/>
    <tag k="wheelchair" v="limited"/>
    <tag k="addr:city" v="Schluchsee"/>
    <tag k="addr:postcode" v="79859"/>
    <tag k="addr:housenumber" v="2"/>
    <tag k="addr:street" v="Kirchsteige"/>
    <tag k="wheelchair:description" v="Keine Stufen, Rollstuhlgerechtes WC ab 2012"/>
    <tag k="amenity" v="restaurant"/>
    <tag k="website" v="http://www.seehof-schluchsee.de"/>
  </node>
  <node id="-3763" version="0" timestamp="Fri Feb 24 10:53:35 +0100 2012" uid="1" user="" lat="48.4319" lon="8.20908">
    <tag k="name" v="Das Bad Peterstal"/>
    <tag k="wheelchair" v="yes"/>
    <tag k="tourism" v="hotel"/>
  </node>
  <node id="-3826" version="0" timestamp="Fri Feb 24 10:53:35 +0100 2012" uid="1" user="" lat="48.120265" lon="7.8492134">
    <tag k="name" v="Volksbank Reisebüro WC"/>
    <tag k="wheelchair" v="yes"/>
    <tag k="wheelchair:description" v="Rollstuhl WC"/>
    <tag k="amenity" v="bank"/>
  </node>
  <node id="-3828" version="0" timestamp="Fri Feb 24 10:53:35 +0100 2012" uid="1" user="" lat="48.1201278" lon="7.8483413">
    <tag k="shop" v="electronics"/>
    <tag k="name" v="Hörgeräte Akustiker Enderle "/>
    <tag k="wheelchair" v="unknown"/>
    <tag k="wheelchair:description" v="ebener Eingang"/>
  </node>
  <node id="-3829" version="0" timestamp="Fri Feb 24 10:53:35 +0100 2012" uid="1" user="" lat="48.12034" lon="7.84919">
    <tag k="shop" v="optician"/>
    <tag k="name" v="Optiker Nosch"/>
    <tag k="wheelchair" v="limited"/>
    <tag k="wheelchair:description" v="ebener Eingang ohne WC"/>
  </node>
  <node id="-3830" version="0" timestamp="Fri Feb 24 10:53:35 +0100 2012" uid="1" user="" lat="48.1206766" lon="7.849367">
    <tag k="shop" v="optician"/>
    <tag k="name" v="Rosset "/>
    <tag k="wheelchair" v="limited"/>
    <tag k="wheelchair:description" v="ebener Eingang ohne WC"/>
  </node>
  <node id="-3831" version="0" timestamp="Fri Feb 24 10:53:35 +0100 2012" uid="1" user="" lat="48.1207516" lon="7.8497241">
    <tag k="shop" v="clothes"/>
    <tag k="name" v="Blum Jundt"/>
    <tag k="wheelchair" v="limited"/>
    <tag k="wheelchair:description" v="ebener Eingang ohne WC"/>
  </node>
  <node id="-3832" version="0" timestamp="Fri Feb 24 10:53:35 +0100 2012" uid="1" user="" lat="48.1211224" lon="7.8504764">
    <tag k="shop" v="books"/>
    <tag k="name" v="Sillmann"/>
    <tag k="wheelchair" v="limited"/>
    <tag k="wheelchair:description" v="ebener Eingang ohne WC"/>
  </node>
  <node id="-3833" version="0" timestamp="Fri Feb 24 10:53:35 +0100 2012" uid="1" user="" lat="48.1211314" lon="7.850574">
    <tag k="shop" v="clothes"/>
    <tag k="name" v="Intersport "/>
    <tag k="wheelchair" v="limited"/>
    <tag k="wheelchair:description" v="ebener Eingang ohne WC"/>
  </node>
  <node id="-3834" version="0" timestamp="Fri Feb 24 10:53:35 +0100 2012" uid="1" user="" lat="48.1211228" lon="7.8504895">
    <tag k="name" v="Deutsche Bank"/>
    <tag k="wheelchair" v="limited"/>
    <tag k="wheelchair:description" v="ebener Eingang ohne WC"/>
    <tag k="amenity" v="bank"/>
  </node>
  <node id="-3835" version="0" timestamp="Fri Feb 24 10:53:35 +0100 2012" uid="1" user="" lat="48.1211845" lon="7.8506295">
    <tag k="name" v="Mac Paper"/>
    <tag k="wheelchair" v="limited"/>
    <tag k="wheelchair:description" v="ebener Eingang ohne WC"/>
    <tag k="amenity" v="bank"/>
  </node>
  <node id="-3836" version="0" timestamp="Fri Feb 24 10:53:35 +0100 2012" uid="1" user="" lat="48.1213089" lon="7.8503189">
    <tag k="name" v="Eisdiele Saviane Top Eis"/>
    <tag k="wheelchair" v="unknown"/>
    <tag k="wheelchair:description" v="ebener Eingang ohne WC"/>
    <tag k="amenity" v="cafe"/>
  </node>
  <node id="-3837" version="0" timestamp="Fri Feb 24 10:53:35 +0100 2012" uid="1" user="" lat="48.1214711" lon="7.8505829">
    <tag k="shop" v="supermarket"/>
    <tag k="name" v="DM Markt "/>
    <tag k="wheelchair" v="limited"/>
    <tag k="wheelchair:description" v="ebener Eingang ohne WC"/>
  </node>
  <node id="-3838" version="0" timestamp="Fri Feb 24 10:53:35 +0100 2012" uid="1" user="" lat="48.1214557" lon="7.8507409">
    <tag k="shop" v="bakery"/>
    <tag k="name" v="Ritter"/>
    <tag k="wheelchair" v="limited"/>
    <tag k="wheelchair:description" v="ebener Eingang ohne WC"/>
  </node>
  <node id="-3839" version="0" timestamp="Fri Feb 24 10:53:35 +0100 2012" uid="1" user="" lat="48.1214851" lon="7.8508419">
    <tag k="name" v="Central"/>
    <tag k="wheelchair" v="limited"/>
    <tag k="wheelchair:description" v="ebener Eingang ohne WC"/>
    <tag k="amenity" v="pharmacy"/>
  </node>
  <node id="-3840" version="0" timestamp="Fri Feb 24 10:53:35 +0100 2012" uid="1" user="" lat="48.1206484" lon="7.8500139">
    <tag k="name" v="Markplatz"/>
    <tag k="wheelchair" v="limited"/>
    <tag k="wheelchair:description" v="ebener Eingang ohne WC"/>
    <tag k="amenity" v="pharmacy"/>
  </node>
  <node id="-3841" version="0" timestamp="Fri Feb 24 10:53:35 +0100 2012" uid="1" user="" lat="48.1202418" lon="7.850069">
    <tag k="shop" v="books"/>
    <tag k="name" v="Badische Zeitung Ticket"/>
    <tag k="wheelchair" v="limited"/>
    <tag k="wheelchair:description" v="ebener Eingang ohne WC"/>
  </node>
  <node id="-3842" version="0" timestamp="Fri Feb 24 10:53:35 +0100 2012" uid="1" user="" lat="48.1198926" lon="7.8503168">
    <tag k="name" v="Sparkasse "/>
    <tag k="wheelchair" v="yes"/>
    <tag k="wheelchair:description" v="Am Schalter Schlüssel holen"/>
    <tag k="amenity" v="atm"/>
  </node>
  <node id="-3843" version="0" timestamp="Fri Feb 24 10:53:35 +0100 2012" uid="1" user="" lat="48.1201693" lon="7.8510657">
    <tag k="shop" v="books"/>
    <tag k="name" v="Outlet "/>
    <tag k="wheelchair" v="limited"/>
    <tag k="wheelchair:description" v="ebener Eingang ohne WC"/>
  </node>
  <node id="-3844" version="0" timestamp="Fri Feb 24 10:53:35 +0100 2012" uid="1" user="" lat="48.1200124" lon="7.850952">
    <tag k="shop" v="supermarket"/>
    <tag k="name" v="Türkische Spezialitäten"/>
    <tag k="wheelchair" v="limited"/>
    <tag k="wheelchair:description" v="ebener Eingang ohne WC"/>
  </node>
  <node id="-3845" version="0" timestamp="Fri Feb 24 10:53:35 +0100 2012" uid="1" user="" lat="48.1199818" lon="7.8510191">
    <tag k="shop" v="clothes"/>
    <tag k="name" v="Modegeschäft"/>
    <tag k="wheelchair" v="limited"/>
    <tag k="wheelchair:description" v="ebener Eingang ohne WC"/>
  </node>
  <node id="-3846" version="0" timestamp="Fri Feb 24 10:53:35 +0100 2012" uid="1" user="" lat="48.1196329" lon="7.8517665">
    <tag k="name" v="Hinterhaus"/>
    <tag k="wheelchair" v="limited"/>
    <tag k="wheelchair:description" v="ebener Eingang ohne WC"/>
    <tag k="amenity" v="cafe"/>
  </node>
  <node id="-3847" version="0" timestamp="Fri Feb 24 10:53:35 +0100 2012" uid="1" user="" lat="48.1197804" lon="7.8494794">
    <tag k="name" v="Zur Post"/>
    <tag k="wheelchair" v="yes"/>
    <tag k="wheelchair:description" v=" Eingang  mit Rampe über Parkplatz Sparkasse"/>
    <tag k="amenity" v="restaurant"/>
  </node>
  <node id="-3848" version="0" timestamp="Fri Feb 24 10:53:35 +0100 2012" uid="1" user="" lat="48.1195508" lon="7.8493513">
    <tag k="name" v="Finanzamt"/>
    <tag k="wheelchair" v="limited"/>
    <tag k="wheelchair:description" v="Aufzug mit Klingel"/>
  </node>
  <node id="-3849" version="0" timestamp="Fri Feb 24 10:53:35 +0100 2012" uid="1" user="" lat="48.1199726" lon="7.8485132">
    <tag k="name" v="Landratsamt"/>
    <tag k="wheelchair" v="yes"/>
    <tag k="wheelchair:description" v="Rolli WC im 1. OG"/>
  </node>
  <node id="-3850" version="0" timestamp="Fri Feb 24 10:53:35 +0100 2012" uid="1" user="" lat="48.1209226" lon="7.8474532">
    <tag k="name" v="Stadtbiliothek"/>
    <tag k="wheelchair" v="yes"/>
    <tag k="wheelchair:description" v="Rolli WC"/>
  </node>
  <node id="-3851" version="0" timestamp="Fri Feb 24 10:53:35 +0100 2012" uid="1" user="" lat="48.1209226" lon="7.8474532">
    <tag k="name" v="Stadtbiliothek"/>
    <tag k="wheelchair" v="yes"/>
    <tag k="wheelchair:description" v="Rolli WC"/>
  </node>
  <node id="-3852" version="0" timestamp="Fri Feb 24 10:53:35 +0100 2012" uid="1" user="" lat="48.1209988" lon="7.8470101">
    <tag k="name" v="Rathaus "/>
    <tag k="wheelchair" v="yes"/>
    <tag k="wheelchair:description" v="Rolli WC"/>
  </node>
  <node id="-3853" version="0" timestamp="Fri Feb 24 10:53:35 +0100 2012" uid="1" user="" lat="48.1210716" lon="7.8490807">
    <tag k="shop" v="books"/>
    <tag k="name" v="Blum"/>
    <tag k="wheelchair" v="limited"/>
    <tag k="wheelchair:description" v="ebener Eingang ohne WC"/>
  </node>
  <node id="-3854" version="0" timestamp="Fri Feb 24 10:53:35 +0100 2012" uid="1" user="" lat="48.1211918" lon="7.8497774">
    <tag k="shop" v="computer"/>
    <tag k="name" v="Internet Cafe"/>
    <tag k="wheelchair" v="limited"/>
    <tag k="wheelchair:description" v="ebener Eingang ohne WC"/>
  </node>
  <node id="-3914" version="0" timestamp="Fri Feb 24 10:53:35 +0100 2012" uid="1" user="" lat="47.7506569" lon="7.9999043">
    <tag k="name" v="Hotel Rößle"/>
    <tag k="wheelchair" v="yes"/>
    <tag k="addr:postcode" v="79682"/>
    <tag k="addr:housenumber" v="2"/>
    <tag k="tourism" v="hotel"/>
    <tag k="addr:street" v="Kapellenweg "/>
  </node>
  <node id="-3916" version="0" timestamp="Fri Feb 24 10:53:35 +0100 2012" uid="1" user="" lat="47.75058" lon="7.99984">
    <tag k="name" v="Restaurant Hotel Rößle"/>
    <tag k="wheelchair" v="yes"/>
    <tag k="addr:city" v="Todtmoos"/>
    <tag k="addr:postcode" v="79682"/>
    <tag k="addr:housenumber" v="2"/>
    <tag k="addr:street" v="Kapellenweg"/>
    <tag k="amenity" v="restaurant"/>
    <tag k="website" v="http://www.hotel-roessle.de"/>
    <tag k="phone" v="00476790660"/>
  </node>
  <node id="-3946" version="0" timestamp="Fri Feb 24 10:53:35 +0100 2012" uid="1" user="" lat="47.7747738" lon="8.259922">
    <tag k="name" v="Haus des Gastes / Touristinformation"/>
    <tag k="wheelchair" v="yes"/>
    <tag k="addr:city" v="Grafenhausen"/>
    <tag k="addr:postcode" v="79865"/>
    <tag k="addr:housenumber" v="1"/>
    <tag k="addr:street" v="Schulstr. "/>
    <tag k="wheelchair:description" v="Aufzug und barrierefreie Toilette mit Euroschloss"/>
    <tag k="website" v="http://www.rothauserland.de"/>
    <tag k="phone" v="+49 7748 520-41"/>
  </node>
  <node id="-3947" version="0" timestamp="Fri Feb 24 10:53:35 +0100 2012" uid="1" user="" lat="47.7736957" lon="8.2616903">
    <tag k="name" v="Sparkasse "/>
    <tag k="wheelchair" v="limited"/>
    <tag k="addr:city" v="Grafenhausen"/>
    <tag k="addr:postcode" v="79865"/>
    <tag k="addr:street" v="Rathausplatz"/>
    <tag k="wheelchair:description" v="Zugang über breite Rampe und Automatiktür"/>
    <tag k="amenity" v="bank"/>
    <tag k="phone" v="+49 7748 920-50"/>
  </node>
  <node id="-3948" version="0" timestamp="Fri Feb 24 10:53:35 +0100 2012" uid="1" user="" lat="47.773819" lon="8.2616578">
    <tag k="name" v="Marien-Apotheke"/>
    <tag k="wheelchair" v="limited"/>
    <tag k="addr:city" v="Grafenhausen"/>
    <tag k="addr:postcode" v="79865"/>
    <tag k="addr:street" v="Rathausplatz"/>
    <tag k="wheelchair:description" v="Zugang über Rampe"/>
    <tag k="amenity" v="pharmacy"/>
    <tag k="phone" v="+49 7748 294"/>
  </node>
  <node id="-3949" version="0" timestamp="Fri Feb 24 10:53:35 +0100 2012" uid="1" user="" lat="47.7740273" lon="8.2623091">
    <tag k="name" v="Volksbank Hochrhein"/>
    <tag k="wheelchair" v="limited"/>
    <tag k="addr:city" v="Grafenhausen"/>
    <tag k="addr:postcode" v="79865"/>
    <tag k="addr:street" v="Rathausplatz"/>
    <tag k="wheelchair:description" v="Zugang über Rampe und Automatiktür"/>
    <tag k="amenity" v="bank"/>
    <tag k="phone" v="+49 7751 8860"/>
  </node>
  <node id="-3952" version="0" timestamp="Fri Feb 24 10:53:35 +0100 2012" uid="1" user="" lat="47.7737283" lon="8.2614782">
    <tag k="name" v="Sparkasse"/>
    <tag k="wheelchair" v="limited"/>
    <tag k="wheelchair:description" v="Zugang über Rampe und Automatiktür"/>
    <tag k="amenity" v="atm"/>
  </node>
  <node id="-3954" version="0" timestamp="Fri Feb 24 10:53:35 +0100 2012" uid="1" user="" lat="47.7739824" lon="8.2625422">
    <tag k="name" v="EC-Automat Volksbank"/>
    <tag k="wheelchair" v="unknown"/>
    <tag k="amenity" v="atm"/>
  </node>
  <node id="-3961" version="0" timestamp="Fri Feb 24 10:53:35 +0100 2012" uid="1" user="" lat="47.7713554" lon="8.2597666">
    <tag k="name" v="Landhotel Haringerhof"/>
    <tag k="wheelchair" v="limited"/>
    <tag k="addr:city" v="Grafenhausen"/>
    <tag k="addr:postcode" v="79865"/>
    <tag k="addr:housenumber" v="1"/>
    <tag k="addr:street" v="Brandhaldenweg "/>
    <tag k="wheelchair:description" v="Ebenerdiger Zugang"/>
    <tag k="amenity" v="restaurant"/>
    <tag k="website" v="http://www.landhotel-haringerhof.de"/>
    <tag k="phone" v="+49 7748 254"/>
  </node>
  <node id="-3962" version="0" timestamp="Fri Feb 24 10:53:35 +0100 2012" uid="1" user="" lat="47.7743956" lon="8.2611594">
    <tag k="name" v="Café Müller"/>
    <tag k="wheelchair" v="yes"/>
    <tag k="addr:city" v="Grafenhausen"/>
    <tag k="addr:postcode" v="79865"/>
    <tag k="addr:housenumber" v="1"/>
    <tag k="addr:street" v="Kirchsteig "/>
    <tag k="wheelchair:description" v="Ebenerdiger Zugang mit Automatiktür"/>
    <tag k="amenity" v="cafe"/>
    <tag k="phone" v="+49 7748 214"/>
  </node>
  <node id="-3963" version="0" timestamp="Fri Feb 24 10:53:35 +0100 2012" uid="1" user="" lat="47.7600567" lon="8.2778219">
    <tag k="name" v="Hotel-Schwarzwaldgasthof  Tannenmühle"/>
    <tag k="wheelchair" v="yes"/>
    <tag k="addr:city" v="Grafenhausen"/>
    <tag k="addr:postcode" v="79865"/>
    <tag k="addr:housenumber" v="5"/>
    <tag k="addr:street" v="Tannenmühleweg"/>
    <tag k="wheelchair:description" v="Ebenerdiger Zugang und externe rollstuhlgerechte Toilette"/>
    <tag k="amenity" v="restaurant"/>
    <tag k="website" v="http://www.tannenmuehle.de"/>
    <tag k="phone" v="+49 7748 215"/>
  </node>
  <node id="-3964" version="0" timestamp="Fri Feb 24 10:53:35 +0100 2012" uid="1" user="" lat="47.763767" lon="8.2778415">
    <tag k="name" v="Landidylle Schlüchtmühle"/>
    <tag k="wheelchair" v="yes"/>
    <tag k="addr:city" v="Grafenhausen"/>
    <tag k="addr:postcode" v="79865"/>
    <tag k="addr:housenumber" v="4"/>
    <tag k="tourism" v="hotel"/>
    <tag k="addr:street" v="Tannenmühleweg "/>
    <tag k="wheelchair:description" v="Eine Stufe zum Hauseingang, Lift, barrierefreie Toilette"/>
    <tag k="website" v="http://www.tannenmuehle.de"/>
    <tag k="phone" v="+49 7748 215"/>
  </node>
  <node id="-3965" version="0" timestamp="Fri Feb 24 10:53:35 +0100 2012" uid="1" user="" lat="47.7642063" lon="8.2583993">
    <tag k="name" v="Restaurant Schiesselhof"/>
    <tag k="wheelchair" v="limited"/>
    <tag k="addr:city" v="Grafenhausen"/>
    <tag k="addr:postcode" v="79865"/>
    <tag k="addr:housenumber" v="1"/>
    <tag k="addr:street" v="Rippoldsried "/>
    <tag k="wheelchair:description" v="Eine Stufe zum Restaurant"/>
    <tag k="amenity" v="restaurant"/>
    <tag k="website" v="http://www.schiesselhof.de"/>
    <tag k="phone" v="+49 7748 920-40"/>
  </node>
  <node id="-3966" version="0" timestamp="Fri Feb 24 10:53:35 +0100 2012" uid="1" user="" lat="47.7951549" lon="8.2446294">
    <tag k="name" v="Brauereigasthaus Rothaus"/>
    <tag k="wheelchair" v="yes"/>
    <tag k="addr:city" v="Grafenhausen"/>
    <tag k="addr:postcode" v="79865"/>
    <tag k="addr:housenumber" v="2"/>
    <tag k="addr:street" v="Rothaus "/>
    <tag k="wheelchair:description" v="Ebeerdiger Zugang und rollstuhlgerechte Toilette "/>
    <tag k="amenity" v="bank"/>
    <tag k="website" v="http://www.brauereigasthaus-rothaus.de"/>
    <tag k="phone" v="+49 7748 522-9600"/>
  </node>
  <node id="-3967" version="0" timestamp="Fri Feb 24 10:53:35 +0100 2012" uid="1" user="" lat="47.7953161" lon="8.2348185">
    <tag k="name" v="Restaurant Mettmatal"/>
    <tag k="wheelchair" v="yes"/>
    <tag k="addr:street" v="Mettmatalstr."/>
    <tag k="wheelchair:description" v="Ebenerdiger Zugang , externe rollstuhlgerechte Toilette "/>
    <tag k="amenity" v="restaurant"/>
  </node>
  <node id="-3968" version="0" timestamp="Fri Feb 24 10:53:35 +0100 2012" uid="1" user="" lat="47.79532" lon="8.23482">
    <tag k="name" v="Restaurant Mettmatal"/>
    <tag k="wheelchair" v="yes"/>
    <tag k="addr:city" v="Grafenhausen"/>
    <tag k="addr:postcode" v="79865"/>
    <tag k="addr:housenumber" v="2"/>
    <tag k="addr:street" v="Mettmatalstr."/>
    <tag k="wheelchair:description" v="Ebenerdiger Zugang, externe rollstuhlgerechte Toilette "/>
    <tag k="amenity" v="restaurant"/>
    <tag k="website" v="http://www.restaurant-mettmatal.com"/>
    <tag k="phone" v="+49 7748 9209-73"/>
  </node>
  <node id="-3969" version="0" timestamp="Fri Feb 24 10:53:35 +0100 2012" uid="1" user="" lat="47.794902" lon="8.2349595">
    <tag k="name" v="Campingplatz Speckhuisli"/>
    <tag k="wheelchair" v="yes"/>
    <tag k="addr:city" v="Grafenhausen"/>
    <tag k="addr:postcode" v="79865"/>
    <tag k="addr:housenumber" v="2"/>
    <tag k="tourism" v="caravan_site"/>
    <tag k="addr:street" v="Mettmatalstr."/>
    <tag k="wheelchair:description" v="Sanitäre Anlagen, Rezeption und Gaststätte ebenerdig zugänglich und für Rollsthlfahrer geeignet"/>
    <tag k="website" v="http://www.flair-camp.de"/>
    <tag k="phone" v="+49 7748 800"/>
  </node>
  <node id="-3970" version="0" timestamp="Fri Feb 24 10:53:35 +0100 2012" uid="1" user="" lat="47.7746538" lon="8.2571043">
    <tag k="name" v="Ferienwohnung Kiefer"/>
    <tag k="wheelchair" v="limited"/>
    <tag k="addr:city" v="Grafenhausen"/>
    <tag k="addr:postcode" v="79865"/>
    <tag k="addr:housenumber" v="13"/>
    <tag k="tourism" v="chalet"/>
    <tag k="addr:street" v="Schulstr."/>
    <tag k="wheelchair:description" v="Ebenerdiger Zugang"/>
    <tag k="website" v="http://www.ferienwohnungkiefer.de"/>
    <tag k="phone" v="+49 7748 929592"/>
  </node>
  <node id="-3971" version="0" timestamp="Fri Feb 24 10:53:35 +0100 2012" uid="1" user="" lat="47.7717946" lon="8.2631511">
    <tag k="name" v="Ferienwohnung Jäger"/>
    <tag k="wheelchair" v="limited"/>
    <tag k="addr:city" v="Grafenhausen"/>
    <tag k="addr:postcode" v="79865"/>
    <tag k="addr:housenumber" v="7"/>
    <tag k="tourism" v="chalet"/>
    <tag k="addr:street" v="Mühlenweg "/>
    <tag k="wheelchair:description" v="Ebenerdiger Zugang"/>
    <tag k="website" v="http://www.haus-jaeger.com"/>
    <tag k="phone" v="+49 7748 5886"/>
  </node>
  <node id="-3972" version="0" timestamp="Fri Feb 24 10:53:35 +0100 2012" uid="1" user="" lat="47.7739171" lon="8.2621361">
    <tag k="name" v="Zahnarztpraxis Reich-Putnik"/>
    <tag k="wheelchair" v="limited"/>
    <tag k="addr:city" v="Grafenhausen"/>
    <tag k="addr:postcode" v="79865"/>
    <tag k="addr:housenumber" v="3"/>
    <tag k="addr:street" v="Rathausplatz"/>
    <tag k="amenity" v="doctors"/>
    <tag k="phone" v="+49 7748 813"/>
  </node>
  <node id="-3973" version="0" timestamp="Fri Feb 24 10:53:35 +0100 2012" uid="1" user="" lat="47.776978" lon="8.2516248">
    <tag k="name" v="Postagentur"/>
    <tag k="wheelchair" v="limited"/>
    <tag k="addr:city" v="Grafenhausen"/>
    <tag k="addr:postcode" v="79865"/>
    <tag k="addr:housenumber" v="4"/>
    <tag k="addr:street" v="Rothauser Str."/>
    <tag k="wheelchair:description" v="Ebenerdiger Zugang"/>
    <tag k="amenity" v="post_office"/>
    <tag k="phone" v="+49 7748 929089"/>
  </node>
  <node id="-3974" version="0" timestamp="Fri Feb 24 10:53:35 +0100 2012" uid="1" user="" lat="47.7747593" lon="8.2599885">
    <tag k="name" v="Haus des Gastes"/>
    <tag k="wheelchair" v="yes"/>
    <tag k="addr:city" v="Grafenhausen"/>
    <tag k="addr:postcode" v="79865"/>
    <tag k="addr:housenumber" v="1"/>
    <tag k="addr:street" v="Schulstr. "/>
    <tag k="wheelchair:description" v="Fahrstuhl und mit Euro-Schloss"/>
    <tag k="amenity" v="toilets"/>
  </node>
  <node id="-3975" version="0" timestamp="Fri Feb 24 10:53:35 +0100 2012" uid="1" user="" lat="47.7732325" lon="8.2590114">
    <tag k="name" v="Kurpark /Skulpturenark/Veranstaltungs-Arena"/>
    <tag k="wheelchair" v="yes"/>
    <tag k="addr:city" v="Grafenhausen"/>
    <tag k="addr:postcode" v="79865"/>
    <tag k="addr:street" v="Spiechergässle"/>
    <tag k="wheelchair:description" v="Rollstuhlgerechte Toilette mit Euro-Schloss"/>
    <tag k="amenity" v="toilets"/>
    <tag k="phone" v="+49 7748 520-41"/>
  </node>
  <node id="-3976" version="0" timestamp="Fri Feb 24 10:53:35 +0100 2012" uid="1" user="" lat="47.7915414" lon="8.2475516">
    <tag k="name" v="Haus am Alpenblick"/>
    <tag k="wheelchair" v="limited"/>
    <tag k="addr:city" v="Grafenhausen"/>
    <tag k="addr:postcode" v="79865"/>
    <tag k="addr:housenumber" v="8"/>
    <tag k="tourism" v="chalet"/>
    <tag k="addr:street" v="Schlüchtseeweg "/>
    <tag k="wheelchair:description" v="Bungalows mit ebenerdigem Zugang"/>
    <tag k="website" v="http://www.haus-am-alpenblick.de"/>
    <tag k="phone" v="+49 7748 5442"/>
  </node>
  <node id="-3977" version="0" timestamp="Fri Feb 24 10:53:35 +0100 2012" uid="1" user="" lat="47.7745553" lon="8.2611971">
    <tag k="shop" v="bakery"/>
    <tag k="name" v="Bäckerei-Konditorei-Caf#e Müller"/>
    <tag k="wheelchair" v="limited"/>
    <tag k="wheelchair:description" v="Ebenerdiger Zugang mit Automatiktür"/>
  </node>
  <node id="-3978" version="0" timestamp="Fri Feb 24 10:53:35 +0100 2012" uid="1" user="" lat="47.774906" lon="8.260846">
    <tag k="shop" v="hairdresser"/>
    <tag k="name" v="Salon Gantert"/>
    <tag k="wheelchair" v="limited"/>
    <tag k="addr:city" v="Grafenhausen"/>
    <tag k="addr:postcode" v="79865"/>
    <tag k="addr:housenumber" v="4"/>
    <tag k="addr:street" v="Kirchsteig "/>
    <tag k="wheelchair:description" v="Ebenerdiger Zugang"/>
    <tag k="phone" v="+49 7748 300"/>
  </node>
  <node id="-3979" version="0" timestamp="Fri Feb 24 10:53:35 +0100 2012" uid="1" user="" lat="47.7748667" lon="8.2624593">
    <tag k="shop" v="hairdresser"/>
    <tag k="name" v="Salon Stephanie Stolz"/>
    <tag k="wheelchair" v="limited"/>
    <tag k="addr:city" v="Grafenhausen"/>
    <tag k="addr:postcode" v="79865"/>
    <tag k="addr:housenumber" v="1"/>
    <tag k="addr:street" v="Am Pfarrain"/>
    <tag k="wheelchair:description" v="Ebenerdiger Zugang"/>
    <tag k="phone" v="+49 7748 437"/>
  </node>
  <node id="-4072" version="0" timestamp="Fri Feb 24 10:53:36 +0100 2012" uid="1" user="" lat="48.0223603" lon="7.8496812">
    <tag k="shop" v="supermarket"/>
    <tag k="name" v="REWE"/>
    <tag k="wheelchair" v="yes"/>
    <tag k="addr:city" v="Freiburg"/>
    <tag k="addr:postcode" v="79108"/>
    <tag k="addr:housenumber" v="50"/>
    <tag k="addr:street" v="Tullastraße"/>
    <tag k="wheelchair:description" v="Ebenerdig, keine Treppenstufen, automatische Schiebetüren"/>
    <tag k="phone" v="0761 53850"/>
  </node>
  <node id="-4073" version="0" timestamp="Fri Feb 24 10:53:36 +0100 2012" uid="1" user="" lat="48.0227413" lon="7.8511766">
    <tag k="shop" v="supermarket"/>
    <tag k="name" v="ALDI Süd"/>
    <tag k="wheelchair" v="yes"/>
    <tag k="addr:city" v="Freiburg"/>
    <tag k="addr:postcode" v="79108"/>
    <tag k="addr:housenumber" v="51"/>
    <tag k="addr:street" v="Tullastraße"/>
    <tag k="wheelchair:description" v="Ebenerdig, keine Treppenstufen, automatische Schiebetüren"/>
  </node>
  <node id="-4074" version="0" timestamp="Fri Feb 24 10:53:36 +0100 2012" uid="1" user="" lat="48.0111035" lon="7.8225291">
    <tag k="name" v="Hallenbad Freiburg-West"/>
    <tag k="wheelchair" v="yes"/>
    <tag k="addr:city" v="Freiburg"/>
    <tag k="addr:postcode" v="79110"/>
    <tag k="addr:housenumber" v="9"/>
    <tag k="addr:street" v="Ensisheimer Straße "/>
    <tag k="wheelchair:description" v="Aufzug"/>
    <tag k="amenity" v="swimming_pool"/>
    <tag k="website" v="http://www.freiburg.de/servlet/PB/menu/1156592/index.html"/>
    <tag k="phone" v="0761 2105-510"/>
  </node>
  <node id="-4075" version="0" timestamp="Fri Feb 24 10:53:36 +0100 2012" uid="1" user="" lat="48.0070468" lon="7.8358206">
    <tag k="name" v="HNO- und Augenklinik (Universitätsklinikum Freiburg)"/>
    <tag k="wheelchair" v="yes"/>
    <tag k="addr:city" v="Freiburg"/>
    <tag k="addr:postcode" v="79106"/>
    <tag k="addr:housenumber" v="5"/>
    <tag k="addr:street" v="Kilianstraße "/>
    <tag k="wheelchair:description" v="Alle Geschosse mit Aufzug"/>
    <tag k="amenity" v="hospital"/>
    <tag k="phone" v="0761 270-42010"/>
  </node>
  <node id="-4076" version="0" timestamp="Fri Feb 24 10:53:36 +0100 2012" uid="1" user="" lat="48.0074579" lon="7.8357206">
    <tag k="name" v="Parkplätze des Universitätsklinikums"/>
    <tag k="wheelchair" v="yes"/>
    <tag k="addr:city" v="Freiburg"/>
    <tag k="addr:postcode" v="79106"/>
    <tag k="addr:street" v="Kilianstraße"/>
    <tag k="amenity" v="parking"/>
  </node>
  <node id="-4077" version="0" timestamp="Fri Feb 24 10:53:36 +0100 2012" uid="1" user="" lat="48.0071756" lon="7.8378088">
    <tag k="name" v="Medizinische Klinik (Universitätsklinikum Freiburg)"/>
    <tag k="wheelchair" v="yes"/>
    <tag k="addr:city" v="Freiburg"/>
    <tag k="addr:postcode" v="79106"/>
    <tag k="addr:housenumber" v="55"/>
    <tag k="addr:street" v="Hugstetter Straße"/>
    <tag k="wheelchair:description" v="Alle Geschosse mit Aufzug"/>
    <tag k="amenity" v="hospital"/>
    <tag k="phone" v="0761 270-34010"/>
  </node>
  <node id="-4078" version="0" timestamp="Fri Feb 24 10:53:36 +0100 2012" uid="1" user="" lat="48.0065261" lon="7.839298">
    <tag k="name" v="Chirurgische Klinik (Universitätsklinikum Freiburg)"/>
    <tag k="wheelchair" v="yes"/>
    <tag k="wheelchair:description" v="Alle Geschosse mit Aufzug"/>
    <tag k="amenity" v="hospital"/>
  </node>
  <node id="-4079" version="0" timestamp="Fri Feb 24 10:53:36 +0100 2012" uid="1" user="" lat="48.0054362" lon="7.8377335">
    <tag k="name" v="Frauenklinik (Universitätsklinikum Freiburg)"/>
    <tag k="wheelchair" v="yes"/>
    <tag k="wheelchair:description" v="Alle Geschosse mit Aufzug"/>
    <tag k="amenity" v="hospital"/>
  </node>
  <node id="-4080" version="0" timestamp="Fri Feb 24 10:53:36 +0100 2012" uid="1" user="" lat="48.0069492" lon="7.8365793">
    <tag k="name" v="Dialysestation (Universitätsklinikum Freiburg)"/>
    <tag k="wheelchair" v="yes"/>
    <tag k="wheelchair:description" v="Aufzug"/>
    <tag k="amenity" v="hospital"/>
  </node>
  <node id="-4081" version="0" timestamp="Fri Feb 24 10:53:36 +0100 2012" uid="1" user="" lat="48.0060867" lon="7.8350271">
    <tag k="name" v="Neurozentrum (Universitätsklinikum Freiburg)"/>
    <tag k="wheelchair" v="yes"/>
    <tag k="wheelchair:description" v="Alle Geschosse mit Aufzug"/>
    <tag k="amenity" v="hospital"/>
  </node>
  <node id="-4083" version="0" timestamp="Fri Feb 24 10:53:36 +0100 2012" uid="1" user="" lat="47.9815166" lon="7.8899819">
    <tag k="name" v="Bergäcker Cafe"/>
    <tag k="wheelchair" v="limited"/>
    <tag k="addr:city" v="Freiburg"/>
    <tag k="addr:postcode" v="79117"/>
    <tag k="addr:housenumber" v="3"/>
    <tag k="addr:street" v="Kunzenweg"/>
    <tag k="amenity" v="cafe"/>
    <tag k="website" v="http://www.bergaecker.de"/>
    <tag k="phone" v="0761 42967070"/>
  </node>
  <node id="-4084" version="0" timestamp="Fri Feb 24 10:53:36 +0100 2012" uid="1" user="" lat="47.9917308" lon="7.8419849">
    <tag k="name" v="Faulerbad"/>
    <tag k="wheelchair" v="unknown"/>
    <tag k="addr:city" v="Freiburg"/>
    <tag k="addr:postcode" v="79098"/>
    <tag k="addr:housenumber" v="1"/>
    <tag k="addr:street" v="Faulerstraße"/>
    <tag k="amenity" v="swimming_pool"/>
    <tag k="website" v="http://www.freiburg.de/servlet/PB/menu/1156593/index.html"/>
    <tag k="phone" v="0761 2105-530"/>
  </node>
  <node id="-4085" version="0" timestamp="Fri Feb 24 10:53:36 +0100 2012" uid="1" user="" lat="48.0067782" lon="7.8289457">
    <tag k="shop" v="supermarket"/>
    <tag k="name" v="ALDI Süd"/>
    <tag k="wheelchair" v="yes"/>
    <tag k="wheelchair:description" v="Ebenerdig, automatische Türen"/>
  </node>
  <node id="-4086" version="0" timestamp="Fri Feb 24 10:53:36 +0100 2012" uid="1" user="" lat="48.0298972" lon="7.857846">
    <tag k="shop" v="doityourself"/>
    <tag k="name" v="Toom Baumarkt"/>
    <tag k="wheelchair" v="unknown"/>
  </node>
  <node id="-4087" version="0" timestamp="Fri Feb 24 10:53:36 +0100 2012" uid="1" user="" lat="48.0296987" lon="7.8427532">
    <tag k="name" v="McDonald&apos;s"/>
    <tag k="wheelchair" v="yes"/>
    <tag k="addr:city" v="Freiburg"/>
    <tag k="addr:postcode" v="79108"/>
    <tag k="addr:housenumber" v="82a"/>
    <tag k="addr:street" v="Tullastraße"/>
    <tag k="amenity" v="fast_food"/>
    <tag k="phone" v="0761 50316012"/>
  </node>
  <node id="-4088" version="0" timestamp="Fri Feb 24 10:53:36 +0100 2012" uid="1" user="" lat="48.1194085" lon="7.8480249">
    <tag k="name" v="Tourist-Information"/>
    <tag k="wheelchair" v="yes"/>
    <tag k="addr:city" v="Emmendingen"/>
    <tag k="addr:postcode" v="79312 Emmendingen"/>
    <tag k="addr:housenumber" v="8"/>
    <tag k="addr:street" v="Bahnhofstraße"/>
    <tag k="wheelchair:description" v="Seiteneingang ist barrierefrei"/>
  </node>
  <node id="-4089" version="0" timestamp="Fri Feb 24 10:53:36 +0100 2012" uid="1" user="" lat="48.1279714" lon="7.8570451">
    <tag k="name" v="Walderlebnispfad"/>
    <tag k="wheelchair" v="yes"/>
    <tag k="tourism" v="attraction"/>
  </node>
  <node id="-4090" version="0" timestamp="Fri Feb 24 10:53:36 +0100 2012" uid="1" user="" lat="48.1193949" lon="7.8479875">
    <tag k="name" v="Tourist-Information"/>
    <tag k="wheelchair" v="yes"/>
    <tag k="addr:postcode" v="79312 Emmendingen"/>
    <tag k="addr:housenumber" v="8"/>
    <tag k="addr:street" v="Bahn"/>
  </node>
  <node id="-4420" version="0" timestamp="Fri Feb 24 10:53:36 +0100 2012" uid="1" user="" lat="48.290186" lon="8.2140456">
    <tag k="name" v="Dorotheenhütte - Glashütte Wolfach"/>
    <tag k="wheelchair" v="yes"/>
    <tag k="addr:city" v="Wolfach"/>
    <tag k="addr:postcode" v="77709"/>
    <tag k="addr:housenumber" v="4"/>
    <tag k="tourism" v="attraction"/>
    <tag k="addr:street" v="Glashüttenweg"/>
    <tag k="website" v="http://www.dorotheenhuette.de"/>
    <tag k="phone" v="+49 7834 83980"/>
  </node>
  <node id="-4579" version="0" timestamp="Fri Feb 24 10:53:36 +0100 2012" uid="1" user="" lat="48.0236553" lon="7.6776832">
    <tag k="name" v="Dialekt - Cafe Bar Restaurant"/>
    <tag k="wheelchair" v="yes"/>
    <tag k="addr:city" v="Merdingen"/>
    <tag k="addr:postcode" v="79291"/>
    <tag k="addr:housenumber" v="11"/>
    <tag k="addr:street" v="Kleinsteinen"/>
    <tag k="wheelchair:description" v="Ebenerdiger Zugang, Behiindertentoilette"/>
    <tag k="amenity" v="restaurant"/>
    <tag k="website" v="http://www.ins-dialekt.de"/>
  </node>
  <node id="-4655" version="0" timestamp="Fri Feb 24 10:53:36 +0100 2012" uid="1" user="" lat="48.09731" lon="7.85908">
    <tag k="shop" v="bakery"/>
    <tag k="name" v="Bäckerei"/>
    <tag k="wheelchair" v="limited"/>
    <tag k="wheelchair:description" v="Steile Rampe vorhanden"/>
  </node>
  <node id="-4661" version="0" timestamp="Fri Feb 24 10:53:36 +0100 2012" uid="1" user="" lat="48.3534136" lon="7.8266408">
    <tag k="name" v="WC (im Nebengebäude der Kirche am Flugplatz)"/>
    <tag k="wheelchair" v="yes"/>
    <tag k="addr:city" v="Lahr"/>
    <tag k="addr:postcode" v="77933"/>
    <tag k="addr:housenumber" v="24-2"/>
    <tag k="addr:street" v="Europastr. "/>
    <tag k="wheelchair:description" v="Zugang während Öffnungszeiten durch Mitarbeiter der Kirche am Flugplatz"/>
    <tag k="amenity" v="toilets"/>
    <tag k="website" v="http://www.kircheamflugplatz.de"/>
    <tag k="phone" v="07821- 992 33 33"/>
  </node>
  <node id="-4662" version="0" timestamp="Fri Feb 24 10:53:36 +0100 2012" uid="1" user="" lat="48.3406146" lon="7.8717926">
    <tag k="name" v="WC"/>
    <tag k="wheelchair" v="yes"/>
    <tag k="addr:city" v="Lahr"/>
    <tag k="addr:postcode" v="77933"/>
    <tag k="wheelchair:description" v="Euro-Schlüssel erforderlich"/>
    <tag k="amenity" v="toilets"/>
  </node>
  <node id="-4664" version="0" timestamp="Fri Feb 24 10:53:36 +0100 2012" uid="1" user="" lat="48.1394098" lon="7.7037082">
    <tag k="name" v="Linders Weinlädele und Café"/>
    <tag k="wheelchair" v="yes"/>
    <tag k="addr:city" v="Endingen"/>
    <tag k="addr:postcode" v="79346"/>
    <tag k="addr:housenumber" v="14"/>
    <tag k="addr:street" v="Stollbruckstraße"/>
    <tag k="amenity" v="cafe"/>
    <tag k="website" v="http://www.winzerhof-linder.de/weinlaedele.html"/>
    <tag k="phone" v="07642 / 5525"/>
  </node>
  <node id="-4675" version="0" timestamp="Fri Feb 24 10:53:36 +0100 2012" uid="1" user="" lat="47.9030324" lon="8.1528059">
    <tag k="name" v="Hotel Bären"/>
    <tag k="wheelchair" v="unknown"/>
    <tag k="addr:city" v="Titisee-Neustadt"/>
    <tag k="addr:postcode" v="79822"/>
    <tag k="addr:housenumber" v="35"/>
    <tag k="tourism" v="hotel"/>
    <tag k="addr:street" v="Neustädter Straße"/>
    <tag k="website" v="http://www.baeren-titisee.de"/>
    <tag k="phone" v="07651 8060"/>
  </node>
  <node id="-4711" version="0" timestamp="Fri Feb 24 10:53:36 +0100 2012" uid="1" user="" lat="48.0703988" lon="7.9060721">
    <tag k="shop" v="supermarket"/>
    <tag k="name" v="Edeka"/>
    <tag k="wheelchair" v="limited"/>
    <tag k="wheelchair:description" v="Eingangsbereich etwas schmal."/>
  </node>
  <node id="-4754" version="0" timestamp="Fri Feb 24 10:53:36 +0100 2012" uid="1" user="" lat="48.37255" lon="7.87688">
    <tag k="shop" v="optician"/>
    <tag k="name" v="Baumert-Neher"/>
    <tag k="wheelchair" v="limited"/>
    <tag k="addr:city" v="Friesenheim"/>
    <tag k="addr:postcode" v="77948"/>
    <tag k="addr:housenumber" v="38"/>
    <tag k="addr:street" v="Friesenheimer Hauptstraße "/>
    <tag k="wheelchair:description" v="Stufenloser Eingang, Räume ohne Stufen, kein WC"/>
    <tag k="phone" v="07821/62864"/>
  </node>
  <node id="-4780" version="0" timestamp="Fri Feb 24 10:53:36 +0100 2012" uid="1" user="" lat="47.98795" lon="7.86579">
    <tag k="name" v="Hotel Gasthaus Schützen"/>
    <tag k="wheelchair" v="no"/>
    <tag k="addr:city" v="Freiburg"/>
    <tag k="addr:postcode" v="79102"/>
    <tag k="addr:housenumber" v="12"/>
    <tag k="addr:street" v="Schützenallee"/>
    <tag k="wheelchair:description" v="Drei Stufen"/>
    <tag k="amenity" v="restaurant"/>
    <tag k="website" v="http://www.schuetzen-freiburg.de"/>
  </node>
  <node id="-4781" version="0" timestamp="Fri Feb 24 10:53:36 +0100 2012" uid="1" user="" lat="47.9878548" lon="7.8656378">
    <tag k="name" v="Hotel Gasthaus Schützen"/>
    <tag k="wheelchair" v="no"/>
    <tag k="addr:city" v="Freiburg"/>
    <tag k="addr:postcode" v="79102"/>
    <tag k="addr:housenumber" v="12"/>
    <tag k="tourism" v="hotel"/>
    <tag k="addr:street" v="Schützenallee"/>
    <tag k="wheelchair:description" v="ohne Aufzug"/>
    <tag k="website" v="http://www.schuetzen-freiburg.de"/>
  </node>
  <node id="-4782" version="0" timestamp="Fri Feb 24 10:53:36 +0100 2012" uid="1" user="" lat="48.0477045" lon="8.1961492">
    <tag k="name" v="FEG Furtwangen"/>
    <tag k="wheelchair" v="yes"/>
    <tag k="addr:city" v="Furtwangen"/>
    <tag k="addr:postcode" v="78120"/>
    <tag k="addr:housenumber" v="15"/>
    <tag k="addr:street" v="Hebelstr."/>
    <tag k="wheelchair:description" v="kein Behinderten-WC, normaler WC-Bereich über Seiteneingang zugänglich, sonst alles Eben"/>
    <tag k="amenity" v="place_of_worship"/>
    <tag k="website" v="http://furtwangen.feg.de/"/>
  </node>
  <node id="-4783" version="0" timestamp="Fri Feb 24 10:53:36 +0100 2012" uid="1" user="" lat="48.0499405" lon="8.1977141">
    <tag k="name" v="Kindergarten Regenbogen"/>
    <tag k="wheelchair" v="yes"/>
    <tag k="wheelchair:description" v="Drücker um wieder raus zu können ist sehr hoch (Kindersicher)"/>
    <tag k="amenity" v="kindergarten"/>
  </node>
  <node id="-4784" version="0" timestamp="Fri Feb 24 10:53:36 +0100 2012" uid="1" user="" lat="47.9891" lon="7.89623">
    <tag k="name" v="Goldener Anker"/>
    <tag k="wheelchair" v="no"/>
    <tag k="amenity" v="restaurant"/>
  </node>
  <node id="-4788" version="0" timestamp="Fri Feb 24 10:53:36 +0100 2012" uid="1" user="" lat="47.9824407" lon="7.854054">
    <tag k="name" v="Wiehre Bahnhof"/>
    <tag k="wheelchair" v="unknown"/>
    <tag k="amenity" v="restaurant"/>
  </node>
  <node id="-5063" version="0" timestamp="Fri Feb 24 10:53:37 +0100 2012" uid="1" user="" lat="48.19672" lon="7.67556">
    <tag k="shop" v="florist"/>
    <tag k="name" v="Gärtnerei Lösslin"/>
    <tag k="wheelchair" v="yes"/>
    <tag k="addr:city" v="Weisweil"/>
    <tag k="addr:postcode" v="79367"/>
  </node>
  <node id="-5080" version="0" timestamp="Fri Feb 24 10:53:37 +0100 2012" uid="1" user="" lat="47.9800241" lon="7.8285907">
    <tag k="name" v="Staatliches Seminar für Didaktik und Lehrerbildung - Abteilung Sonderschulen und Gymnasien"/>
    <tag k="wheelchair" v="yes"/>
    <tag k="addr:city" v="Freiburg"/>
    <tag k="addr:postcode" v="79100"/>
    <tag k="addr:housenumber" v="22"/>
    <tag k="addr:street" v="Oltmannsstraße"/>
    <tag k="wheelchair:description" v="Aufzug zum Vorderhaus am Hintereingang"/>
    <tag k="amenity" v="college"/>
    <tag k="website" v="http://www.sonderschulseminar-freiburg.de"/>
    <tag k="phone" v="0761-595249220"/>
  </node>
  <node id="-5081" version="0" timestamp="Fri Feb 24 10:53:37 +0100 2012" uid="1" user="" lat="48.12823" lon="7.82453">
    <tag k="shop" v="doityourself"/>
    <tag k="name" v="Obi"/>
    <tag k="wheelchair" v="yes"/>
  </node>
  <node id="-5082" version="0" timestamp="Fri Feb 24 10:53:37 +0100 2012" uid="1" user="" lat="48.1266355" lon="7.831078">
    <tag k="shop" v="doityourself"/>
    <tag k="name" v="Obi"/>
    <tag k="wheelchair" v="yes"/>
  </node>
  <node id="-5086" version="0" timestamp="Fri Feb 24 10:53:37 +0100 2012" uid="1" user="" lat="47.5811079" lon="7.8132416">
    <tag k="name" v="Evangelische Bildungsstätte Beuggen"/>
    <tag k="wheelchair" v="yes"/>
    <tag k="addr:city" v="Rheinfelden"/>
    <tag k="addr:postcode" v="79618"/>
    <tag k="addr:housenumber" v="11"/>
    <tag k="addr:street" v="Schloss"/>
    <tag k="wheelchair:description" v="Tagungshaus voll rollstuhlgerecht, Kapelle mit 3 Stufen"/>
    <tag k="amenity" v="place_of_worship"/>
    <tag k="website" v="http://www.schloss-beuggen.de/"/>
    <tag k="phone" v="+49 (7623) 7519-0"/>
  </node>
  <node id="-5089" version="0" timestamp="Fri Feb 24 10:53:37 +0100 2012" uid="1" user="" lat="47.5819885" lon="7.8133683">
    <tag k="name" v="Biblischer Garten"/>
    <tag k="wheelchair" v="yes"/>
    <tag k="tourism" v="attraction"/>
    <tag k="wheelchair:description" v="Zugang über ebenes Wiesenstück"/>
  </node>
  <node id="-5101" version="0" timestamp="Fri Feb 24 10:53:37 +0100 2012" uid="1" user="" lat="47.61097" lon="7.65926">
    <tag k="name" v="Burghof"/>
    <tag k="wheelchair" v="yes"/>
    <tag k="addr:city" v="Lörrach"/>
    <tag k="addr:street" v="Herrenstraße"/>
    <tag k="amenity" v="theatre"/>
  </node>
  <node id="-5123" version="0" timestamp="Fri Feb 24 10:53:37 +0100 2012" uid="1" user="" lat="47.91598" lon="7.86219">
    <tag k="name" v="Biblischer Garten"/>
    <tag k="wheelchair" v="yes"/>
    <tag k="tourism" v="attraction"/>
    <tag k="wheelchair:description" v="Zugang über ebenes Wiesenstück"/>
  </node>
  <node id="-5124" version="0" timestamp="Fri Feb 24 10:53:37 +0100 2012" uid="1" user="" lat="47.5616042" lon="7.7769646">
    <tag k="name" v="Georg-Büchner Gymnasium"/>
    <tag k="wheelchair" v="limited"/>
    <tag k="wheelchair:description" v="Aufzug vorhanden"/>
    <tag k="amenity" v="school"/>
  </node>
  <node id="-5125" version="0" timestamp="Fri Feb 24 10:53:37 +0100 2012" uid="1" user="" lat="47.6495191" lon="7.8172115">
    <tag k="name" v="Stadtbibliothek Schopfheim"/>
    <tag k="wheelchair" v="yes"/>
    <tag k="amenity" v="library"/>
  </node>
  <node id="-5126" version="0" timestamp="Fri Feb 24 10:53:37 +0100 2012" uid="1" user="" lat="47.6492056" lon="7.8174138">
    <tag k="name" v="Stadthalle Schopfheim"/>
    <tag k="wheelchair" v="yes"/>
    <tag k="amenity" v="townhall"/>
  </node>
  <node id="-5127" version="0" timestamp="Fri Feb 24 10:53:37 +0100 2012" uid="1" user="" lat="47.6484639" lon="7.8207387">
    <tag k="name" v="Katholische Kirche St Bernhard"/>
    <tag k="wheelchair" v="yes"/>
    <tag k="wheelchair:description" v="Seiteneingang im Süden"/>
    <tag k="amenity" v="place_of_worship"/>
  </node>
  <node id="-5128" version="0" timestamp="Fri Feb 24 10:53:37 +0100 2012" uid="1" user="" lat="47.660613" lon="7.7992215">
    <tag k="name" v="Ortsverwaltung Langenau"/>
    <tag k="wheelchair" v="no"/>
    <tag k="wheelchair:description" v="Mehrere Stufen"/>
    <tag k="office" v="company"/>
  </node>
  <node id="-5129" version="0" timestamp="Fri Feb 24 10:53:37 +0100 2012" uid="1" user="" lat="47.6620792" lon="7.8005279">
    <tag k="name" v="Gasthaus Maien"/>
    <tag k="wheelchair" v="no"/>
    <tag k="wheelchair:description" v="Gaststätte ist zu eng"/>
    <tag k="amenity" v="restaurant"/>
  </node>
  <node id="-5130" version="0" timestamp="Fri Feb 24 10:53:37 +0100 2012" uid="1" user="" lat="47.6807189" lon="7.8098">
    <tag k="name" v="Maibergsaal"/>
    <tag k="wheelchair" v="limited"/>
    <tag k="amenity" v="community_center"/>
  </node>
  <node id="-5131" version="0" timestamp="Fri Feb 24 10:53:37 +0100 2012" uid="1" user="" lat="47.65906" lon="7.80145">
    <tag k="name" v="Spielplatz"/>
    <tag k="wheelchair" v="no"/>
    <tag k="leisure" v="playground"/>
  </node>
  <node id="-5132" version="0" timestamp="Fri Feb 24 10:53:37 +0100 2012" uid="1" user="" lat="47.6605266" lon="7.800389">
    <tag k="name" v="Kindergarten Langenau"/>
    <tag k="wheelchair" v="limited"/>
    <tag k="amenity" v="kindergarten"/>
  </node>
  <node id="-5133" version="0" timestamp="Fri Feb 24 10:53:37 +0100 2012" uid="1" user="" lat="47.6605266" lon="7.800389">
    <tag k="name" v="Kindergarten Langenau"/>
    <tag k="wheelchair" v="limited"/>
    <tag k="amenity" v="kindergarten"/>
  </node>
  <node id="-5134" version="0" timestamp="Fri Feb 24 10:53:37 +0100 2012" uid="1" user="" lat="47.66053" lon="7.80039">
    <tag k="name" v="Kindergarten Langenau"/>
    <tag k="wheelchair" v="limited"/>
    <tag k="amenity" v="kindergarten"/>
  </node>
  <node id="-5135" version="0" timestamp="Fri Feb 24 10:53:37 +0100 2012" uid="1" user="" lat="47.6480554" lon="7.8161382">
    <tag k="name" v="Physiotherapie Heusler"/>
    <tag k="wheelchair" v="yes"/>
    <tag k="amenity" v="social_facility"/>
  </node>
  <node id="-5136" version="0" timestamp="Fri Feb 24 10:53:37 +0100 2012" uid="1" user="" lat="47.6494025" lon="7.8194764">
    <tag k="shop" v="medical_supply"/>
    <tag k="name" v="Sanitätshaus Lopez"/>
    <tag k="wheelchair" v="yes"/>
  </node>
  <node id="-5137" version="0" timestamp="Fri Feb 24 10:53:37 +0100 2012" uid="1" user="" lat="47.6494025" lon="7.8194764">
    <tag k="shop" v="medical_supply"/>
    <tag k="name" v="Sanitätshaus Lopez"/>
    <tag k="wheelchair" v="yes"/>
  </node>
  <node id="-5138" version="0" timestamp="Fri Feb 24 10:53:37 +0100 2012" uid="1" user="" lat="47.6497488" lon="7.8251347">
    <tag k="name" v="Ev. Stadtkirche"/>
    <tag k="wheelchair" v="limited"/>
    <tag k="wheelchair:description" v="Rollstuhleingang nördl. Seite"/>
    <tag k="amenity" v="place_of_worship"/>
  </node>
  <node id="-5144" version="0" timestamp="Fri Feb 24 10:53:37 +0100 2012" uid="1" user="" lat="47.6495694" lon="7.8210982">
    <tag k="shop" v="books"/>
    <tag k="name" v="Buchhandlung Ühlin"/>
    <tag k="wheelchair" v="limited"/>
  </node>
  <node id="-5145" version="0" timestamp="Fri Feb 24 10:53:37 +0100 2012" uid="1" user="" lat="47.6504241" lon="7.8201638">
    <tag k="name" v="Stadtmuseum"/>
    <tag k="wheelchair" v="no"/>
    <tag k="tourism" v="museum"/>
  </node>
  <node id="-5146" version="0" timestamp="Fri Feb 24 10:53:37 +0100 2012" uid="1" user="" lat="47.60744" lon="7.6649273">
    <tag k="name" v="Hebel-Gymnasium"/>
    <tag k="wheelchair" v="yes"/>
    <tag k="amenity" v="school"/>
  </node>
  <node id="-5147" version="0" timestamp="Fri Feb 24 10:53:37 +0100 2012" uid="1" user="" lat="47.608044" lon="7.6637552">
    <tag k="name" v="Hans-Thoma Gymnasium"/>
    <tag k="wheelchair" v="no"/>
    <tag k="amenity" v="school"/>
  </node>
  <node id="-5148" version="0" timestamp="Fri Feb 24 10:53:37 +0100 2012" uid="1" user="" lat="47.6107832" lon="7.6617464">
    <tag k="shop" v="mall"/>
    <tag k="name" v="Migros"/>
    <tag k="wheelchair" v="yes"/>
  </node>
  <node id="-5149" version="0" timestamp="Fri Feb 24 10:53:37 +0100 2012" uid="1" user="" lat="47.6127259" lon="7.6613503">
    <tag k="shop" v="mall"/>
    <tag k="name" v="Karstadt"/>
    <tag k="wheelchair" v="yes"/>
  </node>
  <node id="-5160" version="0" timestamp="Fri Feb 24 10:53:37 +0100 2012" uid="1" user="" lat="47.610973" lon="7.6617593">
    <tag k="shop" v="mall"/>
    <tag k="name" v="Migros"/>
    <tag k="wheelchair" v="limited"/>
  </node>
  <node id="-5161" version="0" timestamp="Fri Feb 24 10:53:37 +0100 2012" uid="1" user="" lat="47.6109615" lon="7.6626801">
    <tag k="shop" v="clothes"/>
    <tag k="name" v="C&amp;A"/>
    <tag k="wheelchair" v="limited"/>
  </node>
  <node id="-5162" version="0" timestamp="Fri Feb 24 10:53:37 +0100 2012" uid="1" user="" lat="47.6128764" lon="7.6638662">
    <tag k="name" v="Behindertenparkplätze"/>
    <tag k="wheelchair" v="limited"/>
    <tag k="amenity" v="parking"/>
  </node>
  <node id="-5163" version="0" timestamp="Fri Feb 24 10:53:37 +0100 2012" uid="1" user="" lat="47.614629" lon="7.6593284">
    <tag k="name" v="Behindertenparkplätze"/>
    <tag k="wheelchair" v="unknown"/>
    <tag k="amenity" v="parking"/>
  </node>
  <node id="-5165" version="0" timestamp="Fri Feb 24 10:53:37 +0100 2012" uid="1" user="" lat="48.1001706" lon="7.6060931">
    <tag k="name" v="volki09"/>
    <tag k="wheelchair" v="no"/>
    <tag k="wheelchair:description" v="Die Bushaltestelle ist nicht Barriefrei, zudem gibt es keine Haltebucht, der Bus setht auf der Strasse wie auch die wartenden"/>
    <tag k="amenity" v="bus_station"/>
  </node>
  <node id="-5166" version="0" timestamp="Fri Feb 24 10:53:37 +0100 2012" uid="1" user="" lat="48.1016768" lon="7.601682">
    <tag k="shop" v="alcohol"/>
    <tag k="name" v="volki09"/>
    <tag k="wheelchair" v="yes"/>
  </node>
  <node id="-5167" version="0" timestamp="Fri Feb 24 10:53:37 +0100 2012" uid="1" user="" lat="48.1015794" lon="7.5976507">
    <tag k="name" v="volki09"/>
    <tag k="wheelchair" v="limited"/>
    <tag k="amenity" v="community_center"/>
  </node>
  <node id="-5169" version="0" timestamp="Fri Feb 24 10:53:37 +0100 2012" uid="1" user="" lat="47.9927644" lon="7.8177646">
    <tag k="name" v="Stadtteilbüro Haslach Nachbarschaftswerk e.V."/>
    <tag k="wheelchair" v="yes"/>
    <tag k="addr:city" v="Freiburg im Breisgau"/>
    <tag k="addr:postcode" v="79115"/>
    <tag k="addr:housenumber" v="9b"/>
    <tag k="addr:street" v="Melanchthonweg"/>
    <tag k="wheelchair:description" v="Zugang + Alle Räume + WC Voll Rollstuhlgerecht"/>
    <tag k="website" v="http://www.nachbarschaftswerk.de"/>
    <tag k="phone" v="+49 761 7679-005"/>
    <tag k="office" v="company"/>
  </node>
  <node id="-5336" version="0" timestamp="Fri Feb 24 10:53:37 +0100 2012" uid="1" user="" lat="47.5943537" lon="7.622798">
    <tag k="name" v="Behindertenparkplatz"/>
    <tag k="wheelchair" v="limited"/>
    <tag k="amenity" v="parking"/>
  </node>
  <node id="-5337" version="0" timestamp="Fri Feb 24 10:53:37 +0100 2012" uid="1" user="" lat="47.5931934" lon="7.6122702">
    <tag k="name" v="2 Behindertenparkplätze"/>
    <tag k="wheelchair" v="limited"/>
    <tag k="amenity" v="parking"/>
  </node>
  <node id="-5338" version="0" timestamp="Fri Feb 24 10:53:37 +0100 2012" uid="1" user="" lat="47.5923859" lon="7.6125341">
    <tag k="name" v="2 Behindertenparkplätze"/>
    <tag k="wheelchair" v="yes"/>
    <tag k="amenity" v="parking"/>
  </node>
  <node id="-5440" version="0" timestamp="Fri Feb 24 10:53:37 +0100 2012" uid="1" user="" lat="47.9521578" lon="8.4926138">
    <tag k="name" v="Donauhallen"/>
    <tag k="wheelchair" v="yes"/>
    <tag k="addr:city" v="Donaueschingen"/>
    <tag k="addr:postcode" v="78166"/>
    <tag k="addr:housenumber" v="2"/>
    <tag k="addr:street" v="An der Donauhalle "/>
    <tag k="amenity" v="townhall"/>
    <tag k="website" v="http://www.donauhallen.de"/>
    <tag k="phone" v="+ 49 771 897819-0"/>
  </node>
  <node id="-5447" version="0" timestamp="Fri Feb 24 10:53:37 +0100 2012" uid="1" user="" lat="47.9366889" lon="7.6957234">
    <tag k="name" v="Merowinger Halle"/>
    <tag k="wheelchair" v="yes"/>
    <tag k="amenity" v="community_center"/>
  </node>
  <node id="-5448" version="0" timestamp="Fri Feb 24 10:53:37 +0100 2012" uid="1" user="" lat="47.915294" lon="7.6991033">
    <tag k="name" v="Gasthaus Löwen"/>
    <tag k="wheelchair" v="yes"/>
    <tag k="tourism" v="guest_house"/>
  </node>
  <node id="-5449" version="0" timestamp="Fri Feb 24 10:53:37 +0100 2012" uid="1" user="" lat="47.9218" lon="7.70947">
    <tag k="shop" v="supermarket"/>
    <tag k="name" v="Hiebers FrischeCenter"/>
    <tag k="wheelchair" v="yes"/>
  </node>
  <node id="-5450" version="0" timestamp="Fri Feb 24 10:53:37 +0100 2012" uid="1" user="" lat="47.6137268" lon="7.6594557">
    <tag k="name" v="Behindertenparkplatz"/>
    <tag k="wheelchair" v="limited"/>
    <tag k="amenity" v="parking"/>
  </node>
  <node id="-5496" version="0" timestamp="Fri Feb 24 10:53:37 +0100 2012" uid="1" user="" lat="47.9800632" lon="8.4685938">
    <tag k="name" v="Kindergarten Augenblick"/>
    <tag k="wheelchair" v="limited"/>
    <tag k="amenity" v="kindergarten"/>
  </node>
  <node id="-5497" version="0" timestamp="Fri Feb 24 10:53:37 +0100 2012" uid="1" user="" lat="47.9802597" lon="8.4684849">
    <tag k="name" v="Grundschule"/>
    <tag k="wheelchair" v="no"/>
    <tag k="amenity" v="school"/>
  </node>
  <node id="-5498" version="0" timestamp="Fri Feb 24 10:53:37 +0100 2012" uid="1" user="" lat="47.9803175" lon="8.4687965">
    <tag k="name" v="Turn- und Festhalle"/>
    <tag k="wheelchair" v="unknown"/>
    <tag k="amenity" v="townhall"/>
  </node>
  <node id="-5532" version="0" timestamp="Fri Feb 24 10:53:37 +0100 2012" uid="1" user="" lat="47.6116074" lon="7.6617521">
    <tag k="name" v="2 Behindertenparkplätze"/>
    <tag k="wheelchair" v="unknown"/>
    <tag k="addr:street" v="Untere Wallbrunnstraße"/>
    <tag k="amenity" v="parking"/>
  </node>
  <node id="-5534" version="0" timestamp="Fri Feb 24 10:53:37 +0100 2012" uid="1" user="" lat="47.5934746" lon="7.6089749">
    <tag k="name" v="&quot;Bahnhof&quot; Weil am Rhein"/>
    <tag k="wheelchair" v="no"/>
    <tag k="railway" v="platform"/>
  </node>
  <node id="-5543" version="0" timestamp="Fri Feb 24 10:53:37 +0100 2012" uid="1" user="" lat="48.46973" lon="7.94271">
    <tag k="name" v="Schöllmanns"/>
    <tag k="wheelchair" v="yes"/>
    <tag k="amenity" v="restaurant"/>
  </node>
  <node id="-5565" version="0" timestamp="Fri Feb 24 10:53:37 +0100 2012" uid="1" user="" lat="47.95341" lon="8.49538">
    <tag k="name" v="Sparkasse"/>
    <tag k="wheelchair" v="yes"/>
    <tag k="amenity" v="bank"/>
  </node>
  <node id="-5566" version="0" timestamp="Fri Feb 24 10:53:37 +0100 2012" uid="1" user="" lat="47.9509307" lon="8.4930712">
    <tag k="name" v="Volksbank"/>
    <tag k="wheelchair" v="yes"/>
    <tag k="amenity" v="bank"/>
  </node>
  <node id="-5567" version="0" timestamp="Fri Feb 24 10:53:37 +0100 2012" uid="1" user="" lat="47.9499701" lon="8.5031166">
    <tag k="name" v="Fürstlich Fürstenbergischer Schlosspark"/>
    <tag k="wheelchair" v="yes"/>
    <tag k="historic" v="castle"/>
  </node>
  <node id="-5568" version="0" timestamp="Fri Feb 24 10:53:37 +0100 2012" uid="1" user="" lat="47.9521222" lon="8.503179">
    <tag k="name" v="Fürstlich Fürstenbergisches Schloss"/>
    <tag k="wheelchair" v="unknown"/>
    <tag k="historic" v="castle"/>
  </node>
  <node id="-5569" version="0" timestamp="Fri Feb 24 10:53:37 +0100 2012" uid="1" user="" lat="47.9487443" lon="8.4993113">
    <tag k="name" v="Geologischer Garten"/>
    <tag k="wheelchair" v="yes"/>
    <tag k="tourism" v="attraction"/>
  </node>
  <node id="-5570" version="0" timestamp="Fri Feb 24 10:53:37 +0100 2012" uid="1" user="" lat="47.9528556" lon="8.4971555">
    <tag k="shop" v="dry_cleaning"/>
    <tag k="name" v="Haus der Mode"/>
    <tag k="wheelchair" v="yes"/>
  </node>
  <node id="-5572" version="0" timestamp="Fri Feb 24 10:53:37 +0100 2012" uid="1" user="" lat="47.9525331" lon="8.4982061">
    <tag k="shop" v="florist"/>
    <tag k="name" v="BlumenArt"/>
    <tag k="wheelchair" v="limited"/>
  </node>
  <node id="-5573" version="0" timestamp="Fri Feb 24 10:53:37 +0100 2012" uid="1" user="" lat="47.9532392" lon="8.4989635">
    <tag k="name" v="Post"/>
    <tag k="wheelchair" v="yes"/>
    <tag k="amenity" v="post_office"/>
  </node>
  <node id="-5574" version="0" timestamp="Fri Feb 24 10:53:37 +0100 2012" uid="1" user="" lat="47.9536532" lon="8.4956815">
    <tag k="name" v="Rathaus I mit Musikantenbrunnen"/>
    <tag k="wheelchair" v="limited"/>
    <tag k="tourism" v="attraction"/>
  </node>
  <node id="-5575" version="0" timestamp="Fri Feb 24 10:53:37 +0100 2012" uid="1" user="" lat="47.9573999" lon="8.4977107">
    <tag k="name" v="Sparkasse"/>
    <tag k="wheelchair" v="yes"/>
    <tag k="amenity" v="bank"/>
  </node>
  <node id="-5576" version="0" timestamp="Fri Feb 24 10:53:37 +0100 2012" uid="1" user="" lat="47.96049" lon="8.50963">
    <tag k="name" v="Discothek Okay"/>
    <tag k="wheelchair" v="no"/>
    <tag k="amenity" v="nightclub"/>
  </node>
  <node id="-5643" version="0" timestamp="Fri Feb 24 10:53:37 +0100 2012" uid="1" user="" lat="47.9516552" lon="8.4987671">
    <tag k="name" v="Fürstlich Fürstenbergische Brauerei"/>
    <tag k="wheelchair" v="no"/>
    <tag k="tourism" v="attraction"/>
  </node>
  <node id="-5684" version="0" timestamp="Fri Feb 24 10:53:37 +0100 2012" uid="1" user="" lat="47.595" lon="7.62007">
    <tag k="name" v="Gemeindehaus St. Peter und Paul"/>
    <tag k="wheelchair" v="yes"/>
    <tag k="addr:city" v="Weil am Rhein"/>
    <tag k="addr:postcode" v="79576"/>
    <tag k="addr:housenumber" v="4"/>
    <tag k="addr:street" v="Hans-Carossa-Strasse"/>
    <tag k="amenity" v="community_center"/>
  </node>
  <node id="-5685" version="0" timestamp="Fri Feb 24 10:53:37 +0100 2012" uid="1" user="" lat="47.59669" lon="7.62455">
    <tag k="name" v="Pflegeheim Markgräflerland"/>
    <tag k="wheelchair" v="yes"/>
    <tag k="addr:city" v="Weil am Rhein"/>
    <tag k="addr:postcode" v="79576"/>
    <tag k="addr:housenumber" v="55"/>
    <tag k="addr:street" v="Römerstrasse"/>
    <tag k="amenity" v="social_facility"/>
    <tag k="phone" v="+49 7621 97 77-0"/>
  </node>
  <node id="-5686" version="0" timestamp="Fri Feb 24 10:53:37 +0100 2012" uid="1" user="" lat="47.5934966" lon="7.6109247">
    <tag k="name" v="Stadtcafe"/>
    <tag k="wheelchair" v="limited"/>
    <tag k="addr:city" v="Weil am Rhein"/>
    <tag k="addr:postcode" v="79576"/>
    <tag k="addr:street" v="Sternenschanzenstrasse"/>
    <tag k="wheelchair:description" v="WC nicht mit Rolli zugänglich"/>
    <tag k="amenity" v="cafe"/>
    <tag k="phone" v="+49 7621 7 12 64"/>
  </node>
</osm>
