<?xml version='1.0' encoding='UTF-8'?>
<osm version="0.6" generator="Osmosis 0.39">
  <node id="-72" version="0" timestamp="Fri Feb 24 10:53:32 +0100 2012" uid="1" user="" lat="49.4085042" lon="8.6921789">
    <tag k="name" v="Café Rosi"/>
    <tag k="wheelchair" v="no"/>
    <tag k="wheelchair:description" v="Jeweils 3 Treppenstufen"/>
    <tag k="amenity" v="cafe"/>
  </node>
  <node id="-73" version="0" timestamp="Fri Feb 24 10:53:32 +0100 2012" uid="1" user="" lat="49.4081949" lon="8.6927978">
    <tag k="name" v="McDonalds"/>
    <tag k="wheelchair" v="yes"/>
    <tag k="amenity" v="fast_food"/>
  </node>
  <node id="-82" version="0" timestamp="Fri Feb 24 10:53:32 +0100 2012" uid="1" user="" lat="49.279991" lon="8.9916712">
    <tag k="name" v="Praxis Scherb"/>
    <tag k="wheelchair" v="yes"/>
    <tag k="addr:city" v="Neckarbischofsheim"/>
    <tag k="addr:postcode" v="74924"/>
    <tag k="addr:housenumber" v="21"/>
    <tag k="addr:street" v="Talstraße"/>
    <tag k="amenity" v="doctors"/>
    <tag k="website" v="http://www.praxis-scherb.de"/>
  </node>
  <node id="-115" version="0" timestamp="Fri Feb 24 10:53:32 +0100 2012" uid="1" user="" lat="49.462931" lon="8.9829529">
    <tag k="name" v="Restaurant Café am Leopoldsplatz"/>
    <tag k="wheelchair" v="yes"/>
    <tag k="amenity" v="restaurant"/>
  </node>
  <node id="-117" version="0" timestamp="Fri Feb 24 10:53:32 +0100 2012" uid="1" user="" lat="49.46595" lon="8.98464">
    <tag k="shop" v="supermarket"/>
    <tag k="name" v="REWE"/>
    <tag k="wheelchair" v="yes"/>
  </node>
  <node id="-192" version="0" timestamp="Fri Feb 24 10:53:32 +0100 2012" uid="1" user="" lat="48.7143967" lon="8.7399345">
    <tag k="name" v="Alt-Calw"/>
    <tag k="wheelchair" v="no"/>
    <tag k="addr:city" v="Calw"/>
    <tag k="addr:postcode" v="75365"/>
    <tag k="addr:housenumber" v="1"/>
    <tag k="addr:street" v="Lederstrasse"/>
    <tag k="amenity" v="restaurant"/>
    <tag k="website" v="http://www.alt-calw.de"/>
    <tag k="phone" v="07051  409 33"/>
  </node>
  <node id="-195" version="0" timestamp="Fri Feb 24 10:53:32 +0100 2012" uid="1" user="" lat="48.7158595" lon="8.7386676">
    <tag k="name" v="Gaststätte Café - Eiscafé Adria"/>
    <tag k="wheelchair" v="limited"/>
    <tag k="addr:city" v="Calw"/>
    <tag k="addr:postcode" v="75365"/>
    <tag k="addr:housenumber" v="27"/>
    <tag k="addr:street" v="Lederstrasse"/>
    <tag k="wheelchair:description" v="am eingang zum (Eis)café sind 2 stufen"/>
    <tag k="amenity" v="cafe"/>
    <tag k="website" v="http://www.adria-calw.de/"/>
    <tag k="phone" v="07051 30864"/>
  </node>
  <node id="-217" version="0" timestamp="Fri Feb 24 10:53:32 +0100 2012" uid="1" user="" lat="48.7141805" lon="8.7393882">
    <tag k="name" v="Tui Reisecenter"/>
    <tag k="wheelchair" v="yes"/>
    <tag k="addr:city" v="Calw"/>
    <tag k="addr:postcode" v="75365"/>
    <tag k="addr:housenumber" v="4"/>
    <tag k="addr:street" v="Marktplatz"/>
    <tag k="website" v="http://www.tui.de"/>
    <tag k="phone" v="07051 93340"/>
  </node>
  <node id="-286" version="0" timestamp="Fri Feb 24 10:53:32 +0100 2012" uid="1" user="" lat="48.70543" lon="8.7653029">
    <tag k="name" v="GWW - Calw"/>
    <tag k="wheelchair" v="yes"/>
    <tag k="addr:city" v="Calw"/>
    <tag k="addr:postcode" v="75365"/>
    <tag k="addr:housenumber" v="14"/>
    <tag k="addr:street" v="Gottlob-Bauknecht-Strasse"/>
    <tag k="website" v="http://www.gww-netz.de/"/>
    <tag k="phone" v="07051 9320-0"/>
  </node>
  <node id="-287" version="0" timestamp="Fri Feb 24 10:53:32 +0100 2012" uid="1" user="" lat="48.7048925" lon="8.7661377">
    <tag k="name" v="Jehovas Zeugen"/>
    <tag k="wheelchair" v="yes"/>
    <tag k="addr:city" v="Calw"/>
    <tag k="addr:postcode" v="75365"/>
    <tag k="addr:housenumber" v="18"/>
    <tag k="addr:street" v="Gottlob-Bauknecht-Strasse"/>
    <tag k="amenity" v="place_of_worship"/>
    <tag k="website" v="http://jehovaszeugen.de/"/>
    <tag k="phone" v="07051 2 04 84"/>
  </node>
  <node id="-288" version="0" timestamp="Fri Feb 24 10:53:32 +0100 2012" uid="1" user="" lat="49.631718" lon="9.4788657">
    <tag k="name" v="Kirche"/>
    <tag k="wheelchair" v="no"/>
    <tag k="amenity" v="bank"/>
  </node>
  <node id="-289" version="0" timestamp="Fri Feb 24 10:53:32 +0100 2012" uid="1" user="" lat="49.6103099" lon="9.4724991">
    <tag k="shop" v="bakery"/>
    <tag k="name" v="Bäckerei Weber"/>
    <tag k="wheelchair" v="yes"/>
    <tag k="addr:housenumber" v="38"/>
    <tag k="addr:street" v="Wertheimer Straße"/>
  </node>
  <node id="-291" version="0" timestamp="Fri Feb 24 10:53:32 +0100 2012" uid="1" user="" lat="49.5833804" lon="9.3679728">
    <tag k="shop" v="hairdresser"/>
    <tag k="name" v="Egon Trunk - Frisör &amp; Parfümerie"/>
    <tag k="wheelchair" v="no"/>
    <tag k="addr:housenumber" v="13"/>
    <tag k="addr:street" v="Hauptstraße"/>
  </node>
  <node id="-295" version="0" timestamp="Fri Feb 24 10:53:32 +0100 2012" uid="1" user="" lat="49.6317328" lon="9.4787045">
    <tag k="name" v="Kirche"/>
    <tag k="wheelchair" v="no"/>
    <tag k="amenity" v="place_of_worship"/>
  </node>
  <node id="-296" version="0" timestamp="Fri Feb 24 10:53:32 +0100 2012" uid="1" user="" lat="49.5832918" lon="9.3670171">
    <tag k="name" v="WC"/>
    <tag k="wheelchair" v="yes"/>
    <tag k="addr:street" v="Schlossplatz"/>
    <tag k="amenity" v="toilets"/>
  </node>
  <node id="-340" version="0" timestamp="Fri Feb 24 10:53:32 +0100 2012" uid="1" user="" lat="48.799594" lon="8.4385033">
    <tag k="name" v="Hotel am Kurpark"/>
    <tag k="wheelchair" v="yes"/>
    <tag k="addr:city" v="Bad Herrenalb"/>
    <tag k="addr:postcode" v="76332"/>
    <tag k="addr:housenumber" v="23/1"/>
    <tag k="tourism" v="hotel"/>
    <tag k="addr:street" v="Kurpromenade"/>
    <tag k="wheelchair:description" v="100% barrierefrei"/>
    <tag k="website" v="http://www.hotelak.de"/>
    <tag k="phone" v="+49 07083 5002-0"/>
  </node>
  <node id="-365" version="0" timestamp="Fri Feb 24 10:53:32 +0100 2012" uid="1" user="" lat="48.71147" lon="8.74593">
    <tag k="name" v="Landratsamt Calw"/>
    <tag k="wheelchair" v="yes"/>
    <tag k="addr:city" v="Calw"/>
    <tag k="addr:postcode" v="75365"/>
    <tag k="addr:housenumber" v="42"/>
    <tag k="addr:street" v="Vogteistraße"/>
    <tag k="wheelchair:description" v="3 Gebäudeteile, mit Übergängen verbunden, Automatische Türen an allen 3 Gebäude-Haupteingängen"/>
    <tag k="website" v="http://www.kreis-calw.de"/>
    <tag k="phone" v="++49 7051 1600"/>
  </node>
  <node id="-418" version="0" timestamp="Fri Feb 24 10:53:32 +0100 2012" uid="1" user="" lat="49.00829" lon="8.40876">
    <tag k="name" v="Kai&apos;s Pizza"/>
    <tag k="wheelchair" v="no"/>
    <tag k="amenity" v="restaurant"/>
  </node>
  <node id="-473" version="0" timestamp="Fri Feb 24 10:53:32 +0100 2012" uid="1" user="" lat="49.1789" lon="8.50545">
    <tag k="name" v="Blaues Loch Schwetzingen"/>
    <tag k="wheelchair" v="yes"/>
    <tag k="addr:city" v="Schwetzingen"/>
    <tag k="addr:postcode" v="68723"/>
    <tag k="addr:housenumber" v="3"/>
    <tag k="addr:street" v="Zeyherstrasse"/>
    <tag k="amenity" v="restaurant"/>
    <tag k="website" v="http://www.facebook.com/BlauesLoch.Schwetzingen"/>
    <tag k="phone" v="06202 21360"/>
  </node>
  <node id="-504" version="0" timestamp="Fri Feb 24 10:53:32 +0100 2012" uid="1" user="" lat="48.7112791" lon="8.7458361">
    <tag k="name" v="Landratsamt Calw"/>
    <tag k="wheelchair" v="yes"/>
    <tag k="addr:city" v="Calw"/>
    <tag k="addr:postcode" v="75365"/>
    <tag k="addr:housenumber" v="42-46"/>
    <tag k="addr:street" v="Vogteistraße"/>
    <tag k="wheelchair:description" v="Ebenerdig, Behindertenparkplätze, Aufzüge"/>
    <tag k="website" v="http://www.kreis-calw.de"/>
    <tag k="phone" v="07051/1600"/>
  </node>
  <node id="-548" version="0" timestamp="Fri Feb 24 10:53:32 +0100 2012" uid="1" user="" lat="48.7996189" lon="8.4387321">
    <tag k="name" v="Hotel am Kurpark"/>
    <tag k="wheelchair" v="yes"/>
    <tag k="addr:city" v="Bad Herrenalb"/>
    <tag k="addr:postcode" v="76332"/>
    <tag k="addr:housenumber" v="23/1"/>
    <tag k="tourism" v="hotel"/>
    <tag k="addr:street" v="Kurpromenade"/>
    <tag k="wheelchair:description" v="100% Rollstuhlgerecht aller Zimmer"/>
    <tag k="phone" v="+49 7083 50020"/>
  </node>
  <node id="-549" version="0" timestamp="Fri Feb 24 10:53:32 +0100 2012" uid="1" user="" lat="48.79856" lon="8.43719">
    <tag k="name" v="Kurhaus&amp; Parkrestaurant"/>
    <tag k="wheelchair" v="yes"/>
    <tag k="addr:city" v="Bad Herrenalb"/>
    <tag k="addr:postcode" v="76332"/>
    <tag k="addr:street" v="Kurpromenade"/>
    <tag k="wheelchair:description" v="Behindertentoilette per Aufzug im Keller"/>
    <tag k="amenity" v="restaurant"/>
  </node>
  <node id="-710" version="0" timestamp="Fri Feb 24 10:53:32 +0100 2012" uid="1" user="" lat="49.2436392" lon="8.5429898">
    <tag k="name" v="Kirrlacher Döner&amp;Pizza"/>
    <tag k="wheelchair" v="unknown"/>
    <tag k="addr:city" v="Waghäusel"/>
    <tag k="addr:postcode" v="68753"/>
    <tag k="addr:housenumber" v="64"/>
    <tag k="addr:street" v="Waghäuseler Straße"/>
    <tag k="amenity" v="fast_food"/>
    <tag k="phone" v="+49 7254-70060"/>
  </node>
  <node id="-711" version="0" timestamp="Fri Feb 24 10:53:32 +0100 2012" uid="1" user="" lat="49.2400271" lon="8.5441982">
    <tag k="name" v="Café Bistro Alte Scheuer"/>
    <tag k="wheelchair" v="unknown"/>
    <tag k="addr:city" v="Waghäusel"/>
    <tag k="addr:postcode" v="68753"/>
    <tag k="addr:housenumber" v="21"/>
    <tag k="addr:street" v="Gartenstraße"/>
    <tag k="amenity" v="bank"/>
    <tag k="website" v="http://s302779711.online.de/index.php?option=com_content&amp;view=article&amp;id=2&amp;Itemid=8"/>
    <tag k="phone" v="+49 7254-7830850"/>
  </node>
  <node id="-764" version="0" timestamp="Fri Feb 24 10:53:32 +0100 2012" uid="1" user="" lat="49.0025455" lon="8.682722">
    <tag k="name" v="Bushaltestelle Sprantal"/>
    <tag k="wheelchair" v="no"/>
    <tag k="addr:city" v="Sprantal"/>
    <tag k="addr:postcode" v="75015"/>
    <tag k="addr:street" v="Nussbaumerstraße"/>
    <tag k="amenity" v="bus_station"/>
  </node>
  <node id="-801" version="0" timestamp="Fri Feb 24 10:53:32 +0100 2012" uid="1" user="" lat="48.88071" lon="8.5084">
    <tag k="name" v="Hotel Maxis"/>
    <tag k="wheelchair" v="limited"/>
    <tag k="addr:city" v="Karlsbad "/>
    <tag k="addr:postcode" v="76307"/>
    <tag k="addr:housenumber" v="15"/>
    <tag k="tourism" v="hotel"/>
    <tag k="addr:street" v="Im Stöckmädle"/>
    <tag k="wheelchair:description" v="Hotel komplett, Zimmer mit Dusche ohne Duschsitz"/>
    <tag k="website" v="http://www.hotelmaxis.de/"/>
    <tag k="phone" v="+497248 - 926 330 "/>
  </node>
  <node id="-816" version="0" timestamp="Fri Feb 24 10:53:32 +0100 2012" uid="1" user="" lat="49.3398443" lon="9.1237939">
    <tag k="shop" v="electronics"/>
    <tag k="name" v="Media Markt"/>
    <tag k="wheelchair" v="yes"/>
    <tag k="addr:city" v="Mosbach"/>
    <tag k="addr:postcode" v="74821"/>
  </node>
  <node id="-817" version="0" timestamp="Fri Feb 24 10:53:32 +0100 2012" uid="1" user="" lat="49.3447312" lon="9.1061216">
    <tag k="name" v="Videotaxi"/>
    <tag k="wheelchair" v="yes"/>
    <tag k="amenity" v="cinema"/>
  </node>
  <node id="-818" version="0" timestamp="Fri Feb 24 10:53:32 +0100 2012" uid="1" user="" lat="49.3485965" lon="9.1127045">
    <tag k="shop" v="kiosk"/>
    <tag k="name" v="Kiosk"/>
    <tag k="wheelchair" v="yes"/>
  </node>
  <node id="-819" version="0" timestamp="Fri Feb 24 10:53:32 +0100 2012" uid="1" user="" lat="49.3490845" lon="9.1120866">
    <tag k="name" v="Parkhaus"/>
    <tag k="wheelchair" v="yes"/>
    <tag k="amenity" v="parking"/>
  </node>
  <node id="-820" version="0" timestamp="Fri Feb 24 10:53:32 +0100 2012" uid="1" user="" lat="49.3490924" lon="9.1298427">
    <tag k="name" v="Volksbank/Automat"/>
    <tag k="wheelchair" v="yes"/>
    <tag k="amenity" v="bank"/>
  </node>
  <node id="-821" version="0" timestamp="Fri Feb 24 10:53:32 +0100 2012" uid="1" user="" lat="49.3709356" lon="9.1350413">
    <tag k="name" v="Dr.Zajgla"/>
    <tag k="wheelchair" v="no"/>
    <tag k="wheelchair:description" v="2. Stock nur durch Treppe zu erreichen."/>
    <tag k="amenity" v="doctors"/>
  </node>
  <node id="-822" version="0" timestamp="Fri Feb 24 10:53:32 +0100 2012" uid="1" user="" lat="49.3447764" lon="9.1349078">
    <tag k="name" v="Pizzeria"/>
    <tag k="wheelchair" v="yes"/>
    <tag k="amenity" v="restaurant"/>
  </node>
  <node id="-823" version="0" timestamp="Fri Feb 24 10:53:32 +0100 2012" uid="1" user="" lat="49.4335179" lon="9.1520906">
    <tag k="name" v="Dr.Schwing"/>
    <tag k="wheelchair" v="yes"/>
    <tag k="amenity" v="doctors"/>
  </node>
  <node id="-824" version="0" timestamp="Fri Feb 24 10:53:32 +0100 2012" uid="1" user="" lat="49.3463554" lon="9.0979877">
    <tag k="name" v="Rock N´Bowl"/>
    <tag k="wheelchair" v="no"/>
    <tag k="wheelchair:description" v="Große Holztreppe vorne dran, die auch sehr rutschig ist, sofern nass."/>
    <tag k="amenity" v="nightclub"/>
  </node>
  <node id="-826" version="0" timestamp="Fri Feb 24 10:53:32 +0100 2012" uid="1" user="" lat="49.3531263" lon="9.1061078">
    <tag k="shop" v="supermarket"/>
    <tag k="name" v="Lidl"/>
    <tag k="wheelchair" v="yes"/>
  </node>
  <node id="-827" version="0" timestamp="Fri Feb 24 10:53:32 +0100 2012" uid="1" user="" lat="49.4300565" lon="9.1499906">
    <tag k="shop" v="bakery"/>
    <tag k="name" v="Bäckerei Lorenz"/>
    <tag k="wheelchair" v="yes"/>
  </node>
  <node id="-828" version="0" timestamp="Fri Feb 24 10:53:32 +0100 2012" uid="1" user="" lat="49.4317194" lon="9.1503449">
    <tag k="name" v="Alte Schmiede"/>
    <tag k="wheelchair" v="no"/>
    <tag k="amenity" v="bar"/>
  </node>
  <node id="-829" version="0" timestamp="Fri Feb 24 10:53:32 +0100 2012" uid="1" user="" lat="49.4308959" lon="9.1512796">
    <tag k="shop" v="beverages"/>
    <tag k="name" v="Getränke Wieder"/>
    <tag k="wheelchair" v="yes"/>
  </node>
  <node id="-830" version="0" timestamp="Fri Feb 24 10:53:32 +0100 2012" uid="1" user="" lat="49.4278579" lon="9.1531267">
    <tag k="name" v="Römerapotheke"/>
    <tag k="wheelchair" v="yes"/>
    <tag k="amenity" v="pharmacy"/>
  </node>
  <node id="-831" version="0" timestamp="Fri Feb 24 10:53:32 +0100 2012" uid="1" user="" lat="49.42786" lon="9.152792">
    <tag k="shop" v="hairdresser"/>
    <tag k="name" v="City Friseur"/>
    <tag k="wheelchair" v="limited"/>
  </node>
  <node id="-832" version="0" timestamp="Fri Feb 24 10:53:32 +0100 2012" uid="1" user="" lat="49.4323719" lon="9.1551108">
    <tag k="name" v="Zahnarzt Dr. Kolb"/>
    <tag k="wheelchair" v="yes"/>
    <tag k="amenity" v="doctors"/>
  </node>
  <node id="-833" version="0" timestamp="Fri Feb 24 10:53:32 +0100 2012" uid="1" user="" lat="49.4311775" lon="9.1493498">
    <tag k="name" v="Sparkasse Fahrenbach"/>
    <tag k="wheelchair" v="limited"/>
    <tag k="wheelchair:description" v="Etwas steilerer Berg der zur Bank führt."/>
    <tag k="amenity" v="bank"/>
  </node>
  <node id="-834" version="0" timestamp="Fri Feb 24 10:53:32 +0100 2012" uid="1" user="" lat="49.4298228" lon="9.150138">
    <tag k="name" v="Volksbank Fahrenbach"/>
    <tag k="wheelchair" v="yes"/>
    <tag k="amenity" v="bank"/>
  </node>
  <node id="-835" version="0" timestamp="Fri Feb 24 10:53:32 +0100 2012" uid="1" user="" lat="49.4262751" lon="9.1560365">
    <tag k="shop" v="electronics"/>
    <tag k="name" v="Elektro Wenninger"/>
    <tag k="wheelchair" v="yes"/>
  </node>
  <node id="-836" version="0" timestamp="Fri Feb 24 10:53:32 +0100 2012" uid="1" user="" lat="49.4305394" lon="9.1541717">
    <tag k="name" v="Bürgerzentrum"/>
    <tag k="wheelchair" v="yes"/>
    <tag k="amenity" v="townhall"/>
  </node>
  <node id="-837" version="0" timestamp="Fri Feb 24 10:53:32 +0100 2012" uid="1" user="" lat="49.430571" lon="9.1485569">
    <tag k="name" v="Rathaus Fahrenbach"/>
    <tag k="wheelchair" v="limited"/>
    <tag k="wheelchair:description" v="Wirklich wichtige Räume sind NICHT zu erreichen, da in den oberen Stockwerken."/>
  </node>
  <node id="-838" version="0" timestamp="Fri Feb 24 10:53:32 +0100 2012" uid="1" user="" lat="49.4315926" lon="9.1389453">
    <tag k="name" v="Kneipanlage"/>
    <tag k="wheelchair" v="no"/>
    <tag k="amenity" v="swimming_pool"/>
  </node>
  <node id="-839" version="0" timestamp="Fri Feb 24 10:53:32 +0100 2012" uid="1" user="" lat="49.4318098" lon="9.1391378">
    <tag k="name" v="Grillplatz"/>
    <tag k="wheelchair" v="limited"/>
    <tag k="tourism" v="viewpoint"/>
    <tag k="wheelchair:description" v="An für sich zu erreichen, es muss aber eine Wiese genommen werden. Kurbel für den Grill ist vorher im Rathaus zu entleihen."/>
  </node>
  <node id="-840" version="0" timestamp="Fri Feb 24 10:53:32 +0100 2012" uid="1" user="" lat="49.3405818" lon="9.1194322">
    <tag k="shop" v="department_store"/>
    <tag k="name" v="Autohaus Käsmann (VW)"/>
    <tag k="wheelchair" v="yes"/>
  </node>
  <node id="-851" version="0" timestamp="Fri Feb 24 10:53:32 +0100 2012" uid="1" user="" lat="49.4310565" lon="9.1531106">
    <tag k="name" v="Grundschule Fahrenbach"/>
    <tag k="wheelchair" v="no"/>
    <tag k="amenity" v="school"/>
  </node>
  <node id="-852" version="0" timestamp="Fri Feb 24 10:53:32 +0100 2012" uid="1" user="" lat="49.4309447" lon="9.1537943">
    <tag k="name" v="Kindergarten Sonnenschein"/>
    <tag k="wheelchair" v="yes"/>
    <tag k="amenity" v="kindergarten"/>
  </node>
  <node id="-960" version="0" timestamp="Fri Feb 24 10:53:33 +0100 2012" uid="1" user="" lat="49.6097247" lon="9.4723166">
    <tag k="shop" v="bakery"/>
    <tag k="name" v="Bäckerei Weber"/>
    <tag k="wheelchair" v="yes"/>
  </node>
  <node id="-984" version="0" timestamp="Fri Feb 24 10:53:33 +0100 2012" uid="1" user="" lat="49.0866076" lon="8.5517173">
    <tag k="name" v="Zahnarztpraxis Dr. Otmar &amp; Dr. Dino Biedermann"/>
    <tag k="wheelchair" v="yes"/>
    <tag k="addr:city" v="Bruchsal"/>
    <tag k="addr:postcode" v="76646"/>
    <tag k="addr:housenumber" v="12-14"/>
    <tag k="addr:street" v="Büchenauer Strasse"/>
    <tag k="wheelchair:description" v="ebenerdiger Zugang vom Parplatz hinter der Praxis aus, iliegt m Erdgeschoss"/>
    <tag k="amenity" v="doctors"/>
    <tag k="website" v="http://www.dr-biedermann.com"/>
    <tag k="phone" v="+4972571628"/>
  </node>
  <node id="-1032" version="0" timestamp="Fri Feb 24 10:53:33 +0100 2012" uid="1" user="" lat="49.2336432" lon="8.7752878">
    <tag k="name" v="Gemeindeverwaltung"/>
    <tag k="wheelchair" v="unknown"/>
    <tag k="addr:city" v="Angelbachtal"/>
    <tag k="addr:postcode" v="74918"/>
    <tag k="addr:housenumber" v="1"/>
    <tag k="addr:street" v="Schlossstraße"/>
    <tag k="website" v="http://www.angelbachtal.de"/>
    <tag k="phone" v="07265/91200"/>
  </node>
  <node id="-1033" version="0" timestamp="Fri Feb 24 10:53:33 +0100 2012" uid="1" user="" lat="49.2350425" lon="8.7750027">
    <tag k="name" v="Schloss Apotheke"/>
    <tag k="wheelchair" v="unknown"/>
    <tag k="amenity" v="pharmacy"/>
  </node>
  <node id="-1070" version="0" timestamp="Fri Feb 24 10:53:33 +0100 2012" uid="1" user="" lat="49.5139689" lon="8.5090316">
    <tag k="name" v="Adventgemeinde"/>
    <tag k="wheelchair" v="yes"/>
    <tag k="addr:city" v="Mannheim"/>
    <tag k="addr:postcode" v="68309"/>
    <tag k="addr:housenumber" v="74"/>
    <tag k="addr:street" v="Auf dem Sand"/>
    <tag k="amenity" v="place_of_worship"/>
    <tag k="website" v="http://www.sta-mannheim.de/"/>
  </node>
  <node id="-1071" version="0" timestamp="Fri Feb 24 10:53:33 +0100 2012" uid="1" user="" lat="49.513934" lon="8.5089082">
    <tag k="name" v="Adventgemeinde"/>
    <tag k="wheelchair" v="yes"/>
    <tag k="addr:city" v="Mannheim"/>
    <tag k="addr:postcode" v="68309"/>
    <tag k="addr:housenumber" v="74"/>
    <tag k="addr:street" v="Auf dem Sand"/>
    <tag k="wheelchair:description" v="Eingang eben, Rollstuhl-WC"/>
    <tag k="amenity" v="place_of_worship"/>
    <tag k="website" v="http://www.sta-mannheim.de/"/>
  </node>
  <node id="-1091" version="0" timestamp="Fri Feb 24 10:53:33 +0100 2012" uid="1" user="" lat="49.0952118" lon="8.6442309">
    <tag k="name" v="Autohaus Lampert -Perfekter Service rund ums Auto"/>
    <tag k="wheelchair" v="yes"/>
    <tag k="addr:city" v="Bruchsal"/>
    <tag k="addr:postcode" v="76646"/>
    <tag k="addr:housenumber" v="16"/>
    <tag k="addr:street" v="Brunnenweg"/>
    <tag k="website" v="http://home.mobile.de/AUTOHAUSLAMPERT"/>
    <tag k="phone" v="0725156114"/>
  </node>
  <node id="-1149" version="0" timestamp="Fri Feb 24 10:53:33 +0100 2012" uid="1" user="" lat="49.5504234" lon="8.4502585">
    <tag k="name" v="McDonalds Sandhofen"/>
    <tag k="wheelchair" v="limited"/>
    <tag k="wheelchair:description" v="Die Rolliparkplätze sind schlecht ausgewiesen, was dazu führt dass diese regelmäßig besetzt sind. Darauf angesprochen zeigt sich die Restaurantleitung uneinsichtig &quot;man könne da nix machen, es ist halt so...&quot; Daher nur eingeschränkt empfehlenswert"/>
    <tag k="amenity" v="fast_food"/>
  </node>
  <node id="-1151" version="0" timestamp="Fri Feb 24 10:53:33 +0100 2012" uid="1" user="" lat="49.5479766" lon="8.4556508">
    <tag k="shop" v="department_store"/>
    <tag k="name" v="REAL Sandhofen"/>
    <tag k="wheelchair" v="yes"/>
    <tag k="wheelchair:description" v="1 Breite Kasse für Rollstuhlfahrer (allerdings nicht imemr besetzt)"/>
  </node>
  <node id="-1159" version="0" timestamp="Fri Feb 24 10:53:33 +0100 2012" uid="1" user="" lat="49.3300024" lon="9.1070885">
    <tag k="name" v="Auto-Oswald GmbH"/>
    <tag k="wheelchair" v="yes"/>
    <tag k="addr:city" v="Mosbach-Neckarelz"/>
    <tag k="addr:postcode" v="74821"/>
    <tag k="addr:housenumber" v="18"/>
    <tag k="addr:street" v="Hohlweg"/>
    <tag k="amenity" v="car_rental"/>
    <tag k="website" v="http://www.auto-oswald.de"/>
    <tag k="phone" v="+49 6261 675830"/>
  </node>
  <node id="-1198" version="0" timestamp="Fri Feb 24 10:53:33 +0100 2012" uid="1" user="" lat="49.0002932" lon="8.3942092">
    <tag k="name" v="Gaststätte Feldschlösschen"/>
    <tag k="wheelchair" v="no"/>
    <tag k="addr:city" v="Karlsruhe"/>
    <tag k="addr:postcode" v="76137"/>
    <tag k="addr:housenumber" v="71"/>
    <tag k="addr:street" v="Karlstraße"/>
    <tag k="wheelchair:description" v="Stufen am Eingang"/>
    <tag k="amenity" v="pub"/>
    <tag k="website" v="http://feldschloesschenweb.de/index.htm"/>
    <tag k="phone" v="+49 721 358989 "/>
  </node>
  <node id="-1251" version="0" timestamp="Fri Feb 24 10:53:33 +0100 2012" uid="1" user="" lat="48.8013057" lon="8.3222863">
    <tag k="name" v="Taxi-Holl Gaggenau"/>
    <tag k="wheelchair" v="yes"/>
    <tag k="addr:city" v="Gaggenau"/>
    <tag k="addr:postcode" v="76571"/>
    <tag k="addr:housenumber" v="26"/>
    <tag k="addr:street" v="August-Schneider-Str."/>
    <tag k="amenity" v="car_rental"/>
    <tag k="website" v="http://www.taxi-holl.de"/>
    <tag k="phone" v="+49 7225 9645-0"/>
  </node>
  <node id="-1252" version="0" timestamp="Fri Feb 24 10:53:33 +0100 2012" uid="1" user="" lat="48.8691476" lon="8.2054101">
    <tag k="name" v="Inges Personenbeförderung Rastatt"/>
    <tag k="wheelchair" v="yes"/>
    <tag k="addr:city" v="Rastatt"/>
    <tag k="addr:postcode" v="76437"/>
    <tag k="addr:housenumber" v="1"/>
    <tag k="addr:street" v="Joseph-Loreye-Str."/>
    <tag k="amenity" v="car_rental"/>
    <tag k="website" v="http://www.inges24.de"/>
    <tag k="phone" v="+49 7222 39999"/>
  </node>
  <node id="-1253" version="0" timestamp="Fri Feb 24 10:53:33 +0100 2012" uid="1" user="" lat="48.8691288" lon="8.2052598">
    <tag k="name" v="Taxi-Holl Rastatt"/>
    <tag k="wheelchair" v="limited"/>
    <tag k="addr:city" v="Rastatt"/>
    <tag k="addr:postcode" v="76437"/>
    <tag k="addr:housenumber" v="1"/>
    <tag k="addr:street" v="Joseph-Loreye-Str."/>
    <tag k="amenity" v="car_rental"/>
    <tag k="website" v="http://www.taxi-holl.de"/>
    <tag k="phone" v="+49 (7222) 19 410"/>
  </node>
  <node id="-1254" version="0" timestamp="Fri Feb 24 10:53:33 +0100 2012" uid="1" user="" lat="48.7883139" lon="8.1908869">
    <tag k="name" v="Taxi-Holl Baden-Baden"/>
    <tag k="wheelchair" v="limited"/>
    <tag k="addr:city" v="Baden-Baden"/>
    <tag k="addr:postcode" v="76532"/>
    <tag k="addr:housenumber" v="6"/>
    <tag k="addr:street" v="Ooser Bahnhofstr."/>
    <tag k="wheelchair:description" v="Büro ebenerdig erreichbar, spezielle Rollstuhlfahrzeuge"/>
    <tag k="amenity" v="car_rental"/>
    <tag k="website" v="http://www.taxi-holl.de"/>
    <tag k="phone" v="+49 (7221) 55 5 55"/>
  </node>
  <node id="-1279" version="0" timestamp="Fri Feb 24 10:53:33 +0100 2012" uid="1" user="" lat="49.0749037" lon="8.4003888">
    <tag k="name" v="Hallenbad Eggenstein"/>
    <tag k="wheelchair" v="unknown"/>
    <tag k="amenity" v="swimming_pool"/>
  </node>
  <node id="-1281" version="0" timestamp="Fri Feb 24 10:53:33 +0100 2012" uid="1" user="" lat="49.0789511" lon="8.3893799">
    <tag k="name" v="Eiscafe La Veneta"/>
    <tag k="wheelchair" v="unknown"/>
    <tag k="amenity" v="cafe"/>
  </node>
  <node id="-1282" version="0" timestamp="Fri Feb 24 10:53:33 +0100 2012" uid="1" user="" lat="49.0710899" lon="8.3934614">
    <tag k="shop" v="supermarket"/>
    <tag k="name" v="Edeka Aktivmarkt Kuhn"/>
    <tag k="wheelchair" v="yes"/>
  </node>
  <node id="-1331" version="0" timestamp="Fri Feb 24 10:53:33 +0100 2012" uid="1" user="" lat="49.0021708" lon="8.3888431">
    <tag k="shop" v="supermarket"/>
    <tag k="name" v="Nah und Gut"/>
    <tag k="wheelchair" v="no"/>
  </node>
  <node id="-1532" version="0" timestamp="Fri Feb 24 10:53:33 +0100 2012" uid="1" user="" lat="49.2928" lon="8.52095">
    <tag k="name" v="Rathaus"/>
    <tag k="wheelchair" v="no"/>
    <tag k="addr:city" v="Neulußheim"/>
    <tag k="addr:postcode" v="68809"/>
    <tag k="addr:housenumber" v="5"/>
    <tag k="addr:street" v="St. Leoner Straße"/>
  </node>
  <node id="-1640" version="0" timestamp="Fri Feb 24 10:53:33 +0100 2012" uid="1" user="" lat="49.45682" lon="8.48645">
    <tag k="name" v="Allgemeinmedizin Dr. Digna Speer"/>
    <tag k="wheelchair" v="no"/>
    <tag k="addr:city" v="Mannheim"/>
    <tag k="addr:postcode" v="68199"/>
    <tag k="addr:housenumber" v="45a"/>
    <tag k="addr:street" v="Katharinenstraße"/>
    <tag k="amenity" v="doctors"/>
    <tag k="phone" v="+49 621 851598"/>
  </node>
  <node id="-1643" version="0" timestamp="Fri Feb 24 10:53:33 +0100 2012" uid="1" user="" lat="49.44792" lon="8.50371">
    <tag k="shop" v="supermarket"/>
    <tag k="name" v="Fressnapf XXL"/>
    <tag k="wheelchair" v="unknown"/>
    <tag k="addr:city" v="Mannheim"/>
    <tag k="addr:postcode" v="68199"/>
    <tag k="addr:housenumber" v="60"/>
    <tag k="addr:street" v="Casterfeldstraße"/>
    <tag k="website" v="http://www.fressnapf.de"/>
    <tag k="phone" v="+49 621 8762643"/>
  </node>
  <node id="-1652" version="0" timestamp="Fri Feb 24 10:53:33 +0100 2012" uid="1" user="" lat="49.2902885" lon="8.6753361">
    <tag k="name" v="Auto-Oswald GmbH"/>
    <tag k="wheelchair" v="limited"/>
    <tag k="addr:city" v="Wiesloch"/>
    <tag k="addr:postcode" v="69168"/>
    <tag k="addr:housenumber" v="12"/>
    <tag k="addr:street" v="Eichelweg"/>
    <tag k="wheelchair:description" v="komplette Barrierefreiheit aktuell in Planung"/>
    <tag k="amenity" v="car_rental"/>
    <tag k="website" v="http://www.auto-oswald.de"/>
    <tag k="phone" v="+49 6222 92770"/>
  </node>
  <node id="-1656" version="0" timestamp="Fri Feb 24 10:53:33 +0100 2012" uid="1" user="" lat="49.5267664" lon="8.5637136">
    <tag k="name" v="Rollstuhltoilette im Karstadt"/>
    <tag k="wheelchair" v="yes"/>
    <tag k="wheelchair:description" v="Viel geräumiger als das offizielle RNZ Rolli-WC"/>
    <tag k="amenity" v="toilets"/>
  </node>
  <node id="-1657" version="0" timestamp="Fri Feb 24 10:53:33 +0100 2012" uid="1" user="" lat="49.5259619" lon="8.5655334">
    <tag k="name" v="Rollstuhlfahrer Parkplätze"/>
    <tag k="wheelchair" v="yes"/>
    <tag k="amenity" v="parking"/>
  </node>
  <node id="-1658" version="0" timestamp="Fri Feb 24 10:53:33 +0100 2012" uid="1" user="" lat="49.5254504" lon="8.5639809">
    <tag k="name" v="Rolli Parkplatz"/>
    <tag k="wheelchair" v="yes"/>
    <tag k="amenity" v="parking"/>
  </node>
  <node id="-1659" version="0" timestamp="Fri Feb 24 10:53:33 +0100 2012" uid="1" user="" lat="49.5277" lon="8.56657">
    <tag k="name" v="Kinopolis"/>
    <tag k="wheelchair" v="limited"/>
    <tag k="wheelchair:description" v="Zugang nur über Treppe - Kinos 2+5 nicht ebenerdig erreichbar"/>
    <tag k="amenity" v="cinema"/>
  </node>
  <node id="-1745" version="0" timestamp="Fri Feb 24 10:53:33 +0100 2012" uid="1" user="" lat="49.4103731" lon="8.6920637">
    <tag k="name" v="Atos Klinik Heidelberg"/>
    <tag k="wheelchair" v="yes"/>
    <tag k="addr:city" v="Heidelberg"/>
    <tag k="addr:street" v="Bismarckstr."/>
    <tag k="amenity" v="hospital"/>
    <tag k="website" v="http://atos.de"/>
  </node>
  <node id="-1746" version="0" timestamp="Fri Feb 24 10:53:33 +0100 2012" uid="1" user="" lat="49.4102897" lon="8.6919366">
    <tag k="name" v="FacharztPraxen im Atos"/>
    <tag k="wheelchair" v="yes"/>
    <tag k="addr:city" v="Heidelberg"/>
    <tag k="addr:street" v="Bismarkstr."/>
    <tag k="wheelchair:description" v="Bei Terminvereinbarung nachfragen welches Gebäude!"/>
    <tag k="amenity" v="doctors"/>
  </node>
  <node id="-1747" version="0" timestamp="Fri Feb 24 10:53:33 +0100 2012" uid="1" user="" lat="49.3868598" lon="8.6622854">
    <tag k="name" v="Im Bieth"/>
    <tag k="wheelchair" v="unknown"/>
    <tag k="amenity" v="car_sharing"/>
  </node>
  <node id="-1748" version="0" timestamp="Fri Feb 24 10:53:33 +0100 2012" uid="1" user="" lat="49.3868436" lon="8.6623061">
    <tag k="name" v="Im Bieth"/>
    <tag k="wheelchair" v="unknown"/>
    <tag k="amenity" v="bus_station"/>
  </node>
  <node id="-1749" version="0" timestamp="Fri Feb 24 10:53:33 +0100 2012" uid="1" user="" lat="49.3868784" lon="8.6621276">
    <tag k="name" v="Im Bieth"/>
    <tag k="wheelchair" v="unknown"/>
    <tag k="amenity" v="bus_station"/>
  </node>
  <node id="-1773" version="0" timestamp="Fri Feb 24 10:53:33 +0100 2012" uid="1" user="" lat="48.69257" lon="8.1364">
    <tag k="name" v="Elly-Heus-Knapp Schule"/>
    <tag k="wheelchair" v="yes"/>
    <tag k="amenity" v="school"/>
  </node>
  <node id="-1775" version="0" timestamp="Fri Feb 24 10:53:33 +0100 2012" uid="1" user="" lat="48.69552" lon="8.14587">
    <tag k="name" v="Kaufland Parkplatz"/>
    <tag k="wheelchair" v="yes"/>
    <tag k="amenity" v="parking"/>
  </node>
  <node id="-1776" version="0" timestamp="Fri Feb 24 10:53:33 +0100 2012" uid="1" user="" lat="48.69574" lon="8.14694">
    <tag k="shop" v="supermarket"/>
    <tag k="name" v="Kaulfand"/>
    <tag k="wheelchair" v="yes"/>
  </node>
  <node id="-1777" version="0" timestamp="Fri Feb 24 10:53:33 +0100 2012" uid="1" user="" lat="48.6982677" lon="8.1379556">
    <tag k="name" v="Amtsgericht Bühl"/>
    <tag k="wheelchair" v="no"/>
    <tag k="amenity" v="courthouse"/>
  </node>
  <node id="-1778" version="0" timestamp="Fri Feb 24 10:53:33 +0100 2012" uid="1" user="" lat="48.6984293" lon="8.137622">
    <tag k="name" v="Polizeirevier Bühl"/>
    <tag k="wheelchair" v="yes"/>
  </node>
  <node id="-1779" version="0" timestamp="Fri Feb 24 10:53:33 +0100 2012" uid="1" user="" lat="48.6850602" lon="8.1409289">
    <tag k="name" v="Krankenhaus Bühl"/>
    <tag k="wheelchair" v="yes"/>
    <tag k="amenity" v="hospital"/>
  </node>
  <node id="-1780" version="0" timestamp="Fri Feb 24 10:53:33 +0100 2012" uid="1" user="" lat="48.6930783" lon="8.1395773">
    <tag k="name" v="Arztpraxis Dr.Doll"/>
    <tag k="wheelchair" v="no"/>
    <tag k="amenity" v="doctors"/>
  </node>
  <node id="-1783" version="0" timestamp="Fri Feb 24 10:53:33 +0100 2012" uid="1" user="" lat="48.6976283" lon="8.1237676">
    <tag k="name" v="West-Stadt Grundschule"/>
    <tag k="wheelchair" v="yes"/>
    <tag k="amenity" v="school"/>
  </node>
  <node id="-1784" version="0" timestamp="Fri Feb 24 10:53:33 +0100 2012" uid="1" user="" lat="48.7011714" lon="8.129107">
    <tag k="name" v="Kinderhaus Bühl"/>
    <tag k="wheelchair" v="limited"/>
    <tag k="amenity" v="kindergarten"/>
  </node>
  <node id="-1785" version="0" timestamp="Fri Feb 24 10:53:33 +0100 2012" uid="1" user="" lat="48.6942115" lon="8.1364055">
    <tag k="name" v="Cityimbis Dönerladen"/>
    <tag k="wheelchair" v="no"/>
    <tag k="amenity" v="fast_food"/>
  </node>
  <node id="-1786" version="0" timestamp="Fri Feb 24 10:53:33 +0100 2012" uid="1" user="" lat="48.7033855" lon="8.1261098">
    <tag k="name" v="Autobahnpolizei Bühl"/>
    <tag k="wheelchair" v="no"/>
  </node>
  <node id="-1787" version="0" timestamp="Fri Feb 24 10:53:33 +0100 2012" uid="1" user="" lat="48.7055052" lon="8.1274655">
    <tag k="name" v="Vereinsheim Bühl"/>
    <tag k="wheelchair" v="yes"/>
  </node>
  <node id="-1859" version="0" timestamp="Fri Feb 24 10:53:33 +0100 2012" uid="1" user="" lat="49.3670516" lon="8.681265">
    <tag k="shop" v="doityourself"/>
    <tag k="name" v="Praktiker Baumarkt GmbH"/>
    <tag k="wheelchair" v="yes"/>
    <tag k="addr:city" v="Heidelberg"/>
    <tag k="addr:postcode" v="69126"/>
    <tag k="addr:housenumber" v="8-10"/>
    <tag k="addr:street" v="Englerstraße"/>
    <tag k="wheelchair:description" v="Keine Rollstuhltoliette"/>
    <tag k="website" v="http://www.praktiker.de"/>
    <tag k="phone" v="+49 6221 363250"/>
  </node>
  <node id="-1861" version="0" timestamp="Fri Feb 24 10:53:33 +0100 2012" uid="1" user="" lat="48.7128434" lon="8.7406042">
    <tag k="shop" v="supermarket"/>
    <tag k="name" v="Kaya R. Obst und Gemüse handel"/>
    <tag k="wheelchair" v="limited"/>
    <tag k="addr:city" v="Calw"/>
    <tag k="addr:postcode" v="75365"/>
    <tag k="addr:housenumber" v="12"/>
    <tag k="addr:street" v="Badstrasse"/>
    <tag k="phone" v="070514746"/>
  </node>
  <node id="-1862" version="0" timestamp="Fri Feb 24 10:53:33 +0100 2012" uid="1" user="" lat="48.7146043" lon="8.7398634">
    <tag k="shop" v="clothes"/>
    <tag k="name" v="Charles Vögele"/>
    <tag k="wheelchair" v="limited"/>
    <tag k="addr:city" v="Calw"/>
    <tag k="addr:postcode" v="75365"/>
    <tag k="addr:housenumber" v="1"/>
    <tag k="addr:street" v="Lederstrasse"/>
    <tag k="website" v="http://www.charles-voegele.de"/>
    <tag k="phone" v="07051-933794"/>
  </node>
  <node id="-1863" version="0" timestamp="Fri Feb 24 10:53:33 +0100 2012" uid="1" user="" lat="48.7144372" lon="8.7400746">
    <tag k="name" v="Bäckerei-Raisch"/>
    <tag k="wheelchair" v="yes"/>
    <tag k="addr:city" v="Calw"/>
    <tag k="addr:postcode" v="75365"/>
    <tag k="addr:housenumber" v="2"/>
    <tag k="addr:street" v="Lederstrasse"/>
    <tag k="amenity" v="cafe"/>
    <tag k="website" v="http://www.baeckerei-raisch.de/"/>
    <tag k="phone" v="0 70 51 - 5 88 60"/>
  </node>
  <node id="-1864" version="0" timestamp="Fri Feb 24 10:53:33 +0100 2012" uid="1" user="" lat="48.7147939" lon="8.7399573">
    <tag k="shop" v="supermarket"/>
    <tag k="name" v="Müller"/>
    <tag k="wheelchair" v="unknown"/>
    <tag k="addr:city" v="Calw"/>
    <tag k="addr:postcode" v="75365"/>
    <tag k="addr:housenumber" v="16 - 20"/>
    <tag k="addr:street" v="Lederstrasse "/>
    <tag k="website" v="https://www.mueller.de/"/>
    <tag k="phone" v="07051 16386-0"/>
  </node>
  <node id="-1865" version="0" timestamp="Fri Feb 24 10:53:33 +0100 2012" uid="1" user="" lat="48.707357" lon="8.7393938">
    <tag k="name" v="Pizza Blitz"/>
    <tag k="wheelchair" v="unknown"/>
    <tag k="addr:city" v="Calw"/>
    <tag k="addr:postcode" v="75365"/>
    <tag k="addr:housenumber" v="65"/>
    <tag k="addr:street" v="Bahnhofstrasse"/>
    <tag k="wheelchair:description" v="Am eingang des restaurants sind 3 stufen (jede ca 15cm) aber der pizza blitz ist in calw mehr ein bring service für pizza,nudeln........"/>
    <tag k="amenity" v="restaurant"/>
    <tag k="phone" v="0705112055"/>
  </node>
  <node id="-1866" version="0" timestamp="Fri Feb 24 10:53:33 +0100 2012" uid="1" user="" lat="48.7131397" lon="8.7435913">
    <tag k="name" v="bushaltestellen"/>
    <tag k="wheelchair" v="no"/>
    <tag k="highway" v="bus_stop"/>
  </node>
  <node id="-1867" version="0" timestamp="Fri Feb 24 10:53:33 +0100 2012" uid="1" user="" lat="48.9667" lon="8.3">
    <tag k="shop" v="clothes"/>
    <tag k="name" v="Classic Wave"/>
    <tag k="wheelchair" v="yes"/>
    <tag k="addr:city" v="Karlsruhe"/>
    <tag k="addr:postcode" v="76133"/>
    <tag k="addr:housenumber" v="9 - 11"/>
    <tag k="addr:street" v="Akademiestr."/>
    <tag k="wheelchair:description" v="komplett ebenerdig und ohne Treppen"/>
    <tag k="website" v="http://www.classicwave.de"/>
    <tag k="phone" v="0721-1518833"/>
  </node>
  <node id="-1868" version="0" timestamp="Fri Feb 24 10:53:33 +0100 2012" uid="1" user="" lat="48.7129843" lon="8.7435578">
    <tag k="name" v="Bushaltestellen"/>
    <tag k="wheelchair" v="no"/>
    <tag k="highway" v="bus_stop"/>
  </node>
  <node id="-1869" version="0" timestamp="Fri Feb 24 10:53:33 +0100 2012" uid="1" user="" lat="49.0113698" lon="8.3979067">
    <tag k="shop" v="clothes"/>
    <tag k="name" v="Classic Wave"/>
    <tag k="wheelchair" v="yes"/>
    <tag k="addr:city" v="Karlsruhe"/>
    <tag k="addr:postcode" v="76133"/>
    <tag k="addr:housenumber" v="9 - 11"/>
    <tag k="addr:street" v="Akademiestr."/>
    <tag k="wheelchair:description" v="komplett ebenerdig und ohne Treppen"/>
    <tag k="website" v="http://www.classicwave.de"/>
    <tag k="phone" v="0721-1518833"/>
  </node>
  <node id="-1870" version="0" timestamp="Fri Feb 24 10:53:33 +0100 2012" uid="1" user="" lat="48.7141023" lon="8.7400766">
    <tag k="shop" v="kiosk"/>
    <tag k="name" v="Zigarren - Munz"/>
    <tag k="wheelchair" v="yes"/>
    <tag k="addr:city" v="Calw"/>
    <tag k="addr:postcode" v="75365"/>
    <tag k="addr:housenumber" v="7"/>
    <tag k="addr:street" v="Martstrasse"/>
    <tag k="phone" v="07051 - 2273"/>
  </node>
  <node id="-1871" version="0" timestamp="Fri Feb 24 10:53:33 +0100 2012" uid="1" user="" lat="48.7277023" lon="8.8073822">
    <tag k="name" v="Hengstetter - hof"/>
    <tag k="wheelchair" v="yes"/>
    <tag k="addr:city" v="Althengstett"/>
    <tag k="addr:postcode" v="75382"/>
    <tag k="addr:housenumber" v="36"/>
    <tag k="addr:street" v="Stuttgarter Strasse"/>
    <tag k="amenity" v="restaurant"/>
    <tag k="website" v="http://www.lang-gaststaetten.de/"/>
    <tag k="phone" v="0 70 51 - 70 04 34"/>
  </node>
  <node id="-1874" version="0" timestamp="Fri Feb 24 10:53:33 +0100 2012" uid="1" user="" lat="48.7115473" lon="8.740693">
    <tag k="name" v="David´s Kebap"/>
    <tag k="wheelchair" v="unknown"/>
    <tag k="addr:city" v="Calw"/>
    <tag k="addr:postcode" v="75365"/>
    <tag k="addr:housenumber" v="30"/>
    <tag k="addr:street" v="Badstrasse"/>
    <tag k="amenity" v="fast_food"/>
    <tag k="phone" v="07051  2134 () ‎ "/>
  </node>
  <node id="-1875" version="0" timestamp="Fri Feb 24 10:53:33 +0100 2012" uid="1" user="" lat="48.7076771" lon="8.7635727">
    <tag k="name" v="Olympia Restaurant"/>
    <tag k="wheelchair" v="no"/>
    <tag k="addr:city" v="Calw"/>
    <tag k="addr:postcode" v="75365"/>
    <tag k="addr:housenumber" v="7"/>
    <tag k="addr:street" v="Kimmichwiesen"/>
    <tag k="amenity" v="restaurant"/>
    <tag k="phone" v="07051 - 70270 "/>
  </node>
  <node id="-1876" version="0" timestamp="Fri Feb 24 10:53:33 +0100 2012" uid="1" user="" lat="48.706778" lon="8.7633455">
    <tag k="name" v="Gasthof Kimmichstuben "/>
    <tag k="wheelchair" v="unknown"/>
    <tag k="addr:city" v="Calw"/>
    <tag k="addr:postcode" v="75365"/>
    <tag k="addr:housenumber" v="1"/>
    <tag k="addr:street" v="Kimmichwiesen"/>
    <tag k="amenity" v="restaurant"/>
    <tag k="phone" v="07051 2383 "/>
  </node>
  <node id="-2075" version="0" timestamp="Fri Feb 24 10:53:34 +0100 2012" uid="1" user="" lat="49.48784" lon="8.46296">
    <tag k="name" v="Dr. Barthel (Allgemein- und Sportmedizin)"/>
    <tag k="wheelchair" v="limited"/>
    <tag k="addr:housenumber" v="4"/>
    <tag k="addr:street" v="C1 "/>
    <tag k="wheelchair:description" v="kleiner Fahrstuhl mit manueller Tür (nicht für große E-Rollstühle)"/>
    <tag k="amenity" v="doctors"/>
  </node>
  <node id="-2188" version="0" timestamp="Fri Feb 24 10:53:34 +0100 2012" uid="1" user="" lat="49.2106313" lon="8.6286471">
    <tag k="name" v="Haag Rehatechnik"/>
    <tag k="wheelchair" v="yes"/>
    <tag k="addr:city" v="Kronau"/>
    <tag k="addr:postcode" v="76709"/>
    <tag k="addr:housenumber" v="3"/>
    <tag k="addr:street" v="Südendstraße "/>
    <tag k="wheelchair:description" v="Kfz.-Umrüstung für Menschen mit Behinderung"/>
    <tag k="amenity" v="car_rental"/>
    <tag k="website" v="http://www.haag-rehatechnik.de"/>
    <tag k="phone" v="+49 7253 24280"/>
  </node>
  <node id="-2197" version="0" timestamp="Fri Feb 24 10:53:34 +0100 2012" uid="1" user="" lat="49.0098613" lon="8.4954703">
    <tag k="name" v="AWO-Begegnungsstätte Grötzingen"/>
    <tag k="wheelchair" v="yes"/>
    <tag k="addr:city" v="Karlsruhe"/>
    <tag k="addr:postcode" v="76229"/>
    <tag k="addr:housenumber" v="30"/>
    <tag k="addr:street" v="Niddastraße"/>
    <tag k="website" v="http://karlsruhe.city-tiger.de/oeffentliche/ofid1128/awo-begegnungsstaette_groetzingen/oeffentliche_detail_ansicht.php"/>
  </node>
  <node id="-2334" version="0" timestamp="Fri Feb 24 10:53:34 +0100 2012" uid="1" user="" lat="48.8009781" lon="8.3070252">
    <tag k="name" v="Kaldma´s Sportgaststätte im Traischbachtal"/>
    <tag k="wheelchair" v="yes"/>
    <tag k="addr:city" v="Gaggenau"/>
    <tag k="addr:postcode" v="76571"/>
    <tag k="addr:housenumber" v="38"/>
    <tag k="addr:street" v="Waldstr."/>
    <tag k="amenity" v="restaurant"/>
    <tag k="website" v="http://www.spoganet.de"/>
    <tag k="phone" v="072252969"/>
  </node>
  <node id="-2337" version="0" timestamp="Fri Feb 24 10:53:34 +0100 2012" uid="1" user="" lat="48.99923" lon="8.47356">
    <tag k="name" v="blumentorcenter"/>
    <tag k="wheelchair" v="yes"/>
    <tag k="addr:city" v="durlach"/>
    <tag k="addr:postcode" v="76227"/>
    <tag k="addr:housenumber" v="18-20"/>
    <tag k="addr:street" v="blumentorstraße"/>
    <tag k="wheelchair:description" v="hier ist alles barrierefrei "/>
    <tag k="amenity" v="restaurant"/>
    <tag k="website" v="http://www.baghira.cc"/>
    <tag k="phone" v="+49 721 944 900"/>
  </node>
  <node id="-2420" version="0" timestamp="Fri Feb 24 10:53:34 +0100 2012" uid="1" user="" lat="49.5220128" lon="8.4921095">
    <tag k="name" v="Piräus II"/>
    <tag k="wheelchair" v="limited"/>
    <tag k="addr:city" v="Mannheim"/>
    <tag k="addr:postcode" v="68305"/>
    <tag k="addr:housenumber" v="69"/>
    <tag k="addr:street" v="Speckweg"/>
    <tag k="wheelchair:description" v="Eingang und Toilette jeweils 1-2 Stufen"/>
    <tag k="amenity" v="restaurant"/>
    <tag k="phone" v="0621 747374 "/>
  </node>
  <node id="-2440" version="0" timestamp="Fri Feb 24 10:53:34 +0100 2012" uid="1" user="" lat="48.9994714" lon="8.3941966">
    <tag k="shop" v="supermarket"/>
    <tag k="name" v="neuleben Reformhaus"/>
    <tag k="wheelchair" v="unknown"/>
    <tag k="addr:city" v="Karlsruhe"/>
    <tag k="addr:postcode" v="76137"/>
    <tag k="addr:housenumber" v="11"/>
    <tag k="addr:street" v="Vorholzstraße, Eingang von der Karlstraße"/>
    <tag k="website" v="http://www.reformhaus-neu-leben.de/"/>
    <tag k="phone" v="+49 721 357400 "/>
  </node>
  <node id="-2599" version="0" timestamp="Fri Feb 24 10:53:34 +0100 2012" uid="1" user="" lat="49.3064" lon="8.6453">
    <tag k="shop" v="hairdresser"/>
    <tag k="name" v="Friseur Haar-Genau"/>
    <tag k="wheelchair" v="yes"/>
    <tag k="addr:city" v="St. Leon-Rot"/>
    <tag k="addr:postcode" v="68789"/>
    <tag k="addr:housenumber" v="76 - 80"/>
    <tag k="addr:street" v="Hauptstr. "/>
    <tag k="website" v="http://www.friseurhaar-genau.de"/>
    <tag k="phone" v="+49 6227 605197"/>
  </node>
  <node id="-2726" version="0" timestamp="Fri Feb 24 10:53:34 +0100 2012" uid="1" user="" lat="49.3211555" lon="8.8207931">
    <tag k="name" v="Sparkasse Heidelberg"/>
    <tag k="wheelchair" v="yes"/>
    <tag k="addr:city" v="Meckesheim"/>
    <tag k="addr:postcode" v="74909"/>
    <tag k="addr:housenumber" v="40"/>
    <tag k="addr:street" v="Friedrichstraße"/>
    <tag k="amenity" v="bank"/>
    <tag k="website" v="http://www.sparkasse-heidelberg.de"/>
    <tag k="phone" v="06221/5110"/>
  </node>
  <node id="-2729" version="0" timestamp="Fri Feb 24 10:53:34 +0100 2012" uid="1" user="" lat="49.316515" lon="8.8127989">
    <tag k="name" v="Orthopädische  und unfallchirurgische Gemeinschaftspraxis Dr. Klehr und Dr. Hilbert"/>
    <tag k="wheelchair" v="yes"/>
    <tag k="addr:city" v="Meckesheim"/>
    <tag k="addr:postcode" v="74909"/>
    <tag k="addr:housenumber" v="1"/>
    <tag k="addr:street" v="Scheffelstraße"/>
    <tag k="wheelchair:description" v="Voll Rulstuhlgerecht, alle Türen 100 cm, im Haus Aufzug"/>
    <tag k="amenity" v="doctors"/>
    <tag k="website" v="http://www.orthopaedie-meckesheim.de/"/>
    <tag k="phone" v="06226/990300"/>
  </node>
  <node id="-2798" version="0" timestamp="Fri Feb 24 10:53:34 +0100 2012" uid="1" user="" lat="49.5296312" lon="8.4934164">
    <tag k="name" v="Volksbank Sandhofen"/>
    <tag k="wheelchair" v="yes"/>
    <tag k="addr:city" v="Mannheim"/>
    <tag k="addr:postcode" v="68305"/>
    <tag k="addr:housenumber" v="48-50"/>
    <tag k="addr:street" v="Langer Schlag"/>
    <tag k="wheelchair:description" v="inkl. rollstuhlgerechter Toilette"/>
    <tag k="amenity" v="bank"/>
  </node>
  <node id="-2872" version="0" timestamp="Fri Feb 24 10:53:34 +0100 2012" uid="1" user="" lat="49.3944" lon="8.5961">
    <tag k="name" v="Praxis für Ergotherapie, M. Schönbeck"/>
    <tag k="wheelchair" v="yes"/>
    <tag k="addr:city" v="Schwetzingen"/>
    <tag k="addr:postcode" v="68723"/>
    <tag k="addr:housenumber" v="2/4"/>
    <tag k="addr:street" v="Markgrafenstrasse"/>
    <tag k="wheelchair:description" v="Fahrstul, keine Stufen, kostenloses Parken vor der Einrichtung"/>
    <tag k="website" v="http://www.schwetzingen-ergotherapie.de"/>
    <tag k="phone" v="06202 - 8595966"/>
  </node>
  <node id="-2873" version="0" timestamp="Fri Feb 24 10:53:34 +0100 2012" uid="1" user="" lat="49.3944" lon="8.5961">
    <tag k="name" v="Praxis für Ergotherapie, Margret Schönbeck"/>
    <tag k="wheelchair" v="yes"/>
    <tag k="addr:city" v="Mannheim - Neckarau"/>
    <tag k="addr:postcode" v="68199"/>
    <tag k="addr:housenumber" v="1"/>
    <tag k="addr:street" v="Rheingoldplatz "/>
    <tag k="wheelchair:description" v="Fahrstul, keine Treppen"/>
    <tag k="website" v="http://www.ergotherapie-schoenbeck.de"/>
    <tag k="phone" v="0621-861375"/>
  </node>
  <node id="-2912" version="0" timestamp="Fri Feb 24 10:53:34 +0100 2012" uid="1" user="" lat="49.2506308" lon="8.8746779">
    <tag k="name" v="Schmidts Restaurant"/>
    <tag k="wheelchair" v="yes"/>
    <tag k="addr:city" v="SINSHEIM"/>
    <tag k="addr:postcode" v="74889"/>
    <tag k="addr:housenumber" v="23"/>
    <tag k="addr:street" v="FRIEDRICHSTR."/>
    <tag k="amenity" v="restaurant"/>
    <tag k="website" v="http://www.schmidts-sinsheim.de"/>
    <tag k="phone" v="+49 7261 94945-00"/>
  </node>
  <node id="-2979" version="0" timestamp="Fri Feb 24 10:53:35 +0100 2012" uid="1" user="" lat="48.734792" lon="8.145722">
    <tag k="name" v="Ballooning 2000 GmbH Ballonfahrten"/>
    <tag k="wheelchair" v="limited"/>
    <tag k="addr:city" v="Baden-Baden / Steibach Industriegebiet"/>
    <tag k="addr:postcode" v="76534"/>
    <tag k="addr:housenumber" v="5"/>
    <tag k="tourism" v="attraction"/>
    <tag k="addr:street" v="Dr. Rudolf Eberle Str."/>
    <tag k="website" v="http://www.ballooning2000.de"/>
    <tag k="phone" v="0049722360002"/>
  </node>
  <node id="-2986" version="0" timestamp="Fri Feb 24 10:53:35 +0100 2012" uid="1" user="" lat="49.2533851" lon="8.8762754">
    <tag k="name" v="Chocolaterie"/>
    <tag k="wheelchair" v="limited"/>
    <tag k="amenity" v="bank"/>
  </node>
  <node id="-2987" version="0" timestamp="Fri Feb 24 10:53:35 +0100 2012" uid="1" user="" lat="49.252556" lon="8.8789757">
    <tag k="name" v="Hutter"/>
    <tag k="wheelchair" v="yes"/>
    <tag k="amenity" v="restaurant"/>
  </node>
  <node id="-2990" version="0" timestamp="Fri Feb 24 10:53:35 +0100 2012" uid="1" user="" lat="49.2518032" lon="8.8797889">
    <tag k="name" v="Restaurant Giardino‎"/>
    <tag k="wheelchair" v="no"/>
    <tag k="amenity" v="restaurant"/>
  </node>
  <node id="-2994" version="0" timestamp="Fri Feb 24 10:53:35 +0100 2012" uid="1" user="" lat="49.252368" lon="8.878885">
    <tag k="name" v="dm-drogerie markt"/>
    <tag k="wheelchair" v="yes"/>
    <tag k="amenity" v="bank"/>
  </node>
  <node id="-2995" version="0" timestamp="Fri Feb 24 10:53:35 +0100 2012" uid="1" user="" lat="49.25085" lon="8.8788697">
    <tag k="name" v="Stadtbücherei Sinsheim"/>
    <tag k="wheelchair" v="yes"/>
    <tag k="amenity" v="library"/>
  </node>
  <node id="-2996" version="0" timestamp="Fri Feb 24 10:53:35 +0100 2012" uid="1" user="" lat="49.2528621" lon="8.8782241">
    <tag k="name" v="Central Apotheke"/>
    <tag k="wheelchair" v="yes"/>
    <tag k="amenity" v="pharmacy"/>
  </node>
  <node id="-2997" version="0" timestamp="Fri Feb 24 10:53:35 +0100 2012" uid="1" user="" lat="49.2532236" lon="8.876383">
    <tag k="name" v="Tchibo GmbH"/>
    <tag k="wheelchair" v="no"/>
    <tag k="amenity" v="cafe"/>
  </node>
  <node id="-2998" version="0" timestamp="Fri Feb 24 10:53:35 +0100 2012" uid="1" user="" lat="49.251713" lon="8.8758825">
    <tag k="name" v="Gasthaus Linde"/>
    <tag k="wheelchair" v="limited"/>
    <tag k="amenity" v="restaurant"/>
  </node>
  <node id="-2999" version="0" timestamp="Fri Feb 24 10:53:35 +0100 2012" uid="1" user="" lat="49.2522387" lon="8.876395">
    <tag k="name" v="Haus Quint&apos;s‎"/>
    <tag k="wheelchair" v="limited"/>
    <tag k="amenity" v="pub"/>
  </node>
  <node id="-3104" version="0" timestamp="Fri Feb 24 10:53:35 +0100 2012" uid="1" user="" lat="48.94878" lon="8.40343">
    <tag k="name" v="Fahrschule Benz"/>
    <tag k="wheelchair" v="limited"/>
    <tag k="wheelchair:description" v="Kein WC"/>
    <tag k="amenity" v="school"/>
  </node>
  <node id="-3105" version="0" timestamp="Fri Feb 24 10:53:35 +0100 2012" uid="1" user="" lat="48.905515" lon="8.432142">
    <tag k="name" v="TSV Waldgastätte"/>
    <tag k="wheelchair" v="limited"/>
    <tag k="amenity" v="restaurant"/>
  </node>
  <node id="-3106" version="0" timestamp="Fri Feb 24 10:53:35 +0100 2012" uid="1" user="" lat="48.9276756" lon="8.4706181">
    <tag k="name" v="Albtherme"/>
    <tag k="wheelchair" v="yes"/>
    <tag k="wheelchair:description" v="Es sind WC, Fahrstühle. sowie Duschen für Behinderte vorhanden"/>
    <tag k="amenity" v="swimming_pool"/>
  </node>
  <node id="-3107" version="0" timestamp="Fri Feb 24 10:53:35 +0100 2012" uid="1" user="" lat="48.9418268" lon="8.4065308">
    <tag k="shop" v="department_store"/>
    <tag k="name" v="Drogerie Müller"/>
    <tag k="wheelchair" v="limited"/>
    <tag k="wheelchair:description" v="Kein WC"/>
  </node>
  <node id="-3108" version="0" timestamp="Fri Feb 24 10:53:35 +0100 2012" uid="1" user="" lat="48.9471836" lon="8.3823383">
    <tag k="shop" v="supermarket"/>
    <tag k="name" v="Edeka aktiv Markt"/>
    <tag k="wheelchair" v="limited"/>
    <tag k="wheelchair:description" v="Kein WC"/>
  </node>
  <node id="-3136" version="0" timestamp="Fri Feb 24 10:53:35 +0100 2012" uid="1" user="" lat="48.92916" lon="8.52941">
    <tag k="shop" v="hairdresser"/>
    <tag k="name" v="Die Rollenden Friseure - Karlsruhe - mobiler Friseur"/>
    <tag k="wheelchair" v="yes"/>
    <tag k="addr:city" v="Karlsruhe"/>
    <tag k="addr:postcode" v="76187"/>
    <tag k="addr:housenumber" v="2a"/>
    <tag k="addr:street" v="Josef-Schmitt-Str."/>
    <tag k="wheelchair:description" v="Wir kommen zu dir!"/>
    <tag k="website" v="http://www.dierollendenfriseure.de/Karlsruhe"/>
    <tag k="phone" v="+49 721 60 56 16 480"/>
  </node>
  <node id="-3137" version="0" timestamp="Fri Feb 24 10:53:35 +0100 2012" uid="1" user="" lat="48.92916" lon="8.52941">
    <tag k="shop" v="hairdresser"/>
    <tag k="name" v="Die Rollenden Friseure - Berlin - mobiler Friseur"/>
    <tag k="wheelchair" v="yes"/>
    <tag k="addr:city" v="Berlin"/>
    <tag k="addr:postcode" v="13127 "/>
    <tag k="addr:housenumber" v="45d"/>
    <tag k="addr:street" v="Gravensteinstr."/>
    <tag k="wheelchair:description" v="Wir kommen zu dir!"/>
    <tag k="website" v="http://www.dierollendenfriseure.de/Berlin"/>
    <tag k="phone" v="+ "/>
  </node>
  <node id="-3138" version="0" timestamp="Fri Feb 24 10:53:35 +0100 2012" uid="1" user="" lat="48.92916" lon="8.52941">
    <tag k="shop" v="hairdresser"/>
    <tag k="name" v="Die Rollenden Friseure - Hannover - mobiler Friseur"/>
    <tag k="wheelchair" v="yes"/>
    <tag k="addr:city" v="Hannover"/>
    <tag k="addr:postcode" v="30159"/>
    <tag k="addr:housenumber" v="1"/>
    <tag k="addr:street" v="Ernst-August-Platz"/>
    <tag k="wheelchair:description" v="Wir kommen zu dir!"/>
    <tag k="website" v="http://www.dierollendenfriseure.de/Hannover"/>
    <tag k="phone" v="+49 511 200 299 30"/>
  </node>
  <node id="-3140" version="0" timestamp="Fri Feb 24 10:53:35 +0100 2012" uid="1" user="" lat="48.92916" lon="8.52941">
    <tag k="shop" v="hairdresser"/>
    <tag k="name" v="Die Rollenden Friseure - Köln  - mobiler Friseur"/>
    <tag k="wheelchair" v="yes"/>
    <tag k="addr:city" v="Köln (Ehrenfeld)"/>
    <tag k="addr:postcode" v="50823 "/>
    <tag k="addr:housenumber" v="80"/>
    <tag k="addr:street" v="Geisselstraße"/>
    <tag k="wheelchair:description" v="Wir kommen zu dir!"/>
    <tag k="website" v="http://www.dierollendenfriseure.de/Koeln"/>
    <tag k="phone" v="+49 99 760 928"/>
  </node>
  <node id="-3141" version="0" timestamp="Fri Feb 24 10:53:35 +0100 2012" uid="1" user="" lat="48.92916" lon="8.52941">
    <tag k="shop" v="hairdresser"/>
    <tag k="name" v="Die Rollenden Friseure - Düsseldorf - mobiler Friseur"/>
    <tag k="wheelchair" v="unknown"/>
    <tag k="addr:city" v="Düsseldorf (Ost)"/>
    <tag k="addr:postcode" v="40233"/>
    <tag k="addr:housenumber" v="62 "/>
    <tag k="addr:street" v="Hermannstr."/>
    <tag k="wheelchair:description" v="Wir kommen zu dir!"/>
    <tag k="website" v="http://www.dierollendenfriseure.de/Duesseldorf"/>
    <tag k="phone" v="+49 211 955 899 98"/>
  </node>
  <node id="-3142" version="0" timestamp="Fri Feb 24 10:53:35 +0100 2012" uid="1" user="" lat="48.92916" lon="8.52941">
    <tag k="shop" v="hairdresser"/>
    <tag k="name" v="Die Rollenden Friseure - Hennef - mobiler Friseur"/>
    <tag k="wheelchair" v="yes"/>
    <tag k="addr:city" v="Hennef"/>
    <tag k="addr:postcode" v="53773 "/>
    <tag k="addr:housenumber" v="14"/>
    <tag k="addr:street" v="Kegelswies"/>
    <tag k="wheelchair:description" v="Wir kommen zu dir!"/>
    <tag k="website" v="http://www.dierollendenfriseure.de/Hennef"/>
    <tag k="phone" v="+49 224 290 86 205"/>
  </node>
  <node id="-3143" version="0" timestamp="Fri Feb 24 10:53:35 +0100 2012" uid="1" user="" lat="48.92916" lon="8.52941">
    <tag k="shop" v="hairdresser"/>
    <tag k="name" v="Die Rollenden Friseure - Heidelberg - mobiler Friseur"/>
    <tag k="wheelchair" v="yes"/>
    <tag k="addr:city" v="Heidelberg"/>
    <tag k="addr:postcode" v="69123 "/>
    <tag k="addr:housenumber" v="6"/>
    <tag k="addr:street" v="Sandwingert"/>
    <tag k="wheelchair:description" v="Wir kommen zu dir!"/>
    <tag k="website" v="http://www.dierollendenfriseure.de/Heidelberg"/>
    <tag k="phone" v="+49 6221 186 755 8"/>
  </node>
  <node id="-3144" version="0" timestamp="Fri Feb 24 10:53:35 +0100 2012" uid="1" user="" lat="48.92916" lon="8.52941">
    <tag k="shop" v="hairdresser"/>
    <tag k="name" v="Die Rollenden Friseure - Offenburg - mobiler Friseur"/>
    <tag k="wheelchair" v="yes"/>
    <tag k="addr:city" v="Gengenbach"/>
    <tag k="addr:postcode" v="77723 "/>
    <tag k="addr:housenumber" v="6"/>
    <tag k="addr:street" v="Quintenzstrasse "/>
    <tag k="wheelchair:description" v="Wir kommen zu dir!"/>
    <tag k="website" v="http://www.dierollendenfriseure.de/Offenburg"/>
    <tag k="phone" v="+49 780 396 09 999"/>
  </node>
  <node id="-3145" version="0" timestamp="Fri Feb 24 10:53:35 +0100 2012" uid="1" user="" lat="48.92916" lon="8.52941">
    <tag k="shop" v="hairdresser"/>
    <tag k="name" v="Die Rollenden Friseure - Asbach - mobiler Friseur"/>
    <tag k="wheelchair" v="yes"/>
    <tag k="addr:city" v="Asbach "/>
    <tag k="addr:postcode" v="53567 "/>
    <tag k="addr:housenumber" v="27 "/>
    <tag k="addr:street" v="Im Überdorf"/>
    <tag k="wheelchair:description" v="Wir kommen zu dir!"/>
    <tag k="website" v="http://www.dierollendenfriseure.de/Asbach"/>
    <tag k="phone" v="+49 2683 910 998 9"/>
  </node>
  <node id="-3158" version="0" timestamp="Fri Feb 24 10:53:35 +0100 2012" uid="1" user="" lat="48.72474" lon="8.08858">
    <tag k="name" v="Räpple&apos;s Landgasthof Engel"/>
    <tag k="wheelchair" v="limited"/>
    <tag k="addr:city" v="Bühl-Oberbruch"/>
    <tag k="addr:postcode" v="77815"/>
    <tag k="addr:housenumber" v="42"/>
    <tag k="addr:street" v="Mühlstettstr."/>
    <tag k="amenity" v="restaurant"/>
    <tag k="website" v="http://www.hotel-engel-buehl-oberbruch.de"/>
    <tag k="phone" v="+49 7223 98070"/>
  </node>
  <node id="-3223" version="0" timestamp="Fri Feb 24 10:53:35 +0100 2012" uid="1" user="" lat="49.4885553" lon="8.4647819">
    <tag k="name" v="ZNS (Zentraum f. Nervenheilkunde Stadtmitte)"/>
    <tag k="wheelchair" v="yes"/>
    <tag k="addr:city" v="Mannheim"/>
    <tag k="addr:postcode" v="68161"/>
    <tag k="addr:housenumber" v="16"/>
    <tag k="addr:street" v="E 2"/>
    <tag k="wheelchair:description" v="Eingangstür lässt sich schwer öffnen"/>
    <tag k="amenity" v="doctors"/>
    <tag k="website" v="http://www.zns-mannheim.de"/>
    <tag k="phone" v="+49 621 120270"/>
  </node>
  <node id="-3243" version="0" timestamp="Fri Feb 24 10:53:35 +0100 2012" uid="1" user="" lat="49.2393729" lon="8.8972405">
    <tag k="name" v="Museum"/>
    <tag k="wheelchair" v="yes"/>
    <tag k="tourism" v="attraction"/>
  </node>
  <node id="-3244" version="0" timestamp="Fri Feb 24 10:53:35 +0100 2012" uid="1" user="" lat="49.2380724" lon="8.8975281">
    <tag k="name" v="Museum"/>
    <tag k="wheelchair" v="yes"/>
    <tag k="tourism" v="attraction"/>
  </node>
  <node id="-3277" version="0" timestamp="Fri Feb 24 10:53:35 +0100 2012" uid="1" user="" lat="49.4167" lon="8.68893">
    <tag k="name" v="PhysioPraxis-Weinheim"/>
    <tag k="wheelchair" v="yes"/>
    <tag k="addr:city" v="Weinheim"/>
    <tag k="addr:postcode" v="69469"/>
    <tag k="addr:housenumber" v="49"/>
    <tag k="addr:street" v="Hauptstrasse"/>
    <tag k="website" v="http://www.mobil.physiopraxis-weinheim.de"/>
    <tag k="phone" v="06201-61603"/>
  </node>
  <node id="-3281" version="0" timestamp="Fri Feb 24 10:53:35 +0100 2012" uid="1" user="" lat="48.85887" lon="8.222941">
    <tag k="name" v="ARISTO Casino"/>
    <tag k="wheelchair" v="yes"/>
    <tag k="addr:city" v="Rastatt"/>
    <tag k="addr:postcode" v="76437"/>
    <tag k="addr:housenumber" v="2"/>
    <tag k="tourism" v="attraction"/>
    <tag k="addr:street" v="Werkstraße"/>
    <tag k="website" v="http://www.aristo-gaming.com"/>
  </node>
  <node id="-3282" version="0" timestamp="Fri Feb 24 10:53:35 +0100 2012" uid="1" user="" lat="48.77267" lon="8.17232">
    <tag k="name" v="ARISTO Casino"/>
    <tag k="wheelchair" v="yes"/>
    <tag k="addr:city" v="Sinzheim"/>
    <tag k="addr:postcode" v="76547"/>
    <tag k="addr:housenumber" v="28"/>
    <tag k="tourism" v="attraction"/>
    <tag k="addr:street" v="Industriestraße"/>
    <tag k="website" v="http://www.aristo-gaming.com"/>
  </node>
  <node id="-3307" version="0" timestamp="Fri Feb 24 10:53:35 +0100 2012" uid="1" user="" lat="48.6963024" lon="8.1386498">
    <tag k="name" v="Q"/>
    <tag k="wheelchair" v="no"/>
    <tag k="amenity" v="bar"/>
  </node>
  <node id="-3308" version="0" timestamp="Fri Feb 24 10:53:35 +0100 2012" uid="1" user="" lat="48.6962221" lon="8.138414">
    <tag k="name" v="Eiscafe Venezia"/>
    <tag k="wheelchair" v="yes"/>
    <tag k="amenity" v="cafe"/>
  </node>
  <node id="-3309" version="0" timestamp="Fri Feb 24 10:53:35 +0100 2012" uid="1" user="" lat="48.6958847" lon="8.1385085">
    <tag k="name" v="Eiscafe Italia"/>
    <tag k="wheelchair" v="yes"/>
    <tag k="amenity" v="bank"/>
  </node>
  <node id="-3821" version="0" timestamp="Fri Feb 24 10:53:35 +0100 2012" uid="1" user="" lat="49.28937" lon="8.47513">
    <tag k="shop" v="doityourself"/>
    <tag k="name" v="Wässa &amp; Schuster Farbenhandel"/>
    <tag k="wheelchair" v="yes"/>
    <tag k="addr:city" v="Speyer"/>
    <tag k="addr:postcode" v="67346"/>
    <tag k="addr:housenumber" v="13"/>
    <tag k="addr:street" v="Industriestraße"/>
    <tag k="wheelchair:description" v="WC evtl. nicht vorhanden"/>
    <tag k="website" v="http://ws-farben.de"/>
    <tag k="phone" v="+49 6232 130322"/>
  </node>
  <node id="-3822" version="0" timestamp="Fri Feb 24 10:53:35 +0100 2012" uid="1" user="" lat="49.4296893" lon="8.6454202">
    <tag k="name" v="Aral Tankstelle"/>
    <tag k="wheelchair" v="yes"/>
    <tag k="amenity" v="fuel"/>
  </node>
  <node id="-3881" version="0" timestamp="Fri Feb 24 10:53:35 +0100 2012" uid="1" user="" lat="48.9403893" lon="8.2785547">
    <tag k="name" v="Pfarrheim St. Bernhard"/>
    <tag k="wheelchair" v="yes"/>
    <tag k="addr:city" v="Durmersheim"/>
    <tag k="addr:postcode" v="76448"/>
    <tag k="addr:street" v="Raiffeisenplatz"/>
  </node>
  <node id="-3882" version="0" timestamp="Fri Feb 24 10:53:35 +0100 2012" uid="1" user="" lat="48.93231" lon="8.27283">
    <tag k="name" v="Pfarrzentrum St. Dionys"/>
    <tag k="wheelchair" v="limited"/>
    <tag k="addr:city" v="Durmersheim"/>
    <tag k="addr:postcode" v="76448"/>
    <tag k="addr:housenumber" v="57"/>
    <tag k="addr:street" v="Speyerer Straße "/>
    <tag k="wheelchair:description" v="Aufzug, Toiletten im Keller"/>
    <tag k="phone" v="+49 7245 5756"/>
  </node>
  <node id="-3944" version="0" timestamp="Fri Feb 24 10:53:35 +0100 2012" uid="1" user="" lat="49.0258946" lon="8.8806048">
    <tag k="name" v="Wanderheim Schwäbischer Albverein"/>
    <tag k="wheelchair" v="no"/>
    <tag k="tourism" v="attraction"/>
  </node>
  <node id="-3945" version="0" timestamp="Fri Feb 24 10:53:35 +0100 2012" uid="1" user="" lat="49.0261151" lon="8.879849">
    <tag k="name" v="Jugendhäuser"/>
    <tag k="wheelchair" v="no"/>
    <tag k="tourism" v="attraction"/>
  </node>
  <node id="-4016" version="0" timestamp="Fri Feb 24 10:53:36 +0100 2012" uid="1" user="" lat="49.48227" lon="8.46083">
    <tag k="name" v="Hellers"/>
    <tag k="wheelchair" v="yes"/>
    <tag k="addr:city" v="Mannheim"/>
    <tag k="addr:postcode" v="68161"/>
    <tag k="addr:housenumber" v="13"/>
    <tag k="addr:street" v="N 7"/>
    <tag k="amenity" v="restaurant"/>
    <tag k="website" v="http://www.hellers-restaurant.de/"/>
  </node>
  <node id="-4119" version="0" timestamp="Fri Feb 24 10:53:36 +0100 2012" uid="1" user="" lat="49.4765883" lon="8.4834032">
    <tag k="name" v="Caesars Fahrschule Mannheim"/>
    <tag k="wheelchair" v="limited"/>
    <tag k="addr:city" v="Mannheim"/>
    <tag k="addr:postcode" v="68165 "/>
    <tag k="addr:housenumber" v="51"/>
    <tag k="addr:street" v="Seckenheimerstrasse"/>
    <tag k="wheelchair:description" v="Die Fahrschule enthält keine Stufen und bietet Mobilitätseingeschränkten Personen die Möglichkeit den Führerschein zu machen. Die Toiletten werden in naher Zukunft noch umgebaut und vergrößert."/>
    <tag k="amenity" v="school"/>
    <tag k="website" v="http://www.caesars-fahrschule-mannheim.de/home"/>
    <tag k="phone" v="0621-43 29 56 68"/>
  </node>
  <node id="-4199" version="0" timestamp="Fri Feb 24 10:53:36 +0100 2012" uid="1" user="" lat="48.4067805" lon="8.4507841">
    <tag k="shop" v="supermarket"/>
    <tag k="name" v="Edeka "/>
    <tag k="wheelchair" v="yes"/>
    <tag k="addr:city" v="Loßburg"/>
    <tag k="addr:postcode" v="72290"/>
    <tag k="addr:street" v="Arthur-Hehl-Strasse"/>
  </node>
  <node id="-4200" version="0" timestamp="Fri Feb 24 10:53:36 +0100 2012" uid="1" user="" lat="48.4645684" lon="8.4320226">
    <tag k="shop" v="supermarket"/>
    <tag k="name" v="Kaufland"/>
    <tag k="wheelchair" v="yes"/>
    <tag k="addr:city" v="Freudenstadt"/>
    <tag k="addr:postcode" v="72250 "/>
    <tag k="addr:street" v="Max-Eyth-Strasse"/>
  </node>
  <node id="-4201" version="0" timestamp="Fri Feb 24 10:53:36 +0100 2012" uid="1" user="" lat="48.4656565" lon="8.4327582">
    <tag k="shop" v="supermarket"/>
    <tag k="name" v="Rewe"/>
    <tag k="wheelchair" v="yes"/>
  </node>
  <node id="-4202" version="0" timestamp="Fri Feb 24 10:53:36 +0100 2012" uid="1" user="" lat="48.4732358" lon="8.4145746">
    <tag k="name" v="Panorama Bad"/>
    <tag k="wheelchair" v="yes"/>
    <tag k="amenity" v="swimming_pool"/>
  </node>
  <node id="-4203" version="0" timestamp="Fri Feb 24 10:53:36 +0100 2012" uid="1" user="" lat="48.4732827" lon="8.4149831">
    <tag k="name" v="Restaurant Atlantis"/>
    <tag k="wheelchair" v="yes"/>
    <tag k="wheelchair:description" v="leider kein Behinderten Wc"/>
    <tag k="amenity" v="restaurant"/>
  </node>
  <node id="-4206" version="0" timestamp="Fri Feb 24 10:53:36 +0100 2012" uid="1" user="" lat="49.41284" lon="8.70514">
    <tag k="name" v="Lesecafé im Haus der Studierenden"/>
    <tag k="wheelchair" v="yes"/>
    <tag k="addr:city" v="Heidelberg"/>
    <tag k="addr:postcode" v="69117"/>
    <tag k="addr:housenumber" v="5"/>
    <tag k="addr:street" v="Marstallhof"/>
    <tag k="amenity" v="cafe"/>
    <tag k="website" v="http://www.studentenwerk-heidelberg.de"/>
    <tag k="phone" v="+49 6221 54 26 44"/>
  </node>
  <node id="-4209" version="0" timestamp="Fri Feb 24 10:53:36 +0100 2012" uid="1" user="" lat="49.4106934" lon="8.7057683">
    <tag k="name" v="Triplex-Mensa"/>
    <tag k="wheelchair" v="yes"/>
    <tag k="addr:city" v="Heidelberg"/>
    <tag k="addr:postcode" v="6917"/>
    <tag k="addr:housenumber" v="14"/>
    <tag k="addr:street" v="Grabengasse "/>
    <tag k="amenity" v="restaurant"/>
    <tag k="website" v="http://www.studentenwerk-heidelberg.de"/>
    <tag k="phone" v="+49 6221 54 26 44"/>
  </node>
  <node id="-4210" version="0" timestamp="Fri Feb 24 10:53:36 +0100 2012" uid="1" user="" lat="49.4128749" lon="8.7041339">
    <tag k="name" v="zeughaus-Bar"/>
    <tag k="wheelchair" v="unknown"/>
    <tag k="addr:city" v="Heidelberg"/>
    <tag k="addr:postcode" v="69117"/>
    <tag k="addr:housenumber" v="3"/>
    <tag k="addr:street" v="Marstallhof"/>
    <tag k="amenity" v="bar"/>
    <tag k="website" v="http://www.studentenwerk-heidelberg.de"/>
    <tag k="phone" v="+49 6221 54 26 44"/>
  </node>
  <node id="-4211" version="0" timestamp="Fri Feb 24 10:53:36 +0100 2012" uid="1" user="" lat="49.4105445" lon="8.7052085">
    <tag k="name" v="Studentenbücherei des Studentenwerks Heidelberg"/>
    <tag k="wheelchair" v="yes"/>
    <tag k="addr:city" v="Heidelberg"/>
    <tag k="addr:postcode" v="69117"/>
    <tag k="addr:housenumber" v="14"/>
    <tag k="addr:street" v="Grabengasse "/>
    <tag k="amenity" v="library"/>
    <tag k="website" v="http://www.studentenwerk-heidelberg.de"/>
    <tag k="phone" v="+49 6221 54 26 44"/>
  </node>
  <node id="-4213" version="0" timestamp="Fri Feb 24 10:53:36 +0100 2012" uid="1" user="" lat="49.4156234" lon="8.6707142">
    <tag k="name" v="Zentralmensa"/>
    <tag k="wheelchair" v="limited"/>
    <tag k="addr:city" v="Heidelberg"/>
    <tag k="addr:postcode" v="69120"/>
    <tag k="addr:housenumber" v="304"/>
    <tag k="addr:street" v="INF"/>
    <tag k="amenity" v="restaurant"/>
    <tag k="website" v="http://www.studentenwerk-heidelberg.de"/>
    <tag k="phone" v="+49 6221 54 26 44"/>
  </node>
  <node id="-4214" version="0" timestamp="Fri Feb 24 10:53:36 +0100 2012" uid="1" user="" lat="49.4158748" lon="8.6708817">
    <tag k="name" v="InfoCafé International"/>
    <tag k="wheelchair" v="unknown"/>
    <tag k="addr:city" v="Heidelberg"/>
    <tag k="addr:postcode" v="69120"/>
    <tag k="addr:housenumber" v="304"/>
    <tag k="addr:street" v="INF"/>
    <tag k="amenity" v="cafe"/>
    <tag k="website" v="http://www.studentenwerk-heidelberg.de"/>
    <tag k="phone" v="+49 6221 54 26 44"/>
  </node>
  <node id="-4215" version="0" timestamp="Fri Feb 24 10:53:36 +0100 2012" uid="1" user="" lat="49.4202431" lon="8.6844473">
    <tag k="name" v="Keplers (Café Alte PH)"/>
    <tag k="wheelchair" v="yes"/>
    <tag k="addr:city" v="Heidelberg"/>
    <tag k="addr:postcode" v="69120"/>
    <tag k="addr:housenumber" v="87"/>
    <tag k="addr:street" v="Keplerstraße "/>
    <tag k="amenity" v="cafe"/>
    <tag k="website" v="http://www.studentenwerk-heidelberg.de"/>
    <tag k="phone" v="+49 6221 54 26 44"/>
  </node>
  <node id="-4216" version="0" timestamp="Fri Feb 24 10:53:36 +0100 2012" uid="1" user="" lat="49.42024" lon="8.68445">
    <tag k="name" v="Mensa Alte PH"/>
    <tag k="wheelchair" v="yes"/>
    <tag k="addr:city" v="Heidelberg"/>
    <tag k="addr:postcode" v="69120"/>
    <tag k="addr:housenumber" v="87"/>
    <tag k="addr:street" v="Keplerstraße"/>
    <tag k="amenity" v="fast_food"/>
    <tag k="website" v="http://www.studentenwerk-heidelberg.de"/>
    <tag k="phone" v="+49 6221 54 26 44"/>
  </node>
  <node id="-4217" version="0" timestamp="Fri Feb 24 10:53:36 +0100 2012" uid="1" user="" lat="49.420052" lon="8.6693809">
    <tag k="name" v="Café BlauPause"/>
    <tag k="wheelchair" v="yes"/>
    <tag k="addr:city" v="Heidelberg"/>
    <tag k="addr:postcode" v="69120"/>
    <tag k="addr:housenumber" v="561"/>
    <tag k="addr:street" v="INF"/>
    <tag k="amenity" v="cafe"/>
    <tag k="website" v="http://www.studentenwerk-heidelberg.de"/>
    <tag k="phone" v="+49 6221 54 26 44"/>
  </node>
  <node id="-4219" version="0" timestamp="Fri Feb 24 10:53:36 +0100 2012" uid="1" user="" lat="49.4084645" lon="8.6841392">
    <tag k="name" v="Café PUR"/>
    <tag k="wheelchair" v="yes"/>
    <tag k="addr:city" v="Heidelberg"/>
    <tag k="addr:postcode" v="69115"/>
    <tag k="addr:housenumber" v="58"/>
    <tag k="addr:street" v="Bergheimer Straße"/>
    <tag k="amenity" v="cafe"/>
    <tag k="website" v="http://www.studentenwerk-heidelberg.de"/>
    <tag k="phone" v="+49 6221 54 26 44"/>
  </node>
  <node id="-4220" version="0" timestamp="Fri Feb 24 10:53:36 +0100 2012" uid="1" user="" lat="49.4076822" lon="8.6963244">
    <tag k="name" v="Café LEX"/>
    <tag k="wheelchair" v="unknown"/>
    <tag k="addr:city" v="Heidelberg"/>
    <tag k="addr:postcode" v="69115"/>
    <tag k="amenity" v="cafe"/>
    <tag k="website" v="http://www.studentenwerk-heidelberg.de"/>
    <tag k="phone" v="+49 6221 54 26 44"/>
  </node>
  <node id="-4296" version="0" timestamp="Fri Feb 24 10:53:36 +0100 2012" uid="1" user="" lat="49.3189093" lon="8.4474487">
    <tag k="name" v="SeaLife"/>
    <tag k="wheelchair" v="yes"/>
    <tag k="tourism" v="attraction"/>
  </node>
  <node id="-4332" version="0" timestamp="Fri Feb 24 10:53:36 +0100 2012" uid="1" user="" lat="49.541617" lon="8.6566854">
    <tag k="shop" v="medical_supply"/>
    <tag k="name" v="Rehability GmbH &amp; Co. KG"/>
    <tag k="wheelchair" v="yes"/>
    <tag k="addr:city" v="Weinheim"/>
    <tag k="addr:postcode" v="69469"/>
    <tag k="addr:housenumber" v="51"/>
    <tag k="addr:street" v="Mierendorffstr."/>
    <tag k="website" v="http://www.rehability.de"/>
    <tag k="phone" v="06201-99690"/>
  </node>
  <node id="-4339" version="0" timestamp="Fri Feb 24 10:53:36 +0100 2012" uid="1" user="" lat="49.3488" lon="8.68854">
    <tag k="name" v="Bäckerei-Cafe Riegler"/>
    <tag k="wheelchair" v="yes"/>
    <tag k="addr:city" v="Leimen"/>
    <tag k="addr:postcode" v="69181"/>
    <tag k="addr:housenumber" v="1"/>
    <tag k="addr:street" v="Schwetziger Straße"/>
    <tag k="wheelchair:description" v="Auch Toilette barrerefrei"/>
    <tag k="amenity" v="cafe"/>
  </node>
  <node id="-4358" version="0" timestamp="Fri Feb 24 10:53:36 +0100 2012" uid="1" user="" lat="49.4883" lon="8.4647">
    <tag k="name" v="Zwischen Rhein und Reben"/>
    <tag k="wheelchair" v="yes"/>
    <tag k="addr:city" v="Speyer"/>
    <tag k="addr:postcode" v="67346"/>
    <tag k="addr:housenumber" v="4a"/>
    <tag k="tourism" v="chalet"/>
    <tag k="addr:street" v="Rheintorstraße"/>
    <tag k="website" v="http://www.zwischen-rhein-und-reben.de"/>
    <tag k="phone" v="+49 6232 6842726"/>
  </node>
  <node id="-4404" version="0" timestamp="Fri Feb 24 10:53:36 +0100 2012" uid="1" user="" lat="49.34958" lon="8.68849">
    <tag k="name" v="Bistrorante Pama&apos;S"/>
    <tag k="wheelchair" v="limited"/>
    <tag k="addr:city" v="Leimen"/>
    <tag k="addr:postcode" v="69181"/>
    <tag k="addr:housenumber" v="8"/>
    <tag k="addr:street" v="Kurpfalz-Centrum"/>
    <tag k="wheelchair:description" v="keine barrierefreie Toilette, ansonsten alles barrierefrei"/>
    <tag k="amenity" v="restaurant"/>
    <tag k="website" v="http://www.bistrorante-pamas.de"/>
    <tag k="phone" v="06224/147873"/>
  </node>
  <node id="-4405" version="0" timestamp="Fri Feb 24 10:53:36 +0100 2012" uid="1" user="" lat="49.3409458" lon="8.6892887">
    <tag k="name" v="Fody´s in Leimen"/>
    <tag k="wheelchair" v="no"/>
    <tag k="wheelchair:description" v="alle Sitzplätze sind auf einem Podest"/>
    <tag k="amenity" v="restaurant"/>
  </node>
  <node id="-4595" version="0" timestamp="Fri Feb 24 10:53:36 +0100 2012" uid="1" user="" lat="48.8005207" lon="8.7815529">
    <tag k="name" v="St.Wendelin Kapelle"/>
    <tag k="wheelchair" v="limited"/>
    <tag k="addr:city" v="Neuhausen/Steinegg"/>
    <tag k="addr:postcode" v="75242"/>
    <tag k="addr:housenumber" v="-"/>
    <tag k="addr:street" v="Furtstraße"/>
    <tag k="amenity" v="place_of_worship"/>
  </node>
  <node id="-4613" version="0" timestamp="Fri Feb 24 10:53:36 +0100 2012" uid="1" user="" lat="48.4607504" lon="8.4108422">
    <tag k="name" v="Wiener Traum "/>
    <tag k="wheelchair" v="limited"/>
    <tag k="addr:city" v="Freudenstadt"/>
    <tag k="addr:postcode" v="72250"/>
    <tag k="addr:housenumber" v="12"/>
    <tag k="addr:street" v="Straßburger Strasse "/>
    <tag k="wheelchair:description" v="kleine Stufe am Eingang, Lokal wird von Rollstuhlfahrern regelmäßig besucht..."/>
    <tag k="amenity" v="restaurant"/>
    <tag k="website" v="http://www.wiener-traum.de"/>
    <tag k="phone" v="+4907441951755"/>
  </node>
  <node id="-4663" version="0" timestamp="Fri Feb 24 10:53:36 +0100 2012" uid="1" user="" lat="48.9944" lon="8.3998547">
    <tag k="name" v="S-Bahn"/>
    <tag k="wheelchair" v="no"/>
    <tag k="railway" v="halt"/>
  </node>
  <node id="-4700" version="0" timestamp="Fri Feb 24 10:53:36 +0100 2012" uid="1" user="" lat="49.0155937" lon="8.3903983">
    <tag k="name" v="Hochschule Karlsruhe Gebäude F"/>
    <tag k="wheelchair" v="yes"/>
    <tag k="wheelchair:description" v="Lange Rampe an der linke Seite (Südliche Richtung) des Gebäude."/>
    <tag k="amenity" v="college"/>
  </node>
  <node id="-4701" version="0" timestamp="Fri Feb 24 10:53:36 +0100 2012" uid="1" user="" lat="49.0146433" lon="8.3940928">
    <tag k="name" v="Mensa Moltke"/>
    <tag k="wheelchair" v="yes"/>
    <tag k="wheelchair:description" v="Das EG ist leicht erreichbar, 1. OG nicht."/>
    <tag k="amenity" v="restaurant"/>
  </node>
  <node id="-4702" version="0" timestamp="Fri Feb 24 10:53:36 +0100 2012" uid="1" user="" lat="49.015083" lon="8.3912889">
    <tag k="name" v="Hochschule Karlsruhe Gebäude P"/>
    <tag k="wheelchair" v="no"/>
    <tag k="wheelchair:description" v="Kein Rollstuhlgerechter Eingang, Aufzug vorhanden."/>
    <tag k="amenity" v="college"/>
  </node>
  <node id="-4703" version="0" timestamp="Fri Feb 24 10:53:36 +0100 2012" uid="1" user="" lat="49.0158572" lon="8.3951981">
    <tag k="name" v="Karl-Hans-Albrecht Haus"/>
    <tag k="wheelchair" v="no"/>
    <tag k="tourism" v="chalet"/>
    <tag k="wheelchair:description" v="Kein Rollstuhlgerechter Eingang, Aufzug vorhanden."/>
  </node>
  <node id="-4704" version="0" timestamp="Fri Feb 24 10:53:36 +0100 2012" uid="1" user="" lat="49.0161209" lon="8.3957767">
    <tag k="name" v="Auhustin-Bea-Haus"/>
    <tag k="wheelchair" v="yes"/>
    <tag k="tourism" v="chalet"/>
    <tag k="wheelchair:description" v="Keine Stuffen &amp; Aufzug vorhanden."/>
  </node>
  <node id="-4705" version="0" timestamp="Fri Feb 24 10:53:36 +0100 2012" uid="1" user="" lat="49.0099671" lon="8.3881848">
    <tag k="name" v="Hochschule Karlsruhe Gebäude AM"/>
    <tag k="wheelchair" v="yes"/>
    <tag k="wheelchair:description" v="Keine Stuffen &amp; 2 Aufzüge vorhanden."/>
    <tag k="amenity" v="college"/>
  </node>
  <node id="-4706" version="0" timestamp="Fri Feb 24 10:53:36 +0100 2012" uid="1" user="" lat="49.00839" lon="8.39146">
    <tag k="name" v="Euphrat Döner"/>
    <tag k="wheelchair" v="no"/>
    <tag k="wheelchair:description" v="Hohe 5-6 Stufige Treppe."/>
    <tag k="amenity" v="fast_food"/>
  </node>
  <node id="-4707" version="0" timestamp="Fri Feb 24 10:53:36 +0100 2012" uid="1" user="" lat="49.00821" lon="8.41132">
    <tag k="name" v="Studentenwohnheim WH36"/>
    <tag k="wheelchair" v="limited"/>
    <tag k="tourism" v="chalet"/>
    <tag k="wheelchair:description" v="Gebäude A, B und C sind über hohen Treppen erreichbar, D und E nicht."/>
  </node>
  <node id="-4708" version="0" timestamp="Fri Feb 24 10:53:36 +0100 2012" uid="1" user="" lat="49.0161714" lon="8.3904235">
    <tag k="name" v="Hochschule Karlsruhe Gebäude M"/>
    <tag k="wheelchair" v="no"/>
    <tag k="wheelchair:description" v="Umweg über Gebäude F und Li."/>
    <tag k="amenity" v="college"/>
  </node>
  <node id="-4709" version="0" timestamp="Fri Feb 24 10:53:36 +0100 2012" uid="1" user="" lat="49.01617" lon="8.39042">
    <tag k="name" v="Hochschule Karlsruhe Gebäude P"/>
    <tag k="wheelchair" v="no"/>
    <tag k="wheelchair:description" v="Umweg über Gebäude F und Li."/>
    <tag k="amenity" v="college"/>
  </node>
  <node id="-4710" version="0" timestamp="Fri Feb 24 10:53:36 +0100 2012" uid="1" user="" lat="49.00936" lon="8.39531">
    <tag k="name" v="ING DiBa Automat"/>
    <tag k="wheelchair" v="yes"/>
    <tag k="wheelchair:description" v="Befindet am Eingang von Saturn."/>
    <tag k="amenity" v="bank"/>
  </node>
  <node id="-4740" version="0" timestamp="Fri Feb 24 10:53:36 +0100 2012" uid="1" user="" lat="49.503296" lon="8.5152543">
    <tag k="name" v="TVK Gaststätte &quot;Zum Sonnenblick&quot;"/>
    <tag k="wheelchair" v="yes"/>
    <tag k="addr:city" v="Mannheim-Käfertal"/>
    <tag k="addr:postcode" v="68309"/>
    <tag k="addr:housenumber" v="75"/>
    <tag k="addr:street" v="Wachenheimer Str."/>
    <tag k="wheelchair:description" v="Rollstuhlrampe an der Terrasse "/>
    <tag k="amenity" v="restaurant"/>
    <tag k="website" v="http://www.tv-kaefertal.de"/>
    <tag k="phone" v="+49 621 324 910 76 "/>
  </node>
  <node id="-4760" version="0" timestamp="Fri Feb 24 10:53:36 +0100 2012" uid="1" user="" lat="48.94108" lon="8.28367">
    <tag k="name" v="Weidenweg 6"/>
    <tag k="wheelchair" v="yes"/>
    <tag k="amenity" v="brothel"/>
  </node>
  <node id="-4762" version="0" timestamp="Fri Feb 24 10:53:36 +0100 2012" uid="1" user="" lat="49.4665884" lon="8.5634588">
    <tag k="name" v="Neue Apotheke Seckenheim"/>
    <tag k="wheelchair" v="yes"/>
    <tag k="addr:city" v="Mannheim"/>
    <tag k="addr:postcode" v="68239"/>
    <tag k="addr:housenumber" v="117"/>
    <tag k="addr:street" v="Seckenheimer Hauptstraße"/>
    <tag k="amenity" v="pharmacy"/>
    <tag k="phone" v="0621/49600980"/>
  </node>
  <node id="-4777" version="0" timestamp="Fri Feb 24 10:53:36 +0100 2012" uid="1" user="" lat="48.7667537" lon="8.3330943">
    <tag k="name" v="Von-Drais-Schule Gernsbach"/>
    <tag k="wheelchair" v="limited"/>
    <tag k="amenity" v="school"/>
  </node>
  <node id="-4792" version="0" timestamp="Fri Feb 24 10:53:36 +0100 2012" uid="1" user="" lat="48.7172749" lon="8.7371241">
    <tag k="name" v="Agentur für Arbeit"/>
    <tag k="wheelchair" v="yes"/>
    <tag k="addr:city" v="Calw"/>
    <tag k="addr:postcode" v="75365"/>
    <tag k="addr:housenumber" v="1"/>
    <tag k="addr:street" v="Untere Brücke "/>
    <tag k="website" v="http://www.arbeitsagentur.de"/>
    <tag k="phone" v="0180 1 555111 ‎ "/>
    <tag k="office" v="company"/>
  </node>
  <node id="-4907" version="0" timestamp="Fri Feb 24 10:53:36 +0100 2012" uid="1" user="" lat="48.7076039" lon="8.764234">
    <tag k="name" v="Pino&apos;s Imbiss"/>
    <tag k="wheelchair" v="unknown"/>
    <tag k="addr:city" v="Calw"/>
    <tag k="addr:postcode" v="75365"/>
    <tag k="addr:housenumber" v="5"/>
    <tag k="addr:street" v="Kimmichwiesen "/>
    <tag k="amenity" v="fast_food"/>
    <tag k="phone" v="07051 796832 ‎ "/>
  </node>
  <node id="-4908" version="0" timestamp="Fri Feb 24 10:53:36 +0100 2012" uid="1" user="" lat="48.7079443" lon="8.7638786">
    <tag k="shop" v="computer"/>
    <tag k="name" v="Highlight Computer"/>
    <tag k="wheelchair" v="unknown"/>
    <tag k="addr:city" v="Calw"/>
    <tag k="addr:postcode" v="75365"/>
    <tag k="addr:housenumber" v="7"/>
    <tag k="addr:street" v="Kimmichwiesen"/>
    <tag k="website" v="http://www.highlight-computer.de"/>
    <tag k="phone" v="07051 92 68 10 ‎ "/>
  </node>
  <node id="-4929" version="0" timestamp="Fri Feb 24 10:53:36 +0100 2012" uid="1" user="" lat="48.9934" lon="8.89885">
    <tag k="name" v="Gutsschenke"/>
    <tag k="wheelchair" v="limited"/>
    <tag k="addr:city" v="Illingen-Schützingen"/>
    <tag k="addr:postcode" v="75428"/>
    <tag k="addr:housenumber" v="13"/>
    <tag k="addr:street" v="Illinger Str. "/>
    <tag k="wheelchair:description" v="Toilette im ersten Stock, nur über Treppe erreichbar."/>
    <tag k="amenity" v="restaurant"/>
    <tag k="website" v="http://www.weingut-haege.de"/>
    <tag k="phone" v="+4970438915"/>
  </node>
  <node id="-4955" version="0" timestamp="Fri Feb 24 10:53:36 +0100 2012" uid="1" user="" lat="48.9724852" lon="8.4062177">
    <tag k="shop" v="bakery"/>
    <tag k="name" v="Bäckerei Gunter Fuchs"/>
    <tag k="wheelchair" v="no"/>
    <tag k="addr:city" v="Karlsruhe"/>
    <tag k="addr:postcode" v="76199"/>
    <tag k="addr:housenumber" v="7"/>
    <tag k="addr:street" v="Diakonissenstr."/>
    <tag k="phone" v="+49 721 892200"/>
  </node>
  <node id="-4966" version="0" timestamp="Fri Feb 24 10:53:36 +0100 2012" uid="1" user="" lat="48.7130013" lon="8.7436517">
    <tag k="name" v="Bestattungsinstitut Fischinger"/>
    <tag k="wheelchair" v="unknown"/>
    <tag k="addr:city" v="Calw"/>
    <tag k="addr:postcode" v="75365"/>
    <tag k="addr:housenumber" v="2"/>
    <tag k="addr:street" v="Stuttgarter strasse "/>
    <tag k="amenity" v="place_of_worship"/>
    <tag k="website" v="http://www.fischinger-bestattungen.de/"/>
    <tag k="phone" v="07051 2206"/>
  </node>
  <node id="-4968" version="0" timestamp="Fri Feb 24 10:53:36 +0100 2012" uid="1" user="" lat="48.7129009" lon="8.7434301">
    <tag k="name" v="WGV Versicherung"/>
    <tag k="wheelchair" v="unknown"/>
    <tag k="addr:city" v="Calw"/>
    <tag k="addr:postcode" v="75365"/>
    <tag k="addr:housenumber" v="2"/>
    <tag k="addr:street" v="Lange Steige"/>
    <tag k="website" v="http://www.wgv.de"/>
    <tag k="phone" v="07051 1687999"/>
    <tag k="office" v="company"/>
  </node>
  <node id="-4970" version="0" timestamp="Fri Feb 24 10:53:36 +0100 2012" uid="1" user="" lat="48.7113387" lon="8.7420653">
    <tag k="name" v="Bistro Dv 8"/>
    <tag k="wheelchair" v="unknown"/>
    <tag k="addr:city" v="Calw"/>
    <tag k="addr:postcode" v="75365"/>
    <tag k="addr:housenumber" v="39"/>
    <tag k="addr:street" v="Bahnhofstrasse"/>
    <tag k="amenity" v="bar"/>
    <tag k="website" v="http://www.dv8bar.wordpress.com"/>
    <tag k="phone" v="07051 30385"/>
  </node>
  <node id="-4971" version="0" timestamp="Fri Feb 24 10:53:36 +0100 2012" uid="1" user="" lat="48.7131974" lon="8.7420211">
    <tag k="name" v="Cubar"/>
    <tag k="wheelchair" v="unknown"/>
    <tag k="addr:city" v="Calw"/>
    <tag k="addr:postcode" v="75365"/>
    <tag k="addr:housenumber" v="9"/>
    <tag k="addr:street" v="Bahnhofstrasse"/>
    <tag k="amenity" v="bar"/>
    <tag k="phone" v="07051 12237"/>
  </node>
  <node id="-4972" version="0" timestamp="Fri Feb 24 10:53:36 +0100 2012" uid="1" user="" lat="48.7136067" lon="8.7411076">
    <tag k="name" v="Hermann Hesse Statue"/>
    <tag k="wheelchair" v="yes"/>
    <tag k="addr:street" v="Nikolausbrück"/>
    <tag k="historic" v="memorial"/>
  </node>
  <node id="-4973" version="0" timestamp="Fri Feb 24 10:53:36 +0100 2012" uid="1" user="" lat="48.706781" lon="8.7660612">
    <tag k="shop" v="butcher"/>
    <tag k="name" v="Metzgerei Franz GmbH"/>
    <tag k="wheelchair" v="yes"/>
    <tag k="addr:city" v="Calw"/>
    <tag k="addr:postcode" v="75365"/>
    <tag k="addr:housenumber" v="3"/>
    <tag k="addr:street" v="Im Feldle"/>
    <tag k="phone" v="07051 4834"/>
  </node>
  <node id="-4974" version="0" timestamp="Fri Feb 24 10:53:36 +0100 2012" uid="1" user="" lat="48.6944591" lon="8.7687051">
    <tag k="shop" v="butcher"/>
    <tag k="name" v="Metzgerei Roller"/>
    <tag k="wheelchair" v="unknown"/>
    <tag k="addr:city" v="Calw"/>
    <tag k="addr:postcode" v="75365"/>
    <tag k="addr:housenumber" v="56"/>
    <tag k="addr:street" v="Hauptstrasse "/>
    <tag k="website" v="http://www.metzgerei-roller.de"/>
    <tag k="phone" v="07051 77619"/>
  </node>
  <node id="-5019" version="0" timestamp="Fri Feb 24 10:53:36 +0100 2012" uid="1" user="" lat="48.7129542" lon="8.7392372">
    <tag k="name" v="Carl - Schmid - Hallenbad"/>
    <tag k="wheelchair" v="unknown"/>
    <tag k="addr:city" v="Calw"/>
    <tag k="addr:postcode" v="75365"/>
    <tag k="addr:housenumber" v="5"/>
    <tag k="addr:street" v="Am Schießberg "/>
    <tag k="amenity" v="swimming_pool"/>
    <tag k="website" v="http://www.stadtwerke-calw.de/"/>
    <tag k="phone" v="07051 40235"/>
  </node>
  <node id="-5020" version="0" timestamp="Fri Feb 24 10:53:36 +0100 2012" uid="1" user="" lat="48.7141837" lon="8.7389308">
    <tag k="name" v="Rathaus"/>
    <tag k="wheelchair" v="unknown"/>
    <tag k="addr:city" v="Calw"/>
    <tag k="addr:postcode" v="75365"/>
    <tag k="addr:housenumber" v="9"/>
    <tag k="addr:street" v="Marktplatz "/>
    <tag k="amenity" v="police"/>
    <tag k="website" v="http://www.Calw.de"/>
    <tag k="phone" v="07051 167 0"/>
  </node>
  <node id="-5021" version="0" timestamp="Fri Feb 24 10:53:36 +0100 2012" uid="1" user="" lat="48.7144633" lon="8.7404836">
    <tag k="name" v="Stadtinformation Calw"/>
    <tag k="wheelchair" v="yes"/>
    <tag k="addr:city" v="Calw"/>
    <tag k="addr:postcode" v="75365"/>
    <tag k="addr:housenumber" v="1"/>
    <tag k="addr:street" v="Marktbrücke"/>
    <tag k="website" v="http://www.Calw.de"/>
    <tag k="phone" v="07051 968810"/>
    <tag k="office" v="company"/>
  </node>
  <node id="-5116" version="0" timestamp="Fri Feb 24 10:53:37 +0100 2012" uid="1" user="" lat="49.0313918" lon="8.5756344">
    <tag k="shop" v="bakery"/>
    <tag k="name" v="Bäckerei"/>
    <tag k="wheelchair" v="no"/>
    <tag k="wheelchair:description" v="1 Stufe"/>
  </node>
  <node id="-5117" version="0" timestamp="Fri Feb 24 10:53:37 +0100 2012" uid="1" user="" lat="49.0315025" lon="8.5754744">
    <tag k="shop" v="butcher"/>
    <tag k="name" v="Landmetzgerei"/>
    <tag k="wheelchair" v="no"/>
    <tag k="wheelchair:description" v="2 Stufen"/>
  </node>
  <node id="-5118" version="0" timestamp="Fri Feb 24 10:53:37 +0100 2012" uid="1" user="" lat="49.0362923" lon="8.5696182">
    <tag k="shop" v="chemist"/>
    <tag k="name" v="Schlecker"/>
    <tag k="wheelchair" v="yes"/>
  </node>
  <node id="-5119" version="0" timestamp="Fri Feb 24 10:53:37 +0100 2012" uid="1" user="" lat="49.0365221" lon="8.5693357">
    <tag k="shop" v="supermarket"/>
    <tag k="name" v="Penny Markt"/>
    <tag k="wheelchair" v="yes"/>
  </node>
  <node id="-5120" version="0" timestamp="Fri Feb 24 10:53:37 +0100 2012" uid="1" user="" lat="48.9543469" lon="8.5768655">
    <tag k="name" v="Kick Inn"/>
    <tag k="wheelchair" v="no"/>
    <tag k="wheelchair:description" v="1 Stufe, Sehr eng"/>
    <tag k="amenity" v="bar"/>
  </node>
  <node id="-5121" version="0" timestamp="Fri Feb 24 10:53:37 +0100 2012" uid="1" user="" lat="48.9398184" lon="8.5315557">
    <tag k="name" v="Ev. Gemeindehaus"/>
    <tag k="wheelchair" v="yes"/>
    <tag k="amenity" v="social_facility"/>
  </node>
  <node id="-5122" version="0" timestamp="Fri Feb 24 10:53:37 +0100 2012" uid="1" user="" lat="48.9104763" lon="8.5789357">
    <tag k="name" v="Besenwirtschaft"/>
    <tag k="wheelchair" v="limited"/>
    <tag k="wheelchair:description" v="Kein WC"/>
    <tag k="amenity" v="biergarten"/>
  </node>
  <node id="-5250" version="0" timestamp="Fri Feb 24 10:53:37 +0100 2012" uid="1" user="" lat="48.94006" lon="8.28132">
    <tag k="name" v="Bordell Buchenweg"/>
    <tag k="wheelchair" v="yes"/>
    <tag k="addr:city" v="Durmersheim"/>
    <tag k="addr:postcode" v="76448"/>
    <tag k="addr:housenumber" v="4"/>
    <tag k="addr:street" v="Buchenweg"/>
    <tag k="amenity" v="stripclub"/>
  </node>
  <node id="-5276" version="0" timestamp="Fri Feb 24 10:53:37 +0100 2012" uid="1" user="" lat="48.82846" lon="8.25458">
    <tag k="name" v="Praxis für Logopädie Christine Berndt-Behnert"/>
    <tag k="wheelchair" v="yes"/>
    <tag k="addr:city" v="Kuppenheim"/>
    <tag k="addr:postcode" v="76456"/>
    <tag k="addr:housenumber" v="53"/>
    <tag k="addr:street" v="Friedrichstraße"/>
    <tag k="wheelchair:description" v="Aufzug vorhanden"/>
    <tag k="amenity" v="doctors"/>
    <tag k="website" v="http://www.logopaedie-kuppenheim.de"/>
    <tag k="phone" v="07222/5950195"/>
  </node>
  <node id="-5356" version="0" timestamp="Fri Feb 24 10:53:37 +0100 2012" uid="1" user="" lat="49.40838" lon="8.68366">
    <tag k="name" v="Campus Bergheim"/>
    <tag k="wheelchair" v="yes"/>
    <tag k="addr:city" v="Heidelberg"/>
    <tag k="addr:housenumber" v="58"/>
    <tag k="addr:street" v="Bergheimer Straße"/>
    <tag k="amenity" v="university"/>
  </node>
  <node id="-5373" version="0" timestamp="Fri Feb 24 10:53:37 +0100 2012" uid="1" user="" lat="48.99561" lon="8.39349">
    <tag k="name" v="Santander Consumer Bank"/>
    <tag k="wheelchair" v="limited"/>
    <tag k="addr:city" v="Karlsruhe"/>
    <tag k="addr:postcode" v="76133"/>
    <tag k="addr:housenumber" v="3-5"/>
    <tag k="addr:street" v="Karlstraße "/>
    <tag k="amenity" v="bank"/>
    <tag k="website" v="http://www.santander.de"/>
  </node>
  <node id="-5430" version="0" timestamp="Fri Feb 24 10:53:37 +0100 2012" uid="1" user="" lat="49.48401" lon="8.44365">
    <tag k="name" v="Santander Consumer Bank"/>
    <tag k="wheelchair" v="limited"/>
    <tag k="addr:city" v="Ludwigshafen"/>
    <tag k="addr:postcode" v="67059"/>
    <tag k="addr:housenumber" v="40"/>
    <tag k="addr:street" v="Ludwigstraße"/>
    <tag k="amenity" v="bank"/>
    <tag k="website" v="http://www.santander.de"/>
  </node>
  <node id="-5433" version="0" timestamp="Fri Feb 24 10:53:37 +0100 2012" uid="1" user="" lat="48.89149" lon="8.69427">
    <tag k="name" v="Santander Consumer Bank"/>
    <tag k="wheelchair" v="limited"/>
    <tag k="addr:city" v="Pforzheim"/>
    <tag k="addr:postcode" v="75172"/>
    <tag k="addr:housenumber" v="47"/>
    <tag k="addr:street" v="Westliche Karl-Friedrich-Straße"/>
    <tag k="amenity" v="bank"/>
    <tag k="website" v="http://www.santander.de"/>
  </node>
  <node id="-5438" version="0" timestamp="Fri Feb 24 10:53:37 +0100 2012" uid="1" user="" lat="49.4661191" lon="8.9881547">
    <tag k="name" v="Lebensrad Altenheim"/>
    <tag k="wheelchair" v="yes"/>
    <tag k="amenity" v="social_facility"/>
  </node>
  <node id="-5445" version="0" timestamp="Fri Feb 24 10:53:37 +0100 2012" uid="1" user="" lat="49.3198902" lon="8.8717029">
    <tag k="name" v="Neuapostolische Kirche"/>
    <tag k="wheelchair" v="yes"/>
    <tag k="addr:city" v="Eschelbronn"/>
    <tag k="addr:postcode" v="74927"/>
    <tag k="addr:housenumber" v="37"/>
    <tag k="addr:street" v="Neidensteiner Straße"/>
    <tag k="amenity" v="place_of_worship"/>
    <tag k="website" v="http://cms.nak-eberbach.de/Eschelbronn.4112.0.html"/>
  </node>
  <node id="-5446" version="0" timestamp="Fri Feb 24 10:53:37 +0100 2012" uid="1" user="" lat="49.4454165" lon="8.9992228">
    <tag k="name" v="Evangelische Bergkirche zur Zuflucht"/>
    <tag k="wheelchair" v="limited"/>
    <tag k="addr:city" v="Eberbach"/>
    <tag k="addr:postcode" v="69412"/>
    <tag k="addr:street" v="Im Rot"/>
    <tag k="wheelchair:description" v="Ebenerdiger Eingang von oben erreichbar"/>
    <tag k="amenity" v="place_of_worship"/>
  </node>
  <node id="-5469" version="0" timestamp="Fri Feb 24 10:53:37 +0100 2012" uid="1" user="" lat="49.2479295" lon="8.8769446">
    <tag k="shop" v="chemist"/>
    <tag k="name" v="dm-Drogerie"/>
    <tag k="wheelchair" v="limited"/>
  </node>
  <node id="-5470" version="0" timestamp="Fri Feb 24 10:53:37 +0100 2012" uid="1" user="" lat="49.2525864" lon="8.8743582">
    <tag k="name" v="Café am Burgplatz"/>
    <tag k="wheelchair" v="yes"/>
    <tag k="amenity" v="cafe"/>
    <tag k="website" v="http://www.cafe-am-burgplatz.de"/>
  </node>
  <node id="-5471" version="0" timestamp="Fri Feb 24 10:53:37 +0100 2012" uid="1" user="" lat="49.2373981" lon="8.7721445">
    <tag k="shop" v="hairdresser"/>
    <tag k="name" v="Elite Coiffeur"/>
    <tag k="wheelchair" v="limited"/>
    <tag k="addr:city" v="Angelbachtal"/>
    <tag k="addr:postcode" v="74918"/>
    <tag k="addr:housenumber" v="44"/>
    <tag k="addr:street" v="Hauptstraße"/>
    <tag k="website" v="http://www.elitecoiffeur.de/index.html"/>
    <tag k="phone" v="0 72 65 / 49 30 05"/>
  </node>
  <node id="-5488" version="0" timestamp="Fri Feb 24 10:53:37 +0100 2012" uid="1" user="" lat="49.4137975" lon="8.687731">
    <tag k="name" v="Neuapostolische Kirche"/>
    <tag k="wheelchair" v="yes"/>
    <tag k="addr:city" v="Heidelberg"/>
    <tag k="addr:postcode" v="69120"/>
    <tag k="addr:housenumber" v="7"/>
    <tag k="addr:street" v="Werderstraße"/>
    <tag k="wheelchair:description" v="Aufzug, Behindertentoilette, ebenerdiger Zugang"/>
    <tag k="amenity" v="place_of_worship"/>
    <tag k="website" v="http://www.nak-heidelberg.de"/>
  </node>
  <node id="-5492" version="0" timestamp="Fri Feb 24 10:53:37 +0100 2012" uid="1" user="" lat="49.0047" lon="8.3858">
    <tag k="name" v="Church-Chill"/>
    <tag k="wheelchair" v="yes"/>
    <tag k="addr:city" v="Karlsruhe"/>
    <tag k="addr:postcode" v="76137"/>
    <tag k="addr:housenumber" v="115"/>
    <tag k="addr:street" v="Karlstrasse"/>
    <tag k="wheelchair:description" v="Behuinderten Toilette, Rampe, Parkplätze"/>
    <tag k="amenity" v="restaurant"/>
    <tag k="website" v="http://www.church-chill.de"/>
    <tag k="phone" v="0721/91537400"/>
  </node>
  <node id="-5537" version="0" timestamp="Fri Feb 24 10:53:37 +0100 2012" uid="1" user="" lat="48.7651223" lon="8.3339468">
    <tag k="name" v="WC Anlage"/>
    <tag k="wheelchair" v="yes"/>
    <tag k="addr:city" v="Gernsbach"/>
    <tag k="addr:postcode" v="76593"/>
    <tag k="addr:street" v="Färbertorplatz"/>
    <tag k="wheelchair:description" v="rollstuhlgerechte Toilette"/>
    <tag k="amenity" v="bank"/>
  </node>
  <node id="-5571" version="0" timestamp="Fri Feb 24 10:53:37 +0100 2012" uid="1" user="" lat="49.48545" lon="8.44468">
    <tag k="name" v="Present Shop"/>
    <tag k="wheelchair" v="limited"/>
    <tag k="addr:city" v="Ludwigshafen"/>
    <tag k="addr:postcode" v="67061"/>
    <tag k="addr:housenumber" v="4"/>
    <tag k="addr:street" v="Im Zollhof"/>
    <tag k="wheelchair:description" v="Gänge sind eng und voll gestelt"/>
    <tag k="amenity" v="bank"/>
    <tag k="website" v="http://www.rheingalerie-ludwigshafen.de/de/shopdetails/presentshop.php"/>
  </node>
</osm>
