<?xml version='1.0' encoding='UTF-8'?>
<osm version="0.6" generator="Osmosis 0.39">
  <node id="-205" version="0" timestamp="Fri Feb 24 10:53:32 +0100 2012" uid="1" user="" lat="48.7701142" lon="9.17934">
    <tag k="name" v="Boots"/>
    <tag k="wheelchair" v="no"/>
    <tag k="addr:city" v="Stuttgart"/>
    <tag k="addr:postcode" v="70180"/>
    <tag k="addr:housenumber" v="9"/>
    <tag k="addr:street" v="Bopserstraße "/>
    <tag k="amenity" v="bar"/>
    <tag k="website" v="http://www.boots-stuttgart.de/"/>
    <tag k="phone" v="0711  236 47 64"/>
  </node>
  <node id="-207" version="0" timestamp="Fri Feb 24 10:53:32 +0100 2012" uid="1" user="" lat="48.7735991" lon="9.1865364">
    <tag k="name" v="Viva Sauna"/>
    <tag k="wheelchair" v="no"/>
    <tag k="addr:city" v="Stuttgart"/>
    <tag k="addr:postcode" v="70182"/>
    <tag k="addr:housenumber" v="38"/>
    <tag k="addr:street" v="Charlottenstraße"/>
    <tag k="amenity" v="swimming_pool"/>
    <tag k="website" v="http://vivasauna.de/"/>
    <tag k="phone" v="0711 23 68 462"/>
  </node>
  <node id="-290" version="0" timestamp="Fri Feb 24 10:53:32 +0100 2012" uid="1" user="" lat="48.7576601" lon="8.8671889">
    <tag k="shop" v="doityourself"/>
    <tag k="name" v="Extra Bau + Hobby"/>
    <tag k="wheelchair" v="yes"/>
    <tag k="addr:city" v="Weil der stadt"/>
    <tag k="addr:postcode" v="71263"/>
    <tag k="addr:housenumber" v="15"/>
    <tag k="addr:street" v="Siemensstraße"/>
    <tag k="phone" v="07033 6023"/>
  </node>
  <node id="-317" version="0" timestamp="Fri Feb 24 10:53:32 +0100 2012" uid="1" user="" lat="49.7333279" lon="9.5169406">
    <tag k="name" v="Campingplatz &quot;Forellenhof&quot;"/>
    <tag k="wheelchair" v="unknown"/>
    <tag k="tourism" v="caravan_site"/>
  </node>
  <node id="-335" version="0" timestamp="Fri Feb 24 10:53:32 +0100 2012" uid="1" user="" lat="48.7667" lon="9.1833">
    <tag k="name" v="Hotel am Kurpark"/>
    <tag k="wheelchair" v="yes"/>
    <tag k="addr:city" v="76332"/>
    <tag k="addr:postcode" v="Bad Herrenalb"/>
    <tag k="addr:housenumber" v="23/1"/>
    <tag k="tourism" v="hotel"/>
    <tag k="addr:street" v="Kurpromenade"/>
    <tag k="wheelchair:description" v="100% barrierefrei"/>
    <tag k="website" v="http://www.hotelak.de/"/>
    <tag k="phone" v="+49 7083 5002-0"/>
  </node>
  <node id="-547" version="0" timestamp="Fri Feb 24 10:53:32 +0100 2012" uid="1" user="" lat="48.64766" lon="9.4502">
    <tag k="name" v="Altes Forstamt"/>
    <tag k="wheelchair" v="yes"/>
    <tag k="addr:city" v="Kirchheim / Teck"/>
    <tag k="addr:postcode" v="73230"/>
    <tag k="addr:housenumber" v="9"/>
    <tag k="addr:street" v="Schlossplatz "/>
    <tag k="wheelchair:description" v="Aufzug zum Gastraum und Rollstuhltoilette"/>
    <tag k="amenity" v="restaurant"/>
    <tag k="website" v="http://www.altes-forstamt.de/"/>
    <tag k="phone" v="+49 7021 8078091"/>
  </node>
  <node id="-618" version="0" timestamp="Fri Feb 24 10:53:32 +0100 2012" uid="1" user="" lat="48.71405" lon="9.29295">
    <tag k="name" v="Kubino"/>
    <tag k="wheelchair" v="yes"/>
    <tag k="addr:city" v="Ostfildern"/>
    <tag k="addr:postcode" v="73760"/>
    <tag k="addr:housenumber" v="6"/>
    <tag k="addr:street" v="In den Anlagen"/>
    <tag k="wheelchair:description" v="Aufzug und Rollitoilette vorhanden"/>
    <tag k="website" v="http://www.kubino-ostfildern.de/"/>
    <tag k="phone" v="+49 711 46 90 91 - 0"/>
  </node>
  <node id="-825" version="0" timestamp="Fri Feb 24 10:53:32 +0100 2012" uid="1" user="" lat="49.2361039" lon="9.0931122">
    <tag k="name" v="Der Entenschrauber Wolfgang Brell Fachwerkstatt für 2cv"/>
    <tag k="wheelchair" v="yes"/>
    <tag k="wheelchair:description" v="Sorry fürs Car Sharing, aber ich finde keine WERKSTATT !"/>
    <tag k="amenity" v="car_sharing"/>
  </node>
  <node id="-875" version="0" timestamp="Fri Feb 24 10:53:32 +0100 2012" uid="1" user="" lat="48.6856525" lon="9.0167719">
    <tag k="name" v="Rainbow Garden"/>
    <tag k="wheelchair" v="yes"/>
    <tag k="amenity" v="restaurant"/>
  </node>
  <node id="-965" version="0" timestamp="Fri Feb 24 10:53:33 +0100 2012" uid="1" user="" lat="48.73646" lon="9.31468">
    <tag k="name" v="Osteria La Vite"/>
    <tag k="wheelchair" v="unknown"/>
    <tag k="addr:city" v="Esslingen"/>
    <tag k="addr:postcode" v="73728"/>
    <tag k="addr:housenumber" v="15"/>
    <tag k="addr:street" v="Blumenstr."/>
    <tag k="amenity" v="restaurant"/>
    <tag k="website" v="http://la-vite.de"/>
    <tag k="phone" v="+49 711 55094094"/>
  </node>
  <node id="-981" version="0" timestamp="Fri Feb 24 10:53:33 +0100 2012" uid="1" user="" lat="49.313526" lon="9.7332396">
    <tag k="name" v="Herimouthsaal"/>
    <tag k="wheelchair" v="limited"/>
    <tag k="addr:city" v="Ingelfingen-Hermuthausen"/>
    <tag k="addr:postcode" v="74653"/>
    <tag k="addr:housenumber" v="48"/>
    <tag k="addr:street" v="Hauptstraße"/>
    <tag k="wheelchair:description" v="ohne Schwellen, keine Toiletten vorhanden"/>
    <tag k="amenity" v="nightclub"/>
    <tag k="website" v="http://www.herimouthsaal.de/"/>
  </node>
  <node id="-982" version="0" timestamp="Fri Feb 24 10:53:33 +0100 2012" uid="1" user="" lat="49.1519972" lon="9.2114393">
    <tag k="name" v="Musikpark Heilbronn"/>
    <tag k="wheelchair" v="yes"/>
    <tag k="addr:city" v="Heilbronn"/>
    <tag k="addr:postcode" v="74076"/>
    <tag k="addr:housenumber" v="9A"/>
    <tag k="addr:street" v="Gottlieb-Daimler-Straße"/>
    <tag k="wheelchair:description" v="bei Security für Aufzug melden!"/>
    <tag k="amenity" v="nightclub"/>
    <tag k="website" v="http://musikparkheilbronn.de/"/>
    <tag k="phone" v="+49 7131/6455921 ‎ "/>
  </node>
  <node id="-1021" version="0" timestamp="Fri Feb 24 10:53:33 +0100 2012" uid="1" user="" lat="48.79548" lon="9.18864">
    <tag k="name" v="Evang. Martinskirche (Nord) / Jesustreff"/>
    <tag k="wheelchair" v="yes"/>
    <tag k="addr:city" v="Stuttgart"/>
    <tag k="addr:postcode" v="70191"/>
    <tag k="addr:housenumber" v="2"/>
    <tag k="addr:street" v="Eckartstraße"/>
    <tag k="wheelchair:description" v="Behinderten WC vorhanden"/>
    <tag k="amenity" v="place_of_worship"/>
    <tag k="website" v="http://www.ev-ki-stu.de/index.php?id=13878&amp;sword_list[]=martinskirche http://www.jesustreff.de"/>
    <tag k="phone" v="+49 711 18771-54"/>
  </node>
  <node id="-1025" version="0" timestamp="Fri Feb 24 10:53:33 +0100 2012" uid="1" user="" lat="48.785114" lon="9.2080546">
    <tag k="shop" v="supermarket"/>
    <tag k="name" v="REWE Markt"/>
    <tag k="wheelchair" v="yes"/>
    <tag k="addr:city" v="Stuttgart"/>
    <tag k="addr:postcode" v="70188"/>
    <tag k="addr:housenumber" v="75"/>
    <tag k="addr:street" v="Ostendstrasse"/>
    <tag k="wheelchair:description" v="Ebener Zugang"/>
    <tag k="website" v="http://www.rewe.de/mein-markt/3501"/>
    <tag k="phone" v="0711-2621400"/>
  </node>
  <node id="-1130" version="0" timestamp="Fri Feb 24 10:53:33 +0100 2012" uid="1" user="" lat="48.8920177" lon="9.1695872">
    <tag k="name" v="Werkcafe"/>
    <tag k="wheelchair" v="yes"/>
    <tag k="addr:city" v="Ludwigsburg"/>
    <tag k="addr:postcode" v="71636"/>
    <tag k="addr:housenumber" v="10"/>
    <tag k="addr:street" v="Rheinlandstraße"/>
    <tag k="amenity" v="restaurant"/>
    <tag k="website" v="http://www.werkcafe.de"/>
    <tag k="phone" v="+49 7141 9915748"/>
  </node>
  <node id="-1341" version="0" timestamp="Fri Feb 24 10:53:33 +0100 2012" uid="1" user="" lat="49.2359036" lon="9.2107231">
    <tag k="name" v="Schnitzel-Charly"/>
    <tag k="wheelchair" v="no"/>
    <tag k="amenity" v="restaurant"/>
  </node>
  <node id="-1347" version="0" timestamp="Fri Feb 24 10:53:33 +0100 2012" uid="1" user="" lat="49.1714529" lon="9.2234854">
    <tag k="shop" v="supermarket"/>
    <tag k="name" v="Kaufland, Neckarsulm"/>
    <tag k="wheelchair" v="yes"/>
  </node>
  <node id="-1372" version="0" timestamp="Fri Feb 24 10:53:33 +0100 2012" uid="1" user="" lat="48.71859" lon="9.11134">
    <tag k="name" v="Cafe Konditorei Geiler"/>
    <tag k="wheelchair" v="limited"/>
    <tag k="addr:city" v="Stuttgart"/>
    <tag k="addr:postcode" v="70565"/>
    <tag k="addr:housenumber" v="52"/>
    <tag k="addr:street" v="Osterbronnstr."/>
    <tag k="amenity" v="bank"/>
    <tag k="website" v="http://www.cafe-geiler.webnode.com"/>
    <tag k="phone" v="+49 711 741704"/>
  </node>
  <node id="-1411" version="0" timestamp="Fri Feb 24 10:53:33 +0100 2012" uid="1" user="" lat="48.69793" lon="9.66545">
    <tag k="shop" v="mall"/>
    <tag k="name" v="Mail-Shop"/>
    <tag k="wheelchair" v="unknown"/>
    <tag k="addr:city" v="Göppingen"/>
    <tag k="addr:postcode" v="73037"/>
    <tag k="addr:housenumber" v="17"/>
    <tag k="addr:street" v="Carl-Benz-Str."/>
    <tag k="website" v="http://www.mail-shop.de"/>
    <tag k="phone" v="+49 7161 6549770"/>
  </node>
  <node id="-1489" version="0" timestamp="Fri Feb 24 10:53:33 +0100 2012" uid="1" user="" lat="48.95723" lon="9.13545">
    <tag k="shop" v="books"/>
    <tag k="name" v="Arche Noah"/>
    <tag k="wheelchair" v="no"/>
    <tag k="addr:city" v="Bietigheim-Bissingen"/>
    <tag k="addr:postcode" v="74321"/>
    <tag k="addr:street" v="Riedstrasse"/>
  </node>
  <node id="-1593" version="0" timestamp="Fri Feb 24 10:53:33 +0100 2012" uid="1" user="" lat="48.74042" lon="9.09824">
    <tag k="name" v="Institut für Bauphysik"/>
    <tag k="wheelchair" v="yes"/>
    <tag k="addr:city" v="Stuttgart"/>
    <tag k="addr:housenumber" v="12"/>
    <tag k="addr:street" v="Nobelstraße"/>
    <tag k="wheelchair:description" v="Rampen, Aufzüge, Rollitoiletten"/>
    <tag k="amenity" v="university"/>
    <tag k="website" v="http://www.ibp.fraunhofer.de"/>
  </node>
  <node id="-1661" version="0" timestamp="Fri Feb 24 10:53:33 +0100 2012" uid="1" user="" lat="49.0428444" lon="9.0959527">
    <tag k="name" v="Ev.Gemeindehaus"/>
    <tag k="wheelchair" v="unknown"/>
    <tag k="amenity" v="bank"/>
  </node>
  <node id="-1667" version="0" timestamp="Fri Feb 24 10:53:33 +0100 2012" uid="1" user="" lat="49.0421781" lon="9.0925452">
    <tag k="name" v="Behinderten WC"/>
    <tag k="wheelchair" v="unknown"/>
    <tag k="amenity" v="toilets"/>
  </node>
  <node id="-1798" version="0" timestamp="Fri Feb 24 10:53:33 +0100 2012" uid="1" user="" lat="48.80313" lon="9.0613">
    <tag k="name" v="Bettina Hanus Praxis für Physiotherapie"/>
    <tag k="wheelchair" v="yes"/>
    <tag k="addr:city" v="Gerlingen"/>
    <tag k="addr:postcode" v="70839"/>
    <tag k="addr:housenumber" v="16"/>
    <tag k="addr:street" v="Jakobstraße"/>
    <tag k="wheelchair:description" v="Barrierefreier Zugang"/>
    <tag k="leisure" v="sports_centre"/>
    <tag k="website" v="http://www.physio-hanus.de"/>
    <tag k="phone" v="+497156175917"/>
  </node>
  <node id="-2048" version="0" timestamp="Fri Feb 24 10:53:34 +0100 2012" uid="1" user="" lat="48.824287" lon="9.7978124">
    <tag k="name" v="Hirsch"/>
    <tag k="wheelchair" v="yes"/>
    <tag k="addr:city" v="Mutlangen"/>
    <tag k="addr:postcode" v="73557"/>
    <tag k="addr:housenumber" v="32"/>
    <tag k="addr:street" v="Hauptstrasse"/>
    <tag k="amenity" v="bar"/>
    <tag k="phone" v="071718741941"/>
  </node>
  <node id="-2443" version="0" timestamp="Fri Feb 24 10:53:34 +0100 2012" uid="1" user="" lat="48.7273" lon="9.11287">
    <tag k="name" v="Nierenzentrum Stuttgart-Vaihingen"/>
    <tag k="wheelchair" v="unknown"/>
    <tag k="addr:city" v="Stuttgart"/>
    <tag k="addr:postcode" v="70565"/>
    <tag k="addr:housenumber" v="99"/>
    <tag k="addr:street" v="Am Wallgraben"/>
    <tag k="amenity" v="doctors"/>
    <tag k="website" v="http://www.nierenzentrum-stuttgart-vaihingen.de"/>
    <tag k="phone" v="+49 711 745870"/>
  </node>
  <node id="-2567" version="0" timestamp="Fri Feb 24 10:53:34 +0100 2012" uid="1" user="" lat="48.61512" lon="9.53634">
    <tag k="shop" v="laundry"/>
    <tag k="name" v="Das Lädle"/>
    <tag k="wheelchair" v="no"/>
    <tag k="addr:city" v="Weilheim"/>
    <tag k="addr:postcode" v="73235"/>
    <tag k="addr:street" v="Kirchgasse"/>
  </node>
  <node id="-2575" version="0" timestamp="Fri Feb 24 10:53:34 +0100 2012" uid="1" user="" lat="48.6164276" lon="9.5357107">
    <tag k="shop" v="supermarket"/>
    <tag k="name" v="Müller Drogerie und Co. KG"/>
    <tag k="wheelchair" v="yes"/>
    <tag k="addr:city" v="Weilheim"/>
    <tag k="addr:postcode" v="73235"/>
    <tag k="addr:housenumber" v="19-21"/>
    <tag k="addr:street" v="Lindachstraße"/>
  </node>
  <node id="-2627" version="0" timestamp="Fri Feb 24 10:53:34 +0100 2012" uid="1" user="" lat="48.8282217" lon="10.4320424">
    <tag k="shop" v="bakery"/>
    <tag k="name" v="Bäckerei Moll"/>
    <tag k="wheelchair" v="limited"/>
  </node>
  <node id="-2628" version="0" timestamp="Fri Feb 24 10:53:34 +0100 2012" uid="1" user="" lat="48.82822" lon="10.43204">
    <tag k="name" v="Raiffeisen-Volksbank"/>
    <tag k="wheelchair" v="limited"/>
    <tag k="amenity" v="bank"/>
  </node>
  <node id="-2629" version="0" timestamp="Fri Feb 24 10:53:34 +0100 2012" uid="1" user="" lat="48.8278159" lon="10.4360777">
    <tag k="name" v="Gasthaus Ochsen"/>
    <tag k="wheelchair" v="limited"/>
    <tag k="amenity" v="restaurant"/>
  </node>
  <node id="-2630" version="0" timestamp="Fri Feb 24 10:53:34 +0100 2012" uid="1" user="" lat="48.8280764" lon="10.4313437">
    <tag k="name" v="Raiffeisen-Volksbank"/>
    <tag k="wheelchair" v="limited"/>
    <tag k="amenity" v="bank"/>
  </node>
  <node id="-2631" version="0" timestamp="Fri Feb 24 10:53:34 +0100 2012" uid="1" user="" lat="48.8284049" lon="10.4335984">
    <tag k="shop" v="butcher"/>
    <tag k="name" v="Metzgerei Winter"/>
    <tag k="wheelchair" v="limited"/>
  </node>
  <node id="-2632" version="0" timestamp="Fri Feb 24 10:53:34 +0100 2012" uid="1" user="" lat="48.82732" lon="10.43683">
    <tag k="shop" v="butcher"/>
    <tag k="name" v="Metzgerei Taglieber"/>
    <tag k="wheelchair" v="limited"/>
  </node>
  <node id="-2633" version="0" timestamp="Fri Feb 24 10:53:34 +0100 2012" uid="1" user="" lat="48.8282353" lon="10.4327457">
    <tag k="shop" v="hairdresser"/>
    <tag k="name" v="Delias"/>
    <tag k="wheelchair" v="limited"/>
  </node>
  <node id="-3121" version="0" timestamp="Fri Feb 24 10:53:35 +0100 2012" uid="1" user="" lat="48.71437" lon="9.30097">
    <tag k="name" v="Kubino"/>
    <tag k="wheelchair" v="yes"/>
    <tag k="addr:city" v="Ostfildern"/>
    <tag k="addr:postcode" v="73760"/>
    <tag k="addr:housenumber" v="6"/>
    <tag k="addr:street" v="In den Anlagen "/>
    <tag k="wheelchair:description" v="Stadthalle, Bücherei und Restaurant vollkommen Problemlos mit dem Rollstuhl"/>
    <tag k="website" v="http://www.kubino-ostfildern.de/"/>
  </node>
  <node id="-3175" version="0" timestamp="Fri Feb 24 10:53:35 +0100 2012" uid="1" user="" lat="48.6019135" lon="8.8687414">
    <tag k="name" v="Ramada Restaurant"/>
    <tag k="wheelchair" v="yes"/>
    <tag k="amenity" v="restaurant"/>
  </node>
  <node id="-3185" version="0" timestamp="Fri Feb 24 10:53:35 +0100 2012" uid="1" user="" lat="48.7287134" lon="9.1463264">
    <tag k="name" v="Dr. med. J. Stahl, Urologe"/>
    <tag k="wheelchair" v="yes"/>
    <tag k="addr:city" v="Stuttgart"/>
    <tag k="addr:postcode" v="70567"/>
    <tag k="addr:housenumber" v="44"/>
    <tag k="addr:street" v="Filderbahnstr."/>
    <tag k="amenity" v="doctors"/>
  </node>
  <node id="-3206" version="0" timestamp="Fri Feb 24 10:53:35 +0100 2012" uid="1" user="" lat="49.0685504" lon="9.7623246">
    <tag k="name" v="VR Bank Schwäbisch Hall"/>
    <tag k="wheelchair" v="yes"/>
    <tag k="amenity" v="bank"/>
  </node>
  <node id="-3207" version="0" timestamp="Fri Feb 24 10:53:35 +0100 2012" uid="1" user="" lat="49.0693452" lon="9.7650218">
    <tag k="shop" v="supermarket"/>
    <tag k="name" v="Schlecker"/>
    <tag k="wheelchair" v="yes"/>
  </node>
  <node id="-3208" version="0" timestamp="Fri Feb 24 10:53:35 +0100 2012" uid="1" user="" lat="49.1016858" lon="9.7374903">
    <tag k="name" v="Gewerbliche Schule Schwäbisch Hall"/>
    <tag k="wheelchair" v="limited"/>
    <tag k="amenity" v="school"/>
  </node>
  <node id="-3283" version="0" timestamp="Fri Feb 24 10:53:35 +0100 2012" uid="1" user="" lat="48.6861" lon="9.79098">
    <tag k="name" v="ARISTO Casino"/>
    <tag k="wheelchair" v="limited"/>
    <tag k="addr:city" v="Donzdorf"/>
    <tag k="addr:postcode" v="73072"/>
    <tag k="addr:housenumber" v="8"/>
    <tag k="tourism" v="attraction"/>
    <tag k="addr:street" v="Dieselstraße"/>
    <tag k="website" v="http://www.aristo-gaming.com"/>
  </node>
  <node id="-3284" version="0" timestamp="Fri Feb 24 10:53:35 +0100 2012" uid="1" user="" lat="48.60843" lon="9.26138">
    <tag k="name" v="Game Zone Casino"/>
    <tag k="wheelchair" v="limited"/>
    <tag k="addr:city" v="Neckartailfingen"/>
    <tag k="addr:postcode" v="72666"/>
    <tag k="addr:housenumber" v="25"/>
    <tag k="tourism" v="attraction"/>
    <tag k="addr:street" v="Alleenstraße"/>
    <tag k="website" v="http://www.gamezone-casinos.de"/>
  </node>
  <node id="-3310" version="0" timestamp="Fri Feb 24 10:53:35 +0100 2012" uid="1" user="" lat="48.7728844" lon="9.1730951">
    <tag k="name" v="Jazz Hall"/>
    <tag k="wheelchair" v="limited"/>
    <tag k="addr:city" v="Stuttgart"/>
    <tag k="addr:housenumber" v="3b"/>
    <tag k="addr:street" v="Marienstraße"/>
    <tag k="wheelchair:description" v="ebener Zugang über Krumme Straße"/>
    <tag k="amenity" v="restaurant"/>
    <tag k="website" v="http://www.jazz-hall.de/"/>
  </node>
  <node id="-3318" version="0" timestamp="Fri Feb 24 10:53:35 +0100 2012" uid="1" user="" lat="48.75339" lon="10.3356">
    <tag k="shop" v="shoes"/>
    <tag k="name" v="Anita´s Schuhlädele"/>
    <tag k="wheelchair" v="unknown"/>
    <tag k="addr:city" v="Neresheim"/>
    <tag k="addr:postcode" v="73450"/>
    <tag k="addr:housenumber" v="7"/>
    <tag k="addr:street" v="Hauptstraße"/>
    <tag k="wheelchair:description" v="nur eine kleine Stufe"/>
    <tag k="phone" v="+497326-964677"/>
  </node>
  <node id="-3319" version="0" timestamp="Fri Feb 24 10:53:35 +0100 2012" uid="1" user="" lat="48.7528949" lon="10.3357609">
    <tag k="shop" v="shoes"/>
    <tag k="name" v="Anita´s Schuhlädele"/>
    <tag k="wheelchair" v="limited"/>
    <tag k="addr:city" v="Neresheim"/>
    <tag k="addr:postcode" v="73450"/>
    <tag k="addr:housenumber" v="7"/>
    <tag k="addr:street" v="Hauptstraße"/>
    <tag k="wheelchair:description" v="nur eine kleine Stufe"/>
    <tag k="phone" v="+497326-964677"/>
  </node>
  <node id="-3320" version="0" timestamp="Fri Feb 24 10:53:35 +0100 2012" uid="1" user="" lat="48.7532083" lon="10.3359638">
    <tag k="shop" v="hairdresser"/>
    <tag k="name" v="Salon Dani"/>
    <tag k="wheelchair" v="yes"/>
    <tag k="addr:city" v="Neresheim"/>
    <tag k="addr:postcode" v="73450"/>
    <tag k="addr:housenumber" v="8"/>
    <tag k="addr:street" v="Haupstraße "/>
    <tag k="phone" v="+497326-9644446"/>
  </node>
  <node id="-3330" version="0" timestamp="Fri Feb 24 10:53:35 +0100 2012" uid="1" user="" lat="48.7768384" lon="9.2788725">
    <tag k="name" v="Löwen"/>
    <tag k="wheelchair" v="no"/>
    <tag k="addr:city" v="Stuttgart-Uhlbach"/>
    <tag k="addr:postcode" v="70329"/>
    <tag k="addr:housenumber" v="4"/>
    <tag k="addr:street" v="Trollingerstraße"/>
    <tag k="amenity" v="restaurant"/>
    <tag k="website" v="http://www.weinstube-loewen.de/index.html"/>
    <tag k="phone" v="+49 711 3260322"/>
  </node>
  <node id="-3331" version="0" timestamp="Fri Feb 24 10:53:35 +0100 2012" uid="1" user="" lat="48.7749399" lon="9.2805567">
    <tag k="name" v="Zum Hasenwirt"/>
    <tag k="wheelchair" v="no"/>
    <tag k="addr:city" v="Stuttgart-Uhlbach"/>
    <tag k="addr:postcode" v="70329"/>
    <tag k="addr:housenumber" v="5"/>
    <tag k="addr:street" v="Innsbrucker Straße"/>
    <tag k="amenity" v="restaurant"/>
    <tag k="website" v="http://www.zum-hasenwirt.de/"/>
    <tag k="phone" v="+49 711 322070"/>
  </node>
  <node id="-3656" version="0" timestamp="Fri Feb 24 10:53:35 +0100 2012" uid="1" user="" lat="48.7753762" lon="9.1704455">
    <tag k="name" v="Treffpunkt Rotebühlplatz"/>
    <tag k="wheelchair" v="yes"/>
    <tag k="addr:city" v="Stuttgart"/>
    <tag k="addr:postcode" v="70173"/>
    <tag k="addr:housenumber" v="28"/>
    <tag k="addr:street" v="Rotebühlplatz"/>
    <tag k="wheelchair:description" v="Behinderten WC mit EURO-Schlüssel"/>
    <tag k="website" v="http://www.treffpunkt-rotebuehlplatz.de"/>
    <tag k="phone" v="+49 711 1873-800"/>
  </node>
  <node id="-3657" version="0" timestamp="Fri Feb 24 10:53:35 +0100 2012" uid="1" user="" lat="48.79361" lon="9.19271">
    <tag k="name" v="Ufa Palast Stuttgart"/>
    <tag k="wheelchair" v="yes"/>
    <tag k="addr:city" v="Stuttgart"/>
    <tag k="addr:postcode" v="70191"/>
    <tag k="addr:housenumber" v=" 20"/>
    <tag k="addr:street" v="Rosensteinstraße"/>
    <tag k="wheelchair:description" v="In einigen Sälen kann eine Stange im Blickfeld sein."/>
    <tag k="amenity" v="cinema"/>
    <tag k="website" v="http://www.ufastuttgart.de"/>
    <tag k="phone" v="+49 711 25600 88"/>
  </node>
  <node id="-3658" version="0" timestamp="Fri Feb 24 10:53:35 +0100 2012" uid="1" user="" lat="48.7782906" lon="9.177688">
    <tag k="name" v="Kunstmuseum"/>
    <tag k="wheelchair" v="yes"/>
    <tag k="addr:city" v="Stuttgart"/>
    <tag k="addr:postcode" v="70173"/>
    <tag k="addr:housenumber" v="13"/>
    <tag k="tourism" v="museum"/>
    <tag k="addr:street" v="Kleiner Schlossplatz"/>
    <tag k="website" v="http://www.kunstmuseum-stuttgart.de/"/>
    <tag k="phone" v="+49 711 2162188 "/>
  </node>
  <node id="-3659" version="0" timestamp="Fri Feb 24 10:53:35 +0100 2012" uid="1" user="" lat="48.780742" lon="9.1909251">
    <tag k="name" v="Jugendherberge Stuttgart International"/>
    <tag k="wheelchair" v="yes"/>
    <tag k="addr:city" v="Stuttgart"/>
    <tag k="addr:postcode" v="70188"/>
    <tag k="addr:housenumber" v="27"/>
    <tag k="tourism" v="hostel"/>
    <tag k="addr:street" v="Haußmannstraße"/>
    <tag k="wheelchair:description" v="8 rollstuhlgerechte Zimmer inkl. Bad"/>
    <tag k="website" v="http://stuttgart.jugendherberge-bw.de/"/>
    <tag k="phone" v="+49 711 664747 0"/>
  </node>
  <node id="-3660" version="0" timestamp="Fri Feb 24 10:53:35 +0100 2012" uid="1" user="" lat="48.9215172" lon="9.1516563">
    <tag k="shop" v="mall"/>
    <tag k="name" v="Breuningerland"/>
    <tag k="wheelchair" v="yes"/>
  </node>
  <node id="-3661" version="0" timestamp="Fri Feb 24 10:53:35 +0100 2012" uid="1" user="" lat="48.922232" lon="9.1492031">
    <tag k="name" v="McDonald&apos;s"/>
    <tag k="wheelchair" v="yes"/>
    <tag k="amenity" v="fast_food"/>
  </node>
  <node id="-3662" version="0" timestamp="Fri Feb 24 10:53:35 +0100 2012" uid="1" user="" lat="48.9218783" lon="9.1446136">
    <tag k="shop" v="furniture"/>
    <tag k="name" v="Roller"/>
    <tag k="wheelchair" v="yes"/>
    <tag k="addr:city" v="Ludwigsburg"/>
    <tag k="addr:postcode" v="71634"/>
    <tag k="addr:housenumber" v="15"/>
    <tag k="addr:street" v="Maybachstr"/>
  </node>
  <node id="-3698" version="0" timestamp="Fri Feb 24 10:53:35 +0100 2012" uid="1" user="" lat="48.7788641" lon="9.1783527">
    <tag k="name" v="Schwäbische Bank AG"/>
    <tag k="wheelchair" v="yes"/>
    <tag k="addr:city" v="Stuttgart"/>
    <tag k="addr:postcode" v="70173"/>
    <tag k="addr:housenumber" v="28"/>
    <tag k="addr:street" v="Königstr."/>
    <tag k="wheelchair:description" v="Fahrstuhl in den 2. und 3. Stock, rollstuhlgerechtes WC"/>
    <tag k="amenity" v="bank"/>
    <tag k="website" v="http://www.schwaebische-bank.de"/>
    <tag k="phone" v="+49 711 22922-0"/>
  </node>
  <node id="-3734" version="0" timestamp="Fri Feb 24 10:53:35 +0100 2012" uid="1" user="" lat="48.7857989" lon="9.1786914">
    <tag k="name" v="Behindertenparkplatz"/>
    <tag k="wheelchair" v="unknown"/>
    <tag k="amenity" v="parking"/>
  </node>
  <node id="-3735" version="0" timestamp="Fri Feb 24 10:53:35 +0100 2012" uid="1" user="" lat="48.7845602" lon="9.1744459">
    <tag k="name" v="Behindertenparkplatz"/>
    <tag k="wheelchair" v="unknown"/>
    <tag k="amenity" v="parking"/>
  </node>
  <node id="-3736" version="0" timestamp="Fri Feb 24 10:53:35 +0100 2012" uid="1" user="" lat="48.7830571" lon="9.1701985">
    <tag k="name" v="Behindertenparkplatz"/>
    <tag k="wheelchair" v="unknown"/>
    <tag k="amenity" v="parking"/>
  </node>
  <node id="-3737" version="0" timestamp="Fri Feb 24 10:53:35 +0100 2012" uid="1" user="" lat="48.7840584" lon="9.1741816">
    <tag k="name" v="Behindertenparkplatz"/>
    <tag k="wheelchair" v="unknown"/>
    <tag k="amenity" v="parking"/>
  </node>
  <node id="-3738" version="0" timestamp="Fri Feb 24 10:53:35 +0100 2012" uid="1" user="" lat="48.7828064" lon="9.1798163">
    <tag k="name" v="Behindertenparkplatz"/>
    <tag k="wheelchair" v="unknown"/>
    <tag k="amenity" v="parking"/>
  </node>
  <node id="-3739" version="0" timestamp="Fri Feb 24 10:53:35 +0100 2012" uid="1" user="" lat="48.7825755" lon="9.1783938">
    <tag k="name" v="Behindertenparkplatz"/>
    <tag k="wheelchair" v="unknown"/>
    <tag k="amenity" v="parking"/>
  </node>
  <node id="-3740" version="0" timestamp="Fri Feb 24 10:53:35 +0100 2012" uid="1" user="" lat="48.781844" lon="9.1769741">
    <tag k="name" v="Behindertenparkplatz"/>
    <tag k="wheelchair" v="unknown"/>
    <tag k="amenity" v="parking"/>
  </node>
  <node id="-3748" version="0" timestamp="Fri Feb 24 10:53:35 +0100 2012" uid="1" user="" lat="48.57679" lon="8.92256">
    <tag k="name" v="Kelter Kayh"/>
    <tag k="wheelchair" v="yes"/>
    <tag k="leisure" v="beach_resort"/>
  </node>
  <node id="-3750" version="0" timestamp="Fri Feb 24 10:53:35 +0100 2012" uid="1" user="" lat="48.5594528" lon="8.8574278">
    <tag k="name" v="Restaurant Aramis"/>
    <tag k="wheelchair" v="yes"/>
    <tag k="amenity" v="restaurant"/>
  </node>
  <node id="-3752" version="0" timestamp="Fri Feb 24 10:53:35 +0100 2012" uid="1" user="" lat="48.6831706" lon="9.01078">
    <tag k="name" v="Kongresshalle Europa Saal"/>
    <tag k="wheelchair" v="yes"/>
    <tag k="amenity" v="townhall"/>
    <tag k="website" v="http://www.cc-bs.com/"/>
  </node>
  <node id="-3753" version="0" timestamp="Fri Feb 24 10:53:35 +0100 2012" uid="1" user="" lat="48.52152" lon="8.83721">
    <tag k="name" v="Zehntscheuer Bondorf"/>
    <tag k="wheelchair" v="yes"/>
    <tag k="amenity" v="townhall"/>
  </node>
  <node id="-3754" version="0" timestamp="Fri Feb 24 10:53:35 +0100 2012" uid="1" user="" lat="48.52225" lon="8.8371973">
    <tag k="name" v="Zehntscheuer Bondorf"/>
    <tag k="wheelchair" v="yes"/>
    <tag k="amenity" v="toilets"/>
  </node>
  <node id="-3874" version="0" timestamp="Fri Feb 24 10:53:35 +0100 2012" uid="1" user="" lat="48.8308076" lon="9.3130927">
    <tag k="name" v="Sanitätshaus Armin Gunser GmbH"/>
    <tag k="wheelchair" v="yes"/>
    <tag k="addr:city" v="Waiblingen"/>
    <tag k="addr:postcode" v="71332"/>
    <tag k="addr:housenumber" v="8"/>
    <tag k="addr:street" v="Fronackerstraße "/>
    <tag k="amenity" v="pharmacy"/>
  </node>
  <node id="-3875" version="0" timestamp="Fri Feb 24 10:53:35 +0100 2012" uid="1" user="" lat="48.8307976" lon="9.3127956">
    <tag k="shop" v="supermarket"/>
    <tag k="name" v="Reformhaus"/>
    <tag k="wheelchair" v="limited"/>
    <tag k="addr:city" v="Waiblingen"/>
    <tag k="addr:postcode" v="71332"/>
    <tag k="addr:street" v="Fronackerstraße"/>
  </node>
  <node id="-3876" version="0" timestamp="Fri Feb 24 10:53:35 +0100 2012" uid="1" user="" lat="48.83076" lon="9.31219">
    <tag k="name" v="ADAC"/>
    <tag k="wheelchair" v="yes"/>
    <tag k="addr:city" v="Waiblingen"/>
    <tag k="addr:postcode" v="71332"/>
    <tag k="addr:street" v="Fronackerstraße"/>
  </node>
  <node id="-3919" version="0" timestamp="Fri Feb 24 10:53:35 +0100 2012" uid="1" user="" lat="49.03399" lon="9.14453">
    <tag k="shop" v="department_store"/>
    <tag k="name" v="Real"/>
    <tag k="wheelchair" v="yes"/>
    <tag k="addr:city" v="Kirchheim/Neckar"/>
    <tag k="addr:postcode" v="74366"/>
    <tag k="addr:housenumber" v="6"/>
    <tag k="addr:street" v="Max-Eyth-Straße"/>
    <tag k="phone" v="+49 7143 90 21"/>
  </node>
  <node id="-3920" version="0" timestamp="Fri Feb 24 10:53:35 +0100 2012" uid="1" user="" lat="49.03333" lon="9.14473">
    <tag k="name" v="Rehazentrum Hess/Gesundheitshaus"/>
    <tag k="wheelchair" v="yes"/>
    <tag k="addr:city" v="Bietigheim-Bissingen"/>
    <tag k="addr:postcode" v="74321"/>
    <tag k="addr:housenumber" v="7"/>
    <tag k="addr:street" v="Steinheimer Staße"/>
    <tag k="wheelchair:description" v="Behindertenparkplatz in der Tiefgarage"/>
    <tag k="amenity" v="doctors"/>
  </node>
  <node id="-3934" version="0" timestamp="Fri Feb 24 10:53:35 +0100 2012" uid="1" user="" lat="48.9878877" lon="9.1571546">
    <tag k="name" v="Friedhof Besigheim"/>
    <tag k="wheelchair" v="limited"/>
    <tag k="amenity" v="parking"/>
  </node>
  <node id="-3935" version="0" timestamp="Fri Feb 24 10:53:35 +0100 2012" uid="1" user="" lat="48.9980245" lon="9.1364818">
    <tag k="name" v="Parkplatz Bahnhof"/>
    <tag k="wheelchair" v="yes"/>
    <tag k="amenity" v="parking"/>
  </node>
  <node id="-3937" version="0" timestamp="Fri Feb 24 10:53:35 +0100 2012" uid="1" user="" lat="48.9916529" lon="9.1515945">
    <tag k="name" v="Wartturm"/>
    <tag k="wheelchair" v="no"/>
    <tag k="wheelchair:description" v="Gras- und Schotterweg zum Turm"/>
    <tag k="historic" v="memorial"/>
  </node>
  <node id="-3938" version="0" timestamp="Fri Feb 24 10:53:35 +0100 2012" uid="1" user="" lat="48.9802135" lon="9.1634466">
    <tag k="name" v="Restaurant Husarenhof"/>
    <tag k="wheelchair" v="no"/>
    <tag k="addr:city" v="Besigheim-Husarenhof"/>
    <tag k="addr:postcode" v="74354"/>
    <tag k="addr:street" v="Husarenhof"/>
    <tag k="amenity" v="restaurant"/>
  </node>
  <node id="-3939" version="0" timestamp="Fri Feb 24 10:53:35 +0100 2012" uid="1" user="" lat="49.0651039" lon="9.1983382">
    <tag k="shop" v="garden_centre"/>
    <tag k="name" v="Planzen Mauk"/>
    <tag k="wheelchair" v="yes"/>
  </node>
  <node id="-3941" version="0" timestamp="Fri Feb 24 10:53:35 +0100 2012" uid="1" user="" lat="48.9977079" lon="9.1444917">
    <tag k="name" v="Friedrich-Schelling-Schule"/>
    <tag k="wheelchair" v="no"/>
    <tag k="amenity" v="school"/>
  </node>
  <node id="-3942" version="0" timestamp="Fri Feb 24 10:53:35 +0100 2012" uid="1" user="" lat="48.9480537" lon="9.432442">
    <tag k="name" v="Billiard Sportzentrum"/>
    <tag k="wheelchair" v="limited"/>
    <tag k="wheelchair:description" v="1. Stock. Rampe und Aufzug ist vorhanden"/>
    <tag k="amenity" v="bar"/>
  </node>
  <node id="-3943" version="0" timestamp="Fri Feb 24 10:53:35 +0100 2012" uid="1" user="" lat="49.003079" lon="9.1017365">
    <tag k="name" v="Gemeindehalle"/>
    <tag k="wheelchair" v="yes"/>
    <tag k="amenity" v="townhall"/>
  </node>
  <node id="-3944" version="0" timestamp="Fri Feb 24 10:53:35 +0100 2012" uid="1" user="" lat="49.0258946" lon="8.8806048">
    <tag k="name" v="Wanderheim Schwäbischer Albverein"/>
    <tag k="wheelchair" v="no"/>
    <tag k="tourism" v="attraction"/>
  </node>
  <node id="-3945" version="0" timestamp="Fri Feb 24 10:53:35 +0100 2012" uid="1" user="" lat="49.0261151" lon="8.879849">
    <tag k="name" v="Jugendhäuser"/>
    <tag k="wheelchair" v="no"/>
    <tag k="tourism" v="attraction"/>
  </node>
  <node id="-3951" version="0" timestamp="Fri Feb 24 10:53:35 +0100 2012" uid="1" user="" lat="49.051279" lon="8.9376347">
    <tag k="name" v="Kiosk Katzenbach"/>
    <tag k="wheelchair" v="limited"/>
    <tag k="amenity" v="fast_food"/>
  </node>
  <node id="-3953" version="0" timestamp="Fri Feb 24 10:53:35 +0100 2012" uid="1" user="" lat="48.9983348" lon="9.1485868">
    <tag k="name" v="Sportstätten Restaurant"/>
    <tag k="wheelchair" v="yes"/>
    <tag k="addr:city" v="Besigheim"/>
    <tag k="addr:postcode" v="74354"/>
    <tag k="addr:street" v="Jahnstraße"/>
    <tag k="amenity" v="restaurant"/>
  </node>
  <node id="-3955" version="0" timestamp="Fri Feb 24 10:53:35 +0100 2012" uid="1" user="" lat="48.997026" lon="9.1465527">
    <tag k="name" v="Alter Friedhof"/>
    <tag k="wheelchair" v="limited"/>
    <tag k="wheelchair:description" v="Zur Parkanlage gemacht"/>
    <tag k="amenity" v="place_of_worship"/>
  </node>
  <node id="-3956" version="0" timestamp="Fri Feb 24 10:53:35 +0100 2012" uid="1" user="" lat="49.0006075" lon="9.1474749">
    <tag k="shop" v="supermarket"/>
    <tag k="name" v="Aldi Süd"/>
    <tag k="wheelchair" v="limited"/>
  </node>
  <node id="-3957" version="0" timestamp="Fri Feb 24 10:53:35 +0100 2012" uid="1" user="" lat="48.9946626" lon="9.1429815">
    <tag k="name" v="Esso"/>
    <tag k="wheelchair" v="limited"/>
    <tag k="amenity" v="fuel"/>
  </node>
  <node id="-3958" version="0" timestamp="Fri Feb 24 10:53:35 +0100 2012" uid="1" user="" lat="48.9936053" lon="9.1673791">
    <tag k="name" v="Hörnle"/>
    <tag k="wheelchair" v="no"/>
    <tag k="tourism" v="viewpoint"/>
  </node>
  <node id="-3959" version="0" timestamp="Fri Feb 24 10:53:35 +0100 2012" uid="1" user="" lat="49.0025455" lon="9.1766449">
    <tag k="name" v="Fußweg Felsengärten"/>
    <tag k="wheelchair" v="no"/>
    <tag k="tourism" v="attraction"/>
  </node>
  <node id="-3960" version="0" timestamp="Fri Feb 24 10:53:35 +0100 2012" uid="1" user="" lat="49.0000793" lon="9.1412489">
    <tag k="name" v="1x Behindertenparkplatz"/>
    <tag k="wheelchair" v="yes"/>
    <tag k="addr:street" v="Kirchstraße, Ecke Aiperturmstraße"/>
    <tag k="amenity" v="parking"/>
  </node>
  <node id="-3982" version="0" timestamp="Fri Feb 24 10:53:35 +0100 2012" uid="1" user="" lat="48.8956694" lon="9.1981396">
    <tag k="name" v="Behinderten-Parkplatz"/>
    <tag k="wheelchair" v="yes"/>
    <tag k="amenity" v="parking"/>
  </node>
  <node id="-3983" version="0" timestamp="Fri Feb 24 10:53:35 +0100 2012" uid="1" user="" lat="48.8955697" lon="9.188724">
    <tag k="name" v="Arsenalplatz"/>
    <tag k="wheelchair" v="yes"/>
    <tag k="amenity" v="parking"/>
  </node>
  <node id="-3985" version="0" timestamp="Fri Feb 24 10:53:35 +0100 2012" uid="1" user="" lat="48.9931604" lon="9.1454313">
    <tag k="name" v="Infotafel"/>
    <tag k="wheelchair" v="yes"/>
  </node>
  <node id="-3986" version="0" timestamp="Fri Feb 24 10:53:35 +0100 2012" uid="1" user="" lat="48.9981545" lon="9.143551">
    <tag k="name" v="Steinhaus"/>
    <tag k="wheelchair" v="no"/>
    <tag k="historic" v="memorial"/>
  </node>
  <node id="-3987" version="0" timestamp="Fri Feb 24 10:53:35 +0100 2012" uid="1" user="" lat="48.9982274" lon="9.1438826">
    <tag k="name" v="Schenturm"/>
    <tag k="wheelchair" v="no"/>
    <tag k="historic" v="memorial"/>
  </node>
  <node id="-3988" version="0" timestamp="Fri Feb 24 10:53:35 +0100 2012" uid="1" user="" lat="49.0011889" lon="9.1399045">
    <tag k="name" v="Waldhornturm"/>
    <tag k="wheelchair" v="no"/>
    <tag k="historic" v="memorial"/>
  </node>
  <node id="-3989" version="0" timestamp="Fri Feb 24 10:53:35 +0100 2012" uid="1" user="" lat="48.9803241" lon="9.161604">
    <tag k="name" v="Backhaus Husarenhof"/>
    <tag k="wheelchair" v="no"/>
    <tag k="amenity" v="bank"/>
  </node>
  <node id="-3990" version="0" timestamp="Fri Feb 24 10:53:35 +0100 2012" uid="1" user="" lat="48.9188346" lon="9.1540401">
    <tag k="shop" v="department_store"/>
    <tag k="name" v="Ikea"/>
    <tag k="wheelchair" v="yes"/>
  </node>
  <node id="-4002" version="0" timestamp="Fri Feb 24 10:53:36 +0100 2012" uid="1" user="" lat="49.7273127" lon="9.5344129">
    <tag k="name" v="Weinstube Bick"/>
    <tag k="wheelchair" v="no"/>
    <tag k="addr:housenumber" v="43"/>
    <tag k="addr:street" v="Richolfstraße"/>
    <tag k="amenity" v="restaurant"/>
  </node>
  <node id="-4010" version="0" timestamp="Fri Feb 24 10:53:36 +0100 2012" uid="1" user="" lat="48.9336341" lon="9.1594743">
    <tag k="name" v="Pferde- und Kleintierpraxis Wilhelmshof"/>
    <tag k="wheelchair" v="limited"/>
    <tag k="amenity" v="doctors"/>
    <tag k="website" v="http://www.tierarztpraxis-wilhelmshof.de/einstieg1.htm"/>
  </node>
  <node id="-4011" version="0" timestamp="Fri Feb 24 10:53:36 +0100 2012" uid="1" user="" lat="49.0354414" lon="9.1616472">
    <tag k="name" v="Parkplatz"/>
    <tag k="wheelchair" v="limited"/>
    <tag k="wheelchair:description" v="Fahren mit Rollstuhl möglich. Eingeschränkte Blick ins Neckartal"/>
    <tag k="amenity" v="bank"/>
  </node>
  <node id="-4012" version="0" timestamp="Fri Feb 24 10:53:36 +0100 2012" uid="1" user="" lat="48.9555616" lon="9.1484893">
    <tag k="name" v="Rehazentrum Hess"/>
    <tag k="wheelchair" v="yes"/>
    <tag k="addr:city" v="Bietigheim-Bissingen"/>
    <tag k="addr:postcode" v="74321 "/>
    <tag k="addr:housenumber" v="7"/>
    <tag k="addr:street" v="Steinheimer Straße "/>
    <tag k="wheelchair:description" v="Behindertenparkplätze in der Tiefgarage. Eingang für Rollstühle über Parkplatz"/>
    <tag k="amenity" v="doctors"/>
    <tag k="website" v="http://www.reha-hess.de/"/>
    <tag k="phone" v="+497142 / 9103 - 0"/>
  </node>
  <node id="-4013" version="0" timestamp="Fri Feb 24 10:53:36 +0100 2012" uid="1" user="" lat="48.9957329" lon="9.1811183">
    <tag k="shop" v="beverages"/>
    <tag k="name" v="Felsengartenkellerei Hessigheim"/>
    <tag k="wheelchair" v="limited"/>
    <tag k="addr:city" v="Hessigheim"/>
    <tag k="addr:postcode" v="74394"/>
    <tag k="addr:housenumber" v="1"/>
    <tag k="addr:street" v="Am Felsengarten"/>
    <tag k="wheelchair:description" v="Weinverkauf über Rampe erreichbar"/>
    <tag k="website" v="http://www.felsengartenkellerei.de/ "/>
    <tag k="phone" v="07143-8160-0"/>
  </node>
  <node id="-4033" version="0" timestamp="Fri Feb 24 10:53:36 +0100 2012" uid="1" user="" lat="48.85" lon="10.3">
    <tag k="name" v="Haus der Musik und Begegnung"/>
    <tag k="wheelchair" v="yes"/>
    <tag k="addr:city" v="D - Rot am See - Brettheim"/>
    <tag k="addr:postcode" v="74585"/>
    <tag k="addr:housenumber" v="14"/>
    <tag k="addr:street" v="Marktstraße"/>
    <tag k="amenity" v="place_of_worship"/>
    <tag k="website" v="http://www.HdMuB.de"/>
    <tag k="phone" v="+497958925035"/>
  </node>
  <node id="-4034" version="0" timestamp="Fri Feb 24 10:53:36 +0100 2012" uid="1" user="" lat="48.85" lon="10.3">
    <tag k="name" v="Raiffeisenbank Brettheim"/>
    <tag k="wheelchair" v="yes"/>
    <tag k="addr:city" v="D - Rot am See - Brettheim"/>
    <tag k="addr:postcode" v="74585"/>
    <tag k="addr:housenumber" v="26"/>
    <tag k="addr:street" v="Landwehrstraße"/>
    <tag k="wheelchair:description" v="kein WC"/>
    <tag k="amenity" v="bank"/>
    <tag k="website" v="http://www.unsere-raiba.de"/>
    <tag k="phone" v="+4979359112311"/>
  </node>
  <node id="-4035" version="0" timestamp="Fri Feb 24 10:53:36 +0100 2012" uid="1" user="" lat="48.85" lon="10.3">
    <tag k="name" v="Pizzeria San Marco"/>
    <tag k="wheelchair" v="limited"/>
    <tag k="addr:city" v="D - Rot am See"/>
    <tag k="addr:postcode" v="74585"/>
    <tag k="addr:housenumber" v="10/1"/>
    <tag k="addr:street" v="Hauptstraße"/>
    <tag k="wheelchair:description" v="10cm Stufe, kein WC im EG"/>
    <tag k="amenity" v="restaurant"/>
    <tag k="website" v="http://pizzarotamsee.de"/>
    <tag k="phone" v="+497955925980"/>
  </node>
  <node id="-4036" version="0" timestamp="Fri Feb 24 10:53:36 +0100 2012" uid="1" user="" lat="48.6691831" lon="9.005291">
    <tag k="name" v="Gemeinschaftspraxis Freiburger Allee"/>
    <tag k="wheelchair" v="no"/>
    <tag k="addr:city" v="Böblingen"/>
    <tag k="addr:postcode" v="71034"/>
    <tag k="addr:housenumber" v="67"/>
    <tag k="addr:street" v="Freiburger Allee"/>
    <tag k="amenity" v="hospital"/>
  </node>
  <node id="-4110" version="0" timestamp="Fri Feb 24 10:53:36 +0100 2012" uid="1" user="" lat="48.7631928" lon="9.1726981">
    <tag k="shop" v="bakery"/>
    <tag k="name" v="Bäcker Frank"/>
    <tag k="wheelchair" v="no"/>
    <tag k="addr:city" v="Stuttgart"/>
    <tag k="addr:postcode" v="70180"/>
    <tag k="wheelchair:description" v="Stufen im Eingangsbereich, Eingang sehr schmal"/>
  </node>
  <node id="-4126" version="0" timestamp="Fri Feb 24 10:53:36 +0100 2012" uid="1" user="" lat="49.2019837" lon="9.5034324">
    <tag k="shop" v="supermarket"/>
    <tag k="name" v="BioMARKT"/>
    <tag k="wheelchair" v="yes"/>
    <tag k="addr:city" v="Öhringen"/>
    <tag k="addr:postcode" v="74613"/>
    <tag k="addr:housenumber" v="26"/>
    <tag k="addr:street" v="Bismarckstraße "/>
    <tag k="website" v="http://www.biomarkt-geist.de"/>
    <tag k="phone" v="07941/39494"/>
  </node>
  <node id="-4127" version="0" timestamp="Fri Feb 24 10:53:36 +0100 2012" uid="1" user="" lat="49.1961976" lon="9.5111293">
    <tag k="name" v="Realschule"/>
    <tag k="wheelchair" v="no"/>
    <tag k="amenity" v="bank"/>
  </node>
  <node id="-4128" version="0" timestamp="Fri Feb 24 10:53:36 +0100 2012" uid="1" user="" lat="49.2004978" lon="9.5080375">
    <tag k="name" v="Gymnasium"/>
    <tag k="wheelchair" v="no"/>
    <tag k="amenity" v="bank"/>
  </node>
  <node id="-4129" version="0" timestamp="Fri Feb 24 10:53:36 +0100 2012" uid="1" user="" lat="49.2002863" lon="9.5089452">
    <tag k="name" v="Hauptschule"/>
    <tag k="wheelchair" v="no"/>
    <tag k="amenity" v="bank"/>
  </node>
  <node id="-4173" version="0" timestamp="Fri Feb 24 10:53:36 +0100 2012" uid="1" user="" lat="49.1770724" lon="9.5598285">
    <tag k="name" v="Grundschule Michelbach"/>
    <tag k="wheelchair" v="no"/>
    <tag k="amenity" v="school"/>
  </node>
  <node id="-4174" version="0" timestamp="Fri Feb 24 10:53:36 +0100 2012" uid="1" user="" lat="49.2154767" lon="9.5432463">
    <tag k="name" v="Dorfgemeinschaftshaus Weinsbach"/>
    <tag k="wheelchair" v="no"/>
  </node>
  <node id="-4308" version="0" timestamp="Fri Feb 24 10:53:36 +0100 2012" uid="1" user="" lat="48.82551" lon="9.06696">
    <tag k="shop" v="dry_cleaning"/>
    <tag k="name" v="Reinigung Kaulmann"/>
    <tag k="wheelchair" v="no"/>
    <tag k="addr:city" v="Ditzingen"/>
    <tag k="addr:postcode" v="71254"/>
    <tag k="addr:housenumber" v="12"/>
    <tag k="addr:street" v="Gerlinger Str."/>
    <tag k="phone" v="+49 7156 958180"/>
  </node>
  <node id="-4310" version="0" timestamp="Fri Feb 24 10:53:36 +0100 2012" uid="1" user="" lat="48.8255" lon="9.06773">
    <tag k="name" v="Kreissparkasse Ludwigsburg"/>
    <tag k="wheelchair" v="yes"/>
    <tag k="addr:city" v="Ditzingen"/>
    <tag k="addr:postcode" v="71254"/>
    <tag k="addr:housenumber" v="10"/>
    <tag k="addr:street" v="Gerlinger Str."/>
    <tag k="amenity" v="bank"/>
    <tag k="website" v="https://www.ksklb.de"/>
    <tag k="phone" v="+49 7156 3000 0"/>
  </node>
  <node id="-4311" version="0" timestamp="Fri Feb 24 10:53:36 +0100 2012" uid="1" user="" lat="48.8251277" lon="9.0679393">
    <tag k="name" v="Postfiliale im Einzelhandel"/>
    <tag k="wheelchair" v="unknown"/>
    <tag k="addr:city" v="Ditzingen"/>
    <tag k="addr:postcode" v="71254"/>
    <tag k="addr:housenumber" v="16"/>
    <tag k="addr:street" v="Gerlinger Str."/>
    <tag k="amenity" v="post_office"/>
  </node>
  <node id="-4312" version="0" timestamp="Fri Feb 24 10:53:36 +0100 2012" uid="1" user="" lat="48.8254761" lon="9.0676235">
    <tag k="name" v="Geldautomat KSK LB"/>
    <tag k="wheelchair" v="yes"/>
    <tag k="addr:city" v="Ditzingen"/>
    <tag k="addr:postcode" v="71254"/>
    <tag k="addr:housenumber" v="10"/>
    <tag k="addr:street" v="Gerlinger Str."/>
    <tag k="amenity" v="atm"/>
  </node>
  <node id="-4313" version="0" timestamp="Fri Feb 24 10:53:36 +0100 2012" uid="1" user="" lat="48.8250735" lon="9.0688978">
    <tag k="name" v="Dr. med. Andreas David / Allgemeinmedizin"/>
    <tag k="wheelchair" v="no"/>
    <tag k="addr:city" v="Ditzingen"/>
    <tag k="addr:postcode" v="71254"/>
    <tag k="addr:housenumber" v="6"/>
    <tag k="addr:street" v="Bildstr."/>
    <tag k="amenity" v="doctors"/>
    <tag k="phone" v="+49 7156 959535"/>
  </node>
  <node id="-4314" version="0" timestamp="Fri Feb 24 10:53:36 +0100 2012" uid="1" user="" lat="48.7936883" lon="9.0053885">
    <tag k="name" v="Dr. med. Dieter Hoffmann / Orthopädie / Skoliose, Kyphose"/>
    <tag k="wheelchair" v="yes"/>
    <tag k="addr:city" v="Leonberg"/>
    <tag k="addr:postcode" v="71229"/>
    <tag k="addr:housenumber" v="36"/>
    <tag k="addr:street" v="Poststr."/>
    <tag k="wheelchair:description" v="Aufzug"/>
    <tag k="amenity" v="doctors"/>
    <tag k="website" v="http://www.dr-hoffmann-leonberg.de"/>
    <tag k="phone" v="+49 7152 41616"/>
  </node>
  <node id="-4315" version="0" timestamp="Fri Feb 24 10:53:36 +0100 2012" uid="1" user="" lat="48.7936071" lon="9.0055346">
    <tag k="shop" v="medical_supply"/>
    <tag k="name" v="Rahmouni GmbH"/>
    <tag k="wheelchair" v="yes"/>
    <tag k="addr:city" v="Leonberg"/>
    <tag k="addr:postcode" v="71229"/>
    <tag k="addr:housenumber" v="36"/>
    <tag k="addr:street" v="Poststr."/>
    <tag k="wheelchair:description" v="Erdgeschoss Eingang ebenerdig"/>
    <tag k="website" v="http://www.rahmouni.de"/>
    <tag k="phone" v="+49 7152 3312160"/>
  </node>
  <node id="-4316" version="0" timestamp="Fri Feb 24 10:53:36 +0100 2012" uid="1" user="" lat="48.8263606" lon="9.0664322">
    <tag k="name" v="Stadtbibliothek"/>
    <tag k="wheelchair" v="unknown"/>
    <tag k="addr:city" v="Ditzingen"/>
    <tag k="addr:postcode" v="71254"/>
    <tag k="addr:housenumber" v="3"/>
    <tag k="addr:street" v="Am Laien"/>
    <tag k="amenity" v="library"/>
    <tag k="website" v="http://www.bibliothek-ditzingen.de"/>
    <tag k="phone" v="+49 7156 164 324"/>
  </node>
  <node id="-4343" version="0" timestamp="Fri Feb 24 10:53:36 +0100 2012" uid="1" user="" lat="48.7105876" lon="9.4162391">
    <tag k="shop" v="medical_supply"/>
    <tag k="name" v="Sanitätshaus Armin Gunser GmbH"/>
    <tag k="wheelchair" v="yes"/>
    <tag k="addr:city" v="Plochingen"/>
    <tag k="addr:postcode" v="73207"/>
    <tag k="addr:housenumber" v="10"/>
    <tag k="addr:street" v="Marktstraße "/>
    <tag k="website" v="http://www.gunser.de"/>
  </node>
  <node id="-4344" version="0" timestamp="Fri Feb 24 10:53:36 +0100 2012" uid="1" user="" lat="48.8126347" lon="9.3647605">
    <tag k="shop" v="medical_supply"/>
    <tag k="name" v="Sanitätshaus Armin Gunser GmbH"/>
    <tag k="wheelchair" v="yes"/>
    <tag k="addr:city" v="Weinstadt"/>
    <tag k="addr:postcode" v="71384"/>
    <tag k="addr:housenumber" v="2"/>
    <tag k="addr:street" v="Waiblinger Straße"/>
    <tag k="website" v="http://www.gunser.de"/>
  </node>
  <node id="-4345" version="0" timestamp="Fri Feb 24 10:53:36 +0100 2012" uid="1" user="" lat="48.8034651" lon="9.5354396">
    <tag k="shop" v="medical_supply"/>
    <tag k="name" v="Sanitätshaus Gunser GmbH"/>
    <tag k="wheelchair" v="yes"/>
    <tag k="addr:city" v="Schorndorf"/>
    <tag k="addr:postcode" v="73614"/>
    <tag k="addr:housenumber" v="19"/>
    <tag k="addr:street" v="Göppinger Straße"/>
    <tag k="website" v="http://www.gunser.de"/>
  </node>
  <node id="-4365" version="0" timestamp="Fri Feb 24 10:53:36 +0100 2012" uid="1" user="" lat="48.6833" lon="9.0167">
    <tag k="name" v="Zahnarztpraxis Dr. Rolf und Christine Merkle"/>
    <tag k="wheelchair" v="yes"/>
    <tag k="addr:city" v="Ditzingen"/>
    <tag k="addr:postcode" v="71254"/>
    <tag k="addr:housenumber" v="23"/>
    <tag k="addr:street" v="Marktstraße"/>
    <tag k="amenity" v="doctors"/>
    <tag k="website" v="http://praxismerkle.de"/>
    <tag k="phone" v="+49715639988"/>
  </node>
  <node id="-4366" version="0" timestamp="Fri Feb 24 10:53:36 +0100 2012" uid="1" user="" lat="48.82652" lon="9.0647">
    <tag k="name" v="Zahnarztpraxis Dr. Rolf und Christine Merkle"/>
    <tag k="wheelchair" v="yes"/>
    <tag k="addr:city" v="Ditzingen"/>
    <tag k="addr:postcode" v="71254"/>
    <tag k="addr:housenumber" v="23"/>
    <tag k="addr:street" v="Marktstraße"/>
    <tag k="amenity" v="doctors"/>
    <tag k="website" v="http://www.praxismerkle.de"/>
    <tag k="phone" v="+49715639988"/>
  </node>
  <node id="-4367" version="0" timestamp="Fri Feb 24 10:53:36 +0100 2012" uid="1" user="" lat="48.6837073" lon="9.0170272">
    <tag k="name" v="Zahnarztpraxis Dr. Rolf und Christine Merkle"/>
    <tag k="wheelchair" v="yes"/>
    <tag k="addr:city" v="Ditzingen"/>
    <tag k="addr:postcode" v="71254"/>
    <tag k="addr:housenumber" v="23"/>
    <tag k="addr:street" v="Marktstraße"/>
    <tag k="amenity" v="doctors"/>
    <tag k="website" v="http://www.praxismerkle.de"/>
    <tag k="phone" v="+49715639988"/>
  </node>
  <node id="-4368" version="0" timestamp="Fri Feb 24 10:53:36 +0100 2012" uid="1" user="" lat="48.6837073" lon="9.0170272">
    <tag k="name" v="Zahnarztpraxis Dr. Rolf und Christine Merkle"/>
    <tag k="wheelchair" v="yes"/>
    <tag k="addr:city" v="Ditzingen"/>
    <tag k="addr:postcode" v="71254"/>
    <tag k="addr:housenumber" v="23"/>
    <tag k="addr:street" v="Marktstraße"/>
    <tag k="amenity" v="doctors"/>
    <tag k="website" v="http://www.praxismerkle.de"/>
    <tag k="phone" v="+49715639988"/>
  </node>
  <node id="-4369" version="0" timestamp="Fri Feb 24 10:53:36 +0100 2012" uid="1" user="" lat="48.8266229" lon="9.0646901">
    <tag k="name" v="Zahnarztpraxis Dr. Rolf und Christine Merkle"/>
    <tag k="wheelchair" v="yes"/>
    <tag k="addr:city" v="Ditzingen"/>
    <tag k="addr:postcode" v="71254"/>
    <tag k="addr:housenumber" v="23"/>
    <tag k="addr:street" v="Marktstraße"/>
    <tag k="amenity" v="doctors"/>
    <tag k="website" v="http://www.praxismerkle.de"/>
    <tag k="phone" v="+49715639988"/>
  </node>
  <node id="-4435" version="0" timestamp="Fri Feb 24 10:53:36 +0100 2012" uid="1" user="" lat="49.38125" lon="9.68194">
    <tag k="name" v="Hochsitz"/>
    <tag k="wheelchair" v="no"/>
    <tag k="tourism" v="viewpoint"/>
  </node>
  <node id="-4559" version="0" timestamp="Fri Feb 24 10:53:36 +0100 2012" uid="1" user="" lat="48.9552736" lon="9.4372115">
    <tag k="name" v="Sporthalle Katharinenplaisir"/>
    <tag k="wheelchair" v="unknown"/>
    <tag k="addr:city" v="Backnang"/>
    <tag k="addr:postcode" v="71522"/>
    <tag k="addr:housenumber" v="16"/>
    <tag k="addr:street" v="Berliner Ring"/>
    <tag k="leisure" v="stadium"/>
  </node>
  <node id="-4627" version="0" timestamp="Fri Feb 24 10:53:36 +0100 2012" uid="1" user="" lat="49.2020057" lon="9.5019943">
    <tag k="name" v="Volksbank Hohenlohe"/>
    <tag k="wheelchair" v="unknown"/>
    <tag k="amenity" v="bank"/>
  </node>
  <node id="-4669" version="0" timestamp="Fri Feb 24 10:53:36 +0100 2012" uid="1" user="" lat="48.8118718" lon="9.1669743">
    <tag k="name" v="Katholische Kirche Mariä Himmelfahrt"/>
    <tag k="wheelchair" v="limited"/>
    <tag k="addr:city" v="Stuttgart"/>
    <tag k="addr:postcode" v="70469"/>
    <tag k="addr:housenumber" v="24"/>
    <tag k="addr:street" v="Stuttgarter Straße"/>
    <tag k="wheelchair:description" v="Rollstuhlgerechte Zugänge werden derzeit installiert"/>
    <tag k="amenity" v="place_of_worship"/>
    <tag k="website" v="http://www.piusbruderschaft.de/distrikt/distriktsitz"/>
    <tag k="phone" v="+49 (0) 7 11 / 89 69 29 29"/>
  </node>
  <node id="-4925" version="0" timestamp="Fri Feb 24 10:53:36 +0100 2012" uid="1" user="" lat="48.87558" lon="9.07402">
    <tag k="shop" v="hairdresser"/>
    <tag k="name" v="Perfecthair24"/>
    <tag k="wheelchair" v="yes"/>
    <tag k="addr:city" v="Schwieberdingen"/>
    <tag k="addr:postcode" v="71701"/>
    <tag k="addr:housenumber" v="15"/>
    <tag k="addr:street" v="Bahnhofstraße"/>
    <tag k="website" v="http://www.perfecthair24.de"/>
    <tag k="phone" v="497150391603"/>
  </node>
  <node id="-4926" version="0" timestamp="Fri Feb 24 10:53:36 +0100 2012" uid="1" user="" lat="48.87459" lon="9.07054">
    <tag k="name" v="Badquelle"/>
    <tag k="wheelchair" v="limited"/>
    <tag k="addr:city" v="Schwieberdingen"/>
    <tag k="addr:postcode" v="71701"/>
    <tag k="addr:street" v="Herrenwiesenweg"/>
    <tag k="amenity" v="restaurant"/>
  </node>
  <node id="-4927" version="0" timestamp="Fri Feb 24 10:53:36 +0100 2012" uid="1" user="" lat="48.87611" lon="9.07345">
    <tag k="name" v="Bierakademie"/>
    <tag k="wheelchair" v="yes"/>
    <tag k="addr:city" v="Schwieberdingen"/>
    <tag k="addr:postcode" v="71701"/>
    <tag k="addr:street" v="Marktplatz"/>
    <tag k="amenity" v="pub"/>
  </node>
  <node id="-4928" version="0" timestamp="Fri Feb 24 10:53:36 +0100 2012" uid="1" user="" lat="48.96014" lon="9.20671">
    <tag k="name" v="Bürgerstuben"/>
    <tag k="wheelchair" v="limited"/>
    <tag k="addr:city" v="Pleidelsheim"/>
    <tag k="addr:street" v="Marbacher Straße"/>
    <tag k="wheelchair:description" v="Toiletten im Untergeschoss, nur über Treppe erreichbar"/>
    <tag k="amenity" v="restaurant"/>
  </node>
  <node id="-5104" version="0" timestamp="Fri Feb 24 10:53:37 +0100 2012" uid="1" user="" lat="48.7711483" lon="8.9064091">
    <tag k="shop" v="bakery"/>
    <tag k="name" v="Drive in Bäckerei Gamm"/>
    <tag k="wheelchair" v="limited"/>
    <tag k="wheelchair:description" v="Autoschalter, stufenlos"/>
  </node>
  <node id="-5150" version="0" timestamp="Fri Feb 24 10:53:37 +0100 2012" uid="1" user="" lat="48.9099294" lon="9.165126">
    <tag k="name" v="Vereinsgaststätte SKV Eglosheim"/>
    <tag k="wheelchair" v="limited"/>
    <tag k="addr:city" v="Ludwigsburg"/>
    <tag k="addr:postcode" v="71634"/>
    <tag k="addr:housenumber" v="30"/>
    <tag k="addr:street" v="Tammer Strasse"/>
    <tag k="wheelchair:description" v="stufenloser Zugang, grosser Parkplatz"/>
    <tag k="amenity" v="restaurant"/>
    <tag k="phone" v="+49 7141 374435"/>
  </node>
  <node id="-5313" version="0" timestamp="Fri Feb 24 10:53:37 +0100 2012" uid="1" user="" lat="49.1223772" lon="9.7167598">
    <tag k="name" v="Hotel - Restaurant Sonneck"/>
    <tag k="wheelchair" v="yes"/>
    <tag k="wheelchair:description" v="Mit dem Aufzug kommt man in alle Bereiche des Hauses"/>
    <tag k="amenity" v="bank"/>
  </node>
  <node id="-5314" version="0" timestamp="Fri Feb 24 10:53:37 +0100 2012" uid="1" user="" lat="49.1224221" lon="9.7170627">
    <tag k="name" v="Hotel - Restaurant Sonneck"/>
    <tag k="wheelchair" v="yes"/>
    <tag k="addr:city" v="Schwäbisch Hall"/>
    <tag k="addr:postcode" v="74523"/>
    <tag k="addr:housenumber" v="2"/>
    <tag k="tourism" v="hotel"/>
    <tag k="addr:street" v="Fischweg"/>
    <tag k="wheelchair:description" v="Mit dem Aufzug kommt man in alle Bereiche des Hauses. Der Linke und der Hintere Eingang sind stufenlos."/>
    <tag k="website" v="http://www.sonneck-klenk.de"/>
    <tag k="phone" v="+49 791 970 67-0"/>
  </node>
  <node id="-5367" version="0" timestamp="Fri Feb 24 10:53:37 +0100 2012" uid="1" user="" lat="48.77476" lon="9.17622">
    <tag k="name" v="Santander Consumer Bank"/>
    <tag k="wheelchair" v="limited"/>
    <tag k="addr:city" v="Stuttgart"/>
    <tag k="addr:postcode" v="70173"/>
    <tag k="addr:housenumber" v="1"/>
    <tag k="addr:street" v="Neue Brücke"/>
    <tag k="amenity" v="bank"/>
    <tag k="website" v="http://www.santander.de"/>
  </node>
  <node id="-5381" version="0" timestamp="Fri Feb 24 10:53:37 +0100 2012" uid="1" user="" lat="48.69889" lon="9.01052">
    <tag k="name" v="Santander Consumer Bank"/>
    <tag k="wheelchair" v="limited"/>
    <tag k="addr:city" v="Sindelfingen"/>
    <tag k="addr:postcode" v="71063"/>
    <tag k="addr:housenumber" v="1"/>
    <tag k="addr:street" v="Böblinger Straße"/>
    <tag k="amenity" v="bank"/>
    <tag k="website" v="http://www.santander.de"/>
  </node>
  <node id="-5531" version="0" timestamp="Fri Feb 24 10:53:37 +0100 2012" uid="1" user="" lat="48.82494" lon="9.0648">
    <tag k="name" v="Berthold, Allgemeinarzt"/>
    <tag k="wheelchair" v="yes"/>
    <tag k="addr:city" v="Ditzingen"/>
    <tag k="addr:postcode" v="71254"/>
    <tag k="addr:housenumber" v="29/1"/>
    <tag k="addr:street" v="Leonberger Strasse"/>
    <tag k="wheelchair:description" v="stufenloser Zugang, Behindertenparkplatz am Haus"/>
    <tag k="amenity" v="doctors"/>
    <tag k="phone" v="+49 7156 95260"/>
  </node>
  <node id="-5628" version="0" timestamp="Fri Feb 24 10:53:37 +0100 2012" uid="1" user="" lat="48.9485996" lon="9.136315">
    <tag k="name" v="Baudach"/>
    <tag k="wheelchair" v="yes"/>
    <tag k="addr:housenumber" v="1"/>
    <tag k="addr:street" v="Bahnhofplatz "/>
    <tag k="wheelchair:description" v="Praxis im 1. Stock Aufzug vorhanden"/>
    <tag k="amenity" v="doctors"/>
  </node>
  <node id="-5629" version="0" timestamp="Fri Feb 24 10:53:37 +0100 2012" uid="1" user="" lat="48.9479159" lon="9.1333804">
    <tag k="shop" v="supermarket"/>
    <tag k="name" v="Kaufland"/>
    <tag k="wheelchair" v="yes"/>
    <tag k="wheelchair:description" v="Kein Behinderten WC"/>
  </node>
  <node id="-5630" version="0" timestamp="Fri Feb 24 10:53:37 +0100 2012" uid="1" user="" lat="48.95894" lon="9.1318">
    <tag k="name" v="Enz Papillon"/>
    <tag k="wheelchair" v="yes"/>
    <tag k="amenity" v="community_center"/>
  </node>
  <node id="-5631" version="0" timestamp="Fri Feb 24 10:53:37 +0100 2012" uid="1" user="" lat="48.9586688" lon="9.131918">
    <tag k="name" v="Biergarten"/>
    <tag k="wheelchair" v="yes"/>
    <tag k="amenity" v="biergarten"/>
  </node>
  <node id="-5632" version="0" timestamp="Fri Feb 24 10:53:37 +0100 2012" uid="1" user="" lat="48.9589729" lon="9.1321131">
    <tag k="name" v="Behinderten WC"/>
    <tag k="wheelchair" v="yes"/>
    <tag k="amenity" v="bank"/>
  </node>
  <node id="-5633" version="0" timestamp="Fri Feb 24 10:53:37 +0100 2012" uid="1" user="" lat="48.9483656" lon="9.1362544">
    <tag k="name" v="Sparda Bank"/>
    <tag k="wheelchair" v="limited"/>
    <tag k="wheelchair:description" v="Kleine Schwelle 2 - 3 cm am Eingang"/>
    <tag k="amenity" v="bank"/>
  </node>
  <node id="-5634" version="0" timestamp="Fri Feb 24 10:53:37 +0100 2012" uid="1" user="" lat="48.9478822" lon="9.1335189">
    <tag k="shop" v="kiosk"/>
    <tag k="name" v="Kisok"/>
    <tag k="wheelchair" v="yes"/>
  </node>
  <node id="-5635" version="0" timestamp="Fri Feb 24 10:53:37 +0100 2012" uid="1" user="" lat="48.9608695" lon="9.1235122">
    <tag k="name" v="Dr. Wagner Zahnarzt"/>
    <tag k="wheelchair" v="yes"/>
    <tag k="wheelchair:description" v="Kein Rollstuhl WC"/>
    <tag k="amenity" v="doctors"/>
  </node>
  <node id="-5636" version="0" timestamp="Fri Feb 24 10:53:37 +0100 2012" uid="1" user="" lat="48.9608348" lon="9.1237836">
    <tag k="name" v="Behindertenparkplatz"/>
    <tag k="wheelchair" v="yes"/>
    <tag k="amenity" v="parking"/>
  </node>
  <node id="-5637" version="0" timestamp="Fri Feb 24 10:53:37 +0100 2012" uid="1" user="" lat="48.9596047" lon="9.1256584">
    <tag k="name" v="BEHINDERTEN WC"/>
    <tag k="wheelchair" v="yes"/>
    <tag k="amenity" v="toilets"/>
  </node>
  <node id="-5638" version="0" timestamp="Fri Feb 24 10:53:37 +0100 2012" uid="1" user="" lat="48.9580652" lon="9.1290196">
    <tag k="name" v="Imbiss"/>
    <tag k="wheelchair" v="yes"/>
    <tag k="amenity" v="fast_food"/>
  </node>
  <node id="-5666" version="0" timestamp="Fri Feb 24 10:53:37 +0100 2012" uid="1" user="" lat="48.9459477" lon="9.1454226">
    <tag k="name" v="Kreissparkasse"/>
    <tag k="wheelchair" v="yes"/>
    <tag k="amenity" v="bank"/>
  </node>
</osm>
