<?xml version='1.0' encoding='UTF-8'?>
<osm version="0.6" generator="Osmosis 0.39">
  <node id="-69" version="0" timestamp="Fri Feb 24 10:53:32 +0100 2012" uid="1" user="" lat="48.39453" lon="10.01199">
    <tag k="shop" v="doityourself"/>
    <tag k="name" v="OBI"/>
    <tag k="wheelchair" v="yes"/>
    <tag k="wheelchair:description" v="Rollstuhltoilette vorhanden"/>
  </node>
  <node id="-74" version="0" timestamp="Fri Feb 24 10:53:32 +0100 2012" uid="1" user="" lat="48.3972456" lon="9.9854714">
    <tag k="name" v="Xinedome"/>
    <tag k="wheelchair" v="yes"/>
    <tag k="wheelchair:description" v="Rollszuhltoilette vorhanden, stufenloser Eingang, Aufzug"/>
    <tag k="amenity" v="cinema"/>
  </node>
  <node id="-75" version="0" timestamp="Fri Feb 24 10:53:32 +0100 2012" uid="1" user="" lat="48.3978453" lon="9.9852538">
    <tag k="name" v="Deutschhaus"/>
    <tag k="wheelchair" v="yes"/>
    <tag k="wheelchair:description" v="Rollstuhltoilette vorhanden"/>
    <tag k="amenity" v="parking"/>
  </node>
  <node id="-76" version="0" timestamp="Fri Feb 24 10:53:32 +0100 2012" uid="1" user="" lat="48.39729" lon="9.98659">
    <tag k="name" v="Xinedome"/>
    <tag k="wheelchair" v="yes"/>
    <tag k="wheelchair:description" v="Rollstuhltoilette vorhanden"/>
    <tag k="amenity" v="cinema"/>
  </node>
  <node id="-77" version="0" timestamp="Fri Feb 24 10:53:32 +0100 2012" uid="1" user="" lat="48.3989871" lon="10.006164">
    <tag k="name" v="Barfüßer Biergarten"/>
    <tag k="wheelchair" v="yes"/>
    <tag k="wheelchair:description" v="Rollstuhltoilette vorhanden"/>
    <tag k="amenity" v="restaurant"/>
  </node>
  <node id="-78" version="0" timestamp="Fri Feb 24 10:53:32 +0100 2012" uid="1" user="" lat="48.3965506" lon="10.0153637">
    <tag k="name" v="Italmarkt"/>
    <tag k="wheelchair" v="limited"/>
    <tag k="wheelchair:description" v="Stufenlos, keine Rollstuhltoilette"/>
    <tag k="amenity" v="bank"/>
  </node>
  <node id="-89" version="0" timestamp="Fri Feb 24 10:53:32 +0100 2012" uid="1" user="" lat="47.7753644" lon="9.6023783">
    <tag k="name" v="WBS Training AG"/>
    <tag k="wheelchair" v="yes"/>
    <tag k="addr:city" v="Ravensburg"/>
    <tag k="addr:postcode" v="88214"/>
    <tag k="addr:housenumber" v="10"/>
    <tag k="addr:street" v="Gottlieb-Daimler-Straße "/>
    <tag k="amenity" v="school"/>
    <tag k="website" v="http://www.wbs-training.de"/>
    <tag k="phone" v="0751 36649-0"/>
  </node>
  <node id="-96" version="0" timestamp="Fri Feb 24 10:53:32 +0100 2012" uid="1" user="" lat="48.0165785" lon="9.5008259">
    <tag k="shop" v="computer"/>
    <tag k="name" v="Vodafone-Shop Bad Saulgau"/>
    <tag k="wheelchair" v="limited"/>
    <tag k="addr:city" v="Bad Saulgau"/>
    <tag k="addr:postcode" v="88348"/>
    <tag k="addr:housenumber" v="69"/>
    <tag k="addr:street" v="Hauptstraße"/>
    <tag k="website" v="http://www-vodafone-saulgau.de"/>
    <tag k="phone" v="07581506742"/>
  </node>
  <node id="-202" version="0" timestamp="Fri Feb 24 10:53:32 +0100 2012" uid="1" user="" lat="48.39126" lon="9.98768">
    <tag k="name" v="Ulmer Paddler e.V."/>
    <tag k="wheelchair" v="limited"/>
    <tag k="addr:city" v="Neu-Ulm"/>
    <tag k="addr:postcode" v="89231"/>
    <tag k="addr:housenumber" v="5"/>
    <tag k="tourism" v="camp_site"/>
    <tag k="addr:street" v="Bootshausstr."/>
    <tag k="wheelchair:description" v="über Terasse ohne Stufe, ansonsten je eine Stufe"/>
    <tag k="website" v="http://www.ulmer-paddler.de"/>
  </node>
  <node id="-203" version="0" timestamp="Fri Feb 24 10:53:32 +0100 2012" uid="1" user="" lat="48.3674344" lon="9.9552433">
    <tag k="shop" v="clothes"/>
    <tag k="name" v="aqua terra KANULADEN Ulm"/>
    <tag k="wheelchair" v="limited"/>
    <tag k="addr:city" v="Ulm"/>
    <tag k="addr:postcode" v="89079"/>
    <tag k="addr:housenumber" v="12"/>
    <tag k="addr:street" v="Steinbeisstr."/>
    <tag k="wheelchair:description" v="Eingang ohne Stufe, leider nur schmales WC"/>
    <tag k="website" v="http://www.kanuladen.info"/>
    <tag k="phone" v="0731-93294-10"/>
  </node>
  <node id="-314" version="0" timestamp="Fri Feb 24 10:53:32 +0100 2012" uid="1" user="" lat="48.0996656" lon="9.7934607">
    <tag k="name" v="Parkhaus Ulmer Tor"/>
    <tag k="wheelchair" v="yes"/>
    <tag k="addr:city" v="Biberach"/>
    <tag k="addr:postcode" v="88400"/>
    <tag k="wheelchair:description" v="Aufzug"/>
    <tag k="amenity" v="parking"/>
    <tag k="website" v="http://www.swbc.de/04_Parken/Parken_PH_UlmerTor.php"/>
  </node>
  <node id="-315" version="0" timestamp="Fri Feb 24 10:53:32 +0100 2012" uid="1" user="" lat="48.1027181" lon="9.7951902">
    <tag k="name" v="Birkendorf-Apotheke"/>
    <tag k="wheelchair" v="yes"/>
    <tag k="addr:city" v="Biberach"/>
    <tag k="addr:postcode" v="88400"/>
    <tag k="addr:housenumber" v=" 17-19"/>
    <tag k="addr:street" v="Rißstr."/>
    <tag k="amenity" v="pharmacy"/>
    <tag k="website" v="http://www.birkendorf-apotheke.de"/>
    <tag k="phone" v="+49 7351 75069"/>
  </node>
  <node id="-505" version="0" timestamp="Fri Feb 24 10:53:32 +0100 2012" uid="1" user="" lat="48.2867779" lon="8.8130455">
    <tag k="name" v="Raiffeisenbank"/>
    <tag k="wheelchair" v="limited"/>
    <tag k="addr:city" v="Geislingen"/>
    <tag k="addr:postcode" v="72351"/>
    <tag k="addr:housenumber" v="15"/>
    <tag k="addr:street" v="Schlossstraße"/>
    <tag k="wheelchair:description" v="Ebenerdiger Zugang möglich, Geldautomaten Zugang barrierefrei möglich"/>
    <tag k="amenity" v="bank"/>
    <tag k="website" v="http://www.geno-fdl.de"/>
    <tag k="phone" v="+49 7433 1860-0"/>
  </node>
  <node id="-506" version="0" timestamp="Fri Feb 24 10:53:32 +0100 2012" uid="1" user="" lat="48.28678" lon="8.81305">
    <tag k="name" v="Raiffeisenbank"/>
    <tag k="wheelchair" v="limited"/>
    <tag k="addr:city" v="Rosenfeld-Leidringen"/>
    <tag k="addr:postcode" v="72348"/>
    <tag k="addr:housenumber" v="29"/>
    <tag k="addr:street" v="Rottweiler Straße"/>
    <tag k="wheelchair:description" v="Automaten- und Servicebereich über Rampe zugänglich"/>
    <tag k="amenity" v="bank"/>
    <tag k="website" v="http://www.geno-fdl.de"/>
    <tag k="phone" v="+49 7428 94525-0"/>
  </node>
  <node id="-626" version="0" timestamp="Fri Feb 24 10:53:32 +0100 2012" uid="1" user="" lat="48.0667447" lon="9.8281998">
    <tag k="shop" v="beverages"/>
    <tag k="name" v="Fristo"/>
    <tag k="wheelchair" v="yes"/>
    <tag k="addr:city" v="Umendorf"/>
    <tag k="addr:postcode" v="88444"/>
    <tag k="addr:housenumber" v="3"/>
    <tag k="addr:street" v="Gerberstr. "/>
    <tag k="website" v="http://www.fristo.de"/>
    <tag k="phone" v="+49 7351 28227"/>
  </node>
  <node id="-773" version="0" timestamp="Fri Feb 24 10:53:32 +0100 2012" uid="1" user="" lat="48.0974323" lon="9.7899163">
    <tag k="name" v="Poco Loco"/>
    <tag k="wheelchair" v="limited"/>
    <tag k="addr:city" v="Biberach an der Riß"/>
    <tag k="addr:postcode" v="88400"/>
    <tag k="addr:housenumber" v="1"/>
    <tag k="addr:street" v="Am Viehmarkt"/>
    <tag k="wheelchair:description" v="Rollstuhlauffahrt, Aufzug, jedoch keine Behindertengerechte Toilette"/>
    <tag k="amenity" v="bar"/>
    <tag k="website" v="http://elpocoloco.de/"/>
    <tag k="phone" v="07351 / 1 71 79"/>
  </node>
  <node id="-1094" version="0" timestamp="Fri Feb 24 10:53:33 +0100 2012" uid="1" user="" lat="48.5201" lon="9.90461">
    <tag k="shop" v="department_store"/>
    <tag k="name" v="Südlift GmbH"/>
    <tag k="wheelchair" v="yes"/>
    <tag k="addr:city" v="Lonsee"/>
    <tag k="addr:postcode" v="89173"/>
    <tag k="addr:housenumber" v="13"/>
    <tag k="addr:street" v="Westerstetterstr. "/>
    <tag k="wheelchair:description" v="Wir helfen wenn Stufen zum Problem werden!"/>
    <tag k="phone" v="+49 7336 952866"/>
  </node>
  <node id="-1096" version="0" timestamp="Fri Feb 24 10:53:33 +0100 2012" uid="1" user="" lat="48.0977752" lon="9.7954551">
    <tag k="name" v="Kulturhalle Abdera"/>
    <tag k="wheelchair" v="yes"/>
    <tag k="addr:city" v="Biberach a. d. Riss"/>
    <tag k="addr:postcode" v="88400"/>
    <tag k="addr:housenumber" v="13"/>
    <tag k="addr:street" v="Breslaustraße"/>
    <tag k="amenity" v="nightclub"/>
    <tag k="website" v="http://www.abdera-bc.de"/>
  </node>
  <node id="-1857" version="0" timestamp="Fri Feb 24 10:53:33 +0100 2012" uid="1" user="" lat="48.5133817" lon="9.0623124">
    <tag k="name" v="Eberhardskirche"/>
    <tag k="wheelchair" v="limited"/>
  </node>
  <node id="-1858" version="0" timestamp="Fri Feb 24 10:53:33 +0100 2012" uid="1" user="" lat="48.4726102" lon="8.9356738">
    <tag k="name" v="Bahnhof Rottenburg"/>
    <tag k="wheelchair" v="limited"/>
    <tag k="wheelchair:description" v="Gleisanlage muss direkt überquert werden. Keine hohen Bahnsteige für einfachen Einstieg "/>
    <tag k="railway" v="halt"/>
  </node>
  <node id="-2086" version="0" timestamp="Fri Feb 24 10:53:34 +0100 2012" uid="1" user="" lat="48.5181724" lon="9.0584408">
    <tag k="name" v="Jusos Tübingen"/>
    <tag k="wheelchair" v="no"/>
    <tag k="addr:city" v="Tübingen"/>
    <tag k="addr:postcode" v="72070"/>
    <tag k="addr:housenumber" v="3"/>
    <tag k="addr:street" v="Karlstraße"/>
    <tag k="wheelchair:description" v="6 Stufen am Eingang, dann Aufzug"/>
    <tag k="website" v="http://jusos-tuebingen.de"/>
  </node>
  <node id="-2088" version="0" timestamp="Fri Feb 24 10:53:34 +0100 2012" uid="1" user="" lat="48.5211184" lon="9.0606158">
    <tag k="name" v="Forum Scientiarum, Uni Tübingen"/>
    <tag k="wheelchair" v="no"/>
    <tag k="addr:housenumber" v="33"/>
    <tag k="addr:street" v="Doblerstraße "/>
    <tag k="wheelchair:description" v="Altes Villenhaus, nur enge Treppen"/>
    <tag k="amenity" v="college"/>
    <tag k="website" v="http://www.forum-scientiarum.uni-tuebingen.de/de/"/>
  </node>
  <node id="-2089" version="0" timestamp="Fri Feb 24 10:53:34 +0100 2012" uid="1" user="" lat="47.9513294" lon="9.6387872">
    <tag k="name" v="Evangelische Kirche"/>
    <tag k="wheelchair" v="yes"/>
    <tag k="addr:city" v="Aulendorf"/>
    <tag k="addr:postcode" v="88326"/>
    <tag k="addr:housenumber" v="17"/>
    <tag k="addr:street" v="Schulstraße"/>
    <tag k="wheelchair:description" v="Kirche: Eingang vorne ist ebenerdig"/>
    <tag k="amenity" v="place_of_worship"/>
    <tag k="website" v="http://www.kirche-aulendorf.de/"/>
  </node>
  <node id="-2090" version="0" timestamp="Fri Feb 24 10:53:34 +0100 2012" uid="1" user="" lat="47.9512977" lon="9.6387203">
    <tag k="name" v="Evang. Gemeindebüro Aulendorf"/>
    <tag k="wheelchair" v="yes"/>
    <tag k="addr:city" v="Aulendorf"/>
    <tag k="addr:postcode" v="88326"/>
    <tag k="addr:housenumber" v="17"/>
    <tag k="addr:street" v="Schulstraße"/>
    <tag k="wheelchair:description" v="Ebenerdig"/>
  </node>
  <node id="-2447" version="0" timestamp="Fri Feb 24 10:53:34 +0100 2012" uid="1" user="" lat="47.68696" lon="9.8206">
    <tag k="shop" v="supermarket"/>
    <tag k="name" v="REWE Markt"/>
    <tag k="wheelchair" v="yes"/>
    <tag k="addr:city" v="Wangen"/>
    <tag k="addr:postcode" v="88239"/>
    <tag k="addr:housenumber" v="6-8"/>
    <tag k="addr:street" v="Am Waltersbühl "/>
  </node>
  <node id="-2564" version="0" timestamp="Fri Feb 24 10:53:34 +0100 2012" uid="1" user="" lat="47.6703607" lon="9.4076632">
    <tag k="name" v="Motorcycles Rock House Bar"/>
    <tag k="wheelchair" v="limited"/>
    <tag k="amenity" v="bar"/>
  </node>
  <node id="-2566" version="0" timestamp="Fri Feb 24 10:53:34 +0100 2012" uid="1" user="" lat="47.6701811" lon="9.4135676">
    <tag k="name" v="Volksbank Fischbach"/>
    <tag k="wheelchair" v="yes"/>
    <tag k="amenity" v="bank"/>
  </node>
  <node id="-2570" version="0" timestamp="Fri Feb 24 10:53:34 +0100 2012" uid="1" user="" lat="48.47638" lon="9.21998">
    <tag k="shop" v="clothes"/>
    <tag k="name" v="Engel Natur Werksverkauf"/>
    <tag k="wheelchair" v="yes"/>
    <tag k="addr:city" v="Pfullingen"/>
    <tag k="addr:housenumber" v="155"/>
    <tag k="addr:street" v="Wörthstraße"/>
  </node>
  <node id="-2573" version="0" timestamp="Fri Feb 24 10:53:34 +0100 2012" uid="1" user="" lat="47.6652322" lon="9.4449267">
    <tag k="name" v="Club Metropol"/>
    <tag k="wheelchair" v="no"/>
    <tag k="amenity" v="nightclub"/>
  </node>
  <node id="-2696" version="0" timestamp="Fri Feb 24 10:53:34 +0100 2012" uid="1" user="" lat="48.5040254" lon="9.2032839">
    <tag k="name" v="Mensa Albert-Einstein-Gymnasium Reutlingen"/>
    <tag k="wheelchair" v="yes"/>
    <tag k="amenity" v="school"/>
  </node>
  <node id="-2791" version="0" timestamp="Fri Feb 24 10:53:34 +0100 2012" uid="1" user="" lat="48.30055" lon="9.34899">
    <tag k="name" v="PARAVAN GmbH"/>
    <tag k="wheelchair" v="yes"/>
    <tag k="addr:city" v="Pfronstetten-Aichelau"/>
    <tag k="addr:postcode" v="72539"/>
    <tag k="addr:housenumber" v="5-10"/>
    <tag k="tourism" v="attraction"/>
    <tag k="addr:street" v="Paravan Straße"/>
    <tag k="website" v="http://www.paravan.de/"/>
    <tag k="phone" v="+49 7388 99 95 91"/>
  </node>
  <node id="-2906" version="0" timestamp="Fri Feb 24 10:53:34 +0100 2012" uid="1" user="" lat="48.28978" lon="9.38881">
    <tag k="name" v="PARAVAN Mobilitätspark"/>
    <tag k="wheelchair" v="unknown"/>
    <tag k="amenity" v="bank"/>
  </node>
  <node id="-2907" version="0" timestamp="Fri Feb 24 10:53:34 +0100 2012" uid="1" user="" lat="48.28978" lon="9.38881">
    <tag k="name" v="PARAVAN-Mobilitätspark"/>
    <tag k="wheelchair" v="yes"/>
    <tag k="addr:city" v="Pfronstetten-Aichelau"/>
    <tag k="addr:postcode" v="72539"/>
    <tag k="addr:housenumber" v="10"/>
    <tag k="addr:street" v="Franz-Arnold-Straße "/>
    <tag k="amenity" v="car_rental"/>
    <tag k="website" v="http://www.paravan.de"/>
    <tag k="phone" v="07388-999 5 91"/>
  </node>
  <node id="-3032" version="0" timestamp="Fri Feb 24 10:53:35 +0100 2012" uid="1" user="" lat="48.4174153" lon="9.036644">
    <tag k="name" v="Pizza Grillhaus"/>
    <tag k="wheelchair" v="yes"/>
    <tag k="addr:city" v="Ofterdingen"/>
    <tag k="addr:postcode" v="72131"/>
    <tag k="addr:housenumber" v="1"/>
    <tag k="addr:street" v="Tübingerstraße"/>
    <tag k="wheelchair:description" v="Rollstuhl - und Treppenlift vorhanden"/>
    <tag k="amenity" v="restaurant"/>
    <tag k="website" v="http://www.pizza-grillhaus.de"/>
    <tag k="phone" v="07473/3782200"/>
  </node>
  <node id="-3176" version="0" timestamp="Fri Feb 24 10:53:35 +0100 2012" uid="1" user="" lat="48.5565121" lon="8.9015052">
    <tag k="name" v="Hirsch"/>
    <tag k="wheelchair" v="yes"/>
    <tag k="amenity" v="cafe"/>
  </node>
  <node id="-3177" version="0" timestamp="Fri Feb 24 10:53:35 +0100 2012" uid="1" user="" lat="48.5126436" lon="9.0721627">
    <tag k="name" v="Hotel Stadt Tübingen"/>
    <tag k="wheelchair" v="yes"/>
    <tag k="amenity" v="restaurant"/>
  </node>
  <node id="-3227" version="0" timestamp="Fri Feb 24 10:53:35 +0100 2012" uid="1" user="" lat="47.7132" lon="9.39724">
    <tag k="shop" v="supermarket"/>
    <tag k="name" v="ALDI Süd"/>
    <tag k="wheelchair" v="yes"/>
  </node>
  <node id="-3409" version="0" timestamp="Fri Feb 24 10:53:35 +0100 2012" uid="1" user="" lat="48.3867264" lon="9.2862622">
    <tag k="shop" v="bakery"/>
    <tag k="name" v="Marquardt"/>
    <tag k="wheelchair" v="no"/>
  </node>
  <node id="-3746" version="0" timestamp="Fri Feb 24 10:53:35 +0100 2012" uid="1" user="" lat="47.7687551" lon="9.1493451">
    <tag k="name" v="Bodensee-Therma"/>
    <tag k="wheelchair" v="unknown"/>
    <tag k="addr:city" v="Überlingen"/>
    <tag k="addr:postcode" v="88662"/>
    <tag k="addr:street" v="Bahnhofstraße"/>
    <tag k="wheelchair:description" v="Aufzüge"/>
    <tag k="amenity" v="swimming_pool"/>
  </node>
  <node id="-3749" version="0" timestamp="Fri Feb 24 10:53:35 +0100 2012" uid="1" user="" lat="48.44819" lon="8.81937">
    <tag k="name" v="Restaurant Schloss Weitenburg"/>
    <tag k="wheelchair" v="yes"/>
    <tag k="amenity" v="restaurant"/>
  </node>
  <node id="-3751" version="0" timestamp="Fri Feb 24 10:53:35 +0100 2012" uid="1" user="" lat="48.5564991" lon="8.9014473">
    <tag k="name" v="Gasthof Hirsch"/>
    <tag k="wheelchair" v="yes"/>
    <tag k="amenity" v="restaurant"/>
  </node>
  <node id="-4022" version="0" timestamp="Fri Feb 24 10:53:36 +0100 2012" uid="1" user="" lat="48.14787" lon="9.37721">
    <tag k="shop" v="computer"/>
    <tag k="name" v="GLS-Paketshop riegersnetz"/>
    <tag k="wheelchair" v="limited"/>
    <tag k="addr:city" v="Langenenslingen"/>
    <tag k="addr:postcode" v="88515"/>
    <tag k="addr:housenumber" v="Hauptstr. 30"/>
    <tag k="addr:street" v="Hauptstr. 30"/>
    <tag k="wheelchair:description" v="Eingang rollstuhlgerecht, einzelne Räume abgesenkt"/>
    <tag k="website" v="http://www.riegersnetz.de"/>
    <tag k="phone" v="4915253709914"/>
  </node>
  <node id="-4023" version="0" timestamp="Fri Feb 24 10:53:36 +0100 2012" uid="1" user="" lat="48.0725647" lon="9.6480495">
    <tag k="name" v="Dorfgemeinschaftshaus Oggelshausen"/>
    <tag k="wheelchair" v="yes"/>
    <tag k="addr:city" v="Oggelshausen"/>
    <tag k="addr:postcode" v="88422"/>
    <tag k="addr:street" v="Kirchplatz"/>
    <tag k="wheelchair:description" v="Aufzug fürs OG vorhanden"/>
  </node>
  <node id="-4653" version="0" timestamp="Fri Feb 24 10:53:36 +0100 2012" uid="1" user="" lat="47.64953" lon="9.49685">
    <tag k="name" v="CAP Rotach"/>
    <tag k="wheelchair" v="yes"/>
    <tag k="tourism" v="caravan_site"/>
    <tag k="website" v="http://www.cap-rotach.de"/>
  </node>
  <node id="-4654" version="0" timestamp="Fri Feb 24 10:53:36 +0100 2012" uid="1" user="" lat="47.64991" lon="9.49636">
    <tag k="name" v="CAP Rotach Pension"/>
    <tag k="wheelchair" v="yes"/>
    <tag k="tourism" v="hotel"/>
    <tag k="website" v="http://www.cap-rotach.de"/>
  </node>
  <node id="-4755" version="0" timestamp="Fri Feb 24 10:53:36 +0100 2012" uid="1" user="" lat="48.5157436" lon="9.0552974">
    <tag k="name" v="Tübingen Hauptbahnhof"/>
    <tag k="wheelchair" v="yes"/>
    <tag k="railway" v="platform"/>
  </node>
  <node id="-5033" version="0" timestamp="Fri Feb 24 10:53:36 +0100 2012" uid="1" user="" lat="48.2314221" lon="8.7811334">
    <tag k="shop" v="car_repair"/>
    <tag k="name" v="Boxer Mobil Reha Fahrzeugtechnik"/>
    <tag k="wheelchair" v="yes"/>
    <tag k="addr:city" v="Dotternhausen"/>
    <tag k="addr:postcode" v="72359"/>
    <tag k="addr:housenumber" v="13"/>
    <tag k="addr:street" v="Im Hofstätt"/>
    <tag k="website" v="http://www.boxermobil.de"/>
    <tag k="phone" v="07427-914 666"/>
  </node>
  <node id="-5064" version="0" timestamp="Fri Feb 24 10:53:37 +0100 2012" uid="1" user="" lat="47.8236" lon="9.25946">
    <tag k="name" v="Friedhof Altheim"/>
    <tag k="wheelchair" v="limited"/>
    <tag k="addr:city" v="Frickingen"/>
    <tag k="addr:postcode" v="88699"/>
    <tag k="addr:street" v="Frickingen Straße"/>
    <tag k="wheelchair:description" v="Haupteingang 3 Stufen, Nebeneingang frei"/>
    <tag k="amenity" v="place_of_worship"/>
  </node>
  <node id="-5065" version="0" timestamp="Fri Feb 24 10:53:37 +0100 2012" uid="1" user="" lat="47.82651" lon="9.25604">
    <tag k="name" v="Kath. Kirche St. Pankratius"/>
    <tag k="wheelchair" v="no"/>
    <tag k="addr:city" v="Frickingen-Altheim"/>
    <tag k="addr:postcode" v="88699"/>
    <tag k="addr:street" v="Hauptstraße"/>
    <tag k="wheelchair:description" v="von Hauptstr. ca. 40 Stufen, v. Amselring ca. 20"/>
    <tag k="amenity" v="place_of_worship"/>
  </node>
  <node id="-5408" version="0" timestamp="Fri Feb 24 10:53:37 +0100 2012" uid="1" user="" lat="48.39921" lon="9.99184">
    <tag k="name" v="Santander Consumer Bank"/>
    <tag k="wheelchair" v="limited"/>
    <tag k="addr:city" v="Ulm"/>
    <tag k="addr:postcode" v="89073"/>
    <tag k="addr:housenumber" v="14"/>
    <tag k="addr:street" v="Frauenstraße"/>
    <tag k="amenity" v="bank"/>
    <tag k="website" v="http://www.santander.de"/>
  </node>
  <node id="-5421" version="0" timestamp="Fri Feb 24 10:53:37 +0100 2012" uid="1" user="" lat="48.49556" lon="9.21024">
    <tag k="name" v="Santander Consumer Bank"/>
    <tag k="wheelchair" v="limited"/>
    <tag k="addr:city" v="Reutlingen"/>
    <tag k="addr:postcode" v="72764"/>
    <tag k="addr:housenumber" v="2"/>
    <tag k="addr:street" v="Listplatz / Eingang Karlstraße"/>
    <tag k="amenity" v="bank"/>
    <tag k="website" v="http://www.santander.de"/>
  </node>
  <node id="-5504" version="0" timestamp="Fri Feb 24 10:53:37 +0100 2012" uid="1" user="" lat="48.49031" lon="9.21344">
    <tag k="name" v="Haus der Jugend"/>
    <tag k="wheelchair" v="limited"/>
    <tag k="addr:city" v="Reutlingen"/>
    <tag k="addr:postcode" v="72764"/>
    <tag k="addr:housenumber" v="7"/>
    <tag k="addr:street" v="Museumstraße"/>
    <tag k="amenity" v="cinema"/>
    <tag k="website" v="http://www.haus-der-jugend.info"/>
    <tag k="phone" v="+49 7121 320335"/>
  </node>
  <node id="-5596" version="0" timestamp="Fri Feb 24 10:53:37 +0100 2012" uid="1" user="" lat="48.0758469" lon="9.8213039">
    <tag k="name" v="Parkhotel Jordanbad"/>
    <tag k="wheelchair" v="limited"/>
    <tag k="tourism" v="hotel"/>
  </node>
</osm>
