<?xml version='1.0' encoding='UTF-8'?>
<osm version="0.6" generator="Osmosis 0.39">
  <node id="-211" version="0" timestamp="Fri Feb 24 10:53:32 +0100 2012" uid="1" user="" lat="28.41624" lon="-16.54347">
    <tag k="name" v="Belive Orotava"/>
    <tag k="wheelchair" v="yes"/>
    <tag k="tourism" v="hotel"/>
    <tag k="wheelchair:description" v="sehr gut geeignet, mit gr. Badezimmer"/>
  </node>
  <node id="-276" version="0" timestamp="Fri Feb 24 10:53:32 +0100 2012" uid="1" user="" lat="28.4162285" lon="-16.5434408">
    <tag k="name" v="Belive Orotava"/>
    <tag k="wheelchair" v="yes"/>
    <tag k="tourism" v="hotel"/>
    <tag k="wheelchair:description" v="sehr gut geeignet, mit gr. Badezimmer"/>
  </node>
  <node id="-1061" version="0" timestamp="Fri Feb 24 10:53:33 +0100 2012" uid="1" user="" lat="28.05761" lon="-16.72826">
    <tag k="name" v="Hotel Zentral Center"/>
    <tag k="wheelchair" v="yes"/>
    <tag k="tourism" v="hotel"/>
    <tag k="wheelchair:description" v="Rollstuhlgerechte Zimmer, Sitzlift am Pool"/>
  </node>
  <node id="-1067" version="0" timestamp="Fri Feb 24 10:53:33 +0100 2012" uid="1" user="" lat="28.40793" lon="-16.56583">
    <tag k="name" v="Loro Parque"/>
    <tag k="wheelchair" v="yes"/>
    <tag k="tourism" v="zoo"/>
    <tag k="wheelchair:description" v="Mehrfach Rollstuhl-Toiletten vorhanden; E-Mobile zum Ausleihen; alle Attraktionen über Wege erreichbar (Abstriche bei der Treetop-Attraktion); ausgewiesene Rollstuhlplätze bei der Orca-Show"/>
  </node>
  <node id="-3096" version="0" timestamp="Fri Feb 24 10:53:35 +0100 2012" uid="1" user="" lat="28.05834" lon="-16.7313">
    <tag k="name" v="Hotel Bitacora"/>
    <tag k="wheelchair" v="unknown"/>
    <tag k="tourism" v="hotel"/>
    <tag k="wheelchair:description" v="mehrere behindertengerechte Zimmer"/>
  </node>
  <node id="-3097" version="0" timestamp="Fri Feb 24 10:53:35 +0100 2012" uid="1" user="" lat="28.0585473" lon="-16.7327461">
    <tag k="name" v="Hotel La Siesta"/>
    <tag k="wheelchair" v="yes"/>
    <tag k="tourism" v="hotel"/>
    <tag k="wheelchair:description" v="es gibt mehrere rollstuhlgerechte Zimmer, Zugang über Rampe"/>
  </node>
  <node id="-3098" version="0" timestamp="Fri Feb 24 10:53:35 +0100 2012" uid="1" user="" lat="28.0557303" lon="-16.7292853">
    <tag k="name" v="Parque de la Paz"/>
    <tag k="wheelchair" v="yes"/>
    <tag k="tourism" v="hotel"/>
    <tag k="wheelchair:description" v="einige Zimmer voll rollstuhlgerecht, ebenerdiger Seitenzugang"/>
  </node>
  <node id="-3099" version="0" timestamp="Fri Feb 24 10:53:35 +0100 2012" uid="1" user="" lat="28.0521085" lon="-16.7285248">
    <tag k="name" v="Rolli-Toilette"/>
    <tag k="wheelchair" v="yes"/>
    <tag k="amenity" v="toilets"/>
  </node>
  <node id="-3100" version="0" timestamp="Fri Feb 24 10:53:35 +0100 2012" uid="1" user="" lat="28.0471152" lon="-16.7184911">
    <tag k="name" v="Rolli-Toilette"/>
    <tag k="wheelchair" v="yes"/>
    <tag k="amenity" v="toilets"/>
  </node>
  <node id="-3101" version="0" timestamp="Fri Feb 24 10:53:35 +0100 2012" uid="1" user="" lat="28.0544707" lon="-16.7278036">
    <tag k="name" v="Rolli-Toilette"/>
    <tag k="wheelchair" v="yes"/>
    <tag k="amenity" v="toilets"/>
  </node>
  <node id="-3102" version="0" timestamp="Fri Feb 24 10:53:35 +0100 2012" uid="1" user="" lat="28.05996" lon="-16.72959">
    <tag k="name" v="Hotel Noelia Sur"/>
    <tag k="wheelchair" v="yes"/>
    <tag k="tourism" v="hotel"/>
    <tag k="wheelchair:description" v="einige Zimmer voll rollstuhlgerecht, ebenerdiger Zugang"/>
  </node>
  <node id="-3279" version="0" timestamp="Fri Feb 24 10:53:35 +0100 2012" uid="1" user="" lat="28.93308" lon="-13.62043">
    <tag k="name" v="Bungalows Nautilus"/>
    <tag k="wheelchair" v="yes"/>
    <tag k="addr:city" v="Tias (Lanzarote)"/>
    <tag k="addr:postcode" v="35510"/>
    <tag k="addr:housenumber" v="5"/>
    <tag k="addr:street" v="Gramillo"/>
    <tag k="wheelchair:description" v="Complejo turístico de Lanzarote que cuenta con instalaciones adaptadas para personas con movilidad reducida"/>
    <tag k="leisure" v="beach_resort"/>
    <tag k="website" v="http://www.nautilus-lanzarote.com"/>
    <tag k="phone" v="+34 928 514 400"/>
  </node>
  <node id="-3950" version="0" timestamp="Fri Feb 24 10:53:35 +0100 2012" uid="1" user="" lat="28.4156739" lon="-16.5356735">
    <tag k="name" v="Hotel Interpalace"/>
    <tag k="wheelchair" v="yes"/>
    <tag k="tourism" v="hotel"/>
    <tag k="wheelchair:description" v="Barrierefreihe Zimmer und umgebung"/>
  </node>
  <node id="-5603" version="0" timestamp="Fri Feb 24 10:53:37 +0100 2012" uid="1" user="" lat="28.45" lon="-16.2333">
    <tag k="name" v="Spa &amp; Sport Hotel Mar y Sol"/>
    <tag k="wheelchair" v="yes"/>
    <tag k="addr:city" v="Los Cristianos"/>
    <tag k="addr:postcode" v="38650"/>
    <tag k="addr:housenumber" v="8"/>
    <tag k="tourism" v="hotel"/>
    <tag k="addr:street" v="Avda. Amsterdam"/>
    <tag k="website" v="http://www.marysol.org"/>
    <tag k="phone" v="+ 34 922 750 540"/>
  </node>
  <node id="-5702" version="0" timestamp="Fri Feb 24 10:53:37 +0100 2012" uid="1" user="" lat="28.0788984" lon="-16.735352">
    <tag k="name" v="Blue Merlkin"/>
    <tag k="wheelchair" v="yes"/>
    <tag k="amenity" v="restaurant"/>
  </node>
  <node id="-5703" version="0" timestamp="Fri Feb 24 10:53:37 +0100 2012" uid="1" user="" lat="28.4628314" lon="-16.2516118">
    <tag k="name" v="Public Toilets"/>
    <tag k="wheelchair" v="yes"/>
    <tag k="amenity" v="toilets"/>
  </node>
</osm>
