<?xml version='1.0' encoding='UTF-8'?>
<osm version="0.6" generator="Osmosis 0.39">
  <node id="-172" version="0" timestamp="Fri Feb 24 10:53:32 +0100 2012" uid="1" user="" lat="53.5633073" lon="8.5869049">
    <tag k="name" v="Eiscafe Venedig"/>
    <tag k="wheelchair" v="limited"/>
    <tag k="addr:housenumber" v="192"/>
    <tag k="addr:street" v="Hafenstraße"/>
    <tag k="amenity" v="cafe"/>
  </node>
  <node id="-176" version="0" timestamp="Fri Feb 24 10:53:32 +0100 2012" uid="1" user="" lat="53.5536579" lon="8.570373">
    <tag k="name" v="Eiscafe Theo"/>
    <tag k="wheelchair" v="yes"/>
    <tag k="addr:street" v="Alte Bürger"/>
    <tag k="amenity" v="cafe"/>
  </node>
  <node id="-1663" version="0" timestamp="Fri Feb 24 10:53:33 +0100 2012" uid="1" user="" lat="53.54287" lon="8.5754">
    <tag k="name" v="Klimahaus Bremerhaven 8° Ost"/>
    <tag k="wheelchair" v="yes"/>
    <tag k="tourism" v="attraction"/>
    <tag k="wheelchair:description" v="Für Rollstuhlfahrer etwas umständlicher Weg durch die Ausstellungen, Mitarbeiter sind aber behilflich"/>
  </node>
  <node id="-3414" version="0" timestamp="Fri Feb 24 10:53:35 +0100 2012" uid="1" user="" lat="53.5595394" lon="8.567115">
    <tag k="name" v="havenhostel Bremerhaven"/>
    <tag k="wheelchair" v="yes"/>
    <tag k="addr:city" v="bremerhaven"/>
    <tag k="addr:postcode" v="27568"/>
    <tag k="addr:housenumber" v="209"/>
    <tag k="tourism" v="hostel"/>
    <tag k="addr:street" v="bürgermeister smidt strasse "/>
    <tag k="website" v="http://www.havenhostel.de"/>
    <tag k="phone" v="+49 471 309669-0"/>
  </node>
  <node id="-4857" version="0" timestamp="Fri Feb 24 10:53:36 +0100 2012" uid="1" user="" lat="53.55" lon="8.5833">
    <tag k="name" v="Tourist-Info Hafeninsel"/>
    <tag k="wheelchair" v="yes"/>
    <tag k="addr:city" v="Bremerhaven"/>
    <tag k="addr:postcode" v="27568"/>
    <tag k="addr:housenumber" v="6"/>
    <tag k="addr:street" v="H.-H.-Meier-Straße"/>
    <tag k="website" v="http://www.bremerhaven-tourism.de"/>
    <tag k="phone" v="+49 471 94646120"/>
    <tag k="office" v="company"/>
  </node>
  <node id="-4858" version="0" timestamp="Fri Feb 24 10:53:36 +0100 2012" uid="1" user="" lat="53.55" lon="8.5833">
    <tag k="name" v="Tourist-Info Havenplaza"/>
    <tag k="wheelchair" v="yes"/>
    <tag k="addr:city" v="Bremerhaven"/>
    <tag k="addr:postcode" v="27568"/>
    <tag k="addr:street" v="Am Längengrad"/>
    <tag k="website" v="http://www.bremerhaven-tourism.de"/>
    <tag k="phone" v="+49 471 94646530"/>
    <tag k="office" v="company"/>
  </node>
  <node id="-4859" version="0" timestamp="Fri Feb 24 10:53:36 +0100 2012" uid="1" user="" lat="53.55" lon="8.5833">
    <tag k="name" v="Tourist-Info Schaufenster Fischereihafen"/>
    <tag k="wheelchair" v="yes"/>
    <tag k="addr:city" v="Bremerhaven"/>
    <tag k="addr:postcode" v="27572"/>
    <tag k="addr:housenumber" v="6"/>
    <tag k="addr:street" v="Am Schaufenster"/>
    <tag k="website" v="http://www.bremerhaven-tourism.de"/>
    <tag k="phone" v="+49 471 94646127"/>
    <tag k="office" v="company"/>
  </node>
  <node id="-4860" version="0" timestamp="Fri Feb 24 10:53:36 +0100 2012" uid="1" user="" lat="53.55" lon="8.5833">
    <tag k="name" v="Der HafenBus"/>
    <tag k="wheelchair" v="limited"/>
    <tag k="addr:city" v="Bremerhaven"/>
    <tag k="addr:postcode" v="27572"/>
    <tag k="addr:housenumber" v="6"/>
    <tag k="addr:street" v="Am Schaufenster"/>
    <tag k="highway" v="bus_stop"/>
    <tag k="website" v="http://www.bremerhaven-tourism.de"/>
    <tag k="phone" v="+49 471 414141"/>
  </node>
  <node id="-4861" version="0" timestamp="Fri Feb 24 10:53:36 +0100 2012" uid="1" user="" lat="53.55" lon="8.5833">
    <tag k="name" v="RadStation Tourist-Info Schaufenster Fischereihafen"/>
    <tag k="wheelchair" v="yes"/>
    <tag k="addr:city" v="Bremerhaven"/>
    <tag k="addr:postcode" v="27572"/>
    <tag k="addr:housenumber" v="6"/>
    <tag k="addr:street" v="Am Schaufenster"/>
    <tag k="amenity" v="bicycle_rental"/>
    <tag k="website" v="http://www.bremerhaven-tourism.de"/>
    <tag k="phone" v="+48 471 94646127"/>
  </node>
  <node id="-4862" version="0" timestamp="Fri Feb 24 10:53:36 +0100 2012" uid="1" user="" lat="53.55" lon="8.5833">
    <tag k="name" v="Rundfahrt Tour de Wind"/>
    <tag k="wheelchair" v="limited"/>
    <tag k="addr:city" v="Bremerhaven"/>
    <tag k="addr:postcode" v="27568"/>
    <tag k="addr:housenumber" v="7"/>
    <tag k="addr:street" v="H.-H.-Meier-Straße"/>
    <tag k="highway" v="bus_stop"/>
    <tag k="website" v="http://www.bremerhaven-tourism.de"/>
    <tag k="phone" v="+49 471 414141"/>
  </node>
  <node id="-4864" version="0" timestamp="Fri Feb 24 10:53:36 +0100 2012" uid="1" user="" lat="53.55" lon="8.5833">
    <tag k="name" v="Führungen Havenwelten"/>
    <tag k="wheelchair" v="limited"/>
    <tag k="addr:city" v="Bremerhaven"/>
    <tag k="addr:postcode" v="27568"/>
    <tag k="addr:housenumber" v="6"/>
    <tag k="tourism" v="attraction"/>
    <tag k="addr:street" v="H.-H.-Meier-Straße"/>
    <tag k="website" v="http://www.bremerhaven-tourism.de"/>
    <tag k="phone" v="+49 471 414141"/>
  </node>
  <node id="-5344" version="0" timestamp="Fri Feb 24 10:53:37 +0100 2012" uid="1" user="" lat="53.5437795" lon="8.5732554">
    <tag k="name" v="Tourist-Info Hafeninsel"/>
    <tag k="wheelchair" v="yes"/>
    <tag k="addr:city" v="Bremerhaven"/>
    <tag k="addr:postcode" v="27568"/>
    <tag k="addr:housenumber" v="6"/>
    <tag k="addr:street" v="H.-H.-Meier-Straße"/>
    <tag k="website" v="http://www.bremerhaven-tourism.de"/>
    <tag k="phone" v="+49 471 414141"/>
    <tag k="office" v="company"/>
  </node>
</osm>
