<?xml version='1.0' encoding='UTF-8'?>
<osm version="0.6" generator="Osmosis 0.39">
  <node id="-324" version="0" timestamp="Fri Feb 24 10:53:32 +0100 2012" uid="1" user="" lat="53.094537" lon="8.7479618">
    <tag k="shop" v="computer"/>
    <tag k="name" v="Frauecomputerzentrum,"/>
    <tag k="wheelchair" v="yes"/>
    <tag k="addr:city" v="Bremen"/>
    <tag k="addr:postcode" v="29205"/>
    <tag k="addr:street" v="Mindener Str./Ecke Am Hulsbertg"/>
    <tag k="wheelchair:description" v="Behindertengerechter Fahrstuhl"/>
  </node>
  <node id="-351" version="0" timestamp="Fri Feb 24 10:53:32 +0100 2012" uid="1" user="" lat="53.07051" lon="8.79805">
    <tag k="name" v="Theater am Leibnizplatz"/>
    <tag k="wheelchair" v="yes"/>
    <tag k="wheelchair:description" v="Das Theater ist komplett barrierefrei und sehr hilfsbereit bei Problemen"/>
    <tag k="amenity" v="theatre"/>
  </node>
  <node id="-381" version="0" timestamp="Fri Feb 24 10:53:32 +0100 2012" uid="1" user="" lat="53.0807797" lon="8.7938394">
    <tag k="name" v="St. Stephani-Kirche"/>
    <tag k="wheelchair" v="limited"/>
    <tag k="wheelchair:description" v="Lange flache Rampe in den Eingang"/>
    <tag k="amenity" v="place_of_worship"/>
  </node>
  <node id="-385" version="0" timestamp="Fri Feb 24 10:53:32 +0100 2012" uid="1" user="" lat="53.0843784" lon="8.8030337">
    <tag k="name" v="Al Ward"/>
    <tag k="wheelchair" v="limited"/>
    <tag k="addr:housenumber" v="Koordinaten können leicht von der eigtl. Hausnummer abweichen - Lokal aber erkennbar!"/>
    <tag k="wheelchair:description" v="Nur Erdgeschoss - Tür leider etwas schmal."/>
    <tag k="amenity" v="fast_food"/>
  </node>
  <node id="-390" version="0" timestamp="Fri Feb 24 10:53:32 +0100 2012" uid="1" user="" lat="53.0826797" lon="8.8020264">
    <tag k="shop" v="kiosk"/>
    <tag k="name" v="Kiosk"/>
    <tag k="wheelchair" v="yes"/>
    <tag k="wheelchair:description" v="Integriert/Zugehörig zu dem darüberligenden Altersheim - Entsprechend sehr geräumig."/>
  </node>
  <node id="-489" version="0" timestamp="Fri Feb 24 10:53:32 +0100 2012" uid="1" user="" lat="53.1927564" lon="8.5752103">
    <tag k="name" v="Artemis"/>
    <tag k="wheelchair" v="yes"/>
    <tag k="addr:city" v="Bremen"/>
    <tag k="addr:postcode" v="28779"/>
    <tag k="addr:housenumber" v="8"/>
    <tag k="addr:street" v="Bockhorner Weg"/>
    <tag k="amenity" v="restaurant"/>
    <tag k="website" v="http://www.artemis-restaurant.de/"/>
    <tag k="phone" v="(0421) 6 09 87 41"/>
  </node>
  <node id="-492" version="0" timestamp="Fri Feb 24 10:53:32 +0100 2012" uid="1" user="" lat="53.0718566" lon="8.8293797">
    <tag k="shop" v="department_store"/>
    <tag k="name" v="Das gute Portrait"/>
    <tag k="wheelchair" v="yes"/>
    <tag k="addr:city" v="Bremen"/>
    <tag k="addr:postcode" v="28203"/>
    <tag k="addr:housenumber" v="121"/>
    <tag k="addr:street" v="Vor dem Steintor "/>
    <tag k="wheelchair:description" v="Unser Fotostudio ist ebenerdig."/>
    <tag k="website" v="http://www.dasguteportrait.de/"/>
    <tag k="phone" v="0421/75440"/>
  </node>
  <node id="-2116" version="0" timestamp="Fri Feb 24 10:53:34 +0100 2012" uid="1" user="" lat="53.1756349" lon="8.5998627">
    <tag k="name" v="Bunker C178"/>
    <tag k="wheelchair" v="limited"/>
    <tag k="addr:city" v="Bremen"/>
    <tag k="addr:postcode" v="28755"/>
    <tag k="addr:housenumber" v="10"/>
    <tag k="addr:street" v="Am Werfttor "/>
    <tag k="wheelchair:description" v="ebenerdig - Toiletten nur über Treppe erreichbar (noch)"/>
    <tag k="amenity" v="nightclub"/>
    <tag k="website" v="http://www.tnt-eventz.de"/>
    <tag k="phone" v="+49 421 84736610"/>
  </node>
  <node id="-2905" version="0" timestamp="Fri Feb 24 10:53:34 +0100 2012" uid="1" user="" lat="53.0451755" lon="8.8430096">
    <tag k="shop" v="electronics"/>
    <tag k="name" v="Conrad"/>
    <tag k="wheelchair" v="yes"/>
  </node>
  <node id="-3157" version="0" timestamp="Fri Feb 24 10:53:35 +0100 2012" uid="1" user="" lat="53.0729167" lon="8.8135964">
    <tag k="name" v="Kunsthalle Bremen"/>
    <tag k="wheelchair" v="yes"/>
    <tag k="tourism" v="museum"/>
  </node>
  <node id="-3467" version="0" timestamp="Fri Feb 24 10:53:35 +0100 2012" uid="1" user="" lat="53.12868" lon="8.73746">
    <tag k="name" v="Bürgerhaus Oslebshausen e.V."/>
    <tag k="wheelchair" v="limited"/>
    <tag k="addr:city" v="Bremen"/>
    <tag k="addr:postcode" v="28239 "/>
    <tag k="addr:housenumber" v="40"/>
    <tag k="addr:street" v="Am Nonnenberg "/>
    <tag k="wheelchair:description" v="Kellergeschoss über gesonderten Eingang zu erreichen."/>
    <tag k="website" v="http://www.bghosl.de"/>
    <tag k="phone" v="+49421645122"/>
  </node>
  <node id="-3469" version="0" timestamp="Fri Feb 24 10:53:35 +0100 2012" uid="1" user="" lat="53.11708" lon="8.75797">
    <tag k="name" v="na Nachbarschaftshaus Helene Kaisen"/>
    <tag k="wheelchair" v="limited"/>
    <tag k="addr:city" v="Bremen"/>
    <tag k="addr:postcode" v="28239"/>
    <tag k="addr:street" v="Beim Ohlenhof 10"/>
    <tag k="wheelchair:description" v="Eingang gesondert für RollstuhlnutzerInnen"/>
    <tag k="phone" v="+49 421 6914581"/>
  </node>
  <node id="-3789" version="0" timestamp="Fri Feb 24 10:53:35 +0100 2012" uid="1" user="" lat="53.08104" lon="8.89463">
    <tag k="name" v="Bürgerzentrum Neue Vahr e.V."/>
    <tag k="wheelchair" v="yes"/>
    <tag k="addr:city" v="Bremen"/>
    <tag k="addr:postcode" v="28327"/>
    <tag k="addr:housenumber" v="10"/>
    <tag k="addr:street" v="Berliner Freiheit"/>
    <tag k="website" v="http://www.bzvahr.de"/>
    <tag k="phone" v="+49 421 4367333"/>
  </node>
  <node id="-3790" version="0" timestamp="Fri Feb 24 10:53:35 +0100 2012" uid="1" user="" lat="53.07752" lon="8.90437">
    <tag k="name" v="Treff°Waschhaus"/>
    <tag k="wheelchair" v="yes"/>
    <tag k="addr:city" v="Bremen"/>
    <tag k="addr:postcode" v="28327"/>
    <tag k="addr:housenumber" v="2a"/>
    <tag k="addr:street" v="Ludwig-Beck-Str."/>
    <tag k="website" v="http://www.treffwaschhaus.de"/>
    <tag k="phone" v="+49 421 4789430"/>
  </node>
  <node id="-4188" version="0" timestamp="Fri Feb 24 10:53:36 +0100 2012" uid="1" user="" lat="53.08447" lon="8.80122">
    <tag k="name" v="Piratenpartei Landesverband Bremen"/>
    <tag k="wheelchair" v="yes"/>
    <tag k="addr:city" v="Bremen"/>
    <tag k="addr:postcode" v="28195"/>
    <tag k="addr:housenumber" v="15"/>
    <tag k="addr:street" v="Daniel-von-Büren-Straße"/>
    <tag k="wheelchair:description" v="WC inaccessible"/>
    <tag k="leisure" v="beach_resort"/>
    <tag k="website" v="http://bremen.piratenpartei.de/"/>
    <tag k="phone" v="+49 421 36799050"/>
  </node>
  <node id="-4190" version="0" timestamp="Fri Feb 24 10:53:36 +0100 2012" uid="1" user="" lat="53.071924" lon="8.8218836">
    <tag k="name" v="lift Internetcafe Bremen"/>
    <tag k="wheelchair" v="no"/>
    <tag k="addr:city" v="Bremen"/>
    <tag k="addr:postcode" v="28203"/>
    <tag k="addr:housenumber" v="18"/>
    <tag k="addr:street" v="Weberstraße"/>
    <tag k="amenity" v="cafe"/>
    <tag k="website" v="http://www.liftcafe.de/"/>
    <tag k="phone" v="+49 421 77450"/>
  </node>
  <node id="-4191" version="0" timestamp="Fri Feb 24 10:53:36 +0100 2012" uid="1" user="" lat="53.0753656" lon="8.8077284">
    <tag k="name" v="Haus der Bürgerschaft"/>
    <tag k="wheelchair" v="yes"/>
    <tag k="addr:city" v="Bremen"/>
    <tag k="addr:postcode" v="28195"/>
    <tag k="addr:housenumber" v="20"/>
    <tag k="addr:street" v="Am Markt"/>
    <tag k="website" v="http://www.bremische-buergerschaft.de/"/>
    <tag k="phone" v="+49 421 361-4555"/>
  </node>
  <node id="-4397" version="0" timestamp="Fri Feb 24 10:53:36 +0100 2012" uid="1" user="" lat="53.0796991" lon="8.8039751">
    <tag k="name" v="Bali"/>
    <tag k="wheelchair" v="limited"/>
    <tag k="addr:city" v="Bremen"/>
    <tag k="addr:postcode" v="28195"/>
    <tag k="addr:housenumber" v="16"/>
    <tag k="addr:street" v="Spitzenkiel"/>
    <tag k="amenity" v="restaurant"/>
    <tag k="phone" v="+49 (0)421 12561"/>
  </node>
  <node id="-4956" version="0" timestamp="Fri Feb 24 10:53:36 +0100 2012" uid="1" user="" lat="53.073912" lon="8.833969">
    <tag k="name" v="Friedenskirche Bremen"/>
    <tag k="wheelchair" v="yes"/>
    <tag k="addr:city" v="Bremen "/>
    <tag k="addr:postcode" v="28203"/>
    <tag k="addr:housenumber" v="175"/>
    <tag k="addr:street" v="Humboldtstrasse"/>
    <tag k="amenity" v="community_center"/>
    <tag k="website" v="http://www.friedenskirche-bremen.de/"/>
  </node>
  <node id="-4975" version="0" timestamp="Fri Feb 24 10:53:36 +0100 2012" uid="1" user="" lat="53.07994" lon="8.79661">
    <tag k="name" v="Prima Pasta"/>
    <tag k="wheelchair" v="limited"/>
    <tag k="wheelchair:description" v="Stufenloser Eingang, keine Behindertentoilette"/>
    <tag k="amenity" v="restaurant"/>
  </node>
  <node id="-4977" version="0" timestamp="Fri Feb 24 10:53:36 +0100 2012" uid="1" user="" lat="53.0899076" lon="8.8067072">
    <tag k="name" v="Asia Snack Point"/>
    <tag k="wheelchair" v="no"/>
    <tag k="wheelchair:description" v="1 Stufe am Eingang, keine Toiletten"/>
    <tag k="amenity" v="restaurant"/>
  </node>
  <node id="-4979" version="0" timestamp="Fri Feb 24 10:53:36 +0100 2012" uid="1" user="" lat="53.0938831" lon="8.8062144">
    <tag k="shop" v="bakery"/>
    <tag k="name" v="Garde, Gutes von gestern"/>
    <tag k="wheelchair" v="no"/>
    <tag k="wheelchair:description" v="3 Stufen am Eingang"/>
  </node>
  <node id="-4980" version="0" timestamp="Fri Feb 24 10:53:36 +0100 2012" uid="1" user="" lat="53.0851008" lon="8.807544">
    <tag k="name" v="Spedition Bremen, belle etage"/>
    <tag k="wheelchair" v="no"/>
    <tag k="amenity" v="bank"/>
    <tag k="website" v="http://spedition-bremen.com/"/>
  </node>
  <node id="-4981" version="0" timestamp="Fri Feb 24 10:53:36 +0100 2012" uid="1" user="" lat="53.0852677" lon="8.8071932">
    <tag k="name" v="Spedition, Veranstaltungsraum Halle"/>
    <tag k="wheelchair" v="yes"/>
    <tag k="amenity" v="nightclub"/>
    <tag k="website" v="http://spedition-bremen.com/"/>
  </node>
  <node id="-5614" version="0" timestamp="Fri Feb 24 10:53:37 +0100 2012" uid="1" user="" lat="53.1146496" lon="8.7621567">
    <tag k="name" v="Molin Eisdiele"/>
    <tag k="wheelchair" v="no"/>
    <tag k="wheelchair:description" v="mehrere Stufen"/>
    <tag k="amenity" v="cafe"/>
  </node>
</osm>
