<?xml version='1.0' encoding='UTF-8'?>
<osm version="0.6" generator="Osmosis 0.39">
  <node id="-3993" version="0" timestamp="Fri Feb 24 10:53:35 +0100 2012" uid="1" user="" lat="53.59903" lon="9.83529">
    <tag k="shop" v="hairdresser"/>
    <tag k="name" v="Med. Fußpflege Weiß "/>
    <tag k="wheelchair" v="limited"/>
    <tag k="addr:city" v="Schenefeld"/>
    <tag k="addr:postcode" v="22869"/>
    <tag k="addr:housenumber" v="22"/>
    <tag k="addr:street" v="Altonaer Chaussee "/>
    <tag k="wheelchair:description" v="Die Toilette ist nur mit drei Schritten zu benutzen!"/>
    <tag k="phone" v="040 - 730 54 378"/>
  </node>
  <node id="-3995" version="0" timestamp="Fri Feb 24 10:53:36 +0100 2012" uid="1" user="" lat="53.60104" lon="9.83748">
    <tag k="name" v="Dr. Meyer-Hülsmann (Neurologe)"/>
    <tag k="wheelchair" v="limited"/>
    <tag k="addr:city" v="Schenefeld"/>
    <tag k="addr:postcode" v="22869"/>
    <tag k="addr:housenumber" v="1 (im Stadtzentrum Schenefeld 2. Stock)"/>
    <tag k="addr:street" v="Industriestraße"/>
    <tag k="wheelchair:description" v="Für die Toilette sind ein paar Schritte oder aber ein besonders kleiner Rollstuhl nötig"/>
    <tag k="amenity" v="doctors"/>
    <tag k="phone" v="040 - 840 68 30"/>
  </node>
  <node id="-3996" version="0" timestamp="Fri Feb 24 10:53:36 +0100 2012" uid="1" user="" lat="53.6016" lon="9.83867">
    <tag k="shop" v="department_store"/>
    <tag k="name" v="Reha Service Schenefeld"/>
    <tag k="wheelchair" v="limited"/>
    <tag k="addr:city" v="Schenefeld"/>
    <tag k="addr:postcode" v="22869"/>
    <tag k="addr:housenumber" v="2 e"/>
    <tag k="addr:street" v="Industriestraße"/>
    <tag k="wheelchair:description" v="Leider keine Toilette"/>
    <tag k="phone" v="040 - 830 40 34"/>
  </node>
  <node id="-4001" version="0" timestamp="Fri Feb 24 10:53:36 +0100 2012" uid="1" user="" lat="53.60002" lon="9.84503">
    <tag k="name" v="Bistro Fellini"/>
    <tag k="wheelchair" v="limited"/>
    <tag k="addr:city" v="Schenefeld"/>
    <tag k="addr:postcode" v="22869"/>
    <tag k="addr:housenumber" v="5-7"/>
    <tag k="addr:street" v="Lornsenstraße"/>
    <tag k="amenity" v="restaurant"/>
    <tag k="phone" v="040 25482513"/>
  </node>
</osm>
