<?xml version='1.0' encoding='UTF-8'?>
<osm version="0.6" generator="Osmosis 0.39">
  <node id="-3057" version="0" timestamp="Fri Feb 24 10:53:35 +0100 2012" uid="1" user="" lat="53.6789836" lon="10.149422">
    <tag k="name" v="Praxis Dr. Becker / Dr. Rust"/>
    <tag k="wheelchair" v="yes"/>
    <tag k="addr:city" v="Ammersbek"/>
    <tag k="addr:postcode" v="22949"/>
    <tag k="addr:housenumber" v="97"/>
    <tag k="addr:street" v="Hamburger Str."/>
    <tag k="wheelchair:description" v="Fahrstuhl vom Parkplatz aus erreichbar"/>
    <tag k="amenity" v="doctors"/>
    <tag k="phone" v="040-6050022"/>
  </node>
  <node id="-3058" version="0" timestamp="Fri Feb 24 10:53:35 +0100 2012" uid="1" user="" lat="53.6787816" lon="10.144961">
    <tag k="shop" v="supermarket"/>
    <tag k="name" v="Lidl"/>
    <tag k="wheelchair" v="yes"/>
  </node>
  <node id="-3059" version="0" timestamp="Fri Feb 24 10:53:35 +0100 2012" uid="1" user="" lat="53.6784082" lon="10.1443109">
    <tag k="shop" v="supermarket"/>
    <tag k="name" v="Aldi"/>
    <tag k="wheelchair" v="yes"/>
  </node>
</osm>
