<?xml version='1.0' encoding='UTF-8'?>
<osm version="0.6" generator="Osmosis 0.39">
  <node id="-2162" version="0" timestamp="Fri Feb 24 10:53:34 +0100 2012" uid="1" user="" lat="52.4518444" lon="13.4352682">
    <tag k="name" v="McFit"/>
    <tag k="wheelchair" v="no"/>
    <tag k="wheelchair:description" v="Zugang nur über Treppenhaus"/>
    <tag k="leisure" v="sports_centre"/>
  </node>
  <node id="-2163" version="0" timestamp="Fri Feb 24 10:53:34 +0100 2012" uid="1" user="" lat="52.4518492" lon="13.4348193">
    <tag k="name" v="McSun"/>
    <tag k="wheelchair" v="yes"/>
    <tag k="wheelchair:description" v="Solarium/Nahrungsergänzungsmittel, Stufenlos erreichbar"/>
    <tag k="leisure" v="sports_centre"/>
  </node>
  <node id="-2164" version="0" timestamp="Fri Feb 24 10:53:34 +0100 2012" uid="1" user="" lat="52.4516113" lon="13.4357856">
    <tag k="shop" v="supermarket"/>
    <tag k="name" v="Netto (rot)"/>
    <tag k="wheelchair" v="yes"/>
  </node>
  <node id="-2165" version="0" timestamp="Fri Feb 24 10:53:34 +0100 2012" uid="1" user="" lat="52.4516623" lon="13.4357364">
    <tag k="shop" v="bakery"/>
    <tag k="name" v="Bäcker im Netto"/>
    <tag k="wheelchair" v="yes"/>
  </node>
  <node id="-2166" version="0" timestamp="Fri Feb 24 10:53:34 +0100 2012" uid="1" user="" lat="52.4515946" lon="13.4348096">
    <tag k="name" v="Wurstmaxe Stand"/>
    <tag k="wheelchair" v="yes"/>
    <tag k="amenity" v="fast_food"/>
  </node>
  <node id="-2167" version="0" timestamp="Fri Feb 24 10:53:34 +0100 2012" uid="1" user="" lat="52.4514887" lon="13.4355729">
    <tag k="shop" v="clothes"/>
    <tag k="name" v="NKD"/>
    <tag k="wheelchair" v="yes"/>
  </node>
  <node id="-2168" version="0" timestamp="Fri Feb 24 10:53:34 +0100 2012" uid="1" user="" lat="52.4531929" lon="13.4548276">
    <tag k="shop" v="supermarket"/>
    <tag k="name" v="Lidl"/>
    <tag k="wheelchair" v="yes"/>
  </node>
  <node id="-2169" version="0" timestamp="Fri Feb 24 10:53:34 +0100 2012" uid="1" user="" lat="52.4581533" lon="13.4525452">
    <tag k="name" v="OSZ IMT"/>
    <tag k="wheelchair" v="yes"/>
    <tag k="wheelchair:description" v="Fahrstuhl bei Bedarf, Rampe für Eingang zum EG"/>
    <tag k="amenity" v="school"/>
  </node>
  <node id="-2170" version="0" timestamp="Fri Feb 24 10:53:34 +0100 2012" uid="1" user="" lat="52.4567379" lon="13.452477">
    <tag k="name" v="Dönerbude"/>
    <tag k="wheelchair" v="yes"/>
    <tag k="amenity" v="fast_food"/>
  </node>
  <node id="-3524" version="0" timestamp="Fri Feb 24 10:53:35 +0100 2012" uid="1" user="" lat="52.4559571" lon="13.4509309">
    <tag k="name" v="Reha Group Automotive"/>
    <tag k="wheelchair" v="yes"/>
    <tag k="addr:city" v="Berlin"/>
    <tag k="addr:postcode" v="12359"/>
    <tag k="addr:housenumber" v="20-22"/>
    <tag k="addr:street" v="Scheveninger Strasse"/>
    <tag k="wheelchair:description" v="Barrierefreier Fahrzeugumrüster!"/>
    <tag k="amenity" v="car_rental"/>
    <tag k="website" v="http://www.reha.com"/>
    <tag k="phone" v="+49 (0)30 - 325984680"/>
  </node>
  <node id="-4356" version="0" timestamp="Fri Feb 24 10:53:36 +0100 2012" uid="1" user="" lat="52.4352474" lon="13.4357049">
    <tag k="name" v="novajura RechtsanwaltsGmbH"/>
    <tag k="wheelchair" v="limited"/>
    <tag k="addr:city" v="Berlin"/>
    <tag k="addr:postcode" v="12349"/>
    <tag k="addr:housenumber" v="95"/>
    <tag k="addr:street" v="Buckower Damm "/>
    <tag k="wheelchair:description" v="Büro u. alle Räume barrierefrei erreichbar. Einzig keine rollstuhlgerechte Toilette vorhanden"/>
    <tag k="website" v="http://www.novajura.de"/>
    <tag k="phone" v="+49 30 6807194-40"/>
    <tag k="office" v="lawyer"/>
  </node>
</osm>
