<?xml version='1.0' encoding='UTF-8'?>
<osm version="0.6" generator="Osmosis 0.39">
  <node id="-5048" version="0" timestamp="Fri Feb 24 10:53:36 +0100 2012" uid="1" user="" lat="52.4377643" lon="13.4583511">
    <tag k="name" v="Vivantes Klinikum Neukölln - Haupteingang"/>
    <tag k="wheelchair" v="yes"/>
    <tag k="addr:city" v="Berlin"/>
    <tag k="addr:postcode" v="12351"/>
    <tag k="addr:housenumber" v="48"/>
    <tag k="addr:street" v="Rudower Straße"/>
    <tag k="wheelchair:description" v="Automatiktür"/>
    <tag k="amenity" v="hospital"/>
    <tag k="website" v="http://www.vivantes.de/knk/"/>
  </node>
  <node id="-5049" version="0" timestamp="Fri Feb 24 10:53:36 +0100 2012" uid="1" user="" lat="52.4361075" lon="13.4558315">
    <tag k="name" v="Mutter-Kind-Zentrum - Haupteingang"/>
    <tag k="wheelchair" v="yes"/>
    <tag k="addr:city" v="Berlin"/>
    <tag k="addr:postcode" v="12351"/>
    <tag k="addr:housenumber" v="45"/>
    <tag k="addr:street" v="Kormoranweg"/>
    <tag k="wheelchair:description" v="Automatiktür"/>
    <tag k="amenity" v="hospital"/>
    <tag k="website" v="http://www.geburtshilfe-berlin.de/"/>
    <tag k="phone" v="+49 030.13010 "/>
  </node>
  <node id="-5050" version="0" timestamp="Fri Feb 24 10:53:36 +0100 2012" uid="1" user="" lat="52.4367264" lon="13.4574722">
    <tag k="name" v="Zentrale Sterilgutversorgungsabteilung - Eingang"/>
    <tag k="wheelchair" v="no"/>
    <tag k="addr:city" v="Berlin"/>
    <tag k="addr:postcode" v="12351"/>
    <tag k="addr:housenumber" v="48"/>
    <tag k="addr:street" v="Rudower Straße"/>
    <tag k="wheelchair:description" v="Eine Treppe abwärts, eine menge Stufen nach unten"/>
    <tag k="amenity" v="hospital"/>
    <tag k="website" v="http://www.vivantes.de/knk/"/>
    <tag k="phone" v="+49 030 130147525"/>
  </node>
  <node id="-5051" version="0" timestamp="Fri Feb 24 10:53:36 +0100 2012" uid="1" user="" lat="52.4374147" lon="13.4579098">
    <tag k="name" v="Vivantes Klinikum Neukölln - Hintereingang"/>
    <tag k="wheelchair" v="yes"/>
    <tag k="addr:city" v="Berlin"/>
    <tag k="addr:postcode" v="12351"/>
    <tag k="addr:housenumber" v="48"/>
    <tag k="addr:street" v="Rudower Straße"/>
    <tag k="wheelchair:description" v="Automatiktür"/>
    <tag k="amenity" v="hospital"/>
    <tag k="website" v="http://www.vivantes.de/knk/"/>
  </node>
  <node id="-5052" version="0" timestamp="Fri Feb 24 10:53:36 +0100 2012" uid="1" user="" lat="52.4374855" lon="13.4582866">
    <tag k="name" v="Restaurant/Café - Vivantes Klinikum Neukölln - Hintereingang"/>
    <tag k="wheelchair" v="yes"/>
    <tag k="addr:city" v="Berlin"/>
    <tag k="addr:postcode" v="12351"/>
    <tag k="addr:housenumber" v="48"/>
    <tag k="addr:street" v="Rudower Straße"/>
    <tag k="wheelchair:description" v="ACHTUNG: Der Hintereingang ist nicht immer geöffnet, d.h. NIEMAND kommt dort rein"/>
    <tag k="amenity" v="restaurant"/>
    <tag k="website" v="http://www.vivantes.de/knk/"/>
  </node>
  <node id="-5053" version="0" timestamp="Fri Feb 24 10:53:36 +0100 2012" uid="1" user="" lat="52.4375129" lon="13.4585582">
    <tag k="name" v="Restaurant/Café - Vivantes Klinikum Neukölln - Hintereingang"/>
    <tag k="wheelchair" v="yes"/>
    <tag k="addr:city" v="Berlin"/>
    <tag k="addr:postcode" v="12351"/>
    <tag k="addr:housenumber" v="48"/>
    <tag k="addr:street" v="Rudower Straße"/>
    <tag k="wheelchair:description" v="ACHTUNG: Der Hintereingang ist nicht immer geöffnet, d.h. NIEMAND kommt dort rein"/>
    <tag k="amenity" v="restaurant"/>
    <tag k="website" v="http://www.vivantes.de/knk/"/>
  </node>
  <node id="-5054" version="0" timestamp="Fri Feb 24 10:53:36 +0100 2012" uid="1" user="" lat="52.4375129" lon="13.4585582">
    <tag k="name" v="Restaurant/Café - Vivantes Klinikum Neukölln - Hintereingang"/>
    <tag k="wheelchair" v="yes"/>
    <tag k="addr:city" v="Berlin"/>
    <tag k="addr:postcode" v="12351"/>
    <tag k="addr:housenumber" v="48"/>
    <tag k="addr:street" v="Rudower Straße"/>
    <tag k="wheelchair:description" v="ACHTUNG: Der Hintereingang ist nicht immer geöffnet, d.h. NIEMAND kommt dort rein"/>
    <tag k="amenity" v="restaurant"/>
    <tag k="website" v="http://www.vivantes.de/knk/"/>
  </node>
  <node id="-5055" version="0" timestamp="Fri Feb 24 10:53:36 +0100 2012" uid="1" user="" lat="52.4367426" lon="13.4564982">
    <tag k="name" v="Hausapotheke - Vivantes Klinikum Neukölln"/>
    <tag k="wheelchair" v="no"/>
    <tag k="addr:city" v="Berlin"/>
    <tag k="addr:postcode" v="12351"/>
    <tag k="addr:housenumber" v="48"/>
    <tag k="addr:street" v="Rudower Straße"/>
    <tag k="wheelchair:description" v="Eine Treppe abwärts, eine menge Stufen nach unten"/>
    <tag k="amenity" v="pharmacy"/>
    <tag k="website" v="http://www.vivantes.de/knk/apotheke-sued"/>
  </node>
</osm>
