<?xml version='1.0' encoding='UTF-8'?>
<osm version="0.6" generator="Osmosis 0.39">
  <node id="-10" version="0" timestamp="Fri Feb 24 10:53:32 +0100 2012" uid="1" user="" lat="52.5083269" lon="13.3036973">
    <tag k="name" v="Charlotte-Wolff-Kolleg"/>
    <tag k="wheelchair" v="yes"/>
    <tag k="addr:city" v="Berlin – Charlottenburg-Wilmersdorf"/>
    <tag k="addr:postcode" v="10627"/>
    <tag k="addr:housenumber" v="40-41"/>
    <tag k="addr:street" v="Pestalozzistrasse"/>
    <tag k="wheelchair:description" v="Aufzug links am Gebäude, WC im 2.Stock; Cafeteria und Schliessfächer nicht rollstuhlgerecht"/>
    <tag k="amenity" v="school"/>
    <tag k="website" v="http://charlotte-wolff-kolleg.de/"/>
    <tag k="phone" v="+49 30 9029 28825"/>
  </node>
  <node id="-709" version="0" timestamp="Fri Feb 24 10:53:32 +0100 2012" uid="1" user="" lat="52.5071206" lon="13.30687">
    <tag k="shop" v="supermarket"/>
    <tag k="name" v="Rossmann Drogerie"/>
    <tag k="wheelchair" v="no"/>
  </node>
  <node id="-977" version="0" timestamp="Fri Feb 24 10:53:33 +0100 2012" uid="1" user="" lat="52.5100878" lon="13.295394">
    <tag k="name" v="Krankengymnastik"/>
    <tag k="wheelchair" v="no"/>
    <tag k="addr:city" v="Berlin"/>
    <tag k="addr:housenumber" v="38"/>
    <tag k="addr:street" v="Witzlebenstraße"/>
    <tag k="amenity" v="pharmacy"/>
  </node>
  <node id="-1006" version="0" timestamp="Fri Feb 24 10:53:33 +0100 2012" uid="1" user="" lat="52.5167281" lon="13.3037541">
    <tag k="name" v="Candor Beratungsgesellschaft mbH"/>
    <tag k="wheelchair" v="no"/>
    <tag k="addr:city" v="Berlin"/>
    <tag k="addr:housenumber" v="20"/>
    <tag k="addr:street" v="Behaimstraße "/>
    <tag k="wheelchair:description" v="Ist zwar nicht Rollstuhlgerecht, aber die Damen und Herren der Agentur helfen gerne!"/>
    <tag k="website" v="http://candor-beratung.de"/>
    <tag k="phone" v="03025469152"/>
  </node>
  <node id="-1007" version="0" timestamp="Fri Feb 24 10:53:33 +0100 2012" uid="1" user="" lat="52.516473" lon="13.3035042">
    <tag k="shop" v="bicycle"/>
    <tag k="name" v="Fahrradladen"/>
    <tag k="wheelchair" v="no"/>
    <tag k="addr:city" v="Berlin"/>
    <tag k="addr:postcode" v="10585"/>
    <tag k="addr:housenumber" v="21"/>
    <tag k="addr:street" v="Behaimstraße "/>
  </node>
  <node id="-1950" version="0" timestamp="Fri Feb 24 10:53:33 +0100 2012" uid="1" user="" lat="52.51487" lon="13.31545">
    <tag k="name" v="City Guesthouse Berlin"/>
    <tag k="wheelchair" v="limited"/>
    <tag k="addr:city" v="Berlin"/>
    <tag k="addr:housenumber" v="24"/>
    <tag k="addr:street" v="Gleimstr."/>
    <tag k="wheelchair:description" v="1 Stufe, keine Toilette"/>
    <tag k="amenity" v="restaurant"/>
  </node>
  <node id="-1951" version="0" timestamp="Fri Feb 24 10:53:33 +0100 2012" uid="1" user="" lat="52.51487" lon="13.31545">
    <tag k="name" v="San Marco"/>
    <tag k="wheelchair" v="limited"/>
    <tag k="addr:city" v="Berlin"/>
    <tag k="addr:housenumber" v="102"/>
    <tag k="addr:street" v="Schönhauser Allee "/>
    <tag k="wheelchair:description" v="1 Stufe, keine Toilette"/>
    <tag k="amenity" v="restaurant"/>
  </node>
  <node id="-2259" version="0" timestamp="Fri Feb 24 10:53:34 +0100 2012" uid="1" user="" lat="52.5056008" lon="13.3289765">
    <tag k="name" v="Theater des Westens"/>
    <tag k="wheelchair" v="yes"/>
    <tag k="amenity" v="theatre"/>
  </node>
  <node id="-2261" version="0" timestamp="Fri Feb 24 10:53:34 +0100 2012" uid="1" user="" lat="52.5049037" lon="13.3309929">
    <tag k="shop" v="department_store"/>
    <tag k="name" v="Karstadt Sport"/>
    <tag k="wheelchair" v="unknown"/>
  </node>
  <node id="-2262" version="0" timestamp="Fri Feb 24 10:53:34 +0100 2012" uid="1" user="" lat="52.5039582" lon="13.3307292">
    <tag k="shop" v="clothes"/>
    <tag k="name" v="H&amp;M"/>
    <tag k="wheelchair" v="unknown"/>
  </node>
  <node id="-2263" version="0" timestamp="Fri Feb 24 10:53:34 +0100 2012" uid="1" user="" lat="52.5025384" lon="13.3275231">
    <tag k="name" v="Zahnarzt"/>
    <tag k="wheelchair" v="no"/>
    <tag k="addr:housenumber" v="74"/>
    <tag k="addr:street" v="Fasanen Straße"/>
    <tag k="amenity" v="doctors"/>
  </node>
  <node id="-2580" version="0" timestamp="Fri Feb 24 10:53:34 +0100 2012" uid="1" user="" lat="52.5040412" lon="13.327282">
    <tag k="name" v="Kempinski Hotel Bristol Berlin"/>
    <tag k="wheelchair" v="no"/>
    <tag k="tourism" v="hotel"/>
  </node>
  <node id="-3164" version="0" timestamp="Fri Feb 24 10:53:35 +0100 2012" uid="1" user="" lat="52.5052898" lon="13.3202471">
    <tag k="shop" v="books"/>
    <tag k="name" v="Autorenbuchhandlung Berlin"/>
    <tag k="wheelchair" v="unknown"/>
    <tag k="addr:city" v="Berlin"/>
    <tag k="addr:postcode" v="10623"/>
    <tag k="addr:housenumber" v="599-600"/>
    <tag k="addr:street" v="Else-Ury-Bogen"/>
    <tag k="website" v="http://www.autorenbuchhandlung-berlin.de"/>
    <tag k="phone" v="030 3130151"/>
  </node>
  <node id="-4381" version="0" timestamp="Fri Feb 24 10:53:36 +0100 2012" uid="1" user="" lat="52.51069" lon="13.32207">
    <tag k="name" v="ADVOKOLB Rechtsanwälte - Fachanwalt"/>
    <tag k="wheelchair" v="yes"/>
    <tag k="addr:city" v="Berlin"/>
    <tag k="addr:postcode" v="10623"/>
    <tag k="addr:housenumber" v="7"/>
    <tag k="addr:street" v="Hardenbergstraße"/>
    <tag k="wheelchair:description" v="ebenerdiger Zugang, Aufzug in die Kanzlei im 1. OG vorhanden"/>
    <tag k="website" v="http://www.advokolb.de"/>
    <tag k="phone" v="+49 30 80497353"/>
    <tag k="office" v="lawyer"/>
  </node>
  <node id="-5341" version="0" timestamp="Fri Feb 24 10:53:37 +0100 2012" uid="1" user="" lat="52.5019778" lon="13.3313755">
    <tag k="name" v="H10"/>
    <tag k="wheelchair" v="yes"/>
    <tag k="tourism" v="hotel"/>
  </node>
  <node id="-5555" version="0" timestamp="Fri Feb 24 10:53:37 +0100 2012" uid="1" user="" lat="52.5143428" lon="13.3086903">
    <tag k="name" v="Stadtbad Charlottenburg - Alte Halle"/>
    <tag k="wheelchair" v="limited"/>
    <tag k="addr:city" v="Berlin"/>
    <tag k="addr:postcode" v="10585"/>
    <tag k="addr:housenumber" v="10"/>
    <tag k="addr:street" v="Krumme Straße"/>
    <tag k="wheelchair:description" v="2 finnische Trockensaunen,  1 Bio-Sauna,  1 Russisch-Römisches Dampfbad, Frischluftterrasse"/>
    <tag k="amenity" v="swimming_pool"/>
    <tag k="website" v="http://www.berlinerbaederbetriebe.de/64.html"/>
  </node>
  <node id="-5720" version="0" timestamp="Fri Feb 24 10:53:37 +0100 2012" uid="1" user="" lat="52.5099465" lon="13.3241913">
    <tag k="name" v="ADVOKOLB Rechtsanwälte - Fachanwalt"/>
    <tag k="wheelchair" v="limited"/>
    <tag k="addr:city" v="Berlin"/>
    <tag k="addr:postcode" v="10623"/>
    <tag k="addr:housenumber" v="7"/>
    <tag k="addr:street" v="Hardenbergstraße"/>
    <tag k="wheelchair:description" v="Keine Schwellen, ebenerdiger Personenaufzug vorhanden"/>
    <tag k="website" v="http://www.advokolb.de"/>
    <tag k="phone" v="+49 30 80497353"/>
    <tag k="office" v="lawyer"/>
  </node>
</osm>
