<?xml version='1.0' encoding='UTF-8'?>
<osm version="0.6" generator="Osmosis 0.39">
  <node id="-5058" version="0" timestamp="Fri Feb 24 10:53:37 +0100 2012" uid="1" user="" lat="52.4482014" lon="13.2774011">
    <tag k="name" v="FU Universitätsbibliothek"/>
    <tag k="wheelchair" v="no"/>
    <tag k="wheelchair:description" v="Vorraum über Ihnesstraße, Hillfe ev. durch Angestellte"/>
    <tag k="amenity" v="library"/>
  </node>
  <node id="-5328" version="0" timestamp="Fri Feb 24 10:53:37 +0100 2012" uid="1" user="" lat="52.44765" lon="13.27843">
    <tag k="name" v="Henry-Ford-Bau "/>
    <tag k="wheelchair" v="yes"/>
    <tag k="amenity" v="university"/>
  </node>
  <node id="-5541" version="0" timestamp="Fri Feb 24 10:53:37 +0100 2012" uid="1" user="" lat="52.4599102" lon="13.2792608">
    <tag k="name" v="Villa Borbone"/>
    <tag k="wheelchair" v="unknown"/>
    <tag k="addr:city" v="Berlin"/>
    <tag k="addr:postcode" v="14195"/>
    <tag k="addr:housenumber" v="87"/>
    <tag k="addr:street" v="Königin-Luise-Straße"/>
    <tag k="amenity" v="restaurant"/>
    <tag k="website" v="http://www.villa-borbone.de"/>
    <tag k="phone" v="030 48812081"/>
  </node>
</osm>
