<?xml version='1.0' encoding='UTF-8'?>
<osm version="0.6" generator="Osmosis 0.39">
  <node id="-735" version="0" timestamp="Fri Feb 24 10:53:32 +0100 2012" uid="1" user="" lat="52.5027907" lon="13.468245">
    <tag k="name" v="Info-Punkt Ostkreuz"/>
    <tag k="wheelchair" v="yes"/>
  </node>
  <node id="-788" version="0" timestamp="Fri Feb 24 10:53:32 +0100 2012" uid="1" user="" lat="52.51231" lon="13.45766">
    <tag k="name" v="Friedländer-Schule"/>
    <tag k="wheelchair" v="yes"/>
    <tag k="addr:city" v="Berlin"/>
    <tag k="addr:postcode" v="10245"/>
    <tag k="addr:housenumber" v="106"/>
    <tag k="addr:street" v="Boxhagener Straße"/>
    <tag k="amenity" v="school"/>
    <tag k="website" v="http://www.friedlaender.de"/>
    <tag k="phone" v="+49 30 29669413"/>
  </node>
  <node id="-2366" version="0" timestamp="Fri Feb 24 10:53:34 +0100 2012" uid="1" user="" lat="52.5251302" lon="13.4537274">
    <tag k="name" v="Deutscher Anglerverband - Landesverband Berlin"/>
    <tag k="wheelchair" v="limited"/>
    <tag k="addr:city" v="Berlin"/>
    <tag k="addr:postcode" v="10249"/>
    <tag k="addr:housenumber" v="13"/>
    <tag k="tourism" v="attraction"/>
    <tag k="addr:street" v="Hausburgstraße"/>
    <tag k="wheelchair:description" v="Hilfe für Rollstuhlfahrer vorhanden"/>
    <tag k="website" v="http://www.landesanglerverband-berlin.de"/>
    <tag k="phone" v="+49 30 4271728"/>
  </node>
  <node id="-2851" version="0" timestamp="Fri Feb 24 10:53:34 +0100 2012" uid="1" user="" lat="52.5163629" lon="13.4409732">
    <tag k="name" v="BAHN-BKK"/>
    <tag k="wheelchair" v="limited"/>
    <tag k="addr:city" v="Berlin"/>
    <tag k="addr:housenumber" v="90A"/>
    <tag k="addr:street" v="Karl-Marx-Allee"/>
    <tag k="wheelchair:description" v="Drehtür am Eingang, Kasse ist über Fahrstuhl erreichbar"/>
  </node>
  <node id="-3189" version="0" timestamp="Fri Feb 24 10:53:35 +0100 2012" uid="1" user="" lat="52.50866" lon="13.43712">
    <tag k="name" v="Berliner Postbahnhof"/>
    <tag k="wheelchair" v="yes"/>
    <tag k="addr:city" v="Berlin"/>
    <tag k="addr:postcode" v="10243"/>
    <tag k="addr:housenumber" v="8"/>
    <tag k="addr:street" v="Straße der Pariser Kommune "/>
    <tag k="wheelchair:description" v="Zugang über hinter Tür und Lastenaufzug"/>
    <tag k="amenity" v="theatre"/>
    <tag k="website" v="http://www.postbahnhof.de/"/>
  </node>
  <node id="-3202" version="0" timestamp="Fri Feb 24 10:53:35 +0100 2012" uid="1" user="" lat="52.5179829" lon="13.4665598">
    <tag k="name" v="Samariterkirche"/>
    <tag k="wheelchair" v="limited"/>
    <tag k="amenity" v="place_of_worship"/>
  </node>
  <node id="-3859" version="0" timestamp="Fri Feb 24 10:53:35 +0100 2012" uid="1" user="" lat="52.5162004" lon="13.4422407">
    <tag k="name" v="Alte Feuerwache"/>
    <tag k="wheelchair" v="yes"/>
    <tag k="amenity" v="theatre"/>
  </node>
  <node id="-3883" version="0" timestamp="Fri Feb 24 10:53:35 +0100 2012" uid="1" user="" lat="52.51329" lon="13.45871">
    <tag k="shop" v="clothes"/>
    <tag k="name" v="heimat"/>
    <tag k="wheelchair" v="limited"/>
    <tag k="addr:city" v="Berlin"/>
    <tag k="addr:postcode" v="10247"/>
    <tag k="addr:housenumber" v="17"/>
    <tag k="addr:street" v="Niederbarnimstrasse "/>
    <tag k="wheelchair:description" v="1 Stufe, Ladenpersonal hilft gerne"/>
    <tag k="website" v="http://facebook.com/heimat.berlin"/>
  </node>
  <node id="-4063" version="0" timestamp="Fri Feb 24 10:53:36 +0100 2012" uid="1" user="" lat="52.5106226" lon="13.4343248">
    <tag k="name" v="Ostbahnhof"/>
    <tag k="wheelchair" v="yes"/>
    <tag k="amenity" v="bank"/>
  </node>
  <node id="-4592" version="0" timestamp="Fri Feb 24 10:53:36 +0100 2012" uid="1" user="" lat="52.50863" lon="13.46005">
    <tag k="name" v="Longshot"/>
    <tag k="wheelchair" v="yes"/>
    <tag k="addr:city" v="Berlin"/>
    <tag k="addr:postcode" v="10245"/>
    <tag k="addr:housenumber" v="2"/>
    <tag k="addr:street" v="Knorrpromenade"/>
    <tag k="amenity" v="restaurant"/>
    <tag k="website" v="http://www.longshot-bar.de"/>
    <tag k="phone" v="+49 30 68838796"/>
  </node>
  <node id="-4923" version="0" timestamp="Fri Feb 24 10:53:36 +0100 2012" uid="1" user="" lat="52.5113162" lon="13.4571382">
    <tag k="name" v="Astro"/>
    <tag k="wheelchair" v="limited"/>
    <tag k="amenity" v="bar"/>
  </node>
  <node id="-5553" version="0" timestamp="Fri Feb 24 10:53:37 +0100 2012" uid="1" user="" lat="52.5128664" lon="13.4261244">
    <tag k="name" v="Schwimmhalle Holzmarktstraße"/>
    <tag k="wheelchair" v="yes"/>
    <tag k="addr:city" v="Berlin"/>
    <tag k="addr:postcode" v="10243"/>
    <tag k="addr:housenumber" v="51"/>
    <tag k="addr:street" v="Holzmarktstraße"/>
    <tag k="wheelchair:description" v="1 Behindertenumkleidekabine mit Dusche/WC, 1 Wasserrollstuhl, 1 Lift"/>
    <tag k="amenity" v="swimming_pool"/>
    <tag k="website" v="http://www.berlinerbaederbetriebe.de/68.html"/>
  </node>
  <node id="-5554" version="0" timestamp="Fri Feb 24 10:53:37 +0100 2012" uid="1" user="" lat="52.526504" lon="13.4462835">
    <tag k="name" v="SSE Schwimm- und Sprunghalle im Europa-Sportpark"/>
    <tag k="wheelchair" v="yes"/>
    <tag k="addr:city" v="Berlin"/>
    <tag k="addr:postcode" v="10407"/>
    <tag k="addr:housenumber" v="26"/>
    <tag k="addr:street" v="Paul-Heyse-Straße"/>
    <tag k="wheelchair:description" v="Behinderten-WC am Eingang, 4 Kabinen mit  je 5 Schränken, ohne Bank, 2 Duschen, 4 Toiletten mit je 1 Schrank, 2 Wasserrollstühle, 1 Lift am 50m Becken, 1 Lift am Therapiebecken (50cm hoher Beckenrand) 3 Behindertenparkplätze gegenüber vom Eingang, S-Bahn-"/>
    <tag k="amenity" v="swimming_pool"/>
    <tag k="website" v="http://www.berlinerbaederbetriebe.de/80.html"/>
  </node>
</osm>
