<?xml version='1.0' encoding='UTF-8'?>
<osm version="0.6" generator="Osmosis 0.39">
  <node id="-1634" version="0" timestamp="Fri Feb 24 10:53:33 +0100 2012" uid="1" user="" lat="52.5430709" lon="13.2305438">
    <tag k="name" v="Spielhaus"/>
    <tag k="wheelchair" v="yes"/>
    <tag k="addr:city" v="Berlin"/>
    <tag k="addr:postcode" v="13599"/>
    <tag k="addr:housenumber" v="6"/>
    <tag k="addr:street" v="Goldbeckweg"/>
    <tag k="website" v="http://www.haveleck.de"/>
  </node>
  <node id="-1635" version="0" timestamp="Fri Feb 24 10:53:33 +0100 2012" uid="1" user="" lat="52.5467305" lon="13.2277205">
    <tag k="name" v="Jugendkulturzentrum Haveleck"/>
    <tag k="wheelchair" v="no"/>
    <tag k="addr:city" v="Berlin"/>
    <tag k="addr:postcode" v="13599"/>
    <tag k="addr:housenumber" v="10"/>
    <tag k="addr:street" v="Pulvermühlenweg"/>
    <tag k="website" v="http://www.haveleck.de"/>
  </node>
  <node id="-1637" version="0" timestamp="Fri Feb 24 10:53:33 +0100 2012" uid="1" user="" lat="52.5430701" lon="13.2304811">
    <tag k="name" v="Firma Sange - winterdienste"/>
    <tag k="wheelchair" v="yes"/>
    <tag k="website" v="http://grundschulspielen.de"/>
  </node>
  <node id="-2664" version="0" timestamp="Fri Feb 24 10:53:34 +0100 2012" uid="1" user="" lat="52.5377144" lon="13.2186233">
    <tag k="shop" v="supermarket"/>
    <tag k="name" v="Kaufland"/>
    <tag k="wheelchair" v="yes"/>
    <tag k="wheelchair:description" v="Kassen etwas eng, müssen genau ausgewählt werden"/>
  </node>
  <node id="-2665" version="0" timestamp="Fri Feb 24 10:53:34 +0100 2012" uid="1" user="" lat="52.5375403" lon="13.2178851">
    <tag k="name" v="U-Bahn Station Zitadelle"/>
    <tag k="wheelchair" v="no"/>
    <tag k="wheelchair:description" v="nur in eine Richtung mit Rolltreppen versehen (hoch oder runter, nicht beides)"/>
    <tag k="railway" v="station"/>
  </node>
  <node id="-3280" version="0" timestamp="Fri Feb 24 10:53:35 +0100 2012" uid="1" user="" lat="52.5429145" lon="13.2391711">
    <tag k="name" v="Berliner Bank"/>
    <tag k="wheelchair" v="unknown"/>
    <tag k="addr:street" v="Gartenfelder Str., Ecke Haselhorster Damm"/>
    <tag k="amenity" v="bank"/>
  </node>
</osm>
