<?xml version='1.0' encoding='UTF-8'?>
<osm version="0.6" generator="Osmosis 0.39">
  <node id="-636" version="0" timestamp="Fri Feb 24 10:53:32 +0100 2012" uid="1" user="" lat="52.6190442" lon="13.4873994">
    <tag k="name" v="Grundschule im Panketal"/>
    <tag k="wheelchair" v="yes"/>
    <tag k="amenity" v="school"/>
  </node>
  <node id="-637" version="0" timestamp="Fri Feb 24 10:53:32 +0100 2012" uid="1" user="" lat="52.6241298" lon="13.481548">
    <tag k="name" v="Kita Krümelkiste"/>
    <tag k="wheelchair" v="yes"/>
    <tag k="amenity" v="kindergarten"/>
  </node>
  <node id="-1505" version="0" timestamp="Fri Feb 24 10:53:33 +0100 2012" uid="1" user="" lat="52.6147" lon="13.46728">
    <tag k="shop" v="bakery"/>
    <tag k="name" v="Bäckerei Tubandt Nasch"/>
    <tag k="wheelchair" v="no"/>
    <tag k="addr:city" v="Berlin"/>
    <tag k="addr:postcode" v="13125"/>
    <tag k="addr:housenumber" v="25"/>
    <tag k="addr:street" v="Pankgrafenstraße"/>
    <tag k="wheelchair:description" v="mehrere Stufen zum Verkaufsraum"/>
    <tag k="website" v="http://www.tubandt-nasch.de/"/>
    <tag k="phone" v=" +49309430629"/>
  </node>
</osm>
