<?xml version='1.0' encoding='UTF-8'?>
<osm version="0.6" generator="Osmosis 0.39">
  <node id="-2653" version="0" timestamp="Fri Feb 24 10:53:34 +0100 2012" uid="1" user="" lat="52.4573912" lon="13.159479">
    <tag k="name" v="Kulturpark Berlin"/>
    <tag k="wheelchair" v="no"/>
    <tag k="amenity" v="arts_centre"/>
    <tag k="website" v="http://kulturpark-berlin.de"/>
  </node>
  <node id="-3794" version="0" timestamp="Fri Feb 24 10:53:35 +0100 2012" uid="1" user="" lat="52.4511346" lon="13.13252">
    <tag k="name" v="Trattoria Alberto"/>
    <tag k="wheelchair" v="yes"/>
    <tag k="addr:city" v="Berlin"/>
    <tag k="addr:postcode" v="14089"/>
    <tag k="addr:housenumber" v="26"/>
    <tag k="addr:street" v="Sakrower LandstraÃŸe"/>
    <tag k="wheelchair:description" v="ebenerdiger Eingang, Rolstuhltoilette"/>
    <tag k="amenity" v="restaurant"/>
    <tag k="website" v="http://trattoria-alberto.de/"/>
    <tag k="phone" v="+49 30 36991156"/>
  </node>
  <node id="-3795" version="0" timestamp="Fri Feb 24 10:53:35 +0100 2012" uid="1" user="" lat="52.4650667" lon="13.1720118">
    <tag k="name" v="Havelcasino"/>
    <tag k="wheelchair" v="no"/>
    <tag k="addr:city" v="Berlin"/>
    <tag k="addr:postcode" v="14089"/>
    <tag k="addr:housenumber" v="217"/>
    <tag k="addr:street" v="Kladower Damm"/>
    <tag k="wheelchair:description" v="Stufen"/>
    <tag k="amenity" v="restaurant"/>
    <tag k="phone" v="+49 30 3655196"/>
  </node>
</osm>
