<?xml version='1.0' encoding='UTF-8'?>
<osm version="0.6" generator="Osmosis 0.39">
  <node id="-737" version="0" timestamp="Fri Feb 24 10:53:32 +0100 2012" uid="1" user="" lat="52.4852035" lon="13.3820024">
    <tag k="name" v="Gargoyle SM-Club"/>
    <tag k="wheelchair" v="limited"/>
    <tag k="addr:city" v="Berlin"/>
    <tag k="addr:postcode" v="10965"/>
    <tag k="addr:housenumber" v="22"/>
    <tag k="addr:street" v="Dudenstr. "/>
    <tag k="wheelchair:description" v="eine Eingangsstufe, Klingel für Rollstuhlfahrer und mobile Rampe vorhanden, behindertengerechtes WC"/>
    <tag k="amenity" v="nightclub"/>
    <tag k="website" v="http://www.gargoyle-berlin.de"/>
    <tag k="phone" v="+49 30 67127147"/>
  </node>
  <node id="-908" version="0" timestamp="Fri Feb 24 10:53:33 +0100 2012" uid="1" user="" lat="52.5016" lon="13.40233">
    <tag k="shop" v="hairdresser"/>
    <tag k="name" v="Auszeit Ihr Friseur"/>
    <tag k="wheelchair" v="limited"/>
    <tag k="addr:city" v="Berlin"/>
    <tag k="addr:postcode" v="12621"/>
    <tag k="addr:housenumber" v="91"/>
    <tag k="addr:street" v="Bergedorfer Str."/>
    <tag k="wheelchair:description" v="WC nicht Rollstuhlgerecht"/>
    <tag k="website" v="http://www.ihre-auszeit.eu"/>
    <tag k="phone" v="+49 30 5661463"/>
  </node>
  <node id="-2725" version="0" timestamp="Fri Feb 24 10:53:34 +0100 2012" uid="1" user="" lat="52.5023606" lon="13.3950136">
    <tag k="name" v="Jüdisches Museum"/>
    <tag k="wheelchair" v="yes"/>
    <tag k="addr:city" v="Berlin"/>
    <tag k="addr:postcode" v="10969"/>
    <tag k="addr:housenumber" v="9-14"/>
    <tag k="addr:street" v="Lindenstraße"/>
    <tag k="website" v="http://www.jmberlin.de"/>
  </node>
  <node id="-2920" version="0" timestamp="Fri Feb 24 10:53:34 +0100 2012" uid="1" user="" lat="52.50647" lon="13.3999">
    <tag k="name" v="Kitzküche"/>
    <tag k="wheelchair" v="yes"/>
    <tag k="addr:city" v="Berlin"/>
    <tag k="addr:postcode" v="10969"/>
    <tag k="addr:housenumber" v="106"/>
    <tag k="addr:street" v="Oranienstraße "/>
    <tag k="wheelchair:description" v="barrierefreie Kantine"/>
  </node>
  <node id="-2985" version="0" timestamp="Fri Feb 24 10:53:35 +0100 2012" uid="1" user="" lat="52.503608" lon="13.3983985">
    <tag k="name" v="Berlinische Galerie"/>
    <tag k="wheelchair" v="yes"/>
    <tag k="addr:city" v="Berlin"/>
    <tag k="addr:postcode" v="10969"/>
    <tag k="addr:housenumber" v="124-128"/>
    <tag k="tourism" v="museum"/>
    <tag k="addr:street" v="Alte Jakobstraße"/>
    <tag k="website" v="http://www.berlinischegalerie.de"/>
  </node>
  <node id="-2989" version="0" timestamp="Fri Feb 24 10:53:35 +0100 2012" uid="1" user="" lat="52.50361" lon="13.3984">
    <tag k="name" v="Restaurant Glashaus"/>
    <tag k="wheelchair" v="limited"/>
    <tag k="addr:city" v="Berlin"/>
    <tag k="addr:postcode" v="10969"/>
    <tag k="addr:housenumber" v="29"/>
    <tag k="addr:street" v="Lindenstraße"/>
    <tag k="wheelchair:description" v="kein WC erreichbar"/>
    <tag k="amenity" v="restaurant"/>
    <tag k="website" v="http://restaurant-glashaus.de/"/>
  </node>
  <node id="-3940" version="0" timestamp="Fri Feb 24 10:53:35 +0100 2012" uid="1" user="" lat="52.4892345" lon="13.4063717">
    <tag k="name" v="Kirche am Südstern"/>
    <tag k="wheelchair" v="unknown"/>
    <tag k="amenity" v="place_of_worship"/>
  </node>
  <node id="-4021" version="0" timestamp="Fri Feb 24 10:53:36 +0100 2012" uid="1" user="" lat="52.50254" lon="13.42104">
    <tag k="name" v="s-Bahnhof Warschauer Straße"/>
    <tag k="wheelchair" v="no"/>
    <tag k="railway" v="platform"/>
  </node>
  <node id="-4051" version="0" timestamp="Fri Feb 24 10:53:36 +0100 2012" uid="1" user="" lat="52.49991" lon="13.41368">
    <tag k="name" v="Tee&amp;Schokolade"/>
    <tag k="wheelchair" v="limited"/>
    <tag k="addr:city" v="Berlin"/>
    <tag k="addr:postcode" v="10999"/>
    <tag k="addr:housenumber" v="14"/>
    <tag k="addr:street" v="Dresdener Straße"/>
    <tag k="wheelchair:description" v="Eingang barrierefrei, leider kein Behindertengerchtes WC"/>
    <tag k="amenity" v="cafe"/>
    <tag k="phone" v="+49 30 75545478"/>
  </node>
  <node id="-4563" version="0" timestamp="Fri Feb 24 10:53:36 +0100 2012" uid="1" user="" lat="52.4990415" lon="13.3918411">
    <tag k="name" v="U-Bahn Hallesches Tor"/>
    <tag k="wheelchair" v="no"/>
    <tag k="wheelchair:description" v="Kein Aufzug"/>
    <tag k="railway" v="subway_entrance"/>
  </node>
  <node id="-4628" version="0" timestamp="Fri Feb 24 10:53:36 +0100 2012" uid="1" user="" lat="52.4924312" lon="13.418819">
    <tag k="name" v="Tagesbrot"/>
    <tag k="wheelchair" v="limited"/>
    <tag k="amenity" v="cafe"/>
  </node>
  <node id="-5279" version="0" timestamp="Fri Feb 24 10:53:37 +0100 2012" uid="1" user="" lat="52.49916" lon="13.42176">
    <tag k="name" v="Cafe Übersee"/>
    <tag k="wheelchair" v="yes"/>
    <tag k="addr:city" v="Berlin"/>
    <tag k="addr:postcode" v="10999"/>
    <tag k="addr:housenumber" v="44"/>
    <tag k="addr:street" v="Paul-Lincke-Ufer"/>
    <tag k="wheelchair:description" v="Toilette nicht wirklich behindertengerecht, aber groß genug, um mit dem Rollstuhl rienzukommen und die Tür zu schließen. Personal hilfsbereit. Auch Tische unten am Kanal, Weg dorthin uneben, eher Hilfe erforderlich. "/>
    <tag k="amenity" v="cafe"/>
  </node>
  <node id="-5280" version="0" timestamp="Fri Feb 24 10:53:37 +0100 2012" uid="1" user="" lat="52.4961895" lon="13.42161">
    <tag k="name" v="Chan"/>
    <tag k="wheelchair" v="limited"/>
    <tag k="addr:city" v="Berlin"/>
    <tag k="addr:postcode" v="10999"/>
    <tag k="addr:street" v="Paul-Lincke-Ufer"/>
    <tag k="wheelchair:description" v="Niedrige Stufe am EIngang. Toilette sehr eng, nicht rollstuhlgerecht, Tüt zu schmal. "/>
    <tag k="amenity" v="restaurant"/>
    <tag k="website" v="http://www.chan-berlin.com/"/>
  </node>
  <node id="-5282" version="0" timestamp="Fri Feb 24 10:53:37 +0100 2012" uid="1" user="" lat="52.49712" lon="13.42425">
    <tag k="shop" v="supermarket"/>
    <tag k="name" v="LPG Bioladen"/>
    <tag k="wheelchair" v="unknown"/>
  </node>
  <node id="-5479" version="0" timestamp="Fri Feb 24 10:53:37 +0100 2012" uid="1" user="" lat="52.49499" lon="13.42665">
    <tag k="name" v="sofa bar"/>
    <tag k="wheelchair" v="limited"/>
    <tag k="addr:city" v="Berlin"/>
    <tag k="addr:postcode" v="10999"/>
    <tag k="addr:housenumber" v="42"/>
    <tag k="addr:street" v="Ohlauer str. "/>
    <tag k="amenity" v="bar"/>
  </node>
  <node id="-5601" version="0" timestamp="Fri Feb 24 10:53:37 +0100 2012" uid="1" user="" lat="52.493753" lon="13.4135311">
    <tag k="name" v="Apotheke"/>
    <tag k="wheelchair" v="no"/>
    <tag k="amenity" v="pharmacy"/>
  </node>
  <node id="-5704" version="0" timestamp="Fri Feb 24 10:53:37 +0100 2012" uid="1" user="" lat="52.4887778" lon="13.3945952">
    <tag k="shop" v="books"/>
    <tag k="name" v="Krimibuchhandlung Hammett"/>
    <tag k="wheelchair" v="unknown"/>
    <tag k="addr:city" v="Berlin"/>
    <tag k="addr:postcode" v="10965"/>
    <tag k="addr:housenumber" v="27"/>
    <tag k="addr:street" v="Friesenstraße"/>
    <tag k="website" v="http://www.hammett-krimis.de"/>
    <tag k="phone" v="030 6915834"/>
  </node>
</osm>
