<?xml version='1.0' encoding='UTF-8'?>
<osm version="0.6" generator="Osmosis 0.39">
  <node id="-1038" version="0" timestamp="Fri Feb 24 10:53:33 +0100 2012" uid="1" user="" lat="52.43463" lon="13.34447">
    <tag k="name" v="Thalia Kino"/>
    <tag k="wheelchair" v="yes"/>
    <tag k="addr:city" v="Berlin"/>
    <tag k="addr:postcode" v="12249"/>
    <tag k="addr:housenumber" v="71"/>
    <tag k="addr:street" v="Kaiser-Wilhelm-Str."/>
    <tag k="wheelchair:description" v="nur Kino 1, Anfahrt über Thaliaweg"/>
    <tag k="amenity" v="cinema"/>
  </node>
  <node id="-1040" version="0" timestamp="Fri Feb 24 10:53:33 +0100 2012" uid="1" user="" lat="52.4294875" lon="13.3518679">
    <tag k="name" v="Dubrovnik"/>
    <tag k="wheelchair" v="limited"/>
    <tag k="wheelchair:description" v="hat eine mobile Rampe, Terrasse Rollstuhlgerecht"/>
    <tag k="amenity" v="restaurant"/>
  </node>
  <node id="-1044" version="0" timestamp="Fri Feb 24 10:53:33 +0100 2012" uid="1" user="" lat="52.4312052" lon="13.3372099">
    <tag k="shop" v="bicycle"/>
    <tag k="name" v="Tom´s Fahrradladen"/>
    <tag k="wheelchair" v="yes"/>
    <tag k="wheelchair:description" v="Hilfe bei Pannen (Rolli)"/>
  </node>
  <node id="-1048" version="0" timestamp="Fri Feb 24 10:53:33 +0100 2012" uid="1" user="" lat="52.4398036" lon="13.342871">
    <tag k="name" v="King Bo"/>
    <tag k="wheelchair" v="yes"/>
    <tag k="amenity" v="restaurant"/>
  </node>
  <node id="-3083" version="0" timestamp="Fri Feb 24 10:53:35 +0100 2012" uid="1" user="" lat="52.4341428" lon="13.3425072">
    <tag k="shop" v="dry_cleaning"/>
    <tag k="name" v="&apos;Schnell-Reinigung&apos;"/>
    <tag k="wheelchair" v="no"/>
  </node>
  <node id="-3084" version="0" timestamp="Fri Feb 24 10:53:35 +0100 2012" uid="1" user="" lat="52.4303665" lon="13.3404878">
    <tag k="name" v="Paul- Schneider- Grundschule"/>
    <tag k="wheelchair" v="no"/>
    <tag k="amenity" v="school"/>
  </node>
  <node id="-5456" version="0" timestamp="Fri Feb 24 10:53:37 +0100 2012" uid="1" user="" lat="52.4316589" lon="13.3381381">
    <tag k="name" v="Johannes"/>
    <tag k="wheelchair" v="unknown"/>
    <tag k="addr:city" v="Berlin"/>
    <tag k="addr:postcode" v="12247"/>
    <tag k="addr:housenumber" v="31"/>
    <tag k="addr:street" v="Kaiser-Wilhelm-Straße"/>
    <tag k="amenity" v="restaurant"/>
    <tag k="website" v="http://www.johannes-berlin.de"/>
    <tag k="phone" v="030 70177503"/>
  </node>
</osm>
