<?xml version='1.0' encoding='UTF-8'?>
<osm version="0.6" generator="Osmosis 0.39">
  <node id="-647" version="0" timestamp="Fri Feb 24 10:53:32 +0100 2012" uid="1" user="" lat="52.4310739" lon="13.3099135">
    <tag k="name" v="Wiener Feinbäckerei"/>
    <tag k="wheelchair" v="limited"/>
    <tag k="wheelchair:description" v="Keine Stufe, Toiletten nicht gecheckt."/>
    <tag k="amenity" v="cafe"/>
  </node>
  <node id="-649" version="0" timestamp="Fri Feb 24 10:53:32 +0100 2012" uid="1" user="" lat="52.44397" lon="13.30982">
    <tag k="name" v="Heike Hansen"/>
    <tag k="wheelchair" v="yes"/>
    <tag k="addr:city" v="Berlin"/>
    <tag k="addr:postcode" v="12203"/>
    <tag k="addr:housenumber" v="19"/>
    <tag k="addr:street" v="Moltkestr."/>
    <tag k="amenity" v="bank"/>
    <tag k="website" v="http://www.steuerbuero-hansen.de"/>
    <tag k="phone" v="+ 49 30 339885760"/>
  </node>
  <node id="-1041" version="0" timestamp="Fri Feb 24 10:53:33 +0100 2012" uid="1" user="" lat="52.4279647" lon="13.3265527">
    <tag k="name" v="Stellwerk"/>
    <tag k="wheelchair" v="yes"/>
    <tag k="wheelchair:description" v="Fahrstuhl"/>
    <tag k="amenity" v="restaurant"/>
  </node>
  <node id="-1042" version="0" timestamp="Fri Feb 24 10:53:33 +0100 2012" uid="1" user="" lat="52.4264992" lon="13.326894">
    <tag k="name" v="Berliner Sparkasse"/>
    <tag k="wheelchair" v="yes"/>
    <tag k="addr:city" v="Berlin"/>
    <tag k="addr:postcode" v="12209"/>
    <tag k="addr:housenumber" v="8"/>
    <tag k="addr:street" v="Oberhofer Weg"/>
    <tag k="wheelchair:description" v="nur Erdgeschoß"/>
    <tag k="amenity" v="bank"/>
  </node>
  <node id="-2649" version="0" timestamp="Fri Feb 24 10:53:34 +0100 2012" uid="1" user="" lat="52.41222" lon="13.3334">
    <tag k="name" v="Philantow Familienzentrum"/>
    <tag k="wheelchair" v="limited"/>
    <tag k="addr:city" v="Teltow"/>
    <tag k="addr:postcode" v="14519"/>
    <tag k="addr:housenumber" v="139"/>
    <tag k="addr:street" v="Mahlower Straße"/>
    <tag k="wheelchair:description" v="EG (und WC) komplett barrierefrei"/>
    <tag k="amenity" v="cafe"/>
    <tag k="website" v="http://www.philantow.de"/>
    <tag k="phone" v="+49 3328 740140"/>
  </node>
  <node id="-4683" version="0" timestamp="Fri Feb 24 10:53:36 +0100 2012" uid="1" user="" lat="52.4268906" lon="13.3026678">
    <tag k="shop" v="optician"/>
    <tag k="name" v="Wagner Optik"/>
    <tag k="wheelchair" v="limited"/>
    <tag k="addr:city" v="Berlin"/>
    <tag k="addr:postcode" v="12205"/>
    <tag k="addr:housenumber" v="79"/>
    <tag k="addr:street" v="Lausanner Straße"/>
    <tag k="wheelchair:description" v="keine Stufen"/>
    <tag k="phone" v="030/7128741"/>
  </node>
</osm>
