<?xml version='1.0' encoding='UTF-8'?>
<osm version="0.6" generator="Osmosis 0.39">
  <node id="-627" version="0" timestamp="Fri Feb 24 10:53:32 +0100 2012" uid="1" user="" lat="52.5282503" lon="13.5397988">
    <tag k="shop" v="clothes"/>
    <tag k="name" v="plott-o-mat"/>
    <tag k="wheelchair" v="yes"/>
    <tag k="addr:city" v="Berlin"/>
    <tag k="addr:postcode" v="12681"/>
    <tag k="addr:housenumber" v="6"/>
    <tag k="addr:street" v="Helene-Weigel-Platz"/>
    <tag k="website" v="http://www.plott-o-mat.de"/>
    <tag k="phone" v="+49 30 52132656"/>
  </node>
  <node id="-2710" version="0" timestamp="Fri Feb 24 10:53:34 +0100 2012" uid="1" user="" lat="52.56047" lon="13.55343">
    <tag k="name" v="KADOMO Berlin-Brandenburg GmbH"/>
    <tag k="wheelchair" v="yes"/>
    <tag k="addr:city" v="Berlin"/>
    <tag k="addr:postcode" v="12681"/>
    <tag k="addr:housenumber" v="36 Haus X"/>
    <tag k="addr:street" v="Wolfener Straße"/>
    <tag k="wheelchair:description" v="Fahrzeugumrüster für Menschen mit Handicap."/>
    <tag k="amenity" v="car_rental"/>
    <tag k="website" v="http://www.kadomo-berlin.de"/>
    <tag k="phone" v="+49 30 9927377-0"/>
  </node>
  <node id="-3502" version="0" timestamp="Fri Feb 24 10:53:35 +0100 2012" uid="1" user="" lat="52.52771" lon="13.52051">
    <tag k="name" v="JobCenter Hellersdorf-Marzahn"/>
    <tag k="wheelchair" v="yes"/>
    <tag k="addr:city" v="Berlin"/>
    <tag k="addr:postcode" v="12381"/>
    <tag k="addr:housenumber" v="88"/>
    <tag k="addr:street" v="Rhinstr. "/>
  </node>
  <node id="-3504" version="0" timestamp="Fri Feb 24 10:53:35 +0100 2012" uid="1" user="" lat="52.52772" lon="13.52108">
    <tag k="name" v="Gründerzentrum Marzahn"/>
    <tag k="wheelchair" v="limited"/>
    <tag k="addr:city" v="Berlin"/>
    <tag k="addr:postcode" v="12681"/>
    <tag k="addr:housenumber" v="86"/>
    <tag k="addr:street" v="Rhinstr."/>
    <tag k="wheelchair:description" v="Eingangstreppe ohne Lift, Rest Rollstuhlgerecht"/>
  </node>
  <node id="-3742" version="0" timestamp="Fri Feb 24 10:53:35 +0100 2012" uid="1" user="" lat="52.52068" lon="13.54079">
    <tag k="name" v="THW Ortsverband Marzahn-Hellersdorf"/>
    <tag k="wheelchair" v="no"/>
    <tag k="addr:city" v="Berlin"/>
    <tag k="addr:postcode" v="12681"/>
    <tag k="addr:housenumber" v="19"/>
    <tag k="addr:street" v="Märkische Spitze"/>
    <tag k="wheelchair:description" v="manchmal sind viele starke Hände da, die helfen könnten"/>
    <tag k="website" v="http://www.thw-marzahn.de/"/>
    <tag k="phone" v="+493054000988"/>
  </node>
  <node id="-5059" version="0" timestamp="Fri Feb 24 10:53:37 +0100 2012" uid="1" user="" lat="52.5406417" lon="13.5634611">
    <tag k="shop" v="supermarket"/>
    <tag k="name" v="Kaisers"/>
    <tag k="wheelchair" v="yes"/>
  </node>
  <node id="-5069" version="0" timestamp="Fri Feb 24 10:53:37 +0100 2012" uid="1" user="" lat="52.544883" lon="13.5776061">
    <tag k="name" v="JFE &quot;Anna Landsberger&quot;"/>
    <tag k="wheelchair" v="limited"/>
    <tag k="addr:city" v="Berlin"/>
    <tag k="addr:postcode" v="12685"/>
    <tag k="addr:housenumber" v="13"/>
    <tag k="addr:street" v="Prötzeler Ring"/>
    <tag k="amenity" v="social_facility"/>
    <tag k="website" v="http://www.anna-landsberger.de/"/>
    <tag k="phone" v="+49 30 54989368"/>
  </node>
  <node id="-5552" version="0" timestamp="Fri Feb 24 10:53:37 +0100 2012" uid="1" user="" lat="52.5280265" lon="13.5421912">
    <tag k="name" v="Schwimmhalle am Helene-Weigel-Platz &quot;Helmut Behrendt&quot;"/>
    <tag k="wheelchair" v="limited"/>
    <tag k="addr:city" v="Berlin"/>
    <tag k="addr:postcode" v="12681"/>
    <tag k="addr:housenumber" v="9"/>
    <tag k="addr:street" v="Helene-Weigel-Platz"/>
    <tag k="wheelchair:description" v="1 Behindertenumkleidekabine mit Dusche/WC, 4 Wasserrollstühle, kein Lift, aber flache abgerundete Stufen beginnen in ca. 45 cm Höhe zum Einstieg ins Sportbecken, Behindertenparkplätze"/>
    <tag k="amenity" v="swimming_pool"/>
    <tag k="website" v="http://www.berlinerbaederbetriebe.de/72.html"/>
  </node>
</osm>
