<?xml version='1.0' encoding='UTF-8'?>
<osm version="0.6" generator="Osmosis 0.39">
  <node id="-587" version="0" timestamp="Fri Feb 24 10:53:32 +0100 2012" uid="1" user="" lat="52.52326" lon="13.41072">
    <tag k="shop" v="department_store"/>
    <tag k="name" v="ausberlin"/>
    <tag k="wheelchair" v="yes"/>
    <tag k="addr:city" v="Berlin"/>
    <tag k="addr:postcode" v="10178"/>
    <tag k="addr:housenumber" v="17"/>
    <tag k="addr:street" v="Karl-Liebknecht-Strasse"/>
    <tag k="wheelchair:description" v="Obergeschoß des Ladens rollstuhlgerecht"/>
    <tag k="website" v="http://www.ausberlin.de"/>
    <tag k="phone" v="+49 30 41997896"/>
  </node>
  <node id="-589" version="0" timestamp="Fri Feb 24 10:53:32 +0100 2012" uid="1" user="" lat="52.51857" lon="13.37988">
    <tag k="name" v="HUMBOLDT-VIADRINA School of Governance gGmbH"/>
    <tag k="wheelchair" v="yes"/>
    <tag k="addr:city" v="Berlin"/>
    <tag k="addr:postcode" v="10117"/>
    <tag k="addr:housenumber" v="67"/>
    <tag k="addr:street" v="Wilhelmstraße"/>
    <tag k="amenity" v="university"/>
    <tag k="website" v="http://www.humboldt-viadrina.org"/>
  </node>
  <node id="-732" version="0" timestamp="Fri Feb 24 10:53:32 +0100 2012" uid="1" user="" lat="52.51917" lon="13.38829">
    <tag k="name" v="Dunkin&apos; Donuts"/>
    <tag k="wheelchair" v="unknown"/>
    <tag k="addr:city" v="Berlin"/>
    <tag k="addr:postcode" v="10117"/>
    <tag k="addr:housenumber" v="149"/>
    <tag k="addr:street" v="Friedrichstraße "/>
    <tag k="amenity" v="cafe"/>
    <tag k="website" v="http://www.dunkin-donuts.de/"/>
  </node>
  <node id="-733" version="0" timestamp="Fri Feb 24 10:53:32 +0100 2012" uid="1" user="" lat="52.51917" lon="13.38829">
    <tag k="shop" v="shoes"/>
    <tag k="name" v="Shoe Lounge"/>
    <tag k="wheelchair" v="no"/>
    <tag k="addr:city" v="Berlin"/>
    <tag k="addr:postcode" v="10117"/>
    <tag k="addr:housenumber" v="148"/>
    <tag k="addr:street" v="Friedrichstraße"/>
    <tag k="phone" v="030/20648169 ‎ "/>
  </node>
  <node id="-734" version="0" timestamp="Fri Feb 24 10:53:32 +0100 2012" uid="1" user="" lat="52.51917" lon="13.38829">
    <tag k="shop" v="books"/>
    <tag k="name" v="Jokers Restseller"/>
    <tag k="wheelchair" v="yes"/>
    <tag k="addr:city" v="Berlin"/>
    <tag k="addr:postcode" v="10117"/>
    <tag k="addr:housenumber" v="148"/>
    <tag k="addr:street" v="Friedrichstraße"/>
    <tag k="website" v="http://www.jokers.de/?wea=8007491"/>
  </node>
  <node id="-744" version="0" timestamp="Fri Feb 24 10:53:32 +0100 2012" uid="1" user="" lat="52.51917" lon="13.38829">
    <tag k="shop" v="supermarket"/>
    <tag k="name" v="Rossmann"/>
    <tag k="wheelchair" v="yes"/>
    <tag k="addr:city" v="Berlin"/>
    <tag k="addr:postcode" v="10117"/>
    <tag k="addr:housenumber" v="147"/>
    <tag k="addr:street" v="Friedrichstraße"/>
    <tag k="website" v="http://www.rossmann.de/"/>
  </node>
  <node id="-748" version="0" timestamp="Fri Feb 24 10:53:32 +0100 2012" uid="1" user="" lat="52.51917" lon="13.38829">
    <tag k="name" v="Institut für Rehabilitationswissenschaften"/>
    <tag k="wheelchair" v="yes"/>
    <tag k="addr:city" v="Berlin"/>
    <tag k="addr:postcode" v="10117"/>
    <tag k="addr:housenumber" v="36"/>
    <tag k="addr:street" v="Georgenstraße "/>
    <tag k="amenity" v="university"/>
    <tag k="website" v="http://www.reha.hu-berlin.de/"/>
  </node>
  <node id="-923" version="0" timestamp="Fri Feb 24 10:53:33 +0100 2012" uid="1" user="" lat="52.5251106" lon="13.3913957">
    <tag k="name" v="Good Choice"/>
    <tag k="wheelchair" v="limited"/>
    <tag k="amenity" v="bar"/>
  </node>
  <node id="-968" version="0" timestamp="Fri Feb 24 10:53:33 +0100 2012" uid="1" user="" lat="52.5239148" lon="13.3798321">
    <tag k="shop" v="bakery"/>
    <tag k="name" v="Bäckerei Thürmann"/>
    <tag k="wheelchair" v="yes"/>
  </node>
  <node id="-1069" version="0" timestamp="Fri Feb 24 10:53:33 +0100 2012" uid="1" user="" lat="52.5235122" lon="13.4055318">
    <tag k="shop" v="alcohol"/>
    <tag k="name" v="Vom Fass Dircksenstr."/>
    <tag k="wheelchair" v="limited"/>
  </node>
  <node id="-1184" version="0" timestamp="Fri Feb 24 10:53:33 +0100 2012" uid="1" user="" lat="52.5108466" lon="13.4228146">
    <tag k="name" v="Estaurant"/>
    <tag k="wheelchair" v="limited"/>
    <tag k="amenity" v="restaurant"/>
  </node>
  <node id="-1357" version="0" timestamp="Fri Feb 24 10:53:33 +0100 2012" uid="1" user="" lat="52.5167" lon="13.4">
    <tag k="name" v="ZENTRUM danziger50"/>
    <tag k="wheelchair" v="yes"/>
    <tag k="addr:city" v="Berlin"/>
    <tag k="addr:postcode" v="10435"/>
    <tag k="addr:housenumber" v="50"/>
    <tag k="addr:street" v="Danziger Straße "/>
    <tag k="wheelchair:description" v="Aufzug zu allen Stockwerken über den Hof"/>
    <tag k="amenity" v="arts_centre"/>
    <tag k="website" v="http://www.danziger50.de"/>
    <tag k="phone" v="+49 30 41715887"/>
  </node>
  <node id="-2434" version="0" timestamp="Fri Feb 24 10:53:34 +0100 2012" uid="1" user="" lat="52.5167" lon="13.4">
    <tag k="name" v="Bett Bike Bowling"/>
    <tag k="wheelchair" v="yes"/>
    <tag k="addr:city" v="Wittstock"/>
    <tag k="addr:postcode" v="16909"/>
    <tag k="addr:housenumber" v="6"/>
    <tag k="tourism" v="motel"/>
    <tag k="addr:street" v="Rheinsberger Straße"/>
    <tag k="wheelchair:description" v="Das B3 verfügt über ein Rollstuhlgerechtes Restaurant, Bowlingbahn, Toiletten und Unterkünfte."/>
    <tag k="phone" v="03394-4058410"/>
  </node>
  <node id="-2496" version="0" timestamp="Fri Feb 24 10:53:34 +0100 2012" uid="1" user="" lat="52.5167" lon="13.4">
    <tag k="name" v="Catering Service Rodewald"/>
    <tag k="wheelchair" v="yes"/>
    <tag k="addr:city" v="Berlin"/>
    <tag k="addr:postcode" v="13627"/>
    <tag k="addr:housenumber" v="42 A"/>
    <tag k="addr:street" v="Saatwinkler Damm"/>
    <tag k="amenity" v="restaurant"/>
    <tag k="website" v="http://www.catering-rodewald.de"/>
    <tag k="phone" v="+49 30 34095504"/>
  </node>
  <node id="-3135" version="0" timestamp="Fri Feb 24 10:53:35 +0100 2012" uid="1" user="" lat="52.5208925" lon="13.3871198">
    <tag k="name" v="Tränenpalast"/>
    <tag k="wheelchair" v="unknown"/>
    <tag k="tourism" v="museum"/>
    <tag k="website" v="http://www.traenenpalast.de"/>
    <tag k="phone" v="030 2061000"/>
  </node>
  <node id="-3214" version="0" timestamp="Fri Feb 24 10:53:35 +0100 2012" uid="1" user="" lat="52.50835" lon="13.3944">
    <tag k="name" v="Kunstsammlung Nordrhein Westfalen"/>
    <tag k="wheelchair" v="yes"/>
    <tag k="addr:city" v="Düsseldorf"/>
    <tag k="addr:postcode" v="40213"/>
    <tag k="addr:housenumber" v="5"/>
    <tag k="addr:street" v="Grabbeplatz"/>
    <tag k="amenity" v="arts_centre"/>
    <tag k="website" v="http://www.kunstsammlung.de"/>
    <tag k="phone" v="0049 211 8381204"/>
  </node>
  <node id="-3311" version="0" timestamp="Fri Feb 24 10:53:35 +0100 2012" uid="1" user="" lat="52.5230247" lon="13.4126719">
    <tag k="name" v="Park Inn Hotel by Radisson"/>
    <tag k="wheelchair" v="unknown"/>
    <tag k="addr:city" v="Berlin"/>
    <tag k="addr:postcode" v="10178"/>
    <tag k="addr:housenumber" v="7"/>
    <tag k="tourism" v="hotel"/>
    <tag k="addr:street" v="Alexanderplatz"/>
    <tag k="website" v="http://www.parkinn-berlin.de"/>
  </node>
  <node id="-3327" version="0" timestamp="Fri Feb 24 10:53:35 +0100 2012" uid="1" user="" lat="52.5162332" lon="13.398675">
    <tag k="name" v="East London Restaurant"/>
    <tag k="wheelchair" v="yes"/>
    <tag k="addr:city" v="Berlin"/>
    <tag k="addr:postcode" v="10961"/>
    <tag k="addr:housenumber" v="33"/>
    <tag k="addr:street" v="Mehringdamm "/>
    <tag k="wheelchair:description" v="disabled toilet, wheelchair ramp"/>
    <tag k="amenity" v="restaurant"/>
    <tag k="website" v="http://www.eastlondon.de"/>
    <tag k="phone" v="+49 (0)30 69533205"/>
  </node>
  <node id="-3393" version="0" timestamp="Fri Feb 24 10:53:35 +0100 2012" uid="1" user="" lat="52.52072" lon="13.41041">
    <tag k="name" v="Berliner Fernsehturm"/>
    <tag k="wheelchair" v="limited"/>
    <tag k="wheelchair:description" v="Der Berliner Fernsehturm ist leider nur im Erdgeschoss Barrierefrei!"/>
  </node>
  <node id="-3694" version="0" timestamp="Fri Feb 24 10:53:35 +0100 2012" uid="1" user="" lat="52.5237963" lon="13.3829412">
    <tag k="name" v="Heinrich-Böll-Stiftung"/>
    <tag k="wheelchair" v="yes"/>
    <tag k="addr:city" v="Berlin"/>
    <tag k="addr:postcode" v="10117"/>
    <tag k="addr:housenumber" v="8"/>
    <tag k="addr:street" v="Schumannstr."/>
    <tag k="website" v="http://www.boell.de"/>
    <tag k="phone" v="+49 30 28534-100"/>
  </node>
  <node id="-3793" version="0" timestamp="Fri Feb 24 10:53:35 +0100 2012" uid="1" user="" lat="52.5230073" lon="13.412608">
    <tag k="name" v="Park Inn Hotel by Radisson"/>
    <tag k="wheelchair" v="unknown"/>
    <tag k="addr:city" v="Berlin"/>
    <tag k="addr:postcode" v="10178"/>
    <tag k="addr:housenumber" v="7"/>
    <tag k="tourism" v="hotel"/>
    <tag k="addr:street" v="Alexanderplatz"/>
  </node>
  <node id="-3802" version="0" timestamp="Fri Feb 24 10:53:35 +0100 2012" uid="1" user="" lat="52.5245794" lon="13.4140054">
    <tag k="name" v="Hofbräu Berlin"/>
    <tag k="wheelchair" v="unknown"/>
    <tag k="addr:city" v="Berlin"/>
    <tag k="addr:postcode" v="10178"/>
    <tag k="addr:housenumber" v="30"/>
    <tag k="addr:street" v="Karl-Liebknecht-Straße"/>
    <tag k="amenity" v="restaurant"/>
    <tag k="website" v="http://www.berlin-hofbraeu.de"/>
    <tag k="phone" v="030 23459820"/>
  </node>
  <node id="-3855" version="0" timestamp="Fri Feb 24 10:53:35 +0100 2012" uid="1" user="" lat="52.52401" lon="13.4023">
    <tag k="name" v="Museum Blindenwerkstatt Otto Weid"/>
    <tag k="wheelchair" v="yes"/>
    <tag k="wheelchair:description" v="Alle Räume inkl. Toilette mit Fahrstuhl erreichba"/>
    <tag k="amenity" v="bank"/>
  </node>
  <node id="-3857" version="0" timestamp="Fri Feb 24 10:53:35 +0100 2012" uid="1" user="" lat="52.5243886" lon="13.401726">
    <tag k="name" v="Museum Blindenwerkstatt Otto Weid"/>
    <tag k="wheelchair" v="yes"/>
    <tag k="addr:city" v="Berlin"/>
    <tag k="addr:postcode" v="10178 Berlin"/>
    <tag k="addr:housenumber" v="39"/>
    <tag k="tourism" v="museum"/>
    <tag k="addr:street" v="Rosenthaler Straße"/>
  </node>
  <node id="-3858" version="0" timestamp="Fri Feb 24 10:53:35 +0100 2012" uid="1" user="" lat="52.5215728" lon="13.4070889">
    <tag k="name" v="Cafe am Neptunbrunnen"/>
    <tag k="wheelchair" v="yes"/>
    <tag k="addr:city" v="Berlin"/>
    <tag k="addr:postcode" v="10178 "/>
    <tag k="addr:housenumber" v="33"/>
    <tag k="addr:street" v="Karl-Liebknecht-Str."/>
    <tag k="wheelchair:description" v="kein automatischer Türöffner"/>
    <tag k="amenity" v="cafe"/>
  </node>
  <node id="-3925" version="0" timestamp="Fri Feb 24 10:53:35 +0100 2012" uid="1" user="" lat="52.5220597" lon="13.4076943">
    <tag k="name" v="Öffentliche Toiletten"/>
    <tag k="wheelchair" v="yes"/>
    <tag k="amenity" v="toilets"/>
  </node>
  <node id="-4421" version="0" timestamp="Fri Feb 24 10:53:36 +0100 2012" uid="1" user="" lat="52.5244017" lon="13.391761">
    <tag k="name" v="Heart of Gold Hostel Berlin"/>
    <tag k="wheelchair" v="yes"/>
    <tag k="addr:city" v="Berlin"/>
    <tag k="addr:postcode" v="10117"/>
    <tag k="addr:housenumber" v="11"/>
    <tag k="tourism" v="hostel"/>
    <tag k="addr:street" v="Johannisstraße"/>
    <tag k="website" v="http://www.heartofgold-hostel.de"/>
    <tag k="phone" v="+493029003300"/>
  </node>
  <node id="-4422" version="0" timestamp="Fri Feb 24 10:53:36 +0100 2012" uid="1" user="" lat="52.523985" lon="13.3898094">
    <tag k="name" v="Helter Skelter Hostel Berlin"/>
    <tag k="wheelchair" v="no"/>
    <tag k="addr:city" v="Berlin"/>
    <tag k="addr:postcode" v="10117"/>
    <tag k="addr:housenumber" v="4-5"/>
    <tag k="tourism" v="hostel"/>
    <tag k="addr:street" v="Kalkscheunenstraße"/>
    <tag k="website" v="http://www.helterskelterhostel.com"/>
    <tag k="phone" v="+4930280944997"/>
  </node>
  <node id="-4714" version="0" timestamp="Fri Feb 24 10:53:36 +0100 2012" uid="1" user="" lat="52.5167" lon="13.4">
    <tag k="name" v="Sascha Lill | Bewußtheit"/>
    <tag k="wheelchair" v="no"/>
    <tag k="addr:city" v="Berlin"/>
    <tag k="addr:postcode" v="12053"/>
    <tag k="addr:housenumber" v="83"/>
    <tag k="addr:street" v="Reuterstr."/>
    <tag k="wheelchair:description" v="2. OG links"/>
    <tag k="website" v="http://www.lebensthema.de"/>
    <tag k="phone" v="+49 30 291 48 45"/>
    <tag k="office" v="company"/>
  </node>
  <node id="-4854" version="0" timestamp="Fri Feb 24 10:53:36 +0100 2012" uid="1" user="" lat="52.5107981" lon="13.4219665">
    <tag k="name" v="2 Behindertenparkplätze"/>
    <tag k="wheelchair" v="limited"/>
    <tag k="addr:city" v="Berlin"/>
    <tag k="addr:postcode" v="10179"/>
    <tag k="addr:housenumber" v="15-16"/>
    <tag k="addr:street" v="Michaelkirchstraße"/>
    <tag k="wheelchair:description" v="Montag - Freitag von 8 Uhr bis 18 Uhr"/>
    <tag k="amenity" v="parking_aisle"/>
  </node>
  <node id="-4988" version="0" timestamp="Fri Feb 24 10:53:36 +0100 2012" uid="1" user="" lat="52.51895" lon="13.40755">
    <tag k="name" v="HW Hotel - Haus am Niederfeld"/>
    <tag k="wheelchair" v="yes"/>
    <tag k="addr:city" v="Berlin"/>
    <tag k="addr:postcode" v="12621"/>
    <tag k="addr:housenumber" v="21"/>
    <tag k="tourism" v="hotel"/>
    <tag k="addr:street" v="Am Niederfeld "/>
    <tag k="wheelchair:description" v="barrierefreie Zimmer sowie Tagungs- und Veranstaltungsräume"/>
    <tag k="website" v="http://www.hw-hotel.de"/>
    <tag k="phone" v="030 47511830"/>
  </node>
  <node id="-5029" version="0" timestamp="Fri Feb 24 10:53:36 +0100 2012" uid="1" user="" lat="52.5167" lon="13.3952">
    <tag k="name" v="Prometheus"/>
    <tag k="wheelchair" v="limited"/>
    <tag k="addr:city" v="Berlin"/>
    <tag k="addr:postcode" v="14197"/>
    <tag k="addr:housenumber" v="16"/>
    <tag k="addr:street" v="Schlangenbader Str."/>
    <tag k="amenity" v="restaurant"/>
  </node>
  <node id="-5034" version="0" timestamp="Fri Feb 24 10:53:36 +0100 2012" uid="1" user="" lat="52.5167" lon="13.4">
    <tag k="name" v="Ministerium für Wirtschaft und Europaangelegenheiten - Haus 2"/>
    <tag k="wheelchair" v="yes"/>
    <tag k="addr:city" v="Potsdam"/>
    <tag k="addr:postcode" v="14473"/>
    <tag k="addr:housenumber" v="107"/>
    <tag k="addr:street" v="Heinrich-Mann-Allee"/>
    <tag k="office" v="company"/>
  </node>
  <node id="-5075" version="0" timestamp="Fri Feb 24 10:53:37 +0100 2012" uid="1" user="" lat="52.5171211" lon="13.408052">
    <tag k="name" v="Tigertörtchen - Berlin Cupcakes"/>
    <tag k="wheelchair" v="yes"/>
    <tag k="addr:city" v="Berlin"/>
    <tag k="addr:postcode" v="10178"/>
    <tag k="addr:housenumber" v="25"/>
    <tag k="addr:street" v="Spandauer Straße"/>
    <tag k="amenity" v="cafe"/>
    <tag k="website" v="http://www.tigertoertchen.de"/>
  </node>
  <node id="-5182" version="0" timestamp="Fri Feb 24 10:53:37 +0100 2012" uid="1" user="" lat="52.5248501" lon="13.4125885">
    <tag k="name" v="Berlin for all "/>
    <tag k="wheelchair" v="yes"/>
    <tag k="addr:city" v="Berlin"/>
    <tag k="addr:postcode" v="10178"/>
    <tag k="addr:housenumber" v="29"/>
    <tag k="addr:street" v="Karl-Liebknecht-Str."/>
    <tag k="wheelchair:description" v="Rollstuhltoilette, Lift, barrierefrei"/>
    <tag k="website" v="http://www.berlin4all.com"/>
    <tag k="phone" v="030 74924391"/>
    <tag k="office" v="company"/>
  </node>
  <node id="-5183" version="0" timestamp="Fri Feb 24 10:53:37 +0100 2012" uid="1" user="" lat="52.5248369" lon="13.4125793">
    <tag k="name" v="Inclusio Reisen"/>
    <tag k="wheelchair" v="yes"/>
    <tag k="addr:city" v="Berlin"/>
    <tag k="addr:postcode" v="10178"/>
    <tag k="addr:housenumber" v="29"/>
    <tag k="addr:street" v="Karl-Liebknecht-Str."/>
    <tag k="wheelchair:description" v="Rollstuhltoilette, Lift, barrierefrei"/>
    <tag k="website" v="http://www.inclusio-reisen.de"/>
    <tag k="phone" v="+49 800 4040820"/>
    <tag k="office" v="company"/>
  </node>
  <node id="-5327" version="0" timestamp="Fri Feb 24 10:53:37 +0100 2012" uid="1" user="" lat="52.5167" lon="13.4">
    <tag k="name" v="Humboldt-ät zu Berlin, Institut für Psychologie"/>
    <tag k="wheelchair" v="yes"/>
    <tag k="addr:city" v="Berlin"/>
    <tag k="addr:postcode" v="12489"/>
    <tag k="addr:housenumber" v="18"/>
    <tag k="addr:street" v="Rudower Chaussee "/>
    <tag k="amenity" v="university"/>
  </node>
  <node id="-5391" version="0" timestamp="Fri Feb 24 10:53:37 +0100 2012" uid="1" user="" lat="52.5166873" lon="13.3778738">
    <tag k="name" v="Haus Liebermann"/>
    <tag k="wheelchair" v="yes"/>
    <tag k="tourism" v="museum"/>
  </node>
  <node id="-5559" version="0" timestamp="Fri Feb 24 10:53:37 +0100 2012" uid="1" user="" lat="52.5167" lon="13.4">
    <tag k="name" v="Behinderten- Sporverband Berlin e.V."/>
    <tag k="wheelchair" v="yes"/>
    <tag k="addr:city" v="Berlin"/>
    <tag k="addr:postcode" v="14053"/>
    <tag k="addr:housenumber" v="Kursitstenflügel"/>
    <tag k="addr:street" v="Hanns.Braun-Strasse "/>
    <tag k="wheelchair:description" v="Barrieredfreie Parkplätze vor der Tür"/>
    <tag k="website" v="http://www.bsberlin.de"/>
    <tag k="phone" v="03030833870"/>
    <tag k="office" v="company"/>
  </node>
  <node id="-5695" version="0" timestamp="Fri Feb 24 10:53:37 +0100 2012" uid="1" user="" lat="52.5192096" lon="13.4024111">
    <tag k="name" v="DDR-Restaurant Domklause"/>
    <tag k="wheelchair" v="unknown"/>
    <tag k="addr:city" v="Berlin"/>
    <tag k="addr:postcode" v="10178"/>
    <tag k="addr:housenumber" v="1"/>
    <tag k="addr:street" v="Karl-Liebknecht-Straße"/>
    <tag k="amenity" v="restaurant"/>
    <tag k="website" v="http://www.ddr-restaurant.de"/>
    <tag k="phone" v="030 847123737"/>
  </node>
</osm>
