<?xml version='1.0' encoding='UTF-8'?>
<osm version="0.6" generator="Osmosis 0.39">
  <node id="-163" version="0" timestamp="Fri Feb 24 10:53:32 +0100 2012" uid="1" user="" lat="52.525635" lon="13.3696117">
    <tag k="name" v="Apotheke im Berliner Hauptbahnhof"/>
    <tag k="wheelchair" v="yes"/>
    <tag k="amenity" v="pharmacy"/>
  </node>
  <node id="-165" version="0" timestamp="Fri Feb 24 10:53:32 +0100 2012" uid="1" user="" lat="52.52583" lon="13.36578">
    <tag k="name" v="Motel One Berlin-Hauptbahnhof"/>
    <tag k="wheelchair" v="unknown"/>
    <tag k="addr:city" v="Berlin"/>
    <tag k="addr:postcode" v="10557"/>
    <tag k="addr:housenumber" v="54"/>
    <tag k="tourism" v="motel"/>
    <tag k="addr:street" v="Invalidenstraße"/>
    <tag k="website" v="http://www.motel-one.com/de/hotels/hotels-berlin/hotel-berlin-hauptbahnhof.html"/>
    <tag k="phone" v="+49 30 364 10 05 0"/>
  </node>
  <node id="-2264" version="0" timestamp="Fri Feb 24 10:53:34 +0100 2012" uid="1" user="" lat="52.5265985" lon="13.3411729">
    <tag k="name" v="Gynäkologin"/>
    <tag k="wheelchair" v="limited"/>
    <tag k="addr:housenumber" v="31"/>
    <tag k="addr:street" v="Turmstraße"/>
    <tag k="wheelchair:description" v="eine Stufe und dann ein Fahrstuhl"/>
    <tag k="amenity" v="doctors"/>
  </node>
  <node id="-2265" version="0" timestamp="Fri Feb 24 10:53:34 +0100 2012" uid="1" user="" lat="52.5254085" lon="13.3390139">
    <tag k="name" v="Hausarztpraxis"/>
    <tag k="wheelchair" v="no"/>
    <tag k="amenity" v="doctors"/>
  </node>
  <node id="-2271" version="0" timestamp="Fri Feb 24 10:53:34 +0100 2012" uid="1" user="" lat="52.5318401" lon="13.3425039">
    <tag k="name" v="Döner"/>
    <tag k="wheelchair" v="no"/>
    <tag k="amenity" v="fast_food"/>
  </node>
  <node id="-4252" version="0" timestamp="Fri Feb 24 10:53:36 +0100 2012" uid="1" user="" lat="52.5382384" lon="13.3559064">
    <tag k="name" v="Ausländerbehörde Berlin"/>
    <tag k="wheelchair" v="yes"/>
    <tag k="addr:city" v="Berlin"/>
    <tag k="addr:postcode" v="13353 "/>
    <tag k="addr:housenumber" v="24"/>
    <tag k="addr:street" v="Friedrich-Krause-Ufer"/>
    <tag k="amenity" v="townhall"/>
    <tag k="website" v="http://www.berlin.de/labo/auslaender/dienstleistungen/index.html"/>
    <tag k="phone" v="(030) 90269 - 0"/>
  </node>
  <node id="-4685" version="0" timestamp="Fri Feb 24 10:53:36 +0100 2012" uid="1" user="" lat="52.5244131" lon="13.3703774">
    <tag k="name" v="asiagourmet"/>
    <tag k="wheelchair" v="yes"/>
    <tag k="addr:city" v="Berlin"/>
    <tag k="addr:postcode" v="10557"/>
    <tag k="addr:housenumber" v="1"/>
    <tag k="addr:street" v="Europaplatz"/>
    <tag k="amenity" v="restaurant"/>
    <tag k="website" v="http://www.asiagourmet.de"/>
    <tag k="phone" v="030 20058647"/>
  </node>
</osm>
