<?xml version='1.0' encoding='UTF-8'?>
<osm version="0.6" generator="Osmosis 0.39">
  <node id="-33" version="0" timestamp="Fri Feb 24 10:53:32 +0100 2012" uid="1" user="" lat="52.5331756" lon="13.4113307">
    <tag k="shop" v="books"/>
    <tag k="name" v="FreiRaum"/>
    <tag k="wheelchair" v="limited"/>
    <tag k="addr:city" v="Berlin"/>
    <tag k="addr:postcode" v="10119"/>
    <tag k="addr:housenumber" v="4"/>
    <tag k="addr:street" v="Schwedter Str."/>
    <tag k="wheelchair:description" v="Rampe vorhanden, WC separater Eingang."/>
    <tag k="website" v="https://www.facebook.com/pages/FreiRaum/205678439470772"/>
  </node>
  <node id="-34" version="0" timestamp="Fri Feb 24 10:53:32 +0100 2012" uid="1" user="" lat="52.5332812" lon="13.4116519">
    <tag k="name" v="Die Christengemeinschaft"/>
    <tag k="wheelchair" v="yes"/>
    <tag k="addr:city" v="Berlin"/>
    <tag k="addr:postcode" v="10119"/>
    <tag k="addr:housenumber" v="3-4"/>
    <tag k="addr:street" v="Schwedter Str."/>
    <tag k="wheelchair:description" v="Saal und WC ebenerdig, Kirchenraum mit Aufzug erreichbar."/>
    <tag k="amenity" v="place_of_worship"/>
    <tag k="website" v="http://www.cg-berlin.de"/>
    <tag k="phone" v="+49 30 4492468"/>
  </node>
  <node id="-101" version="0" timestamp="Fri Feb 24 10:53:32 +0100 2012" uid="1" user="" lat="52.55293" lon="13.41374">
    <tag k="name" v="HOTEL 4 YOUth"/>
    <tag k="wheelchair" v="yes"/>
    <tag k="addr:city" v="Berlin"/>
    <tag k="addr:postcode" v="10439"/>
    <tag k="addr:housenumber" v="103"/>
    <tag k="tourism" v="hotel"/>
    <tag k="addr:street" v="Schönhauser Allee"/>
    <tag k="wheelchair:description" v="Barrierefreie Zimmer vorhanden"/>
    <tag k="website" v="http://hotel4youth.com/hotel_07.html"/>
    <tag k="phone" v="+49 30 - 446 77 83      "/>
  </node>
  <node id="-656" version="0" timestamp="Fri Feb 24 10:53:32 +0100 2012" uid="1" user="" lat="52.5431326" lon="13.4144334">
    <tag k="name" v="mobilesuite Coworking Berlin"/>
    <tag k="wheelchair" v="limited"/>
    <tag k="addr:city" v="Berlin"/>
    <tag k="addr:postcode" v="10437"/>
    <tag k="addr:housenumber" v="78/79"/>
    <tag k="addr:street" v="Pappelallee"/>
    <tag k="wheelchair:description" v="Barrierefreier Zugang zum Standort über die automatische Hoftür"/>
    <tag k="website" v="http://www.mobilesuite.de"/>
    <tag k="phone" v="+4930700140130"/>
  </node>
  <node id="-1755" version="0" timestamp="Fri Feb 24 10:53:33 +0100 2012" uid="1" user="" lat="52.5451514" lon="13.4228122">
    <tag k="name" v="Beakers"/>
    <tag k="wheelchair" v="no"/>
    <tag k="amenity" v="pub"/>
  </node>
  <node id="-1827" version="0" timestamp="Fri Feb 24 10:53:33 +0100 2012" uid="1" user="" lat="52.5395639" lon="13.4232718">
    <tag k="name" v="Pizza Bambino"/>
    <tag k="wheelchair" v="no"/>
    <tag k="amenity" v="fast_food"/>
  </node>
  <node id="-2365" version="0" timestamp="Fri Feb 24 10:53:34 +0100 2012" uid="1" user="" lat="52.5446124" lon="13.4293956">
    <tag k="name" v="Handicap Anglerverband in Deutschland e.V."/>
    <tag k="wheelchair" v="yes"/>
    <tag k="addr:city" v="Berlin"/>
    <tag k="addr:postcode" v="10409"/>
    <tag k="addr:housenumber" v="7 (Flachbau)"/>
    <tag k="tourism" v="attraction"/>
    <tag k="addr:street" v="Grellstraße"/>
    <tag k="wheelchair:description" v="alle Räume zugänglich, Behinderten-WC, Anlegerampe"/>
    <tag k="phone" v="+49 30 89613482"/>
  </node>
  <node id="-2913" version="0" timestamp="Fri Feb 24 10:53:34 +0100 2012" uid="1" user="" lat="52.53079" lon="13.41074">
    <tag k="name" v="Camara Lounge"/>
    <tag k="wheelchair" v="yes"/>
    <tag k="addr:city" v="Berlin"/>
    <tag k="addr:postcode" v="10119"/>
    <tag k="addr:housenumber" v="10-11"/>
    <tag k="addr:street" v="Schönhauser Allee "/>
    <tag k="amenity" v="restaurant"/>
    <tag k="website" v="http://www.lounge78.de/"/>
  </node>
  <node id="-2914" version="0" timestamp="Fri Feb 24 10:53:34 +0100 2012" uid="1" user="" lat="52.53205" lon="13.41115">
    <tag k="name" v="SLÖRM"/>
    <tag k="wheelchair" v="limited"/>
    <tag k="addr:city" v="Berlin"/>
    <tag k="addr:postcode" v="10435"/>
    <tag k="addr:housenumber" v="53"/>
    <tag k="addr:street" v="Danziger Strasse"/>
    <tag k="amenity" v="cafe"/>
    <tag k="website" v="http://sloerm.net/"/>
  </node>
  <node id="-3918" version="0" timestamp="Fri Feb 24 10:53:35 +0100 2012" uid="1" user="" lat="52.52862" lon="13.41206">
    <tag k="name" v="Rusty Revolver"/>
    <tag k="wheelchair" v="no"/>
    <tag k="amenity" v="pub"/>
    <tag k="website" v="http://www.myspace.com/rustyrevolver"/>
  </node>
  <node id="-4094" version="0" timestamp="Fri Feb 24 10:53:36 +0100 2012" uid="1" user="" lat="52.5305268" lon="13.4183922">
    <tag k="name" v="Sprechzimmer Cafe / Bar / Galerie"/>
    <tag k="wheelchair" v="limited"/>
    <tag k="addr:city" v="Berlin"/>
    <tag k="addr:postcode" v="10405"/>
    <tag k="addr:housenumber" v="21"/>
    <tag k="addr:street" v="Metzer Str. "/>
    <tag k="wheelchair:description" v="Alles stufenlos und offen. Toilettentüren leider klein."/>
    <tag k="amenity" v="bar"/>
    <tag k="website" v="http://www.sprechzimmer-bar.de"/>
    <tag k="phone" v="+49 163 1615898"/>
  </node>
  <node id="-4883" version="0" timestamp="Fri Feb 24 10:53:36 +0100 2012" uid="1" user="" lat="52.5290024" lon="13.4160952">
    <tag k="name" v="Nocti Vagus - Dunkelrestaurant"/>
    <tag k="wheelchair" v="unknown"/>
    <tag k="addr:city" v="Berlin"/>
    <tag k="addr:postcode" v="10405"/>
    <tag k="addr:housenumber" v="36-38"/>
    <tag k="addr:street" v="Saarbrücker Straße"/>
    <tag k="amenity" v="restaurant"/>
    <tag k="website" v="http://www.noctivagus.com"/>
    <tag k="phone" v="030 74749123"/>
  </node>
  <node id="-5114" version="0" timestamp="Fri Feb 24 10:53:37 +0100 2012" uid="1" user="" lat="52.5360422" lon="13.4199544">
    <tag k="name" v="Ventura Tapas"/>
    <tag k="wheelchair" v="yes"/>
    <tag k="addr:city" v="Berlin"/>
    <tag k="addr:postcode" v="10405"/>
    <tag k="addr:street" v="Ryke/Ecke Wörtherstr"/>
    <tag k="wheelchair:description" v="Eingang mit 3 Stufen oder Sommergarten Ebenerdig. Rolli-Toil. vorhanden."/>
    <tag k="amenity" v="restaurant"/>
    <tag k="website" v="http://www.ventura-tapas.de"/>
    <tag k="phone" v="030-44 01 36 75"/>
  </node>
  <node id="-5550" version="0" timestamp="Fri Feb 24 10:53:37 +0100 2012" uid="1" user="" lat="52.5408532" lon="13.4340125">
    <tag k="name" v="Schwimmhalle Ernst-Thälmann-Park"/>
    <tag k="wheelchair" v="yes"/>
    <tag k="addr:city" v="Berlin"/>
    <tag k="addr:postcode" v="10405"/>
    <tag k="addr:housenumber" v="20"/>
    <tag k="addr:street" v="Lilli-Henoch-Straße"/>
    <tag k="wheelchair:description" v="1 Behindertenumkleidekabine mit Dusche/WC, 1 Wasserrollstuhl, 1 Lift, Sauna auch für Rollstuhlfahrer nutzbar, Rampe zum Saunagarten,  2 Behindertenparkplätze"/>
    <tag k="amenity" v="swimming_pool"/>
    <tag k="website" v="http://www.berlinerbaederbetriebe.de/78.html"/>
  </node>
</osm>
