<?xml version='1.0' encoding='UTF-8'?>
<osm version="0.6" generator="Osmosis 0.39">
  <node id="-306" version="0" timestamp="Fri Feb 24 10:53:32 +0100 2012" uid="1" user="" lat="52.5611978" lon="13.3231356">
    <tag k="name" v="McDonals&apos;s"/>
    <tag k="wheelchair" v="yes"/>
    <tag k="amenity" v="fast_food"/>
  </node>
  <node id="-2856" version="0" timestamp="Fri Feb 24 10:53:34 +0100 2012" uid="1" user="" lat="52.5755973" lon="13.3471101">
    <tag k="name" v="Paracelsus Bad - Sauna"/>
    <tag k="wheelchair" v="yes"/>
    <tag k="addr:city" v="Berlin"/>
    <tag k="addr:postcode" v="13407"/>
    <tag k="addr:housenumber" v="200-204"/>
    <tag k="addr:street" v="Roedernallee"/>
    <tag k="wheelchair:description" v="1 (Toiletten)Rollstuhl vorhanden - Kein extra Platz in den Saunen fÃ¼r einen Rollstuhl, daher Transfer angebracht. Zur not findet Rollstuhl direkt am Eingang platz. Whirlpools haben 2 Stufen."/>
    <tag k="amenity" v="swimming_pool"/>
    <tag k="website" v="http://www.berlinerbaederbetriebe.de/63.html"/>
  </node>
  <node id="-2857" version="0" timestamp="Fri Feb 24 10:53:34 +0100 2012" uid="1" user="" lat="52.5751174" lon="13.3469233">
    <tag k="name" v="Paracelsus Bad - Schwimmbad"/>
    <tag k="wheelchair" v="yes"/>
    <tag k="addr:city" v="Berlin"/>
    <tag k="addr:postcode" v="13407"/>
    <tag k="addr:housenumber" v="200-204"/>
    <tag k="addr:street" v="Roedernallee"/>
    <tag k="wheelchair:description" v="Lifter vorhanden. Kein extra Becken."/>
    <tag k="amenity" v="swimming_pool"/>
    <tag k="website" v="http://www.berlinerbaederbetriebe.de/63.html"/>
  </node>
</osm>
