<?xml version='1.0' encoding='UTF-8'?>
<osm version="0.6" generator="Osmosis 0.39">
  <node id="-1992" version="0" timestamp="Fri Feb 24 10:53:34 +0100 2012" uid="1" user="" lat="52.4236592" lon="13.4954572">
    <tag k="shop" v="bakery"/>
    <tag k="name" v="Thürmann"/>
    <tag k="wheelchair" v="yes"/>
    <tag k="addr:city" v="Berlin"/>
    <tag k="addr:postcode" v="12357"/>
    <tag k="addr:housenumber" v="57"/>
    <tag k="addr:street" v="Krokusstr."/>
  </node>
  <node id="-1999" version="0" timestamp="Fri Feb 24 10:53:34 +0100 2012" uid="1" user="" lat="52.4283927" lon="13.4798671">
    <tag k="name" v="Aral"/>
    <tag k="wheelchair" v="unknown"/>
    <tag k="amenity" v="fuel"/>
  </node>
  <node id="-4014" version="0" timestamp="Fri Feb 24 10:53:36 +0100 2012" uid="1" user="" lat="52.4263311" lon="13.4827688">
    <tag k="name" v="Steakhaus Torero"/>
    <tag k="wheelchair" v="unknown"/>
    <tag k="addr:city" v="Berlin"/>
    <tag k="addr:postcode" v="12357"/>
    <tag k="addr:housenumber" v="251"/>
    <tag k="addr:street" v="Neuköllner Straße"/>
    <tag k="amenity" v="restaurant"/>
    <tag k="website" v="http://www.steakhaus-torero.de"/>
    <tag k="phone" v="030 6614011"/>
  </node>
</osm>
