<?xml version='1.0' encoding='UTF-8'?>
<osm version="0.6" generator="Osmosis 0.39">
  <node id="-9" version="0" timestamp="Fri Feb 24 10:53:32 +0100 2012" uid="1" user="" lat="52.4868779" lon="13.3528409">
    <tag k="name" v="Testort von Raul"/>
    <tag k="wheelchair" v="no"/>
    <tag k="amenity" v="bank"/>
  </node>
  <node id="-2256" version="0" timestamp="Fri Feb 24 10:53:34 +0100 2012" uid="1" user="" lat="52.4988454" lon="13.3647545">
    <tag k="name" v="Marie- Elisabeth- Lüders- Oberschule"/>
    <tag k="wheelchair" v="no"/>
    <tag k="addr:city" v="Berlin"/>
    <tag k="addr:housenumber" v="79"/>
    <tag k="addr:street" v="Steinmetzstraße"/>
    <tag k="amenity" v="school"/>
  </node>
  <node id="-2258" version="0" timestamp="Fri Feb 24 10:53:34 +0100 2012" uid="1" user="" lat="52.499268" lon="13.3624007">
    <tag k="shop" v="department_store"/>
    <tag k="name" v="Rossmann"/>
    <tag k="wheelchair" v="yes"/>
  </node>
  <node id="-3801" version="0" timestamp="Fri Feb 24 10:53:35 +0100 2012" uid="1" user="" lat="52.4942075" lon="13.3536995">
    <tag k="name" v="Café M"/>
    <tag k="wheelchair" v="no"/>
    <tag k="addr:city" v="Berlin"/>
    <tag k="addr:postcode" v="10781"/>
    <tag k="addr:housenumber" v="33"/>
    <tag k="addr:street" v="Goltzstraße"/>
    <tag k="amenity" v="cafe"/>
    <tag k="website" v="http://www.bauhaus.de/information/cafe.html"/>
    <tag k="phone" v="030 2167092"/>
  </node>
  <node id="-4222" version="0" timestamp="Fri Feb 24 10:53:36 +0100 2012" uid="1" user="" lat="52.4832733" lon="13.3454535">
    <tag k="name" v="Senatsverwaltung für Wirtschaft, Technologie und Forschung"/>
    <tag k="wheelchair" v="yes"/>
    <tag k="addr:city" v="Berlin"/>
    <tag k="addr:postcode" v="10825"/>
    <tag k="addr:housenumber" v="105"/>
    <tag k="addr:street" v="Martin-Luther-Straße"/>
    <tag k="amenity" v="townhall"/>
    <tag k="website" v="http://www.berlin.de/sen/wtf/"/>
    <tag k="phone" v="9013-0"/>
  </node>
  <node id="-4243" version="0" timestamp="Fri Feb 24 10:53:36 +0100 2012" uid="1" user="" lat="52.4911976" lon="13.3616694">
    <tag k="name" v="Tuk-Tuk"/>
    <tag k="wheelchair" v="no"/>
    <tag k="addr:city" v="Berlin"/>
    <tag k="addr:postcode" v="10827"/>
    <tag k="addr:housenumber" v="2"/>
    <tag k="addr:street" v="Großgörschenstraße "/>
    <tag k="amenity" v="restaurant"/>
    <tag k="website" v="http://www.tuk-tuk-berlin.de"/>
    <tag k="phone" v="+49 30 7811588"/>
  </node>
  <node id="-4322" version="0" timestamp="Fri Feb 24 10:53:36 +0100 2012" uid="1" user="" lat="52.4937643" lon="13.3612543">
    <tag k="name" v="LINDEMANN&apos;S"/>
    <tag k="wheelchair" v="yes"/>
    <tag k="addr:city" v="Berlin"/>
    <tag k="addr:postcode" v="10785"/>
    <tag k="addr:housenumber" v="171-173"/>
    <tag k="tourism" v="hotel"/>
    <tag k="addr:street" v="Potsdamer Straße"/>
    <tag k="website" v="http://www.lindemanns-hotel.de"/>
    <tag k="phone" v="+49 30-526854-0  "/>
  </node>
  <node id="-4400" version="0" timestamp="Fri Feb 24 10:53:36 +0100 2012" uid="1" user="" lat="52.4848317" lon="13.3509342">
    <tag k="name" v="Stadtbad Schöneberg"/>
    <tag k="wheelchair" v="unknown"/>
    <tag k="addr:city" v="Berlin"/>
    <tag k="addr:postcode" v="10827"/>
    <tag k="addr:housenumber" v="39"/>
    <tag k="addr:street" v="Hauptstraße"/>
    <tag k="amenity" v="swimming_pool"/>
    <tag k="website" v="http://www.berlinerbaederbetriebe.de/105.html"/>
    <tag k="phone" v="030 7809930"/>
  </node>
</osm>
