<?xml version='1.0' encoding='UTF-8'?>
<osm version="0.6" generator="Osmosis 0.39">
  <node id="-954" version="0" timestamp="Fri Feb 24 10:53:33 +0100 2012" uid="1" user="" lat="52.5318466" lon="13.1969645">
    <tag k="name" v="Dönerladen Lale"/>
    <tag k="wheelchair" v="no"/>
    <tag k="amenity" v="fast_food"/>
  </node>
  <node id="-1830" version="0" timestamp="Fri Feb 24 10:53:33 +0100 2012" uid="1" user="" lat="52.5300629" lon="13.2170327">
    <tag k="shop" v="electronics"/>
    <tag k="name" v="Media Markt"/>
    <tag k="wheelchair" v="yes"/>
  </node>
  <node id="-2663" version="0" timestamp="Fri Feb 24 10:53:34 +0100 2012" uid="1" user="" lat="52.5386415" lon="13.2065419">
    <tag k="name" v="Kupferpfanne"/>
    <tag k="wheelchair" v="limited"/>
    <tag k="addr:city" v="Berlin"/>
    <tag k="addr:postcode" v="13597"/>
    <tag k="addr:housenumber" v="4"/>
    <tag k="addr:street" v="Havelstraße"/>
    <tag k="wheelchair:description" v="Stufenfrei, große Bewegungsfreiheit; Toilette ist ebenerdig, aber klein"/>
    <tag k="amenity" v="fast_food"/>
    <tag k="phone" v="+49175 3656185 ‎"/>
  </node>
  <node id="-2761" version="0" timestamp="Fri Feb 24 10:53:34 +0100 2012" uid="1" user="" lat="52.5376207" lon="13.2052056">
    <tag k="shop" v="shoes"/>
    <tag k="name" v="O.T. Sanitätshaus Berlin"/>
    <tag k="wheelchair" v="yes"/>
    <tag k="addr:city" v="Berlin"/>
    <tag k="addr:postcode" v="13597"/>
    <tag k="addr:housenumber" v="7"/>
    <tag k="addr:street" v="Mönchstr."/>
    <tag k="website" v="http://www.sanitaetshausberlin.de"/>
    <tag k="phone" v="+49 3062208950"/>
  </node>
  <node id="-2762" version="0" timestamp="Fri Feb 24 10:53:34 +0100 2012" uid="1" user="" lat="52.5376207" lon="13.2052056">
    <tag k="shop" v="department_store"/>
    <tag k="name" v="O.T. Sanitätshaus Berlin"/>
    <tag k="wheelchair" v="yes"/>
    <tag k="addr:city" v="Berlin"/>
    <tag k="addr:postcode" v="13597"/>
    <tag k="addr:housenumber" v="7"/>
    <tag k="addr:street" v="Mönchstr."/>
    <tag k="website" v="http://www.sanitaetshausberlin.de"/>
    <tag k="phone" v="+49 3062208950"/>
  </node>
  <node id="-2763" version="0" timestamp="Fri Feb 24 10:53:34 +0100 2012" uid="1" user="" lat="52.5376207" lon="13.2052056">
    <tag k="shop" v="clothes"/>
    <tag k="name" v="O.T. Sanitätshaus Berlin"/>
    <tag k="wheelchair" v="yes"/>
    <tag k="addr:city" v="Berlin"/>
    <tag k="addr:postcode" v="13597"/>
    <tag k="addr:housenumber" v="7"/>
    <tag k="addr:street" v="Mönchstr."/>
    <tag k="website" v="http://www.sanitaetshausberlin.de"/>
    <tag k="phone" v="+49 3062208950"/>
  </node>
  <node id="-3200" version="0" timestamp="Fri Feb 24 10:53:35 +0100 2012" uid="1" user="" lat="52.5456326" lon="13.1970965">
    <tag k="name" v="Wolfgang-Borchert-Sekundarschule"/>
    <tag k="wheelchair" v="unknown"/>
    <tag k="amenity" v="school"/>
  </node>
  <node id="-3201" version="0" timestamp="Fri Feb 24 10:53:35 +0100 2012" uid="1" user="" lat="52.54424" lon="13.19786">
    <tag k="name" v="Charlie-Rivel-Grundschule"/>
    <tag k="wheelchair" v="unknown"/>
    <tag k="amenity" v="school"/>
  </node>
  <node id="-3209" version="0" timestamp="Fri Feb 24 10:53:35 +0100 2012" uid="1" user="" lat="52.5389643" lon="13.2041994">
    <tag k="name" v="AJAKS (Arbeitsstelle für Jugendarbeit, Ev. Kirchenkreis Spandau"/>
    <tag k="wheelchair" v="limited"/>
    <tag k="addr:city" v="Berlin"/>
    <tag k="addr:postcode" v="13597"/>
    <tag k="addr:housenumber" v="53"/>
    <tag k="addr:street" v="Carl-Schurz-Str."/>
    <tag k="website" v="http://www.kjk-spandau.de/"/>
  </node>
  <node id="-3787" version="0" timestamp="Fri Feb 24 10:53:35 +0100 2012" uid="1" user="" lat="52.5315278" lon="13.1968977">
    <tag k="shop" v="hairdresser"/>
    <tag k="name" v="Hair &amp; Fashion"/>
    <tag k="wheelchair" v="unknown"/>
    <tag k="addr:city" v="Berlin"/>
    <tag k="addr:postcode" v="13581"/>
    <tag k="addr:housenumber" v="10"/>
    <tag k="addr:street" v="Klosterstraße"/>
    <tag k="website" v="http://www.hair-fashion-spandau.de"/>
    <tag k="phone" v="030 35130230"/>
  </node>
  <node id="-3803" version="0" timestamp="Fri Feb 24 10:53:35 +0100 2012" uid="1" user="" lat="52.53947" lon="13.20747">
    <tag k="name" v="Alte Kolkschänke"/>
    <tag k="wheelchair" v="unknown"/>
    <tag k="addr:city" v="Berlin"/>
    <tag k="addr:postcode" v="13597"/>
    <tag k="addr:housenumber" v="3"/>
    <tag k="addr:street" v="Kolk"/>
    <tag k="amenity" v="restaurant"/>
    <tag k="phone" v="030 3333762"/>
  </node>
  <node id="-4681" version="0" timestamp="Fri Feb 24 10:53:36 +0100 2012" uid="1" user="" lat="52.5321198" lon="13.1963917">
    <tag k="shop" v="video"/>
    <tag k="name" v="World of Video"/>
    <tag k="wheelchair" v="unknown"/>
    <tag k="addr:city" v="Berlin"/>
    <tag k="addr:postcode" v="13581"/>
    <tag k="addr:housenumber" v="18"/>
    <tag k="addr:street" v="Borkumer Straße"/>
    <tag k="website" v="http://www.world-of-video.de/Videothek/index/id/972/DVRWorld-of-Video-Borkumer-Str-18-13581-Berlin"/>
    <tag k="phone" v="030 50567792"/>
  </node>
  <node id="-4911" version="0" timestamp="Fri Feb 24 10:53:36 +0100 2012" uid="1" user="" lat="52.5481409" lon="13.2083649">
    <tag k="name" v="Hostel Reiter"/>
    <tag k="wheelchair" v="unknown"/>
    <tag k="addr:city" v="Berlin"/>
    <tag k="addr:postcode" v="13585"/>
    <tag k="addr:housenumber" v="20"/>
    <tag k="tourism" v="hostel"/>
    <tag k="addr:street" v="Kurstraße"/>
    <tag k="website" v="http://www.hostel-reiter.de"/>
    <tag k="phone" v="030 89641901"/>
  </node>
  <node id="-4932" version="0" timestamp="Fri Feb 24 10:53:36 +0100 2012" uid="1" user="" lat="52.5313506" lon="13.1966222">
    <tag k="name" v="2 Behindertenparkplätze"/>
    <tag k="wheelchair" v="unknown"/>
    <tag k="amenity" v="parking"/>
  </node>
  <node id="-5611" version="0" timestamp="Fri Feb 24 10:53:37 +0100 2012" uid="1" user="" lat="52.5343558" lon="13.1983257">
    <tag k="name" v="Bahnhofstoiletten Spandau"/>
    <tag k="wheelchair" v="yes"/>
    <tag k="amenity" v="toilets"/>
  </node>
  <node id="-5612" version="0" timestamp="Fri Feb 24 10:53:37 +0100 2012" uid="1" user="" lat="52.5344612" lon="13.1983944">
    <tag k="shop" v="bakery"/>
    <tag k="name" v="BackWerk"/>
    <tag k="wheelchair" v="yes"/>
  </node>
</osm>
