<?xml version='1.0' encoding='UTF-8'?>
<osm version="0.6" generator="Osmosis 0.39">
  <node id="-1321" version="0" timestamp="Fri Feb 24 10:53:33 +0100 2012" uid="1" user="" lat="52.460377" lon="13.324668">
    <tag k="name" v="2 Behindertenparkplätze"/>
    <tag k="wheelchair" v="yes"/>
    <tag k="amenity" v="parking"/>
  </node>
  <node id="-1322" version="0" timestamp="Fri Feb 24 10:53:33 +0100 2012" uid="1" user="" lat="52.4605875" lon="13.323698">
    <tag k="name" v="3 Behindertenparkplätze"/>
    <tag k="wheelchair" v="yes"/>
    <tag k="amenity" v="parking"/>
  </node>
  <node id="-2299" version="0" timestamp="Fri Feb 24 10:53:34 +0100 2012" uid="1" user="" lat="52.4612449" lon="13.3257398">
    <tag k="shop" v="department_store"/>
    <tag k="name" v="Spielen-Werken-Schenken"/>
    <tag k="wheelchair" v="no"/>
  </node>
  <node id="-3544" version="0" timestamp="Fri Feb 24 10:53:35 +0100 2012" uid="1" user="" lat="52.4624976" lon="13.3244863">
    <tag k="shop" v="mall"/>
    <tag k="name" v="Boulevard Berlin"/>
    <tag k="wheelchair" v="unknown"/>
    <tag k="website" v="http://www.boulevardberlin.de"/>
  </node>
  <node id="-3641" version="0" timestamp="Fri Feb 24 10:53:35 +0100 2012" uid="1" user="" lat="52.45768" lon="13.34868">
    <tag k="name" v="Planetarium am Insulaner"/>
    <tag k="wheelchair" v="yes"/>
    <tag k="addr:city" v="Berlin"/>
    <tag k="addr:postcode" v="12169"/>
    <tag k="addr:housenumber" v="90"/>
    <tag k="addr:street" v="Munsterdamm"/>
    <tag k="website" v="Http://www.planetarium-berlin.de"/>
    <tag k="phone" v="+49 30 79 00 93 - 0"/>
  </node>
  <node id="-4362" version="0" timestamp="Fri Feb 24 10:53:36 +0100 2012" uid="1" user="" lat="52.458792" lon="13.3215932">
    <tag k="name" v="novajura RechtsanwaltsGmbH"/>
    <tag k="wheelchair" v="limited"/>
    <tag k="addr:city" v="Berin"/>
    <tag k="addr:postcode" v="12163"/>
    <tag k="addr:housenumber" v="4"/>
    <tag k="addr:street" v="Muthesiusstraße "/>
    <tag k="wheelchair:description" v="Am Eingang ein Stufe (Hilfe ggf. möglich), alle Räume barrierefrei; Toilette nicht rollstuhkgerecht"/>
    <tag k="website" v="http://www.novajura.de"/>
    <tag k="phone" v="+49 30 6807 194-40"/>
    <tag k="office" v="lawyer"/>
  </node>
  <node id="-4426" version="0" timestamp="Fri Feb 24 10:53:36 +0100 2012" uid="1" user="" lat="52.4629415" lon="13.3262618">
    <tag k="shop" v="mall"/>
    <tag k="name" v="Karstadt"/>
    <tag k="wheelchair" v="yes"/>
    <tag k="addr:city" v="Berlin"/>
    <tag k="addr:street" v="Schlossstrasse"/>
  </node>
  <node id="-4428" version="0" timestamp="Fri Feb 24 10:53:36 +0100 2012" uid="1" user="" lat="52.4622692" lon="13.3331585">
    <tag k="shop" v="supermarket"/>
    <tag k="name" v="Reichelt"/>
    <tag k="wheelchair" v="yes"/>
    <tag k="addr:city" v="Berlin"/>
    <tag k="addr:street" v="Poschingerstrasse"/>
  </node>
  <node id="-4429" version="0" timestamp="Fri Feb 24 10:53:36 +0100 2012" uid="1" user="" lat="52.4582976" lon="13.3301193">
    <tag k="shop" v="supermarket"/>
    <tag k="name" v="Lidl"/>
    <tag k="wheelchair" v="yes"/>
    <tag k="addr:city" v="Berlin"/>
    <tag k="addr:street" v="Bergstrasse"/>
  </node>
</osm>
