<?xml version='1.0' encoding='UTF-8'?>
<osm version="0.6" generator="Osmosis 0.39">
  <node id="-305" version="0" timestamp="Fri Feb 24 10:53:32 +0100 2012" uid="1" user="" lat="52.5615509" lon="13.3203237">
    <tag k="name" v="Zum Hangar"/>
    <tag k="wheelchair" v="no"/>
    <tag k="wheelchair:description" v="3 Stufen im Eingang"/>
    <tag k="amenity" v="cafe"/>
  </node>
  <node id="-1828" version="0" timestamp="Fri Feb 24 10:53:33 +0100 2012" uid="1" user="" lat="52.5902164" lon="13.2820027">
    <tag k="shop" v="clothes"/>
    <tag k="name" v="C&amp;A"/>
    <tag k="wheelchair" v="yes"/>
    <tag k="wheelchair:description" v="Rollstuhl-Umkleiden und WC vorhanden"/>
  </node>
  <node id="-1829" version="0" timestamp="Fri Feb 24 10:53:33 +0100 2012" uid="1" user="" lat="52.590851" lon="13.2810681">
    <tag k="name" v="Rampe zum Tegeler Hafen"/>
    <tag k="wheelchair" v="limited"/>
    <tag k="tourism" v="viewpoint"/>
    <tag k="wheelchair:description" v="sehr steil, 12%, nicht fÃ¼r Selbstfahrer"/>
  </node>
</osm>
