<?xml version='1.0' encoding='UTF-8'?>
<osm version="0.6" generator="Osmosis 0.39">
  <node id="-20" version="0" timestamp="Fri Feb 24 10:53:32 +0100 2012" uid="1" user="" lat="52.4711306" lon="13.3844413">
    <tag k="name" v="S Tempelhof"/>
    <tag k="wheelchair" v="yes"/>
    <tag k="railway" v="platform"/>
  </node>
  <node id="-21" version="0" timestamp="Fri Feb 24 10:53:32 +0100 2012" uid="1" user="" lat="52.4621882" lon="13.3857328">
    <tag k="name" v="Bezirksamt Tempelhof"/>
    <tag k="wheelchair" v="yes"/>
  </node>
  <node id="-545" version="0" timestamp="Fri Feb 24 10:53:32 +0100 2012" uid="1" user="" lat="52.46066" lon="13.39468">
    <tag k="name" v="Albrechtshöhe"/>
    <tag k="wheelchair" v="limited"/>
    <tag k="addr:city" v="Berlin"/>
    <tag k="addr:postcode" v="12099"/>
    <tag k="addr:housenumber" v="59"/>
    <tag k="addr:street" v="Felixstraße"/>
    <tag k="amenity" v="restaurant"/>
    <tag k="website" v="http://www.albrechtshoehe-berlin.de"/>
    <tag k="phone" v="+49 30 53159420"/>
  </node>
  <node id="-1763" version="0" timestamp="Fri Feb 24 10:53:33 +0100 2012" uid="1" user="" lat="52.4847" lon="13.39257">
    <tag k="name" v="C-Halle"/>
    <tag k="wheelchair" v="yes"/>
    <tag k="wheelchair:description" v="Rolli-Rampe"/>
    <tag k="amenity" v="bank"/>
  </node>
  <node id="-2171" version="0" timestamp="Fri Feb 24 10:53:34 +0100 2012" uid="1" user="" lat="52.4698337" lon="13.3735303">
    <tag k="name" v="McFit"/>
    <tag k="wheelchair" v="no"/>
    <tag k="wheelchair:description" v="Zugang nur über Treppenhaus"/>
    <tag k="leisure" v="sports_centre"/>
  </node>
</osm>
