<?xml version='1.0' encoding='UTF-8'?>
<osm version="0.6" generator="Osmosis 0.39">
  <node id="-1348" version="0" timestamp="Fri Feb 24 10:53:33 +0100 2012" uid="1" user="" lat="52.50853" lon="13.23693">
    <tag k="name" v="Berlin British School"/>
    <tag k="wheelchair" v="yes"/>
    <tag k="addr:city" v=" Berlin"/>
    <tag k="addr:postcode" v="14055"/>
    <tag k="addr:housenumber" v="17-19"/>
    <tag k="addr:street" v="Dickensweg "/>
    <tag k="amenity" v="school"/>
    <tag k="website" v="http://www.berlinbritishschool.de/"/>
    <tag k="phone" v="(030) 35109 190"/>
  </node>
  <node id="-2662" version="0" timestamp="Fri Feb 24 10:53:34 +0100 2012" uid="1" user="" lat="52.52761" lon="13.2734">
    <tag k="name" v="Kupferpfanne"/>
    <tag k="wheelchair" v="limited"/>
    <tag k="addr:city" v="Berlin"/>
    <tag k="addr:postcode" v="13597"/>
    <tag k="addr:housenumber" v="4"/>
    <tag k="addr:street" v="Havelstraße"/>
    <tag k="wheelchair:description" v="keine Stufen, viel Bewegungsfreiheit, Toilette ebenerdig und leicht zugänglich, aber nicht sehr groß"/>
    <tag k="amenity" v="fast_food"/>
    <tag k="phone" v="+49175 3656185 ‎"/>
  </node>
  <node id="-4249" version="0" timestamp="Fri Feb 24 10:53:36 +0100 2012" uid="1" user="" lat="52.5193419" lon="13.2577989">
    <tag k="name" v="Trattoria la Bottega"/>
    <tag k="wheelchair" v="limited"/>
    <tag k="addr:city" v="Berlin"/>
    <tag k="addr:postcode" v="14052"/>
    <tag k="addr:housenumber" v="1"/>
    <tag k="addr:street" v="Meiningenallee"/>
    <tag k="amenity" v="restaurant"/>
    <tag k="phone" v="+49 30 3049331"/>
  </node>
</osm>
