<?xml version='1.0' encoding='UTF-8'?>
<osm version="0.6" generator="Osmosis 0.39">
  <node id="-766" version="0" timestamp="Fri Feb 24 10:53:32 +0100 2012" uid="1" user="" lat="52.5285077" lon="13.1910549">
    <tag k="shop" v="clothes"/>
    <tag k="name" v="Rollitex"/>
    <tag k="wheelchair" v="yes"/>
    <tag k="addr:city" v="Berlin"/>
    <tag k="addr:postcode" v="13581"/>
    <tag k="addr:housenumber" v="10"/>
    <tag k="addr:street" v="Seeburger Straße"/>
    <tag k="wheelchair:description" v="Parkmöglichkeiten, Umkleidekabinen"/>
    <tag k="website" v="http://www.rollitex.de"/>
    <tag k="phone" v="030 77 90 91 52"/>
  </node>
  <node id="-955" version="0" timestamp="Fri Feb 24 10:53:33 +0100 2012" uid="1" user="" lat="52.5250555" lon="13.1974009">
    <tag k="shop" v="kiosk"/>
    <tag k="name" v="Zeitungsladen Schmiedicke"/>
    <tag k="wheelchair" v="yes"/>
    <tag k="addr:city" v="Berlin"/>
    <tag k="addr:postcode" v="13595"/>
    <tag k="addr:housenumber" v="114"/>
    <tag k="addr:street" v="Pichelsdorfer Str."/>
  </node>
  <node id="-3823" version="0" timestamp="Fri Feb 24 10:53:35 +0100 2012" uid="1" user="" lat="52.5244937" lon="13.1933954">
    <tag k="name" v="Salt &amp; Pepper"/>
    <tag k="wheelchair" v="unknown"/>
    <tag k="addr:city" v="Berlin"/>
    <tag k="addr:postcode" v="13595"/>
    <tag k="addr:housenumber" v="147"/>
    <tag k="addr:street" v="Wilhelmstraße"/>
    <tag k="amenity" v="restaurant"/>
    <tag k="website" v="http://www.saltandpepper-berlin.de"/>
    <tag k="phone" v="030 50014041"/>
  </node>
  <node id="-4437" version="0" timestamp="Fri Feb 24 10:53:36 +0100 2012" uid="1" user="" lat="52.5268931" lon="13.194035">
    <tag k="name" v="Obi Parkplatz"/>
    <tag k="wheelchair" v="yes"/>
    <tag k="amenity" v="parking"/>
  </node>
  <node id="-4438" version="0" timestamp="Fri Feb 24 10:53:36 +0100 2012" uid="1" user="" lat="52.5273728" lon="13.1935093">
    <tag k="shop" v="doityourself"/>
    <tag k="name" v="Obi"/>
    <tag k="wheelchair" v="yes"/>
    <tag k="website" v="http://www.obi.de"/>
  </node>
  <node id="-4666" version="0" timestamp="Fri Feb 24 10:53:36 +0100 2012" uid="1" user="" lat="52.52397" lon="13.19414">
    <tag k="name" v="Salt &amp; Pepper"/>
    <tag k="wheelchair" v="yes"/>
    <tag k="addr:city" v="Berlin"/>
    <tag k="addr:postcode" v="13595"/>
    <tag k="addr:housenumber" v="147"/>
    <tag k="addr:street" v="Wilhelmstraße"/>
    <tag k="wheelchair:description" v="Rampe wird v.dem freundlichen Personal auf Anfrage schnell angelegt;Behindertentoilette vorhanden"/>
    <tag k="amenity" v="restaurant"/>
    <tag k="website" v="http://www.saltandpepper-berlin.de/"/>
    <tag k="phone" v="+49 30 50014041"/>
  </node>
  <node id="-4676" version="0" timestamp="Fri Feb 24 10:53:36 +0100 2012" uid="1" user="" lat="52.5238256" lon="13.1977834">
    <tag k="name" v="Arriba Mexico"/>
    <tag k="wheelchair" v="unknown"/>
    <tag k="addr:city" v="Berlin"/>
    <tag k="addr:postcode" v="13595"/>
    <tag k="addr:housenumber" v="98"/>
    <tag k="addr:street" v="Pichelsdorfer Straße"/>
    <tag k="amenity" v="restaurant"/>
    <tag k="website" v="http://www.arribamexico-berlin.de"/>
    <tag k="phone" v="030 35104891"/>
  </node>
  <node id="-5057" version="0" timestamp="Fri Feb 24 10:53:37 +0100 2012" uid="1" user="" lat="52.5180501" lon="13.197552">
    <tag k="name" v="Restaurant Buenos Aires"/>
    <tag k="wheelchair" v="limited"/>
    <tag k="addr:city" v="Berlin"/>
    <tag k="addr:postcode" v="13595"/>
    <tag k="addr:housenumber" v="51"/>
    <tag k="addr:street" v="Pichelsdorfer Str."/>
    <tag k="wheelchair:description" v="Kleine Rampe wird angelegt, kein Behinderten-WC"/>
    <tag k="amenity" v="restaurant"/>
    <tag k="website" v="http://www.restaurant-buenosaires.de"/>
    <tag k="phone" v="+49 30 362 92 25"/>
  </node>
  <node id="-5102" version="0" timestamp="Fri Feb 24 10:53:37 +0100 2012" uid="1" user="" lat="52.5259285" lon="13.1964195">
    <tag k="shop" v="florist"/>
    <tag k="name" v="Kleine Blumenboutique Vergissmeinnicht"/>
    <tag k="wheelchair" v="unknown"/>
    <tag k="addr:city" v="Berlin"/>
    <tag k="addr:postcode" v="13595"/>
    <tag k="addr:housenumber" v="123"/>
    <tag k="addr:street" v="Pichelsdorfer Straße"/>
    <tag k="website" v="http://www.blumenboutique-vergissmeinnicht.de"/>
    <tag k="phone" v="030 33604430"/>
  </node>
  <node id="-5535" version="0" timestamp="Fri Feb 24 10:53:37 +0100 2012" uid="1" user="" lat="52.5273498" lon="13.2126032">
    <tag k="name" v="Restaurant Ramazzotti"/>
    <tag k="wheelchair" v="unknown"/>
    <tag k="addr:city" v="Berlin"/>
    <tag k="addr:postcode" v="13597"/>
    <tag k="addr:housenumber" v="18"/>
    <tag k="addr:street" v="Ruhlebener Straße"/>
    <tag k="amenity" v="restaurant"/>
    <tag k="website" v="http://www.ramazzotti-berlin.de"/>
    <tag k="phone" v="030 35134033"/>
  </node>
  <node id="-5542" version="0" timestamp="Fri Feb 24 10:53:37 +0100 2012" uid="1" user="" lat="52.5161702" lon="13.1971895">
    <tag k="name" v="Steile Stiege"/>
    <tag k="wheelchair" v="unknown"/>
    <tag k="addr:city" v="Berlin"/>
    <tag k="addr:postcode" v="13595"/>
    <tag k="addr:housenumber" v="29"/>
    <tag k="addr:street" v="Pichelsdorfer Straße"/>
    <tag k="amenity" v="restaurant"/>
    <tag k="website" v="http://www.steile-stiege.de"/>
    <tag k="phone" v="030 36432619"/>
  </node>
</osm>
