<?xml version='1.0' encoding='UTF-8'?>
<osm version="0.6" generator="Osmosis 0.39">
  <node id="-590" version="0" timestamp="Fri Feb 24 10:53:32 +0100 2012" uid="1" user="" lat="52.4849067" lon="13.3200996">
    <tag k="name" v="blisse14"/>
    <tag k="wheelchair" v="yes"/>
    <tag k="addr:city" v="Berlin"/>
    <tag k="addr:postcode" v="10713"/>
    <tag k="addr:housenumber" v="14"/>
    <tag k="addr:street" v="Blissestraße "/>
    <tag k="wheelchair:description" v="100% barrierefrei einschließlich Toiletten"/>
    <tag k="amenity" v="restaurant"/>
    <tag k="website" v="http://www.blisse14.de"/>
    <tag k="phone" v="+49 30 89731310"/>
  </node>
  <node id="-1043" version="0" timestamp="Fri Feb 24 10:53:33 +0100 2012" uid="1" user="" lat="52.47626" lon="13.31012">
    <tag k="name" v="El Campo"/>
    <tag k="wheelchair" v="limited"/>
    <tag k="addr:city" v="Berlin"/>
    <tag k="addr:postcode" v="14197"/>
    <tag k="addr:housenumber" v="44"/>
    <tag k="addr:street" v="Nauheimer Str. "/>
    <tag k="wheelchair:description" v="Kleine Stufe am Eingang"/>
    <tag k="amenity" v="bar"/>
  </node>
  <node id="-1296" version="0" timestamp="Fri Feb 24 10:53:33 +0100 2012" uid="1" user="" lat="52.4926455" lon="13.3103145">
    <tag k="name" v="Deutsche Rentenversicherung Bund - Auskunfts- und Beratungsstelle "/>
    <tag k="wheelchair" v="yes"/>
    <tag k="addr:city" v="Berlin"/>
    <tag k="addr:postcode" v="10709"/>
    <tag k="addr:housenumber" v="46"/>
    <tag k="addr:street" v="Konstanzer Straße"/>
    <tag k="website" v="http://www.deutsche-rentenversicherung-bund.de/"/>
    <tag k="phone" v="+49 30 86888-0"/>
  </node>
  <node id="-2579" version="0" timestamp="Fri Feb 24 10:53:34 +0100 2012" uid="1" user="" lat="52.498" lon="13.32941">
    <tag k="name" v="Bar jeder Vernunft"/>
    <tag k="wheelchair" v="yes"/>
    <tag k="wheelchair:description" v="Eine Stufe in den Saal"/>
    <tag k="amenity" v="theatre"/>
  </node>
  <node id="-3767" version="0" timestamp="Fri Feb 24 10:53:35 +0100 2012" uid="1" user="" lat="52.4870365" lon="13.3278485">
    <tag k="shop" v="florist"/>
    <tag k="name" v="Blumenhändler"/>
    <tag k="wheelchair" v="yes"/>
  </node>
  <node id="-3892" version="0" timestamp="Fri Feb 24 10:53:35 +0100 2012" uid="1" user="" lat="52.49967" lon="13.30664">
    <tag k="name" v="Hausarztpraxis für Allgemeinmedizin Dipl. med. Igor Berschadski"/>
    <tag k="wheelchair" v="limited"/>
    <tag k="addr:city" v="Berlin-Charlottenburg/Wilmersdorf"/>
    <tag k="addr:postcode" v="10709"/>
    <tag k="addr:housenumber" v="Kurfürstendamm 163"/>
    <tag k="addr:street" v="Kurfürstendamm 163"/>
    <tag k="wheelchair:description" v="Eingangstreppe &lt;7cm;  Rampe auf Anfrage"/>
    <tag k="amenity" v="doctors"/>
    <tag k="website" v="http://www.allgemeinmedizin-berschadski.de"/>
    <tag k="phone" v="49306142101"/>
  </node>
  <node id="-4317" version="0" timestamp="Fri Feb 24 10:53:36 +0100 2012" uid="1" user="" lat="52.4784178" lon="13.3280334">
    <tag k="name" v="Bordell Royal"/>
    <tag k="wheelchair" v="limited"/>
    <tag k="addr:city" v="Berlin"/>
    <tag k="addr:postcode" v="10715"/>
    <tag k="addr:housenumber" v="8"/>
    <tag k="addr:street" v="Bundesplatz "/>
    <tag k="wheelchair:description" v="Fahrstuhl im, Treppenhaus"/>
    <tag k="amenity" v="brothel"/>
    <tag k="website" v="http://www.royalgirl.de/"/>
    <tag k="phone" v="030-857 31 688 "/>
  </node>
  <node id="-4668" version="0" timestamp="Fri Feb 24 10:53:36 +0100 2012" uid="1" user="" lat="52.4682888" lon="13.3084767">
    <tag k="name" v="Katholische Kirche St. Petrus"/>
    <tag k="wheelchair" v="yes"/>
    <tag k="addr:city" v="Berlin"/>
    <tag k="addr:postcode" v="14199"/>
    <tag k="addr:housenumber" v="4"/>
    <tag k="addr:street" v="Dillenburger Straße"/>
    <tag k="amenity" v="place_of_worship"/>
    <tag k="website" v="http://www.piusbruderschaft.de/distrikt/zentren/514"/>
    <tag k="phone" v="+49 (0) 30 / 89 73 23 36"/>
  </node>
  <node id="-5371" version="0" timestamp="Fri Feb 24 10:53:37 +0100 2012" uid="1" user="" lat="52.48595" lon="13.33412">
    <tag k="name" v="Santander Consumer Bank"/>
    <tag k="wheelchair" v="limited"/>
    <tag k="addr:city" v="Berlin"/>
    <tag k="addr:postcode" v="10715"/>
    <tag k="addr:housenumber" v="44"/>
    <tag k="addr:street" v="Badensche Straße"/>
    <tag k="amenity" v="bank"/>
    <tag k="website" v="http://www.santander.de"/>
  </node>
</osm>
