<?xml version='1.0' encoding='UTF-8'?>
<osm version="0.6" generator="Osmosis 0.39">
  <node id="-911" version="0" timestamp="Fri Feb 24 10:53:33 +0100 2012" uid="1" user="" lat="52.5777141" lon="13.3081487">
    <tag k="name" v="Fußgängertunnel zwischen Soltauerstrasse &amp; Wittestrasse 5"/>
    <tag k="wheelchair" v="no"/>
    <tag k="addr:city" v="Berlin"/>
    <tag k="addr:postcode" v="13509"/>
    <tag k="addr:housenumber" v="1"/>
    <tag k="addr:street" v="Soltauerstrasse"/>
    <tag k="amenity" v="parking"/>
  </node>
  <node id="-1738" version="0" timestamp="Fri Feb 24 10:53:33 +0100 2012" uid="1" user="" lat="52.5937089" lon="13.3339949">
    <tag k="name" v="Ristorante Cavallino"/>
    <tag k="wheelchair" v="limited"/>
    <tag k="addr:city" v="Berlin"/>
    <tag k="addr:postcode" v="13437"/>
    <tag k="addr:housenumber" v="89"/>
    <tag k="addr:street" v="Roedernallee "/>
    <tag k="wheelchair:description" v="Rampe wird gerne angelegt. Kein Rolliklo."/>
    <tag k="amenity" v="restaurant"/>
    <tag k="phone" v="+49 30 4117277 ‎ "/>
  </node>
  <node id="-1994" version="0" timestamp="Fri Feb 24 10:53:34 +0100 2012" uid="1" user="" lat="52.5983222" lon="13.3299968">
    <tag k="name" v="Ernst-Litfaß-Schule"/>
    <tag k="wheelchair" v="unknown"/>
    <tag k="amenity" v="bank"/>
  </node>
  <node id="-1996" version="0" timestamp="Fri Feb 24 10:53:34 +0100 2012" uid="1" user="" lat="52.5980383" lon="13.3305825">
    <tag k="name" v="Emil-Fischer-Schule"/>
    <tag k="wheelchair" v="yes"/>
    <tag k="amenity" v="school"/>
  </node>
  <node id="-1997" version="0" timestamp="Fri Feb 24 10:53:34 +0100 2012" uid="1" user="" lat="52.5986793" lon="13.3281648">
    <tag k="name" v="Turnhalle der Emil-Fischer-Schule"/>
    <tag k="wheelchair" v="unknown"/>
    <tag k="amenity" v="school"/>
  </node>
  <node id="-1998" version="0" timestamp="Fri Feb 24 10:53:34 +0100 2012" uid="1" user="" lat="52.6023802" lon="13.324109">
    <tag k="shop" v="supermarket"/>
    <tag k="name" v="Netto"/>
    <tag k="wheelchair" v="yes"/>
  </node>
  <node id="-5467" version="0" timestamp="Fri Feb 24 10:53:37 +0100 2012" uid="1" user="" lat="52.5892291" lon="13.3346005">
    <tag k="name" v="Torte la Tarte"/>
    <tag k="wheelchair" v="unknown"/>
    <tag k="addr:city" v="Berlin"/>
    <tag k="addr:postcode" v="13437"/>
    <tag k="addr:housenumber" v="59"/>
    <tag k="addr:street" v="Oranienburger Straße"/>
    <tag k="amenity" v="cafe"/>
    <tag k="website" v="http://www.torte-la-tarte.de"/>
    <tag k="phone" v="030 60920621"/>
  </node>
</osm>
