<?xml version='1.0' encoding='UTF-8'?>
<osm version="0.6" generator="Osmosis 0.39">
  <node id="-1259" version="0" timestamp="Fri Feb 24 10:53:33 +0100 2012" uid="1" user="" lat="54.1775077" lon="9.0965466">
    <tag k="shop" v="florist"/>
    <tag k="name" v="NATURFLAIR - Blumen, Pflanzen und Deko"/>
    <tag k="wheelchair" v="yes"/>
    <tag k="addr:city" v="Heide"/>
    <tag k="addr:postcode" v="25746"/>
    <tag k="addr:housenumber" v="76"/>
    <tag k="addr:street" v="Theodor-Fontane-Ring"/>
    <tag k="wheelchair:description" v="Vollständige Barrierefreiheit - Willkommen!"/>
    <tag k="website" v="http://www.naturflair.de"/>
    <tag k="phone" v="+49 481 4213718"/>
  </node>
  <node id="-1394" version="0" timestamp="Fri Feb 24 10:53:33 +0100 2012" uid="1" user="" lat="54.1282" lon="8.86018">
    <tag k="name" v="Appartement-Haus &quot;Am Ankerplatz&quot;"/>
    <tag k="wheelchair" v="yes"/>
    <tag k="tourism" v="guest_house"/>
    <tag k="wheelchair:description" v="Aufzug von Tiefgarage bis zur höchsten Etage, Wohnungen barrierefrei"/>
  </node>
  <node id="-1821" version="0" timestamp="Fri Feb 24 10:53:33 +0100 2012" uid="1" user="" lat="54.1274689" lon="8.8593181">
    <tag k="name" v="Appartement-Haus &quot;Am Ankerplatz&quot;"/>
    <tag k="wheelchair" v="yes"/>
    <tag k="addr:city" v="Büsum"/>
    <tag k="addr:postcode" v="25761"/>
    <tag k="tourism" v="hotel"/>
    <tag k="addr:street" v="Am Ankerplatz"/>
    <tag k="wheelchair:description" v="Aufzug von Tiefgarage bis zur höchsten Etage, Wohnungen barrierefrei"/>
  </node>
  <node id="-2897" version="0" timestamp="Fri Feb 24 10:53:34 +0100 2012" uid="1" user="" lat="54.1947387" lon="9.0964899">
    <tag k="name" v="McDonald´s"/>
    <tag k="wheelchair" v="yes"/>
    <tag k="addr:city" v="Heide"/>
    <tag k="addr:postcode" v="25746"/>
    <tag k="addr:housenumber" v="28"/>
    <tag k="addr:street" v="Friedrichstraße"/>
    <tag k="amenity" v="fast_food"/>
    <tag k="phone" v="0481 683 87 37"/>
  </node>
  <node id="-2898" version="0" timestamp="Fri Feb 24 10:53:34 +0100 2012" uid="1" user="" lat="53.9001242" lon="9.1206446">
    <tag k="name" v="McDonald´s"/>
    <tag k="wheelchair" v="yes"/>
    <tag k="addr:city" v="Brunsbüttel"/>
    <tag k="addr:postcode" v="25541"/>
    <tag k="addr:housenumber" v="4"/>
    <tag k="addr:street" v="Olof-Palme-Allee"/>
    <tag k="amenity" v="restaurant"/>
    <tag k="website" v="http://www.mcdonalds.de"/>
    <tag k="phone" v="04852 520 95"/>
  </node>
  <node id="-2899" version="0" timestamp="Fri Feb 24 10:53:34 +0100 2012" uid="1" user="" lat="53.9002199" lon="9.1204742">
    <tag k="name" v="McDonald´s"/>
    <tag k="wheelchair" v="yes"/>
    <tag k="amenity" v="parking"/>
  </node>
  <node id="-2900" version="0" timestamp="Fri Feb 24 10:53:34 +0100 2012" uid="1" user="" lat="53.9002295" lon="9.1207329">
    <tag k="name" v="Amerikanisches Restaurant &quot;McDonald´s&quot;"/>
    <tag k="wheelchair" v="yes"/>
    <tag k="addr:city" v="Brunsbüttel"/>
    <tag k="addr:postcode" v="25541"/>
    <tag k="addr:housenumber" v="4"/>
    <tag k="tourism" v="attraction"/>
    <tag k="addr:street" v="Olof-Palme-Allee"/>
    <tag k="website" v="http://www.mcdonalds.de"/>
  </node>
</osm>
