<?xml version='1.0' encoding='UTF-8'?>
<osm version="0.6" generator="Osmosis 0.39">
  <node id="-29" version="0" timestamp="Fri Feb 24 10:53:32 +0100 2012" uid="1" user="" lat="54.3333" lon="10.1333">
    <tag k="name" v="Dr. Bernd Joswig"/>
    <tag k="wheelchair" v="no"/>
    <tag k="addr:city" v="Kiel"/>
    <tag k="addr:postcode" v="24116"/>
    <tag k="addr:housenumber" v="30"/>
    <tag k="addr:street" v="Goethestraße"/>
    <tag k="amenity" v="doctors"/>
  </node>
  <node id="-31" version="0" timestamp="Fri Feb 24 10:53:32 +0100 2012" uid="1" user="" lat="54.35789" lon="10.13406">
    <tag k="name" v="Mahrts"/>
    <tag k="wheelchair" v="no"/>
    <tag k="amenity" v="restaurant"/>
  </node>
  <node id="-1068" version="0" timestamp="Fri Feb 24 10:53:33 +0100 2012" uid="1" user="" lat="54.3170251" lon="10.0717213">
    <tag k="name" v="Hotel Birke"/>
    <tag k="wheelchair" v="yes"/>
    <tag k="addr:city" v="Kiel"/>
    <tag k="addr:postcode" v="24109"/>
    <tag k="addr:housenumber" v="2-8"/>
    <tag k="addr:street" v="Martenshofweg"/>
    <tag k="amenity" v="restaurant"/>
    <tag k="website" v="http://www.hotel-birke.de"/>
    <tag k="phone" v="0431-53310"/>
  </node>
  <node id="-1695" version="0" timestamp="Fri Feb 24 10:53:33 +0100 2012" uid="1" user="" lat="54.39239" lon="10.16531">
    <tag k="shop" v="optician"/>
    <tag k="name" v="OptimalSehen"/>
    <tag k="wheelchair" v="yes"/>
    <tag k="addr:city" v="Kiel"/>
    <tag k="addr:postcode" v="24159"/>
    <tag k="addr:housenumber" v="41"/>
    <tag k="addr:street" v="An der Schanze"/>
    <tag k="wheelchair:description" v="Ebenerdiger Zugang, Augenglasbestimmung im Rollstuhl möglich"/>
    <tag k="website" v="http://www.optimalsehen.com"/>
    <tag k="phone" v="+49 (0)431"/>
  </node>
  <node id="-1697" version="0" timestamp="Fri Feb 24 10:53:33 +0100 2012" uid="1" user="" lat="54.3946735" lon="10.1740388">
    <tag k="shop" v="optician"/>
    <tag k="name" v="OptimalSehen"/>
    <tag k="wheelchair" v="yes"/>
    <tag k="addr:city" v="Kiel"/>
    <tag k="addr:postcode" v="24159"/>
    <tag k="addr:housenumber" v="41"/>
    <tag k="addr:street" v="An der Schanze"/>
    <tag k="wheelchair:description" v="Rollstuhlgerechte Bushaltestelle direkt vor der Tür; ebenerdiger Zugang; Augenglasbestimmung im Rollstuhl möglich"/>
    <tag k="website" v="http://www.optimalsehen.com"/>
    <tag k="phone" v="+49 (0)431 260 90 950"/>
  </node>
  <node id="-2039" version="0" timestamp="Fri Feb 24 10:53:34 +0100 2012" uid="1" user="" lat="54.3300639" lon="10.1389329">
    <tag k="name" v="Photo+Medienforum Kiel"/>
    <tag k="wheelchair" v="limited"/>
    <tag k="addr:city" v="Kiel"/>
    <tag k="addr:postcode" v="24105"/>
    <tag k="addr:housenumber" v="9-11"/>
    <tag k="addr:street" v="Feldstr."/>
    <tag k="wheelchair:description" v="Nur das Sekretariat ist rollstuhlgerecht zu errreichen. Alle anderen Räume wie Studios etc. NICHT"/>
    <tag k="amenity" v="school"/>
    <tag k="website" v="http://www.photomedienforum.de/"/>
    <tag k="phone" v="+49 431 5797-00 "/>
  </node>
  <node id="-2040" version="0" timestamp="Fri Feb 24 10:53:34 +0100 2012" uid="1" user="" lat="54.3257629" lon="10.1441846">
    <tag k="name" v="Kriegerdenkmal"/>
    <tag k="wheelchair" v="limited"/>
    <tag k="wheelchair:description" v="Das Denkmal selbst hat mehrere Stufen, davor kann man aber problemlos gelangen"/>
    <tag k="historic" v="memorial"/>
  </node>
  <node id="-2808" version="0" timestamp="Fri Feb 24 10:53:34 +0100 2012" uid="1" user="" lat="54.319" lon="10.1343">
    <tag k="name" v="Statt-Cafe"/>
    <tag k="wheelchair" v="yes"/>
    <tag k="wheelchair:description" v="incl. Beh.-WC"/>
    <tag k="amenity" v="cafe"/>
  </node>
  <node id="-2810" version="0" timestamp="Fri Feb 24 10:53:34 +0100 2012" uid="1" user="" lat="54.3240419" lon="10.1424257">
    <tag k="name" v="Kieler Schloss, Brasserie"/>
    <tag k="wheelchair" v="yes"/>
    <tag k="wheelchair:description" v="incl. Beh.-WC"/>
    <tag k="amenity" v="restaurant"/>
  </node>
  <node id="-2939" version="0" timestamp="Fri Feb 24 10:53:34 +0100 2012" uid="1" user="" lat="54.3205744" lon="10.1348263">
    <tag k="shop" v="supermarket"/>
    <tag k="name" v="dm"/>
    <tag k="wheelchair" v="yes"/>
  </node>
  <node id="-2940" version="0" timestamp="Fri Feb 24 10:53:34 +0100 2012" uid="1" user="" lat="54.3207327" lon="10.1349266">
    <tag k="shop" v="clothes"/>
    <tag k="name" v="Hunkemöller"/>
    <tag k="wheelchair" v="limited"/>
    <tag k="wheelchair:description" v="Kaum Bewegungsfreiheit im Geschäftsraum"/>
  </node>
  <node id="-2941" version="0" timestamp="Fri Feb 24 10:53:34 +0100 2012" uid="1" user="" lat="54.3329648" lon="10.1305388">
    <tag k="name" v="Strongbows"/>
    <tag k="wheelchair" v="no"/>
    <tag k="amenity" v="pub"/>
  </node>
  <node id="-2948" version="0" timestamp="Fri Feb 24 10:53:34 +0100 2012" uid="1" user="" lat="54.3241179" lon="10.1724373">
    <tag k="shop" v="supermarket"/>
    <tag k="name" v="Sky"/>
    <tag k="wheelchair" v="yes"/>
  </node>
  <node id="-2955" version="0" timestamp="Fri Feb 24 10:53:34 +0100 2012" uid="1" user="" lat="54.3263169" lon="10.1818716">
    <tag k="shop" v="supermarket"/>
    <tag k="name" v="Netto"/>
    <tag k="wheelchair" v="yes"/>
  </node>
  <node id="-2956" version="0" timestamp="Fri Feb 24 10:53:34 +0100 2012" uid="1" user="" lat="54.3464304" lon="10.1133426">
    <tag k="name" v="Mensa II"/>
    <tag k="wheelchair" v="no"/>
    <tag k="amenity" v="restaurant"/>
  </node>
  <node id="-2957" version="0" timestamp="Fri Feb 24 10:53:34 +0100 2012" uid="1" user="" lat="54.3464826" lon="10.113492">
    <tag k="name" v="Cafeteria"/>
    <tag k="wheelchair" v="yes"/>
    <tag k="amenity" v="restaurant"/>
  </node>
  <node id="-2958" version="0" timestamp="Fri Feb 24 10:53:34 +0100 2012" uid="1" user="" lat="54.3374554" lon="10.1227741">
    <tag k="name" v="Mensa I"/>
    <tag k="wheelchair" v="yes"/>
    <tag k="amenity" v="restaurant"/>
  </node>
  <node id="-3122" version="0" timestamp="Fri Feb 24 10:53:35 +0100 2012" uid="1" user="" lat="54.34627" lon="10.11008">
    <tag k="name" v="Universitätsbibliothek"/>
    <tag k="wheelchair" v="limited"/>
    <tag k="amenity" v="library"/>
  </node>
  <node id="-3123" version="0" timestamp="Fri Feb 24 10:53:35 +0100 2012" uid="1" user="" lat="54.3179949" lon="10.123906">
    <tag k="name" v="Galerie Club N°68"/>
    <tag k="wheelchair" v="limited"/>
    <tag k="amenity" v="pub"/>
  </node>
  <node id="-3124" version="0" timestamp="Fri Feb 24 10:53:35 +0100 2012" uid="1" user="" lat="54.3105149" lon="10.1453812">
    <tag k="shop" v="bakery"/>
    <tag k="name" v="Von Allwörden"/>
    <tag k="wheelchair" v="yes"/>
  </node>
  <node id="-3125" version="0" timestamp="Fri Feb 24 10:53:35 +0100 2012" uid="1" user="" lat="54.3264697" lon="10.1792674">
    <tag k="shop" v="supermarket"/>
    <tag k="name" v="Aldi"/>
    <tag k="wheelchair" v="yes"/>
  </node>
  <node id="-5406" version="0" timestamp="Fri Feb 24 10:53:37 +0100 2012" uid="1" user="" lat="54.32966" lon="10.13315">
    <tag k="name" v="Santander Consumer Bank"/>
    <tag k="wheelchair" v="limited"/>
    <tag k="addr:city" v="Kiel"/>
    <tag k="addr:postcode" v="24105"/>
    <tag k="addr:housenumber" v="6"/>
    <tag k="addr:street" v="Dreiecksplatz "/>
    <tag k="amenity" v="bank"/>
    <tag k="website" v="http://www.santander.de"/>
  </node>
  <node id="-5679" version="0" timestamp="Fri Feb 24 10:53:37 +0100 2012" uid="1" user="" lat="54.3103479" lon="10.127206">
    <tag k="name" v="Fahrschule Marz"/>
    <tag k="wheelchair" v="limited"/>
    <tag k="addr:city" v="Kiel"/>
    <tag k="addr:postcode" v="24114"/>
    <tag k="addr:housenumber" v="Sophienblatt 63"/>
    <tag k="addr:street" v="Sophienblatt 63"/>
    <tag k="wheelchair:description" v="keine Stufen, WC nicht behindertengerecht "/>
    <tag k="website" v="http://www.fahrschule-marz.de"/>
    <tag k="phone" v="+49 431 61991"/>
    <tag k="office" v="company"/>
  </node>
</osm>
