<?xml version='1.0' encoding='UTF-8'?>
<osm version="0.6" generator="Osmosis 0.39">
  <node id="-4690" version="0" timestamp="Fri Feb 24 10:53:36 +0100 2012" uid="1" user="" lat="54.682989" lon="8.5672773">
    <tag k="name" v="Aquaföhr"/>
    <tag k="wheelchair" v="yes"/>
    <tag k="addr:city" v="Wyk auf Föhr"/>
    <tag k="addr:postcode" v="25938"/>
    <tag k="addr:housenumber" v="1"/>
    <tag k="addr:street" v="Stockmannsweg"/>
    <tag k="amenity" v="swimming_pool"/>
    <tag k="website" v="http://www.aquafoehr.de"/>
    <tag k="phone" v="04681 3048"/>
  </node>
  <node id="-4851" version="0" timestamp="Fri Feb 24 10:53:36 +0100 2012" uid="1" user="" lat="54.4766486" lon="9.0539464">
    <tag k="name" v="Altes Gymnasium"/>
    <tag k="wheelchair" v="unknown"/>
    <tag k="addr:city" v="Husum"/>
    <tag k="addr:postcode" v="25813"/>
    <tag k="addr:housenumber" v="2-10"/>
    <tag k="tourism" v="hotel"/>
    <tag k="addr:street" v="Süderstraße"/>
    <tag k="website" v="http://www.altes-gymnasium.de"/>
    <tag k="phone" v="04841 8330"/>
  </node>
  <node id="-5030" version="0" timestamp="Fri Feb 24 10:53:36 +0100 2012" uid="1" user="" lat="54.6910387" lon="8.4913811">
    <tag k="name" v="Altes Landhaus"/>
    <tag k="wheelchair" v="unknown"/>
    <tag k="addr:city" v="Nieblum"/>
    <tag k="addr:postcode" v="25938"/>
    <tag k="addr:housenumber" v="22"/>
    <tag k="addr:street" v="Bi de Süd"/>
    <tag k="amenity" v="restaurant"/>
    <tag k="website" v="http://www.altes-landhaus-nieblum.de"/>
    <tag k="phone" v="04681 2572"/>
  </node>
  <node id="-5070" version="0" timestamp="Fri Feb 24 10:53:37 +0100 2012" uid="1" user="" lat="54.6988294" lon="8.5537649">
    <tag k="name" v="Inselhotel Arfsten"/>
    <tag k="wheelchair" v="unknown"/>
    <tag k="addr:city" v="Wyk auf Föhr"/>
    <tag k="addr:postcode" v="25938"/>
    <tag k="addr:housenumber" v="64"/>
    <tag k="tourism" v="hotel"/>
    <tag k="addr:street" v="Ohl Dörp"/>
    <tag k="website" v="http://www.arfsten.de"/>
    <tag k="phone" v="04681 2331"/>
  </node>
  <node id="-5604" version="0" timestamp="Fri Feb 24 10:53:37 +0100 2012" uid="1" user="" lat="54.6969279" lon="8.5522668">
    <tag k="name" v="Erdbeerparadis"/>
    <tag k="wheelchair" v="unknown"/>
    <tag k="addr:city" v="Wyk auf Föhr"/>
    <tag k="addr:postcode" v="25938"/>
    <tag k="addr:housenumber" v="29"/>
    <tag k="addr:street" v="Ocke-Nerong-Straße"/>
    <tag k="amenity" v="nightclub"/>
    <tag k="website" v="http://www.erdbeerparadies-foehr.de"/>
    <tag k="phone" v="04681 748475"/>
  </node>
</osm>
