<?xml version='1.0' encoding='UTF-8'?>
<osm version="0.6" generator="Osmosis 0.39">
  <node id="-613" version="0" timestamp="Fri Feb 24 10:53:32 +0100 2012" uid="1" user="" lat="54.4439947" lon="9.7075308">
    <tag k="name" v="Schnackstuuv"/>
    <tag k="wheelchair" v="yes"/>
    <tag k="addr:city" v="Hütten"/>
    <tag k="addr:postcode" v="24358"/>
    <tag k="addr:housenumber" v="21"/>
    <tag k="addr:street" v="Unterhütten "/>
    <tag k="amenity" v="cafe"/>
    <tag k="website" v="http://www.schnackstuuv.de"/>
    <tag k="phone" v="+494353991824"/>
  </node>
  <node id="-1046" version="0" timestamp="Fri Feb 24 10:53:33 +0100 2012" uid="1" user="" lat="54.46577" lon="9.83709">
    <tag k="name" v="Meerwasserwellenbad"/>
    <tag k="wheelchair" v="yes"/>
    <tag k="addr:city" v="Eckernförde"/>
    <tag k="addr:postcode" v="24340"/>
    <tag k="addr:housenumber" v="1"/>
    <tag k="addr:street" v="Preußerstraße  "/>
    <tag k="wheelchair:description" v="Fahrstuhl, Behindertenumkleide, Rollstühle fürs Wasser"/>
    <tag k="amenity" v="swimming_pool"/>
    <tag k="website" v="http://www.meerwasser-wellenbad.de"/>
    <tag k="phone" v="+49 4351- 905-400"/>
  </node>
  <node id="-1047" version="0" timestamp="Fri Feb 24 10:53:33 +0100 2012" uid="1" user="" lat="54.46577" lon="9.83709">
    <tag k="name" v="Förde Sparkasse "/>
    <tag k="wheelchair" v="limited"/>
    <tag k="addr:city" v="Eckernförde"/>
    <tag k="addr:postcode" v="24340"/>
    <tag k="addr:housenumber" v="1"/>
    <tag k="addr:street" v="Kieler  Straße"/>
    <tag k="amenity" v="bank"/>
    <tag k="website" v="http://foerde-sparkasse.de"/>
    <tag k="phone" v="+49 4351 9030"/>
  </node>
  <node id="-1049" version="0" timestamp="Fri Feb 24 10:53:33 +0100 2012" uid="1" user="" lat="54.47307" lon="9.83583">
    <tag k="shop" v="supermarket"/>
    <tag k="name" v="Biomarkt Eckernförde"/>
    <tag k="wheelchair" v="yes"/>
    <tag k="addr:city" v="Eckernförde"/>
    <tag k="addr:postcode" v="24340"/>
    <tag k="addr:housenumber" v="21"/>
    <tag k="addr:street" v="Langebrückstraße"/>
    <tag k="website" v="http://biomarkt-eckernfoerde.de"/>
    <tag k="phone" v="+49 43 51 / 22 82"/>
  </node>
  <node id="-1050" version="0" timestamp="Fri Feb 24 10:53:33 +0100 2012" uid="1" user="" lat="54.47137" lon="9.83641">
    <tag k="shop" v="clothes"/>
    <tag k="name" v="Scandic Way Of Life"/>
    <tag k="wheelchair" v="yes"/>
    <tag k="addr:city" v="Eckernförde"/>
    <tag k="addr:postcode" v="24340"/>
    <tag k="addr:housenumber" v="18-20"/>
    <tag k="addr:street" v="Kielfer Straße"/>
    <tag k="website" v="http://scandic-shop.de/flash/"/>
    <tag k="phone" v="+49 4351 76 70 27"/>
  </node>
  <node id="-2603" version="0" timestamp="Fri Feb 24 10:53:34 +0100 2012" uid="1" user="" lat="54.4119245" lon="10.1355645">
    <tag k="name" v="Zulassungstelle Altenholz"/>
    <tag k="wheelchair" v="yes"/>
    <tag k="addr:city" v="Altenholz"/>
    <tag k="addr:postcode" v="24161"/>
    <tag k="addr:housenumber" v="72"/>
    <tag k="addr:street" v="Teichkoppel"/>
    <tag k="amenity" v="townhall"/>
    <tag k="website" v="http://www.altenholz.de/"/>
    <tag k="phone" v="0431/32 01 7923-26 oder 30-31"/>
  </node>
  <node id="-2783" version="0" timestamp="Fri Feb 24 10:53:34 +0100 2012" uid="1" user="" lat="54.29045" lon="9.6476">
    <tag k="name" v="Nordkolleg Rendsburg"/>
    <tag k="wheelchair" v="yes"/>
    <tag k="addr:city" v="Rendsburg"/>
    <tag k="addr:postcode" v="24768"/>
    <tag k="addr:housenumber" v="55"/>
    <tag k="tourism" v="hotel"/>
    <tag k="addr:street" v="Am Gerhardshain 44"/>
    <tag k="website" v="http://www.nordkolleg.de"/>
    <tag k="phone" v="+49 4331 1438-0"/>
  </node>
  <node id="-3179" version="0" timestamp="Fri Feb 24 10:53:35 +0100 2012" uid="1" user="" lat="54.317434" lon="9.6889511">
    <tag k="name" v="Syrtaki"/>
    <tag k="wheelchair" v="limited"/>
    <tag k="addr:city" v="Büdelsdorf"/>
    <tag k="addr:postcode" v="24782"/>
    <tag k="addr:housenumber" v="22"/>
    <tag k="addr:street" v="Berliner Str."/>
    <tag k="wheelchair:description" v="Nutzung des Hintereingangs möglich"/>
    <tag k="amenity" v="restaurant"/>
    <tag k="website" v="http://www.syrtaki-rd.de/"/>
    <tag k="phone" v="+49 4331 36736"/>
  </node>
  <node id="-4562" version="0" timestamp="Fri Feb 24 10:53:36 +0100 2012" uid="1" user="" lat="54.47393" lon="9.83706">
    <tag k="shop" v="department_store"/>
    <tag k="name" v="Porzellan-ideen"/>
    <tag k="wheelchair" v="limited"/>
    <tag k="addr:city" v="Eckernförde"/>
    <tag k="addr:postcode" v="24340"/>
    <tag k="addr:housenumber" v="4"/>
    <tag k="addr:street" v="Schiffbrücke "/>
  </node>
</osm>
