<?xml version='1.0' encoding='UTF-8'?>
<osm version="0.6" generator="Osmosis 0.39">
  <node id="-576" version="0" timestamp="Fri Feb 24 10:53:32 +0100 2012" uid="1" user="" lat="54.22692" lon="10.2748">
    <tag k="name" v="Heiko Meinert"/>
    <tag k="wheelchair" v="limited"/>
    <tag k="addr:city" v="Preetz"/>
    <tag k="addr:postcode" v="24211"/>
    <tag k="addr:housenumber" v="46"/>
    <tag k="addr:street" v="Kührener Straße"/>
    <tag k="wheelchair:description" v="1 Stufe am Eingang, WC noch nicht rollstuhlgerecht"/>
    <tag k="amenity" v="doctors"/>
    <tag k="website" v="http://www.praxis-zahnarzt-meinert.de"/>
  </node>
  <node id="-2950" version="0" timestamp="Fri Feb 24 10:53:34 +0100 2012" uid="1" user="" lat="54.3281558" lon="10.2037755">
    <tag k="name" v="Sparkasse"/>
    <tag k="wheelchair" v="yes"/>
    <tag k="amenity" v="bank"/>
  </node>
  <node id="-2951" version="0" timestamp="Fri Feb 24 10:53:34 +0100 2012" uid="1" user="" lat="54.3280755" lon="10.204118">
    <tag k="shop" v="electronics"/>
    <tag k="name" v="Videothek"/>
    <tag k="wheelchair" v="yes"/>
  </node>
  <node id="-2952" version="0" timestamp="Fri Feb 24 10:53:34 +0100 2012" uid="1" user="" lat="54.3279651" lon="10.2042158">
    <tag k="name" v="Döner Schönkirchen"/>
    <tag k="wheelchair" v="limited"/>
    <tag k="amenity" v="fast_food"/>
  </node>
  <node id="-2953" version="0" timestamp="Fri Feb 24 10:53:34 +0100 2012" uid="1" user="" lat="54.3268763" lon="10.2056308">
    <tag k="shop" v="hairdresser"/>
    <tag k="name" v="G. Boller Friseursalon"/>
    <tag k="wheelchair" v="yes"/>
  </node>
  <node id="-2954" version="0" timestamp="Fri Feb 24 10:53:34 +0100 2012" uid="1" user="" lat="54.3345821" lon="10.223753">
    <tag k="name" v="Marienkirche"/>
    <tag k="wheelchair" v="no"/>
    <tag k="amenity" v="place_of_worship"/>
  </node>
  <node id="-3114" version="0" timestamp="Fri Feb 24 10:53:35 +0100 2012" uid="1" user="" lat="54.3270199" lon="10.2056107">
    <tag k="shop" v="bakery"/>
    <tag k="name" v="Backstube Blöcker"/>
    <tag k="wheelchair" v="yes"/>
  </node>
  <node id="-4913" version="0" timestamp="Fri Feb 24 10:53:36 +0100 2012" uid="1" user="" lat="54.3180278" lon="10.6606659">
    <tag k="name" v="Das Bunte Kamel"/>
    <tag k="wheelchair" v="limited"/>
    <tag k="addr:city" v="Hohwacht"/>
    <tag k="addr:postcode" v="24321"/>
    <tag k="addr:housenumber" v="14"/>
    <tag k="tourism" v="hotel"/>
    <tag k="addr:street" v="An den Tannen "/>
    <tag k="website" v="http://www.das-bunte-kamel.de"/>
    <tag k="phone" v="+4943819160063"/>
  </node>
  <node id="-4914" version="0" timestamp="Fri Feb 24 10:53:36 +0100 2012" uid="1" user="" lat="54.31803" lon="10.66067">
    <tag k="name" v="Restaurant Das Bunte Kamel"/>
    <tag k="wheelchair" v="limited"/>
    <tag k="addr:city" v="Hohwacht"/>
    <tag k="addr:postcode" v="24321"/>
    <tag k="addr:housenumber" v="14"/>
    <tag k="addr:street" v="An den Tannen"/>
    <tag k="amenity" v="restaurant"/>
    <tag k="website" v="http://www.das-bunte-kamel.de"/>
    <tag k="phone" v="+4943819160063"/>
  </node>
</osm>
