<?xml version='1.0' encoding='UTF-8'?>
<osm version="0.6" generator="Osmosis 0.39">
  <node id="-1815" version="0" timestamp="Fri Feb 24 10:53:33 +0100 2012" uid="1" user="" lat="53.7512" lon="9.91795">
    <tag k="shop" v="optician"/>
    <tag k="name" v="augenblick ellerau"/>
    <tag k="wheelchair" v="yes"/>
    <tag k="addr:city" v="Ellerau"/>
    <tag k="addr:postcode" v="25479"/>
    <tag k="addr:housenumber" v="17"/>
    <tag k="addr:street" v="Berliner Damm"/>
    <tag k="wheelchair:description" v="Verkaufsräume/Augenprüfung und Kontaktlinsenabteilung uneingeschränkt Barrierefrei. Parkplätze vor der Tür "/>
    <tag k="website" v="http://www.augenblick-ellerau.de"/>
    <tag k="phone" v="04106/640090"/>
  </node>
  <node id="-2219" version="0" timestamp="Fri Feb 24 10:53:34 +0100 2012" uid="1" user="" lat="53.93569" lon="10.30964">
    <tag k="shop" v="optician"/>
    <tag k="name" v="Optik Volke und Samrei"/>
    <tag k="wheelchair" v="yes"/>
    <tag k="addr:city" v="Bad Segeberg"/>
    <tag k="addr:postcode" v="23795"/>
    <tag k="addr:housenumber" v="9"/>
    <tag k="addr:street" v="Oldesloerstraße"/>
    <tag k="wheelchair:description" v="Verkaufsraum, Augenprüfung und Kontaktlinsenraum Barrierefrei. Parkplätze hinter dem Haus."/>
    <tag k="phone" v="04551/2295"/>
  </node>
  <node id="-3888" version="0" timestamp="Fri Feb 24 10:53:35 +0100 2012" uid="1" user="" lat="53.6850894" lon="9.9865992">
    <tag k="shop" v="mall"/>
    <tag k="name" v="Herold Center"/>
    <tag k="wheelchair" v="yes"/>
  </node>
  <node id="-4039" version="0" timestamp="Fri Feb 24 10:53:36 +0100 2012" uid="1" user="" lat="53.9580071" lon="10.3060575">
    <tag k="name" v="Restaurant am Ihlsee"/>
    <tag k="wheelchair" v="yes"/>
    <tag k="amenity" v="restaurant"/>
  </node>
  <node id="-4040" version="0" timestamp="Fri Feb 24 10:53:36 +0100 2012" uid="1" user="" lat="53.9358789" lon="10.3025037">
    <tag k="name" v="Behindertentoilette mit Euroschlüssel"/>
    <tag k="wheelchair" v="yes"/>
    <tag k="amenity" v="toilets"/>
  </node>
  <node id="-4041" version="0" timestamp="Fri Feb 24 10:53:36 +0100 2012" uid="1" user="" lat="53.9544993" lon="10.2096529">
    <tag k="shop" v="supermarket"/>
    <tag k="name" v="Edeka"/>
    <tag k="wheelchair" v="yes"/>
  </node>
  <node id="-4042" version="0" timestamp="Fri Feb 24 10:53:36 +0100 2012" uid="1" user="" lat="53.9525826" lon="10.2103063">
    <tag k="shop" v="department_store"/>
    <tag k="name" v="Rossmann / Kloppenburg"/>
    <tag k="wheelchair" v="yes"/>
  </node>
  <node id="-4043" version="0" timestamp="Fri Feb 24 10:53:36 +0100 2012" uid="1" user="" lat="53.9552932" lon="10.1951941">
    <tag k="shop" v="florist"/>
    <tag k="name" v="Gärtnerei Nielsen"/>
    <tag k="wheelchair" v="no"/>
    <tag k="wheelchair:description" v="Stufen am Blumengeschäft, aber hilfsbereites Personal,"/>
  </node>
  <node id="-4052" version="0" timestamp="Fri Feb 24 10:53:36 +0100 2012" uid="1" user="" lat="53.9386506" lon="10.3073114">
    <tag k="name" v="Deutsche Bank"/>
    <tag k="wheelchair" v="no"/>
    <tag k="amenity" v="bank"/>
  </node>
  <node id="-4053" version="0" timestamp="Fri Feb 24 10:53:36 +0100 2012" uid="1" user="" lat="53.9335289" lon="10.3107747">
    <tag k="shop" v="supermarket"/>
    <tag k="name" v="Kaufland"/>
    <tag k="wheelchair" v="no"/>
    <tag k="wheelchair:description" v="Behindertenparkplätze auf dem Parkdeck, von dort stufenlose Rolltreppe in den Supermarkt"/>
  </node>
  <node id="-4054" version="0" timestamp="Fri Feb 24 10:53:36 +0100 2012" uid="1" user="" lat="53.9342311" lon="10.3124418">
    <tag k="name" v="Klackermatsch"/>
    <tag k="wheelchair" v="limited"/>
    <tag k="wheelchair:description" v="Für Nichtraucher und wetterfeste Raucher mit dem Rolli zugänglich; Raucherraum im 1. Stock; kein Behindertenklo."/>
    <tag k="amenity" v="pub"/>
  </node>
  <node id="-4055" version="0" timestamp="Fri Feb 24 10:53:36 +0100 2012" uid="1" user="" lat="53.9341626" lon="10.3103137">
    <tag k="name" v="Post"/>
    <tag k="wheelchair" v="yes"/>
    <tag k="amenity" v="post_office"/>
  </node>
  <node id="-4349" version="0" timestamp="Fri Feb 24 10:53:36 +0100 2012" uid="1" user="" lat="53.666" lon="9.97744">
    <tag k="name" v="Soziales Zentrum"/>
    <tag k="wheelchair" v="yes"/>
    <tag k="addr:city" v="Norderstedt"/>
    <tag k="addr:postcode" v="22848"/>
    <tag k="addr:housenumber" v="8"/>
    <tag k="addr:street" v="In de Tarpen "/>
    <tag k="amenity" v="community_center"/>
    <tag k="website" v="http://www.soziales-zentrum.de"/>
  </node>
</osm>
