<?xml version='1.0' encoding='UTF-8'?>
<osm version="0.6" generator="Osmosis 0.39">
  <node id="-664" version="0" timestamp="Fri Feb 24 10:53:32 +0100 2012" uid="1" user="" lat="53.9016685" lon="10.8072545">
    <tag k="shop" v="supermarket"/>
    <tag k="name" v="Famila"/>
    <tag k="wheelchair" v="yes"/>
    <tag k="wheelchair:description" v="Rollstuhleinkaufswagen im Eingangsbereich und ein breiterer Kassengang"/>
  </node>
  <node id="-665" version="0" timestamp="Fri Feb 24 10:53:32 +0100 2012" uid="1" user="" lat="53.9015373" lon="10.807073">
    <tag k="shop" v="beverages"/>
    <tag k="name" v="Famila Getränkemarkt"/>
    <tag k="wheelchair" v="yes"/>
  </node>
  <node id="-673" version="0" timestamp="Fri Feb 24 10:53:32 +0100 2012" uid="1" user="" lat="53.9123134" lon="10.804147">
    <tag k="shop" v="supermarket"/>
    <tag k="name" v="Rewe"/>
    <tag k="wheelchair" v="yes"/>
  </node>
  <node id="-675" version="0" timestamp="Fri Feb 24 10:53:32 +0100 2012" uid="1" user="" lat="53.86633" lon="10.6845">
    <tag k="name" v="Niederegger Café und Marzipansalon"/>
    <tag k="wheelchair" v="limited"/>
    <tag k="addr:city" v="Lübeck"/>
    <tag k="addr:postcode" v="23552"/>
    <tag k="addr:housenumber" v="89"/>
    <tag k="addr:street" v="Breite Str."/>
    <tag k="wheelchair:description" v="Vorne Stufen, mit Hilfe des Personals über den Liefereingang (Hüxstr) problemlos alles erreichbar"/>
    <tag k="amenity" v="cafe"/>
  </node>
  <node id="-678" version="0" timestamp="Fri Feb 24 10:53:32 +0100 2012" uid="1" user="" lat="53.86698" lon="10.68747">
    <tag k="shop" v="department_store"/>
    <tag k="name" v="Butlers"/>
    <tag k="wheelchair" v="limited"/>
    <tag k="addr:city" v="Lübeck"/>
    <tag k="addr:postcode" v="23552"/>
    <tag k="addr:housenumber" v="59-63"/>
    <tag k="addr:street" v="Königstr."/>
    <tag k="wheelchair:description" v="Keine Stufen, aber fast alle Gänge so eng vollgepackt, das ein Durchkommen unmöglich ist"/>
  </node>
  <node id="-679" version="0" timestamp="Fri Feb 24 10:53:32 +0100 2012" uid="1" user="" lat="53.8343383" lon="10.7040327">
    <tag k="name" v="Haus 64"/>
    <tag k="wheelchair" v="yes"/>
    <tag k="amenity" v="university"/>
  </node>
  <node id="-680" version="0" timestamp="Fri Feb 24 10:53:32 +0100 2012" uid="1" user="" lat="53.8366941" lon="10.7047361">
    <tag k="shop" v="bakery"/>
    <tag k="name" v="Stadtbäckerei Junge"/>
    <tag k="wheelchair" v="yes"/>
  </node>
  <node id="-682" version="0" timestamp="Fri Feb 24 10:53:32 +0100 2012" uid="1" user="" lat="53.8346484" lon="10.7069128">
    <tag k="shop" v="bakery"/>
    <tag k="name" v="Stadtbäckerei Junge"/>
    <tag k="wheelchair" v="yes"/>
  </node>
  <node id="-683" version="0" timestamp="Fri Feb 24 10:53:32 +0100 2012" uid="1" user="" lat="53.8342722" lon="10.7002208">
    <tag k="name" v="Audimax"/>
    <tag k="wheelchair" v="yes"/>
    <tag k="wheelchair:description" v="Ausgeschilderter Extraeingang, Fahrstuhl"/>
    <tag k="amenity" v="university"/>
  </node>
  <node id="-1102" version="0" timestamp="Fri Feb 24 10:53:33 +0100 2012" uid="1" user="" lat="53.8667" lon="10.7">
    <tag k="shop" v="computer"/>
    <tag k="name" v="Kerling Gebrüder Bürotechnik GmbH"/>
    <tag k="wheelchair" v="limited"/>
    <tag k="addr:city" v="Hamburg"/>
    <tag k="addr:postcode" v="20259"/>
    <tag k="addr:housenumber" v="8-10"/>
    <tag k="addr:street" v="Weidenstieg"/>
    <tag k="website" v="http://www.kerling-buerotechnik.de"/>
    <tag k="phone" v="040391398"/>
  </node>
  <node id="-1884" version="0" timestamp="Fri Feb 24 10:53:33 +0100 2012" uid="1" user="" lat="53.8681357" lon="10.6955014">
    <tag k="shop" v="supermarket"/>
    <tag k="name" v="LANDWEGE Bio-Markt"/>
    <tag k="wheelchair" v="yes"/>
    <tag k="addr:city" v="Lübeck"/>
    <tag k="addr:postcode" v="23552"/>
    <tag k="addr:housenumber" v="78-80"/>
    <tag k="addr:street" v="Kanalstr."/>
    <tag k="wheelchair:description" v="Parkdeck mit Fahrstuhl"/>
    <tag k="website" v="http://www.landwege.de/landwege/am-kanal.html"/>
    <tag k="phone" v="+49 451 7071936"/>
  </node>
  <node id="-1885" version="0" timestamp="Fri Feb 24 10:53:33 +0100 2012" uid="1" user="" lat="53.8947354" lon="10.6840615">
    <tag k="name" v="Vorwerker Passage"/>
    <tag k="wheelchair" v="yes"/>
    <tag k="addr:city" v="Lübeck"/>
    <tag k="addr:postcode" v="23554"/>
    <tag k="addr:housenumber" v="33"/>
    <tag k="addr:street" v="Vorwerker Straße"/>
    <tag k="wheelchair:description" v="Einkaufsmöglichkeit ebenso barrierefrei"/>
    <tag k="amenity" v="cafe"/>
    <tag k="website" v="http://www.vorwerker-diakonie.de/markt/nahrungsundlebensmittel/vorwerkerpassage/"/>
    <tag k="phone" v="+49 451 4002-246"/>
  </node>
  <node id="-1886" version="0" timestamp="Fri Feb 24 10:53:33 +0100 2012" uid="1" user="" lat="53.8942629" lon="10.6824444">
    <tag k="name" v="Freizeitzentrum"/>
    <tag k="wheelchair" v="yes"/>
    <tag k="addr:city" v="Lübeck"/>
    <tag k="addr:postcode" v="23554"/>
    <tag k="addr:housenumber" v="139-143"/>
    <tag k="addr:street" v="Triftstraße"/>
    <tag k="amenity" v="fast_food"/>
    <tag k="website" v="http://www.vorwerker-diakonie.de/hilfen/behindertenhilfe/freizeit/"/>
    <tag k="phone" v="+49 451 4002-291"/>
  </node>
  <node id="-2614" version="0" timestamp="Fri Feb 24 10:53:34 +0100 2012" uid="1" user="" lat="53.8666345" lon="10.6893378">
    <tag k="shop" v="clothes"/>
    <tag k="name" v="Cyroline"/>
    <tag k="wheelchair" v="limited"/>
    <tag k="addr:city" v="Lübeck"/>
    <tag k="addr:postcode" v="23552"/>
    <tag k="addr:housenumber" v="49"/>
    <tag k="addr:street" v="Fleischhauerstraße "/>
    <tag k="wheelchair:description" v="Umkleidekabinen sind über zwei Stufen zu erreichen und haben ein kleines Raummaß."/>
    <tag k="website" v="http://www.cyroline.de"/>
    <tag k="phone" v="+49 451 75933"/>
  </node>
  <node id="-5577" version="0" timestamp="Fri Feb 24 10:53:37 +0100 2012" uid="1" user="" lat="53.8667" lon="10.7">
    <tag k="name" v="Haack und Jacobs(Krankengymnastik)"/>
    <tag k="wheelchair" v="yes"/>
    <tag k="addr:city" v="Bad Oldesloe"/>
    <tag k="addr:postcode" v="23843"/>
    <tag k="addr:housenumber" v="46"/>
    <tag k="addr:street" v="Lübecker Straße"/>
    <tag k="wheelchair:description" v="die obere Etage des Gebäudes ist nur über Treppen zu erreichen"/>
    <tag k="leisure" v="sports_centre"/>
    <tag k="website" v="http://www.haack-jacobs.de/"/>
    <tag k="phone" v="+49 4531 12132"/>
  </node>
</osm>
