<?xml version='1.0' encoding='UTF-8'?>
<osm version="0.6" generator="Osmosis 0.39">
  <node id="-874" version="0" timestamp="Fri Feb 24 10:53:32 +0100 2012" uid="1" user="" lat="53.5324045" lon="10.2280689">
    <tag k="name" v="Spinosa Kinder- und Jugendzentrum "/>
    <tag k="wheelchair" v="yes"/>
    <tag k="addr:city" v="Glinde"/>
    <tag k="addr:postcode" v="21509"/>
    <tag k="addr:housenumber" v="1a"/>
    <tag k="addr:street" v="Schlehenweg"/>
    <tag k="website" v="http://www.spinosa-glinde.de"/>
  </node>
  <node id="-3057" version="0" timestamp="Fri Feb 24 10:53:35 +0100 2012" uid="1" user="" lat="53.6789836" lon="10.149422">
    <tag k="name" v="Praxis Dr. Becker / Dr. Rust"/>
    <tag k="wheelchair" v="yes"/>
    <tag k="addr:city" v="Ammersbek"/>
    <tag k="addr:postcode" v="22949"/>
    <tag k="addr:housenumber" v="97"/>
    <tag k="addr:street" v="Hamburger Str."/>
    <tag k="wheelchair:description" v="Fahrstuhl vom Parkplatz aus erreichbar"/>
    <tag k="amenity" v="doctors"/>
    <tag k="phone" v="040-6050022"/>
  </node>
  <node id="-3058" version="0" timestamp="Fri Feb 24 10:53:35 +0100 2012" uid="1" user="" lat="53.6787816" lon="10.144961">
    <tag k="shop" v="supermarket"/>
    <tag k="name" v="Lidl"/>
    <tag k="wheelchair" v="yes"/>
  </node>
  <node id="-3059" version="0" timestamp="Fri Feb 24 10:53:35 +0100 2012" uid="1" user="" lat="53.6784082" lon="10.1443109">
    <tag k="shop" v="supermarket"/>
    <tag k="name" v="Aldi"/>
    <tag k="wheelchair" v="yes"/>
  </node>
  <node id="-4969" version="0" timestamp="Fri Feb 24 10:53:36 +0100 2012" uid="1" user="" lat="53.5126748" lon="10.2532415">
    <tag k="name" v="Goldener Hirsch"/>
    <tag k="wheelchair" v="unknown"/>
    <tag k="addr:city" v="Reinbek"/>
    <tag k="addr:postcode" v="21465"/>
    <tag k="addr:housenumber" v="2"/>
    <tag k="addr:street" v="Schönningstedter Straße"/>
    <tag k="amenity" v="restaurant"/>
    <tag k="website" v="http://www.goldener-hirsch.net"/>
    <tag k="phone" v="040 52595905"/>
  </node>
  <node id="-5578" version="0" timestamp="Fri Feb 24 10:53:37 +0100 2012" uid="1" user="" lat="53.8119" lon="10.38453">
    <tag k="name" v="Haack und Jacobs(Krankengymnastik)"/>
    <tag k="wheelchair" v="limited"/>
    <tag k="addr:city" v="Bad Oldesloe"/>
    <tag k="addr:postcode" v="23843"/>
    <tag k="addr:housenumber" v="46"/>
    <tag k="addr:street" v="Lübecker Straße"/>
    <tag k="wheelchair:description" v="die obere Etage des Gebäudes ist nur über Treppen zu erreichen"/>
    <tag k="leisure" v="sports_centre"/>
    <tag k="website" v="http://www.haack-jacobs.de/"/>
    <tag k="phone" v="+49 4531 12132"/>
  </node>
  <node id="-5579" version="0" timestamp="Fri Feb 24 10:53:37 +0100 2012" uid="1" user="" lat="53.72318" lon="10.26757">
    <tag k="name" v="Freizeitzentrum Lohe"/>
    <tag k="wheelchair" v="limited"/>
    <tag k="addr:city" v="Bargteheide"/>
    <tag k="addr:postcode" v="22941"/>
    <tag k="addr:housenumber" v="2"/>
    <tag k="addr:street" v="Robert-Bosch-Weg"/>
    <tag k="amenity" v="community_center"/>
  </node>
</osm>
