<?xml version='1.0' encoding='UTF-8'?>
<osm version="0.6" generator="Osmosis 0.39">
  <node id="-86" version="0" timestamp="Fri Feb 24 10:53:32 +0100 2012" uid="1" user="" lat="49.3361835" lon="11.0338304">
    <tag k="shop" v="bakery"/>
    <tag k="name" v="Bäcker Schmidt"/>
    <tag k="wheelchair" v="yes"/>
  </node>
  <node id="-87" version="0" timestamp="Fri Feb 24 10:53:32 +0100 2012" uid="1" user="" lat="49.3369096" lon="11.0347333">
    <tag k="name" v="Jungegger&apos;s Cafe und Bar"/>
    <tag k="wheelchair" v="yes"/>
    <tag k="addr:city" v="Schwabach"/>
    <tag k="addr:postcode" v="91126"/>
    <tag k="addr:housenumber" v="57"/>
    <tag k="addr:street" v="Limbacher Str."/>
    <tag k="amenity" v="cafe"/>
    <tag k="phone" v="09122 73448"/>
  </node>
  <node id="-90" version="0" timestamp="Fri Feb 24 10:53:32 +0100 2012" uid="1" user="" lat="49.3367727" lon="11.0348929">
    <tag k="shop" v="florist"/>
    <tag k="name" v="Jungegger&apos;s"/>
    <tag k="wheelchair" v="yes"/>
  </node>
  <node id="-94" version="0" timestamp="Fri Feb 24 10:53:32 +0100 2012" uid="1" user="" lat="49.3609772" lon="11.2610181">
    <tag k="name" v="Berufsbildungswerk Rummelsberg"/>
    <tag k="wheelchair" v="yes"/>
    <tag k="addr:city" v="Schwarzenbruck"/>
    <tag k="addr:postcode" v="90592"/>
    <tag k="addr:housenumber" v="74"/>
    <tag k="addr:street" v="Rummelsberg "/>
    <tag k="amenity" v="school"/>
    <tag k="website" v="http://www.bbw-rummelsberg.de/"/>
  </node>
  <node id="-379" version="0" timestamp="Fri Feb 24 10:53:32 +0100 2012" uid="1" user="" lat="49.64296" lon="10.70527">
    <tag k="name" v="Kindergarten Hirtenhaus"/>
    <tag k="wheelchair" v="yes"/>
    <tag k="addr:city" v="Dachsbach"/>
    <tag k="addr:postcode" v="91462"/>
    <tag k="addr:housenumber" v="13"/>
    <tag k="addr:street" v="Schulstrasse"/>
    <tag k="amenity" v="kindergarten"/>
  </node>
  <node id="-389" version="0" timestamp="Fri Feb 24 10:53:32 +0100 2012" uid="1" user="" lat="49.4339868" lon="11.1222887">
    <tag k="name" v="Gaststätte Bahnhof dutzendteich"/>
    <tag k="wheelchair" v="yes"/>
    <tag k="addr:city" v="Nürnberg"/>
    <tag k="addr:postcode" v="90471"/>
    <tag k="addr:housenumber" v="5"/>
    <tag k="addr:street" v="Zeppelinstraße"/>
    <tag k="wheelchair:description" v="Rampe am Haupteingang, Beh.gerechte Toilette"/>
    <tag k="amenity" v="restaurant"/>
    <tag k="website" v="http://www.bahnhof-dutzendteich.de/"/>
    <tag k="phone" v="+49 911480 84 65   "/>
  </node>
  <node id="-580" version="0" timestamp="Fri Feb 24 10:53:32 +0100 2012" uid="1" user="" lat="49.47466" lon="10.98884">
    <tag k="shop" v="optician"/>
    <tag k="name" v="Kastner Brillenhaus"/>
    <tag k="wheelchair" v="limited"/>
    <tag k="wheelchair:description" v="Eine Stufe im Verkaufsbereich, Personal mit Rollstuhllfahrern vertraut, Übersetzen auf Untersuchungsstühle möglich"/>
  </node>
  <node id="-581" version="0" timestamp="Fri Feb 24 10:53:32 +0100 2012" uid="1" user="" lat="49.4558827" lon="11.080728">
    <tag k="shop" v="hairdresser"/>
    <tag k="name" v="Graziana Frisuren"/>
    <tag k="wheelchair" v="no"/>
  </node>
  <node id="-582" version="0" timestamp="Fri Feb 24 10:53:32 +0100 2012" uid="1" user="" lat="49.4502217" lon="11.071562">
    <tag k="name" v="Leon&apos;s"/>
    <tag k="wheelchair" v="limited"/>
    <tag k="amenity" v="restaurant"/>
  </node>
  <node id="-583" version="0" timestamp="Fri Feb 24 10:53:32 +0100 2012" uid="1" user="" lat="49.4521398" lon="11.0794053">
    <tag k="name" v="Universität Erlangen-Nürnberg"/>
    <tag k="wheelchair" v="no"/>
    <tag k="amenity" v="university"/>
  </node>
  <node id="-584" version="0" timestamp="Fri Feb 24 10:53:32 +0100 2012" uid="1" user="" lat="49.4573813" lon="11.0768444">
    <tag k="name" v="Burgwächter"/>
    <tag k="wheelchair" v="no"/>
    <tag k="amenity" v="restaurant"/>
  </node>
  <node id="-1073" version="0" timestamp="Fri Feb 24 10:53:33 +0100 2012" uid="1" user="" lat="49.4543506" lon="11.0134888">
    <tag k="shop" v="doityourself"/>
    <tag k="name" v="Busch + Co."/>
    <tag k="wheelchair" v="yes"/>
    <tag k="addr:city" v="Nürnberg"/>
    <tag k="addr:postcode" v="90431"/>
    <tag k="addr:housenumber" v="146"/>
    <tag k="addr:street" v="Leyherstr."/>
    <tag k="website" v="http://www.busch-farben.de"/>
  </node>
  <node id="-1075" version="0" timestamp="Fri Feb 24 10:53:33 +0100 2012" uid="1" user="" lat="49.4716346" lon="11.075212">
    <tag k="shop" v="doityourself"/>
    <tag k="name" v="Busch + Co."/>
    <tag k="wheelchair" v="yes"/>
    <tag k="addr:city" v="Nürnberg"/>
    <tag k="addr:postcode" v="90408"/>
    <tag k="addr:housenumber" v="11"/>
    <tag k="addr:street" v="Röthensteig"/>
    <tag k="website" v="http://www.busch-farben.de"/>
  </node>
  <node id="-1084" version="0" timestamp="Fri Feb 24 10:53:33 +0100 2012" uid="1" user="" lat="49.3555773" lon="11.2374508">
    <tag k="name" v="Dr. med. dent. Achim Geidl"/>
    <tag k="wheelchair" v="yes"/>
    <tag k="addr:city" v="Schwarzenbruck"/>
    <tag k="addr:postcode" v="90592"/>
    <tag k="addr:housenumber" v="13"/>
    <tag k="addr:street" v="Gsteinacher Straße"/>
    <tag k="amenity" v="doctors"/>
    <tag k="website" v="http://www.zahnarzt-schwarzenbruck.de"/>
    <tag k="phone" v="09128 92 70 92"/>
  </node>
  <node id="-1241" version="0" timestamp="Fri Feb 24 10:53:33 +0100 2012" uid="1" user="" lat="49.6280265" lon="10.9238627">
    <tag k="name" v="MC Donalds"/>
    <tag k="wheelchair" v="yes"/>
    <tag k="wheelchair:description" v="Keine Toiletten"/>
    <tag k="amenity" v="fast_food"/>
  </node>
  <node id="-1575" version="0" timestamp="Fri Feb 24 10:53:33 +0100 2012" uid="1" user="" lat="49.58384" lon="10.99943">
    <tag k="shop" v="doityourself"/>
    <tag k="name" v="Busch + Co. Farben, Tapeten Boden"/>
    <tag k="wheelchair" v="yes"/>
    <tag k="addr:housenumber" v="38"/>
    <tag k="addr:street" v="Am Anger"/>
  </node>
  <node id="-1653" version="0" timestamp="Fri Feb 24 10:53:33 +0100 2012" uid="1" user="" lat="49.4409419" lon="10.9558674">
    <tag k="name" v="L&apos;Osteria Amici"/>
    <tag k="wheelchair" v="limited"/>
    <tag k="addr:city" v="Zirndorf"/>
    <tag k="addr:postcode" v="90513"/>
    <tag k="addr:housenumber" v="6"/>
    <tag k="addr:street" v="Spitalstraße"/>
    <tag k="wheelchair:description" v="Am besten beim Reservieren nachfragen"/>
    <tag k="amenity" v="restaurant"/>
    <tag k="website" v="http://www.osteria-amici.de"/>
    <tag k="phone" v="0911/37 37 26 3"/>
  </node>
  <node id="-1654" version="0" timestamp="Fri Feb 24 10:53:33 +0100 2012" uid="1" user="" lat="49.4365726" lon="10.9553918">
    <tag k="name" v="Paul-Metz-Halle Zirndorf"/>
    <tag k="wheelchair" v="yes"/>
    <tag k="addr:city" v="Zirndorf"/>
    <tag k="addr:postcode" v="90513"/>
    <tag k="addr:housenumber" v="33"/>
    <tag k="addr:street" v="Volkhardtstraße"/>
    <tag k="wheelchair:description" v="Zugang über eine Rampe links vom Eingang"/>
    <tag k="website" v="http://www.zirndorf.de/pmh"/>
    <tag k="phone" v="0911/605797"/>
  </node>
  <node id="-1655" version="0" timestamp="Fri Feb 24 10:53:33 +0100 2012" uid="1" user="" lat="49.4419337" lon="10.9574975">
    <tag k="name" v="Gasthor Bub"/>
    <tag k="wheelchair" v="no"/>
    <tag k="addr:city" v="Zirndorf"/>
    <tag k="addr:postcode" v="90513"/>
    <tag k="addr:housenumber" v="5"/>
    <tag k="addr:street" v="Fürther Straße"/>
    <tag k="amenity" v="restaurant"/>
    <tag k="website" v="http://www.gasthof-bub.de/"/>
    <tag k="phone" v="0911/606705"/>
  </node>
  <node id="-1975" version="0" timestamp="Fri Feb 24 10:53:34 +0100 2012" uid="1" user="" lat="49.55884" lon="10.54039">
    <tag k="shop" v="department_store"/>
    <tag k="name" v="Auto-Zeilinger GmbH"/>
    <tag k="wheelchair" v="yes"/>
    <tag k="addr:city" v="Dietersheim"/>
    <tag k="addr:postcode" v="91463"/>
    <tag k="addr:housenumber" v="3"/>
    <tag k="addr:street" v="Am Baumgarten "/>
    <tag k="website" v="http://www.auto-zeilinger.de"/>
    <tag k="phone" v="0049 9161-88750"/>
  </node>
  <node id="-2036" version="0" timestamp="Fri Feb 24 10:53:34 +0100 2012" uid="1" user="" lat="49.5966" lon="11.00782">
    <tag k="name" v="Hauptbibliothek Uni Erlangen Neubau"/>
    <tag k="wheelchair" v="yes"/>
    <tag k="addr:city" v="Erlangen"/>
    <tag k="addr:postcode" v="91051"/>
    <tag k="addr:housenumber" v="1a"/>
    <tag k="addr:street" v="Schuhstraße"/>
    <tag k="wheelchair:description" v="Aufzug, Behinderten-WC"/>
    <tag k="amenity" v="library"/>
    <tag k="website" v="http://www.ub.uni-erlangen.de/index.shtml"/>
    <tag k="phone" v="09131 85-29309 50"/>
  </node>
  <node id="-2178" version="0" timestamp="Fri Feb 24 10:53:34 +0100 2012" uid="1" user="" lat="49.2833605" lon="10.7861417">
    <tag k="shop" v="supermarket"/>
    <tag k="name" v="Netto Markt"/>
    <tag k="wheelchair" v="yes"/>
    <tag k="addr:city" v="Neuendettelsau"/>
    <tag k="addr:postcode" v="91564"/>
    <tag k="addr:street" v="Bahnhofstraße"/>
    <tag k="wheelchair:description" v="normaler Netto Markt wie in ganz Deutschland "/>
    <tag k="website" v="http://www.netto.de"/>
  </node>
  <node id="-2569" version="0" timestamp="Fri Feb 24 10:53:34 +0100 2012" uid="1" user="" lat="49.47252" lon="11.13537">
    <tag k="shop" v="optician"/>
    <tag k="name" v="Optik Kastner"/>
    <tag k="wheelchair" v="limited"/>
    <tag k="addr:city" v="Nürnberg"/>
    <tag k="addr:postcode" v="90491"/>
    <tag k="addr:housenumber" v="87"/>
    <tag k="addr:street" v="Erlenstegenstraße "/>
    <tag k="wheelchair:description" v="eine Kleine Stufe mit ca 2-3 cm Höhe"/>
  </node>
  <node id="-2680" version="0" timestamp="Fri Feb 24 10:53:34 +0100 2012" uid="1" user="" lat="49.2475747" lon="11.1060095">
    <tag k="shop" v="supermarket"/>
    <tag k="name" v="Lidl"/>
    <tag k="wheelchair" v="limited"/>
  </node>
  <node id="-2681" version="0" timestamp="Fri Feb 24 10:53:34 +0100 2012" uid="1" user="" lat="49.2457503" lon="11.1156081">
    <tag k="shop" v="doityourself"/>
    <tag k="name" v="Praktiker"/>
    <tag k="wheelchair" v="limited"/>
    <tag k="wheelchair:description" v="Kein Behinderten WC"/>
  </node>
  <node id="-2682" version="0" timestamp="Fri Feb 24 10:53:34 +0100 2012" uid="1" user="" lat="49.245612" lon="11.1175922">
    <tag k="shop" v="garden_centre"/>
    <tag k="name" v="Praktiker"/>
    <tag k="wheelchair" v="unknown"/>
  </node>
  <node id="-2683" version="0" timestamp="Fri Feb 24 10:53:34 +0100 2012" uid="1" user="" lat="49.2476633" lon="11.1052544">
    <tag k="name" v="Bäcker Schmidt"/>
    <tag k="wheelchair" v="yes"/>
    <tag k="amenity" v="cafe"/>
  </node>
  <node id="-3152" version="0" timestamp="Fri Feb 24 10:53:35 +0100 2012" uid="1" user="" lat="49.2483146" lon="11.0904966">
    <tag k="shop" v="shoes"/>
    <tag k="name" v="Heyder Georg"/>
    <tag k="wheelchair" v="no"/>
  </node>
  <node id="-3153" version="0" timestamp="Fri Feb 24 10:53:35 +0100 2012" uid="1" user="" lat="49.2436581" lon="11.1040856">
    <tag k="name" v="ACUNA-Apotheke"/>
    <tag k="wheelchair" v="limited"/>
    <tag k="amenity" v="pharmacy"/>
  </node>
  <node id="-3154" version="0" timestamp="Fri Feb 24 10:53:35 +0100 2012" uid="1" user="" lat="49.2357403" lon="11.0738659">
    <tag k="name" v="Frosch-Apotheke"/>
    <tag k="wheelchair" v="yes"/>
    <tag k="wheelchair:description" v="Kein Behinderten WC"/>
    <tag k="amenity" v="pharmacy"/>
  </node>
  <node id="-3155" version="0" timestamp="Fri Feb 24 10:53:35 +0100 2012" uid="1" user="" lat="49.2358673" lon="11.0737188">
    <tag k="name" v="Dialyse Roth"/>
    <tag k="wheelchair" v="yes"/>
    <tag k="amenity" v="doctors"/>
  </node>
  <node id="-3156" version="0" timestamp="Fri Feb 24 10:53:35 +0100 2012" uid="1" user="" lat="49.2360705" lon="11.0985593">
    <tag k="name" v="Berufsschule Roth"/>
    <tag k="wheelchair" v="limited"/>
    <tag k="wheelchair:description" v="Kein Behinderten WC"/>
    <tag k="amenity" v="school"/>
  </node>
  <node id="-3182" version="0" timestamp="Fri Feb 24 10:53:35 +0100 2012" uid="1" user="" lat="49.2469572" lon="11.1206592">
    <tag k="shop" v="supermarket"/>
    <tag k="name" v="ALDI"/>
    <tag k="wheelchair" v="limited"/>
    <tag k="wheelchair:description" v="Kein Behinderten WC"/>
  </node>
  <node id="-3184" version="0" timestamp="Fri Feb 24 10:53:35 +0100 2012" uid="1" user="" lat="49.2441661" lon="11.0981573">
    <tag k="name" v="Dr.Hammel Dr.Waßner Dr.Münch"/>
    <tag k="wheelchair" v="unknown"/>
    <tag k="amenity" v="doctors"/>
  </node>
  <node id="-3305" version="0" timestamp="Fri Feb 24 10:53:35 +0100 2012" uid="1" user="" lat="49.59992" lon="11.05179">
    <tag k="name" v="Hallenbad Spardorf"/>
    <tag k="wheelchair" v="yes"/>
    <tag k="addr:city" v="Spardorf"/>
    <tag k="addr:postcode" v="91080"/>
    <tag k="addr:housenumber" v="8"/>
    <tag k="addr:street" v="Steinbruchstraße"/>
    <tag k="wheelchair:description" v="Aufzug vorhanden"/>
    <tag k="amenity" v="swimming_pool"/>
    <tag k="website" v="http://uttenreuth.vg-uttenreuth.de/index.php?id=614,264"/>
    <tag k="phone" v="+49 9131 59796 "/>
  </node>
  <node id="-3584" version="0" timestamp="Fri Feb 24 10:53:35 +0100 2012" uid="1" user="" lat="49.6000141" lon="11.0040665">
    <tag k="shop" v="department_store"/>
    <tag k="name" v="Mitbringsel"/>
    <tag k="wheelchair" v="limited"/>
    <tag k="addr:city" v="Erlangen"/>
    <tag k="addr:postcode" v="91054"/>
    <tag k="addr:housenumber" v="7"/>
    <tag k="addr:street" v="Schiffstraße"/>
    <tag k="wheelchair:description" v="Eingangsschwelle mit Rampe, kein WC"/>
    <tag k="website" v="http://www.mitbringsel-erlangen.de"/>
    <tag k="phone" v="+49 9131 5302888"/>
  </node>
  <node id="-3813" version="0" timestamp="Fri Feb 24 10:53:35 +0100 2012" uid="1" user="" lat="49.59393" lon="11.01226">
    <tag k="name" v="Studentenhaus, Stradmensa"/>
    <tag k="wheelchair" v="yes"/>
    <tag k="wheelchair:description" v="Mensa"/>
    <tag k="amenity" v="restaurant"/>
  </node>
  <node id="-3814" version="0" timestamp="Fri Feb 24 10:53:35 +0100 2012" uid="1" user="" lat="49.5935753" lon="11.0105809">
    <tag k="name" v="Studentenhaus, Stadtmensa"/>
    <tag k="wheelchair" v="yes"/>
    <tag k="wheelchair:description" v="Mensa"/>
    <tag k="amenity" v="restaurant"/>
  </node>
  <node id="-3861" version="0" timestamp="Fri Feb 24 10:53:35 +0100 2012" uid="1" user="" lat="49.59402" lon="11.03475">
    <tag k="name" v="Wirtschaftsschule "/>
    <tag k="wheelchair" v="yes"/>
    <tag k="amenity" v="school"/>
  </node>
  <node id="-3862" version="0" timestamp="Fri Feb 24 10:53:35 +0100 2012" uid="1" user="" lat="49.6000363" lon="11.0091087">
    <tag k="name" v="Kinderklinik"/>
    <tag k="wheelchair" v="yes"/>
    <tag k="amenity" v="hospital"/>
  </node>
  <node id="-3863" version="0" timestamp="Fri Feb 24 10:53:35 +0100 2012" uid="1" user="" lat="49.5963038" lon="11.0365962">
    <tag k="name" v="Markuskirche"/>
    <tag k="wheelchair" v="limited"/>
    <tag k="wheelchair:description" v="bis auf die Ampore alles"/>
    <tag k="amenity" v="bank"/>
  </node>
  <node id="-3864" version="0" timestamp="Fri Feb 24 10:53:35 +0100 2012" uid="1" user="" lat="49.5963108" lon="11.0365533">
    <tag k="name" v="Markuskirche"/>
    <tag k="wheelchair" v="yes"/>
    <tag k="wheelchair:description" v="bis auf die Ampore"/>
    <tag k="amenity" v="place_of_worship"/>
  </node>
  <node id="-3880" version="0" timestamp="Fri Feb 24 10:53:35 +0100 2012" uid="1" user="" lat="49.43645" lon="11.08133">
    <tag k="name" v="tetete"/>
    <tag k="wheelchair" v="unknown"/>
    <tag k="addr:city" v="nürnberg"/>
    <tag k="addr:postcode" v="90429"/>
    <tag k="addr:housenumber" v="80"/>
    <tag k="addr:street" v="adam-klein-str."/>
    <tag k="railway" v="station"/>
  </node>
  <node id="-4030" version="0" timestamp="Fri Feb 24 10:53:36 +0100 2012" uid="1" user="" lat="49.37714" lon="10.17902">
    <tag k="name" v="City"/>
    <tag k="wheelchair" v="no"/>
    <tag k="wheelchair:description" v="extrem schletes Kopfsteinpflaster und Steigungen"/>
  </node>
  <node id="-4151" version="0" timestamp="Fri Feb 24 10:53:36 +0100 2012" uid="1" user="" lat="49.4788485" lon="10.9893843">
    <tag k="name" v="Mikes EKU Steakhouse"/>
    <tag k="wheelchair" v="limited"/>
    <tag k="addr:city" v="Fürth"/>
    <tag k="addr:postcode" v="90762"/>
    <tag k="addr:housenumber" v="16"/>
    <tag k="addr:street" v="Gustavstraße"/>
    <tag k="wheelchair:description" v="Alles eben, aber keine Toiletten"/>
    <tag k="amenity" v="restaurant"/>
    <tag k="phone" v="09119719547"/>
  </node>
  <node id="-4288" version="0" timestamp="Fri Feb 24 10:53:36 +0100 2012" uid="1" user="" lat="49.4374512" lon="11.1052786">
    <tag k="name" v="Meistersingerhalle"/>
    <tag k="wheelchair" v="yes"/>
    <tag k="amenity" v="theatre"/>
  </node>
  <node id="-4414" version="0" timestamp="Fri Feb 24 10:53:36 +0100 2012" uid="1" user="" lat="49.44869" lon="11.06567">
    <tag k="shop" v="computer"/>
    <tag k="name" v="ARLT Computer Nürnberg"/>
    <tag k="wheelchair" v="yes"/>
    <tag k="addr:city" v="Nürnberg"/>
    <tag k="addr:postcode" v="90429"/>
    <tag k="addr:housenumber" v="2"/>
    <tag k="addr:street" v="Am Plärrer"/>
    <tag k="wheelchair:description" v="U-Bahn-Zugang über Aufzug am U-Bahnhof"/>
    <tag k="website" v="http://www.arlt.com"/>
    <tag k="phone" v="09112723870"/>
  </node>
  <node id="-4877" version="0" timestamp="Fri Feb 24 10:53:36 +0100 2012" uid="1" user="" lat="49.4316702" lon="11.1109208">
    <tag k="name" v="WC an der Kongresshalle"/>
    <tag k="wheelchair" v="yes"/>
    <tag k="amenity" v="toilets"/>
  </node>
  <node id="-4954" version="0" timestamp="Fri Feb 24 10:53:36 +0100 2012" uid="1" user="" lat="49.587793" lon="10.9770081">
    <tag k="name" v="Kosmetik für Dich"/>
    <tag k="wheelchair" v="yes"/>
    <tag k="addr:city" v="Erlangen"/>
    <tag k="addr:postcode" v="91056"/>
    <tag k="addr:housenumber" v="4"/>
    <tag k="addr:street" v="Neumühle"/>
    <tag k="wheelchair:description" v="alle Behandlungsräume können mit Rollstuhl angefahren werden"/>
    <tag k="amenity" v="social_facility"/>
    <tag k="website" v="http://www.slkosmetik.de"/>
    <tag k="phone" v="09131-94 10 860"/>
  </node>
  <node id="-5184" version="0" timestamp="Fri Feb 24 10:53:37 +0100 2012" uid="1" user="" lat="49.37794" lon="10.17797">
    <tag k="name" v="Brodwoschd"/>
    <tag k="wheelchair" v="limited"/>
    <tag k="addr:city" v="Rothenburg ob der Tauber"/>
    <tag k="addr:postcode" v="91541"/>
    <tag k="addr:housenumber" v="33"/>
    <tag k="addr:street" v="Galgengasse"/>
    <tag k="amenity" v="restaurant"/>
    <tag k="website" v="http://brodwoschd.de/"/>
    <tag k="phone" v="+49 9861 9361509"/>
  </node>
  <node id="-5361" version="0" timestamp="Fri Feb 24 10:53:37 +0100 2012" uid="1" user="" lat="49.45017" lon="11.08164">
    <tag k="name" v="Santander Consumer Bank"/>
    <tag k="wheelchair" v="limited"/>
    <tag k="addr:city" v="Nürnberg"/>
    <tag k="addr:postcode" v="90402"/>
    <tag k="addr:housenumber" v="9"/>
    <tag k="addr:street" v="Lorenzer Straße"/>
    <tag k="amenity" v="bank"/>
    <tag k="website" v="http://www.santander.de"/>
  </node>
  <node id="-5464" version="0" timestamp="Fri Feb 24 10:53:37 +0100 2012" uid="1" user="" lat="49.60184" lon="11.00371">
    <tag k="name" v="Stadtmuseum Erlangen"/>
    <tag k="wheelchair" v="yes"/>
    <tag k="tourism" v="museum"/>
  </node>
  <node id="-5473" version="0" timestamp="Fri Feb 24 10:53:37 +0100 2012" uid="1" user="" lat="49.4426551" lon="11.0163722">
    <tag k="shop" v="supermarket"/>
    <tag k="name" v="Real"/>
    <tag k="wheelchair" v="yes"/>
  </node>
  <node id="-5474" version="0" timestamp="Fri Feb 24 10:53:37 +0100 2012" uid="1" user="" lat="49.4363933" lon="11.1204026">
    <tag k="shop" v="doityourself"/>
    <tag k="name" v="Obi"/>
    <tag k="wheelchair" v="yes"/>
  </node>
  <node id="-5505" version="0" timestamp="Fri Feb 24 10:53:37 +0100 2012" uid="1" user="" lat="49.4841967" lon="10.9545323">
    <tag k="shop" v="medical_supply"/>
    <tag k="name" v="reha team Fürth"/>
    <tag k="wheelchair" v="yes"/>
    <tag k="addr:city" v="Fürth"/>
    <tag k="addr:postcode" v="90766"/>
    <tag k="addr:housenumber" v="10"/>
    <tag k="addr:street" v="Keplerstraße"/>
    <tag k="website" v="http://rehateam-fuerth.de"/>
    <tag k="phone" v="0911 972720"/>
  </node>
  <node id="-5582" version="0" timestamp="Fri Feb 24 10:53:37 +0100 2012" uid="1" user="" lat="49.4601437" lon="11.1317234">
    <tag k="name" v="Rechtsanwaltskanzlei Dr. Hans Wilhelm Busch"/>
    <tag k="wheelchair" v="yes"/>
    <tag k="addr:city" v="Nürnberg"/>
    <tag k="addr:postcode" v="90482 "/>
    <tag k="addr:housenumber" v="229 - 232"/>
    <tag k="addr:street" v="Ostendstrasse"/>
    <tag k="website" v="http://www.ra-dr-busch.de"/>
    <tag k="phone" v="+49 911 99969930"/>
    <tag k="office" v="lawyer"/>
  </node>
  <node id="-5618" version="0" timestamp="Fri Feb 24 10:53:37 +0100 2012" uid="1" user="" lat="49.4494899" lon="11.1410123">
    <tag k="name" v="Löwensaal"/>
    <tag k="wheelchair" v="no"/>
    <tag k="tourism" v="hotel"/>
  </node>
</osm>
