<?xml version='1.0' encoding='UTF-8'?>
<osm version="0.6" generator="Osmosis 0.39">
  <node id="-303" version="0" timestamp="Fri Feb 24 10:53:32 +0100 2012" uid="1" user="" lat="48.5346304" lon="12.148708">
    <tag k="name" v="Karstadt"/>
    <tag k="wheelchair" v="yes"/>
    <tag k="addr:city" v="Landshut"/>
    <tag k="addr:postcode" v="84028"/>
    <tag k="addr:housenumber" v="1"/>
    <tag k="addr:street" v="Ländtorplatz"/>
    <tag k="wheelchair:description" v="Aufzüge vorhanden"/>
    <tag k="amenity" v="bank"/>
    <tag k="phone" v="0871/2920"/>
  </node>
  <node id="-332" version="0" timestamp="Fri Feb 24 10:53:32 +0100 2012" uid="1" user="" lat="48.9364091" lon="12.0403501">
    <tag k="name" v="Gasthaus Zirngibl"/>
    <tag k="wheelchair" v="limited"/>
    <tag k="amenity" v="restaurant"/>
  </node>
  <node id="-336" version="0" timestamp="Fri Feb 24 10:53:32 +0100 2012" uid="1" user="" lat="48.8224185" lon="13.5986666">
    <tag k="name" v="Rathaus"/>
    <tag k="wheelchair" v="limited"/>
    <tag k="addr:city" v="Hinterschmiding"/>
    <tag k="addr:postcode" v="94146"/>
    <tag k="addr:housenumber" v="23"/>
    <tag k="addr:street" v="Dorfplatz"/>
    <tag k="website" v="http://www.hinterschmiding.de"/>
    <tag k="phone" v="+49 8551 9624-0"/>
  </node>
  <node id="-337" version="0" timestamp="Fri Feb 24 10:53:32 +0100 2012" uid="1" user="" lat="48.8226814" lon="13.5990026">
    <tag k="name" v="Sparkasse"/>
    <tag k="wheelchair" v="yes"/>
    <tag k="addr:city" v="Hinterschmiding"/>
    <tag k="addr:postcode" v="94146"/>
    <tag k="addr:street" v="Dorfplatz"/>
    <tag k="amenity" v="bank"/>
  </node>
  <node id="-338" version="0" timestamp="Fri Feb 24 10:53:32 +0100 2012" uid="1" user="" lat="48.82455" lon="13.59751">
    <tag k="name" v="Allgemeinarzt Dr. Jüttner"/>
    <tag k="wheelchair" v="limited"/>
    <tag k="addr:city" v="Hinterschmiding"/>
    <tag k="addr:postcode" v="94146"/>
    <tag k="addr:street" v="Scheibenweg"/>
    <tag k="wheelchair:description" v="1 Stufe"/>
    <tag k="amenity" v="doctors"/>
  </node>
  <node id="-528" version="0" timestamp="Fri Feb 24 10:53:32 +0100 2012" uid="1" user="" lat="48.5056602" lon="13.4551996">
    <tag k="name" v="GH zur Mariensäule"/>
    <tag k="wheelchair" v="yes"/>
    <tag k="amenity" v="restaurant"/>
    <tag k="website" v="http://www.mariensaeule.at"/>
  </node>
  <node id="-529" version="0" timestamp="Fri Feb 24 10:53:32 +0100 2012" uid="1" user="" lat="48.509079" lon="13.4589631">
    <tag k="name" v="öffentl. WC"/>
    <tag k="wheelchair" v="no"/>
    <tag k="amenity" v="toilets"/>
  </node>
  <node id="-628" version="0" timestamp="Fri Feb 24 10:53:32 +0100 2012" uid="1" user="" lat="48.5735726" lon="13.4558077">
    <tag k="shop" v="mall"/>
    <tag k="name" v="Stadtgallerie"/>
    <tag k="wheelchair" v="yes"/>
  </node>
  <node id="-629" version="0" timestamp="Fri Feb 24 10:53:32 +0100 2012" uid="1" user="" lat="48.5722684" lon="13.4571116">
    <tag k="name" v="Cineplex"/>
    <tag k="wheelchair" v="limited"/>
    <tag k="amenity" v="cinema"/>
  </node>
  <node id="-630" version="0" timestamp="Fri Feb 24 10:53:32 +0100 2012" uid="1" user="" lat="48.5650273" lon="13.426243">
    <tag k="shop" v="doityourself"/>
    <tag k="name" v="Bauhaus"/>
    <tag k="wheelchair" v="yes"/>
  </node>
  <node id="-695" version="0" timestamp="Fri Feb 24 10:53:32 +0100 2012" uid="1" user="" lat="48.8191541" lon="11.7875795">
    <tag k="name" v="Hotel Centurio"/>
    <tag k="wheelchair" v="limited"/>
    <tag k="addr:city" v="Bad Gögging"/>
    <tag k="addr:postcode" v="93333"/>
    <tag k="addr:housenumber" v="6"/>
    <tag k="tourism" v="hotel"/>
    <tag k="addr:street" v="Am Brunnenforum"/>
    <tag k="website" v="http://www.hotel-centurio.com"/>
    <tag k="phone" v="+49 9445 97220"/>
  </node>
  <node id="-1415" version="0" timestamp="Fri Feb 24 10:53:33 +0100 2012" uid="1" user="" lat="48.4899563" lon="12.0239107">
    <tag k="shop" v="furniture"/>
    <tag k="name" v="Möbel Biller"/>
    <tag k="wheelchair" v="yes"/>
    <tag k="addr:city" v="Eching"/>
    <tag k="addr:postcode" v="84174"/>
    <tag k="addr:housenumber" v="18"/>
    <tag k="addr:street" v="Mühlenstraße"/>
    <tag k="website" v="http://www.biller.de"/>
    <tag k="phone" v="08709/929-0"/>
  </node>
  <node id="-1416" version="0" timestamp="Fri Feb 24 10:53:33 +0100 2012" uid="1" user="" lat="48.4902307" lon="12.0249849">
    <tag k="name" v="billers Stuben"/>
    <tag k="wheelchair" v="yes"/>
    <tag k="addr:city" v="Weixerau"/>
    <tag k="addr:postcode" v="84174"/>
    <tag k="addr:housenumber" v="18"/>
    <tag k="addr:street" v="Mühlenstraße"/>
    <tag k="amenity" v="restaurant"/>
    <tag k="website" v="http://www.biller.de"/>
    <tag k="phone" v="08709/929-2244"/>
  </node>
  <node id="-2041" version="0" timestamp="Fri Feb 24 10:53:34 +0100 2012" uid="1" user="" lat="48.821641" lon="12.9685628">
    <tag k="name" v="Alpha et Omega"/>
    <tag k="wheelchair" v="yes"/>
    <tag k="addr:city" v="Deggendorf"/>
    <tag k="addr:postcode" v="94469"/>
    <tag k="addr:housenumber" v="65"/>
    <tag k="addr:street" v="Hengersberger Straße"/>
    <tag k="amenity" v="bar"/>
    <tag k="website" v="http://www.alphaetomega.de/"/>
    <tag k="phone" v="+49 151 16970073"/>
  </node>
  <node id="-2176" version="0" timestamp="Fri Feb 24 10:53:34 +0100 2012" uid="1" user="" lat="48.8205582" lon="12.0516181">
    <tag k="name" v="Discothek Like"/>
    <tag k="wheelchair" v="limited"/>
    <tag k="addr:city" v="Langquaid"/>
    <tag k="addr:postcode" v="84085 "/>
    <tag k="addr:housenumber" v="26"/>
    <tag k="addr:street" v="Marktplatz "/>
    <tag k="wheelchair:description" v="Eingang, Tanzfläche, WC (Jedoch keine Extra WC) und eine Bar sind ebenerdig"/>
    <tag k="amenity" v="nightclub"/>
    <tag k="website" v="http://www.disco-like.de"/>
    <tag k="phone" v="0941 / 930 88 762"/>
  </node>
  <node id="-2610" version="0" timestamp="Fri Feb 24 10:53:34 +0100 2012" uid="1" user="" lat="48.8829352" lon="12.5691041">
    <tag k="shop" v="butcher"/>
    <tag k="name" v="Pferdemetzgerei Riedl"/>
    <tag k="wheelchair" v="limited"/>
    <tag k="addr:city" v="Straubing"/>
    <tag k="addr:postcode" v="94315"/>
    <tag k="addr:housenumber" v="4"/>
    <tag k="addr:street" v="Simon-Höller-Straße"/>
    <tag k="wheelchair:description" v="Eine Stufe zum Eingang"/>
    <tag k="phone" v="+49 9421 1446"/>
  </node>
  <node id="-2611" version="0" timestamp="Fri Feb 24 10:53:34 +0100 2012" uid="1" user="" lat="48.8809015" lon="12.5661129">
    <tag k="name" v="Peters Bar"/>
    <tag k="wheelchair" v="limited"/>
    <tag k="addr:city" v="Straubing"/>
    <tag k="addr:postcode" v="94315"/>
    <tag k="addr:housenumber" v="11"/>
    <tag k="addr:street" v="Schmidlgass"/>
    <tag k="wheelchair:description" v="Toiletten im Keller (ohne Aufzug)"/>
    <tag k="amenity" v="bar"/>
    <tag k="phone" v="+49 9421 1896567"/>
  </node>
  <node id="-2612" version="0" timestamp="Fri Feb 24 10:53:34 +0100 2012" uid="1" user="" lat="48.8800306" lon="12.5662175">
    <tag k="name" v="Myers&apos;"/>
    <tag k="wheelchair" v="yes"/>
    <tag k="addr:city" v="Straubing"/>
    <tag k="addr:postcode" v="94315"/>
    <tag k="addr:housenumber" v="43"/>
    <tag k="addr:street" v="Am Platzl"/>
    <tag k="wheelchair:description" v="Ebenerdiger Hintereingang"/>
    <tag k="amenity" v="bar"/>
    <tag k="website" v="http://www.myers.de/"/>
    <tag k="phone" v="+49 9421 839761"/>
  </node>
  <node id="-2613" version="0" timestamp="Fri Feb 24 10:53:34 +0100 2012" uid="1" user="" lat="48.875954" lon="12.572755">
    <tag k="name" v="Diner"/>
    <tag k="wheelchair" v="yes"/>
    <tag k="addr:city" v="Straubing"/>
    <tag k="addr:postcode" v="94315"/>
    <tag k="addr:housenumber" v="2"/>
    <tag k="addr:street" v="Hebbelstraße"/>
    <tag k="amenity" v="restaurant"/>
    <tag k="website" v="http://www.diner-sr.de/"/>
    <tag k="phone" v="+49 9421 744151"/>
  </node>
  <node id="-3494" version="0" timestamp="Fri Feb 24 10:53:35 +0100 2012" uid="1" user="" lat="49.0404367" lon="12.5379216">
    <tag k="name" v="Barrierefreier Rundweg"/>
    <tag k="wheelchair" v="yes"/>
    <tag k="addr:city" v="Wiesenfelden"/>
    <tag k="addr:postcode" v="94344"/>
    <tag k="addr:housenumber" v="1"/>
    <tag k="tourism" v="attraction"/>
    <tag k="addr:street" v="Georgsplatz"/>
    <tag k="wheelchair:description" v="2,3 km langer, barrierefreier Wanderweg um den Beckenweiher"/>
    <tag k="website" v="http://www.wiesenfelden.de"/>
    <tag k="phone" v="+49 09966 9400 18"/>
  </node>
  <node id="-3495" version="0" timestamp="Fri Feb 24 10:53:35 +0100 2012" uid="1" user="" lat="49.04042" lon="12.53792">
    <tag k="name" v="Touristinfo"/>
    <tag k="wheelchair" v="yes"/>
    <tag k="addr:city" v="Wiesenfelden"/>
    <tag k="addr:postcode" v="94344"/>
    <tag k="addr:housenumber" v="1"/>
    <tag k="addr:street" v="Georgsplatz"/>
    <tag k="wheelchair:description" v="http://www.wiesenfelden.de/index.php?section=index:leben&amp;page=barrierefreier rundweg"/>
    <tag k="website" v="http://www.wiesenfelden.de"/>
    <tag k="phone" v="+49 09966 9400 18"/>
  </node>
  <node id="-4640" version="0" timestamp="Fri Feb 24 10:53:36 +0100 2012" uid="1" user="" lat="48.8314137" lon="12.9619403">
    <tag k="name" v="relax Bar"/>
    <tag k="wheelchair" v="no"/>
    <tag k="addr:city" v="Deggendorf"/>
    <tag k="addr:postcode" v="94469"/>
    <tag k="addr:housenumber" v="8"/>
    <tag k="addr:street" v="Michael-Fischer-Platz"/>
    <tag k="amenity" v="bar"/>
    <tag k="website" v="http://www.relaxbar-deggendorf.de"/>
    <tag k="phone" v="0151/56611412 "/>
  </node>
  <node id="-4641" version="0" timestamp="Fri Feb 24 10:53:36 +0100 2012" uid="1" user="" lat="48.8317489" lon="12.961879">
    <tag k="name" v="Alcédo"/>
    <tag k="wheelchair" v="yes"/>
    <tag k="addr:city" v="Deggendorf"/>
    <tag k="addr:postcode" v="94469"/>
    <tag k="addr:housenumber" v="4"/>
    <tag k="addr:street" v="Michael-Fischer-Platz"/>
    <tag k="amenity" v="bar"/>
    <tag k="website" v="http://www.alcedo-lounge.de"/>
    <tag k="phone" v="0991/3209619"/>
  </node>
  <node id="-4642" version="0" timestamp="Fri Feb 24 10:53:36 +0100 2012" uid="1" user="" lat="48.8462195" lon="12.9532577">
    <tag k="name" v="Schulzentrum"/>
    <tag k="wheelchair" v="no"/>
    <tag k="amenity" v="school"/>
  </node>
  <node id="-4645" version="0" timestamp="Fri Feb 24 10:53:36 +0100 2012" uid="1" user="" lat="48.7653836" lon="13.0482544">
    <tag k="shop" v="supermarket"/>
    <tag k="name" v="LIDL"/>
    <tag k="wheelchair" v="yes"/>
  </node>
  <node id="-4646" version="0" timestamp="Fri Feb 24 10:53:36 +0100 2012" uid="1" user="" lat="48.7650669" lon="13.0491431">
    <tag k="shop" v="chemist"/>
    <tag k="name" v="Rossmann"/>
    <tag k="wheelchair" v="yes"/>
  </node>
  <node id="-4647" version="0" timestamp="Fri Feb 24 10:53:36 +0100 2012" uid="1" user="" lat="48.76629" lon="13.04621">
    <tag k="name" v="Autohof Hengersberg"/>
    <tag k="wheelchair" v="unknown"/>
    <tag k="amenity" v="fuel"/>
  </node>
  <node id="-4648" version="0" timestamp="Fri Feb 24 10:53:36 +0100 2012" uid="1" user="" lat="48.7662653" lon="13.0447789">
    <tag k="shop" v="supermarket"/>
    <tag k="name" v="Penny"/>
    <tag k="wheelchair" v="yes"/>
  </node>
  <node id="-4649" version="0" timestamp="Fri Feb 24 10:53:36 +0100 2012" uid="1" user="" lat="48.7697725" lon="13.0449216">
    <tag k="shop" v="supermarket"/>
    <tag k="name" v="REWE"/>
    <tag k="wheelchair" v="yes"/>
  </node>
  <node id="-4650" version="0" timestamp="Fri Feb 24 10:53:36 +0100 2012" uid="1" user="" lat="48.8333283" lon="12.9607497">
    <tag k="shop" v="sports"/>
    <tag k="name" v="INTERSPORT KEPPELER"/>
    <tag k="wheelchair" v="limited"/>
  </node>
  <node id="-4921" version="0" timestamp="Fri Feb 24 10:53:36 +0100 2012" uid="1" user="" lat="48.2664999" lon="13.0254585">
    <tag k="name" v="Pizzaria Ristorante Tolmezzo"/>
    <tag k="wheelchair" v="no"/>
    <tag k="addr:city" v="Simbach"/>
    <tag k="addr:postcode" v="84359"/>
    <tag k="addr:housenumber" v="15"/>
    <tag k="addr:street" v="Münchner Straße "/>
    <tag k="wheelchair:description" v="Zugang nur über Treppen möglich"/>
    <tag k="amenity" v="restaurant"/>
    <tag k="phone" v="+49 8571 926996"/>
  </node>
  <node id="-5096" version="0" timestamp="Fri Feb 24 10:53:37 +0100 2012" uid="1" user="" lat="48.8832002" lon="12.5625737">
    <tag k="name" v="Eisstadion am Pulverturm"/>
    <tag k="wheelchair" v="yes"/>
    <tag k="leisure" v="arena"/>
  </node>
  <node id="-5097" version="0" timestamp="Fri Feb 24 10:53:37 +0100 2012" uid="1" user="" lat="48.8871573" lon="12.5618299">
    <tag k="name" v="Joseph-von-Frauenhofer-Halle"/>
    <tag k="wheelchair" v="yes"/>
    <tag k="amenity" v="townhall"/>
  </node>
  <node id="-5098" version="0" timestamp="Fri Feb 24 10:53:37 +0100 2012" uid="1" user="" lat="48.8878987" lon="12.5623806">
    <tag k="name" v="Messehalle"/>
    <tag k="wheelchair" v="yes"/>
    <tag k="amenity" v="townhall"/>
  </node>
  <node id="-5180" version="0" timestamp="Fri Feb 24 10:53:37 +0100 2012" uid="1" user="" lat="48.858478" lon="13.4969028">
    <tag k="name" v="Ferienwohnung beim Goldbachl-Peppi"/>
    <tag k="wheelchair" v="yes"/>
    <tag k="addr:city" v="Hohenau"/>
    <tag k="addr:postcode" v="94545"/>
    <tag k="addr:housenumber" v="200"/>
    <tag k="tourism" v="hotel"/>
    <tag k="addr:street" v="Kirchl"/>
    <tag k="wheelchair:description" v="DEHOGA und NATKO zertifiziert"/>
    <tag k="website" v="http://www.goldbachl-peppi.de"/>
    <tag k="phone" v="+49 8558 974119"/>
  </node>
</osm>
