<?xml version='1.0' encoding='UTF-8'?>
<osm version="0.6" generator="Osmosis 0.39">
  <node id="-27" version="0" timestamp="Fri Feb 24 10:53:32 +0100 2012" uid="1" user="" lat="49.88894" lon="10.88648">
    <tag k="name" v="Klosterbräu"/>
    <tag k="wheelchair" v="no"/>
    <tag k="amenity" v="restaurant"/>
  </node>
  <node id="-28" version="0" timestamp="Fri Feb 24 10:53:32 +0100 2012" uid="1" user="" lat="49.88894" lon="10.88648">
    <tag k="name" v="Klosterbräu"/>
    <tag k="wheelchair" v="no"/>
    <tag k="amenity" v="restaurant"/>
  </node>
  <node id="-112" version="0" timestamp="Fri Feb 24 10:53:32 +0100 2012" uid="1" user="" lat="49.9433864" lon="11.5864773">
    <tag k="name" v="Wirtschaftswissenschaftliches gymnasium "/>
    <tag k="wheelchair" v="yes"/>
    <tag k="addr:city" v="Bayreuth "/>
    <tag k="addr:postcode" v="95448"/>
    <tag k="addr:housenumber" v="1"/>
    <tag k="addr:street" v="Am Sportpark"/>
    <tag k="wheelchair:description" v="Haupteingang verfügt über eine Rollstuhl Rampe  In das erste Stockwerk des Zentralbaus führt ein Rollstuhllift "/>
    <tag k="amenity" v="school"/>
  </node>
  <node id="-517" version="0" timestamp="Fri Feb 24 10:53:32 +0100 2012" uid="1" user="" lat="49.88927" lon="10.88951">
    <tag k="name" v="Rathaus Geyerswörth"/>
    <tag k="wheelchair" v="no"/>
    <tag k="addr:city" v="Bamberg"/>
    <tag k="addr:postcode" v="96047"/>
    <tag k="addr:housenumber" v="1"/>
    <tag k="addr:street" v="Geyerswörthstraße"/>
  </node>
  <node id="-518" version="0" timestamp="Fri Feb 24 10:53:32 +0100 2012" uid="1" user="" lat="49.89608" lon="10.87706">
    <tag k="name" v="Technisches Rathaus"/>
    <tag k="wheelchair" v="no"/>
    <tag k="addr:city" v="Bamberg"/>
    <tag k="addr:postcode" v="96049"/>
    <tag k="addr:housenumber" v="40"/>
    <tag k="addr:street" v="Untere Sandstraße"/>
    <tag k="wheelchair:description" v="Nur Bürgerservice Bauberatung erreichbar"/>
  </node>
  <node id="-519" version="0" timestamp="Fri Feb 24 10:53:32 +0100 2012" uid="1" user="" lat="49.89321" lon="10.89371">
    <tag k="name" v="Ämter im Heinrichsdamm"/>
    <tag k="wheelchair" v="yes"/>
    <tag k="addr:city" v="Bamberg"/>
    <tag k="addr:postcode" v="96047"/>
    <tag k="addr:housenumber" v="1"/>
    <tag k="addr:street" v="Heinrichsdamm"/>
  </node>
  <node id="-520" version="0" timestamp="Fri Feb 24 10:53:32 +0100 2012" uid="1" user="" lat="49.8950191" lon="10.8908484">
    <tag k="name" v="Kulturamt"/>
    <tag k="wheelchair" v="no"/>
    <tag k="addr:city" v="Bamberg"/>
    <tag k="addr:postcode" v="96047"/>
    <tag k="addr:housenumber" v="16"/>
    <tag k="addr:street" v="Hauptwachstraße "/>
  </node>
  <node id="-521" version="0" timestamp="Fri Feb 24 10:53:32 +0100 2012" uid="1" user="" lat="49.8954796" lon="10.8916171">
    <tag k="name" v="Ämter im Heinrichsdamm"/>
    <tag k="wheelchair" v="yes"/>
    <tag k="addr:city" v="Bamberg"/>
    <tag k="addr:postcode" v="96047"/>
    <tag k="addr:housenumber" v="1"/>
    <tag k="addr:street" v="Heinrichsdamm"/>
  </node>
  <node id="-522" version="0" timestamp="Fri Feb 24 10:53:32 +0100 2012" uid="1" user="" lat="49.8910947" lon="10.8879332">
    <tag k="name" v="Rathaus Geyerswörth"/>
    <tag k="wheelchair" v="no"/>
    <tag k="addr:city" v="Bamberg"/>
    <tag k="addr:postcode" v="96047"/>
    <tag k="addr:housenumber" v="1"/>
    <tag k="addr:street" v="Geyerswörthstraße"/>
  </node>
  <node id="-523" version="0" timestamp="Fri Feb 24 10:53:32 +0100 2012" uid="1" user="" lat="49.8965615" lon="10.8864004">
    <tag k="name" v="Parküberwachungsdienst"/>
    <tag k="wheelchair" v="yes"/>
    <tag k="addr:city" v="Bamberg"/>
    <tag k="addr:postcode" v="96047"/>
    <tag k="addr:housenumber" v="2a"/>
    <tag k="addr:street" v="Hornthalstraße"/>
  </node>
  <node id="-524" version="0" timestamp="Fri Feb 24 10:53:32 +0100 2012" uid="1" user="" lat="49.8936645" lon="10.9159226">
    <tag k="name" v="Ordnungsamt/Verkehrswesen"/>
    <tag k="wheelchair" v="yes"/>
    <tag k="addr:city" v="Bamberg"/>
    <tag k="addr:postcode" v="96050"/>
    <tag k="addr:housenumber" v="65"/>
    <tag k="addr:street" v="Moosstraße"/>
  </node>
  <node id="-525" version="0" timestamp="Fri Feb 24 10:53:32 +0100 2012" uid="1" user="" lat="49.8939667" lon="10.8923">
    <tag k="name" v="Servicezentrum am ZOB"/>
    <tag k="wheelchair" v="yes"/>
    <tag k="wheelchair:description" v="Seiteneingang Barrierefrei"/>
  </node>
  <node id="-769" version="0" timestamp="Fri Feb 24 10:53:32 +0100 2012" uid="1" user="" lat="49.7169" lon="11.06124">
    <tag k="name" v="Bei Bektas"/>
    <tag k="wheelchair" v="limited"/>
    <tag k="addr:city" v="Forchheim"/>
    <tag k="addr:postcode" v="91301"/>
    <tag k="addr:housenumber" v="6"/>
    <tag k="addr:street" v="Paradeplatz"/>
    <tag k="wheelchair:description" v="Toiletten unten ( Treppen)"/>
    <tag k="amenity" v="fast_food"/>
    <tag k="phone" v="(0172) 8194318"/>
  </node>
  <node id="-1351" version="0" timestamp="Fri Feb 24 10:53:33 +0100 2012" uid="1" user="" lat="49.8627" lon="10.84653">
    <tag k="name" v="Struwwelpeter"/>
    <tag k="wheelchair" v="yes"/>
    <tag k="addr:city" v="Stegaurach"/>
    <tag k="addr:postcode" v="96135"/>
    <tag k="addr:street" v="Bamberger Strasse "/>
    <tag k="amenity" v="pub"/>
  </node>
  <node id="-2272" version="0" timestamp="Fri Feb 24 10:53:34 +0100 2012" uid="1" user="" lat="49.7563328" lon="11.5395665">
    <tag k="name" v="Eis Cafe Dolomiti"/>
    <tag k="wheelchair" v="limited"/>
    <tag k="wheelchair:description" v="Es befinden sich zwei Stufen davor. Im Sommer kann man im Außenbereich nutzen"/>
    <tag k="amenity" v="bank"/>
  </node>
  <node id="-2273" version="0" timestamp="Fri Feb 24 10:53:34 +0100 2012" uid="1" user="" lat="49.7563329" lon="11.5395548">
    <tag k="name" v="Eis Cafe Dolomiti"/>
    <tag k="wheelchair" v="limited"/>
    <tag k="wheelchair:description" v="Zwei Treppen dafor. Im sommer kann man das außengelände nutzen! Sehr zu Empfhelen"/>
    <tag k="amenity" v="cafe"/>
  </node>
  <node id="-2274" version="0" timestamp="Fri Feb 24 10:53:34 +0100 2012" uid="1" user="" lat="49.7562686" lon="11.5402482">
    <tag k="name" v="Löwen Apotheke"/>
    <tag k="wheelchair" v="yes"/>
    <tag k="wheelchair:description" v="kleine Kante vor der Tür,"/>
    <tag k="amenity" v="bank"/>
  </node>
  <node id="-2275" version="0" timestamp="Fri Feb 24 10:53:34 +0100 2012" uid="1" user="" lat="49.7563116" lon="11.5407328">
    <tag k="name" v="Ratsstube "/>
    <tag k="wheelchair" v="limited"/>
    <tag k="wheelchair:description" v="ein paar kleine stufen vorm Gastraum."/>
    <tag k="amenity" v="restaurant"/>
  </node>
  <node id="-2276" version="0" timestamp="Fri Feb 24 10:53:34 +0100 2012" uid="1" user="" lat="49.7558329" lon="11.540085">
    <tag k="name" v="Bier Bar Schnerpfl"/>
    <tag k="wheelchair" v="limited"/>
    <tag k="wheelchair:description" v="Eingang eine Stufe, vor den Toiletten befinden sich ebenfalls mehrere Stufen"/>
    <tag k="amenity" v="bar"/>
  </node>
  <node id="-2277" version="0" timestamp="Fri Feb 24 10:53:34 +0100 2012" uid="1" user="" lat="49.7562092" lon="11.5396193">
    <tag k="shop" v="department_store"/>
    <tag k="name" v="Schreibwaren Wöckl"/>
    <tag k="wheelchair" v="limited"/>
    <tag k="wheelchair:description" v="kleine Stufe vor der Ladentüre, es ist sehr eng im Laden"/>
  </node>
  <node id="-2278" version="0" timestamp="Fri Feb 24 10:53:34 +0100 2012" uid="1" user="" lat="49.7544949" lon="11.538287">
    <tag k="name" v="Wiesweiher Parkplatz"/>
    <tag k="wheelchair" v="yes"/>
    <tag k="wheelchair:description" v="Parkplatz ist Großzügig, mit B Parkplätzen, Weg in die Stadt gepflaster und ohne Stufen, durch den Park Schotterweg"/>
    <tag k="amenity" v="parking"/>
  </node>
  <node id="-2281" version="0" timestamp="Fri Feb 24 10:53:34 +0100 2012" uid="1" user="" lat="49.7541122" lon="11.5384617">
    <tag k="name" v="Merzweckhalle"/>
    <tag k="wheelchair" v="unknown"/>
    <tag k="wheelchair:description" v="wird noch gebaut"/>
    <tag k="amenity" v="townhall"/>
  </node>
  <node id="-2282" version="0" timestamp="Fri Feb 24 10:53:34 +0100 2012" uid="1" user="" lat="49.7532119" lon="11.5382997">
    <tag k="shop" v="butcher"/>
    <tag k="name" v="Metzgerei Dörfler und Fiedler"/>
    <tag k="wheelchair" v="limited"/>
    <tag k="wheelchair:description" v="Die Metzgerei ist Behinderten gerecht, der Gehsteig teilweise sehr hoch, wird momentan umgebaut"/>
  </node>
  <node id="-2284" version="0" timestamp="Fri Feb 24 10:53:34 +0100 2012" uid="1" user="" lat="49.7524171" lon="11.5402038">
    <tag k="name" v="Alter Friedhof und Kirche"/>
    <tag k="wheelchair" v="limited"/>
    <tag k="wheelchair:description" v="Der Friedhof ist ebenerdig, Um in die Kirche zu kommen sind jeweils eine Stufe vorhanden"/>
    <tag k="amenity" v="place_of_worship"/>
  </node>
  <node id="-2285" version="0" timestamp="Fri Feb 24 10:53:34 +0100 2012" uid="1" user="" lat="49.7527348" lon="11.5412151">
    <tag k="name" v="Altes Schloß"/>
    <tag k="wheelchair" v="unknown"/>
  </node>
  <node id="-2286" version="0" timestamp="Fri Feb 24 10:53:34 +0100 2012" uid="1" user="" lat="49.7525633" lon="11.541781">
    <tag k="shop" v="garden_centre"/>
    <tag k="name" v="Gärtnerei Dörfler"/>
    <tag k="wheelchair" v="limited"/>
    <tag k="wheelchair:description" v="sehr steiler eingang, aber eine Rampe vorhanden"/>
  </node>
  <node id="-2287" version="0" timestamp="Fri Feb 24 10:53:34 +0100 2012" uid="1" user="" lat="49.7520805" lon="11.5411999">
    <tag k="name" v="Ristorante Orchidea"/>
    <tag k="wheelchair" v="limited"/>
    <tag k="wheelchair:description" v="Ebenerdiger Eingang; Toilletten ein paar Stufen"/>
    <tag k="amenity" v="restaurant"/>
  </node>
  <node id="-2289" version="0" timestamp="Fri Feb 24 10:53:34 +0100 2012" uid="1" user="" lat="49.7516314" lon="11.5450828">
    <tag k="name" v="Senivita Seniorenwohnheim"/>
    <tag k="wheelchair" v="yes"/>
  </node>
  <node id="-2290" version="0" timestamp="Fri Feb 24 10:53:34 +0100 2012" uid="1" user="" lat="49.7510133" lon="11.5413542">
    <tag k="name" v="Krankengymnastik Heidler"/>
    <tag k="wheelchair" v="yes"/>
    <tag k="amenity" v="doctors"/>
  </node>
  <node id="-2368" version="0" timestamp="Fri Feb 24 10:53:34 +0100 2012" uid="1" user="" lat="49.7483384" lon="11.5379885">
    <tag k="shop" v="department_store"/>
    <tag k="name" v="Fressnapf"/>
    <tag k="wheelchair" v="yes"/>
  </node>
  <node id="-2369" version="0" timestamp="Fri Feb 24 10:53:34 +0100 2012" uid="1" user="" lat="49.7484856" lon="11.5380705">
    <tag k="shop" v="supermarket"/>
    <tag k="name" v="Tedi"/>
    <tag k="wheelchair" v="yes"/>
  </node>
  <node id="-2370" version="0" timestamp="Fri Feb 24 10:53:34 +0100 2012" uid="1" user="" lat="49.7486148" lon="11.5381451">
    <tag k="shop" v="clothes"/>
    <tag k="name" v="Ernstings Family"/>
    <tag k="wheelchair" v="yes"/>
  </node>
  <node id="-2371" version="0" timestamp="Fri Feb 24 10:53:34 +0100 2012" uid="1" user="" lat="49.7471029" lon="11.5388706">
    <tag k="shop" v="supermarket"/>
    <tag k="name" v="Lidl"/>
    <tag k="wheelchair" v="yes"/>
  </node>
  <node id="-2372" version="0" timestamp="Fri Feb 24 10:53:34 +0100 2012" uid="1" user="" lat="49.7462991" lon="11.5337118">
    <tag k="shop" v="supermarket"/>
    <tag k="name" v="REWE"/>
    <tag k="wheelchair" v="yes"/>
  </node>
  <node id="-2373" version="0" timestamp="Fri Feb 24 10:53:34 +0100 2012" uid="1" user="" lat="49.7458049" lon="11.5346471">
    <tag k="name" v="Shell Tankstelle"/>
    <tag k="wheelchair" v="limited"/>
    <tag k="wheelchair:description" v="zum Bezahlen muss man eine kleine Stufe hoch"/>
    <tag k="amenity" v="fuel"/>
  </node>
  <node id="-2465" version="0" timestamp="Fri Feb 24 10:53:34 +0100 2012" uid="1" user="" lat="49.7216883" lon="11.058844">
    <tag k="name" v="Katharinenspital"/>
    <tag k="wheelchair" v="yes"/>
    <tag k="addr:city" v="Forchheim"/>
    <tag k="addr:postcode" v="91301"/>
    <tag k="addr:housenumber" v="3"/>
    <tag k="addr:street" v="Bamberger Straße"/>
    <tag k="wheelchair:description" v="Keine Stufen, Fahrstuhl vorhanden."/>
  </node>
  <node id="-3290" version="0" timestamp="Fri Feb 24 10:53:35 +0100 2012" uid="1" user="" lat="49.72003" lon="11.05908">
    <tag k="name" v="Art-o-thek"/>
    <tag k="wheelchair" v="unknown"/>
    <tag k="addr:city" v="Forchheim"/>
    <tag k="addr:postcode" v="91301"/>
    <tag k="addr:housenumber" v="13"/>
    <tag k="addr:street" v="Hauptstraße"/>
    <tag k="amenity" v="bank"/>
    <tag k="website" v="http://www.artothek.net/"/>
    <tag k="phone" v="09191 / 9700761"/>
  </node>
  <node id="-3439" version="0" timestamp="Fri Feb 24 10:53:35 +0100 2012" uid="1" user="" lat="49.72058" lon="11.0575">
    <tag k="name" v="art-o-thek"/>
    <tag k="wheelchair" v="limited"/>
    <tag k="addr:city" v="Forchheim"/>
    <tag k="addr:postcode" v="91301"/>
    <tag k="addr:housenumber" v="13"/>
    <tag k="addr:street" v="Hauptstraße"/>
    <tag k="wheelchair:description" v="kein Behinderten-WC."/>
    <tag k="amenity" v="restaurant"/>
    <tag k="website" v="http://www.artothek.net/"/>
  </node>
  <node id="-3885" version="0" timestamp="Fri Feb 24 10:53:35 +0100 2012" uid="1" user="" lat="49.71556" lon="11.03435">
    <tag k="shop" v="books"/>
    <tag k="name" v="art of arts Verlag"/>
    <tag k="wheelchair" v="yes"/>
    <tag k="addr:city" v="Forchheim"/>
    <tag k="addr:postcode" v="91301"/>
    <tag k="addr:housenumber" v="7"/>
    <tag k="addr:street" v="Hinteres Schlehental"/>
    <tag k="wheelchair:description" v="ebenerdig, behindertengerechtes WC, rollstuhlfreundlich"/>
    <tag k="website" v="http://www.artofarts.de"/>
    <tag k="phone" v="091913511153"/>
  </node>
  <node id="-5187" version="0" timestamp="Fri Feb 24 10:53:37 +0100 2012" uid="1" user="" lat="49.9495374" lon="11.5782202">
    <tag k="name" v="Freikirche der Siebenten-Tags-Adventisten"/>
    <tag k="wheelchair" v="yes"/>
    <tag k="addr:city" v="Bayreuth "/>
    <tag k="addr:postcode" v="95444 "/>
    <tag k="addr:housenumber" v="1a"/>
    <tag k="addr:street" v="Friedrich-von-Schiller-Straße"/>
    <tag k="amenity" v="place_of_worship"/>
    <tag k="website" v="http://bayreuth.adventist.eu/"/>
    <tag k="phone" v="+49 921 7303334"/>
  </node>
  <node id="-5188" version="0" timestamp="Fri Feb 24 10:53:37 +0100 2012" uid="1" user="" lat="49.9495748" lon="11.5781856">
    <tag k="name" v="Deutscher Verein für Gesundheitspflege e. V."/>
    <tag k="wheelchair" v="yes"/>
    <tag k="addr:city" v="Bayreuth "/>
    <tag k="addr:postcode" v="95444 "/>
    <tag k="addr:housenumber" v="1a"/>
    <tag k="addr:street" v="Friedrich-von-Schiller-Straße"/>
    <tag k="amenity" v="social_facility"/>
    <tag k="website" v="http://dvg-bayreuth.de/"/>
    <tag k="phone" v="+49 9225 9999049"/>
  </node>
  <node id="-5502" version="0" timestamp="Fri Feb 24 10:53:37 +0100 2012" uid="1" user="" lat="49.955225" lon="11.5528572">
    <tag k="shop" v="medical_supply"/>
    <tag k="name" v="rehateam Bayreuth"/>
    <tag k="wheelchair" v="yes"/>
    <tag k="addr:city" v="Bayreuth"/>
    <tag k="addr:postcode" v="95445"/>
    <tag k="addr:housenumber" v="11"/>
    <tag k="addr:street" v="Am Bauhoff"/>
    <tag k="website" v="http://www.rehateam-bayreth.de"/>
    <tag k="phone" v="0921 747430"/>
  </node>
  <node id="-5503" version="0" timestamp="Fri Feb 24 10:53:37 +0100 2012" uid="1" user="" lat="49.7546979" lon="11.5427289">
    <tag k="shop" v="medical_supply"/>
    <tag k="name" v="sani team pegnitz"/>
    <tag k="wheelchair" v="yes"/>
    <tag k="addr:city" v="Pegnitz"/>
    <tag k="addr:postcode" v="91257"/>
    <tag k="addr:housenumber" v="12 a"/>
    <tag k="addr:street" v="Schloßstraße "/>
    <tag k="website" v="http://www.rehateam-bayreuth.de"/>
    <tag k="phone" v="09241 6389"/>
  </node>
  <node id="-5506" version="0" timestamp="Fri Feb 24 10:53:37 +0100 2012" uid="1" user="" lat="49.9107796" lon="10.8821997">
    <tag k="shop" v="medical_supply"/>
    <tag k="name" v="reha team Bamberg"/>
    <tag k="wheelchair" v="yes"/>
    <tag k="addr:city" v="Bamberg"/>
    <tag k="addr:postcode" v="96052"/>
    <tag k="addr:housenumber" v="100"/>
    <tag k="addr:street" v="Hallstadter Straße"/>
    <tag k="website" v="http://rehateam-bamberg.de"/>
    <tag k="phone" v="0951 70 04 91-0 "/>
  </node>
  <node id="-5597" version="0" timestamp="Fri Feb 24 10:53:37 +0100 2012" uid="1" user="" lat="50.24995" lon="10.97533">
    <tag k="name" v="tagesklinik für Psychiatrie und psychotherapie"/>
    <tag k="wheelchair" v="yes"/>
    <tag k="addr:city" v="coburg"/>
    <tag k="addr:postcode" v="96450"/>
    <tag k="addr:housenumber" v="9"/>
    <tag k="addr:street" v="Gustav- Hirschfeld- Ring "/>
    <tag k="wheelchair:description" v="Deutliche Steigung bis zum Gebäude!"/>
    <tag k="amenity" v="hospital"/>
  </node>
</osm>
