<?xml version='1.0' encoding='UTF-8'?>
<osm version="0.6" generator="Osmosis 0.39">
  <node id="-531" version="0" timestamp="Fri Feb 24 10:53:32 +0100 2012" uid="1" user="" lat="48.99795" lon="12.13127">
    <tag k="shop" v="department_store"/>
    <tag k="name" v="AniMazing Gambler&apos;s Store"/>
    <tag k="wheelchair" v="limited"/>
    <tag k="addr:city" v="Regensburg"/>
    <tag k="addr:postcode" v="93053"/>
    <tag k="addr:housenumber" v="5"/>
    <tag k="addr:street" v="Grunewaldstraße"/>
    <tag k="website" v="http://www.animazing.de"/>
    <tag k="phone" v="+49941460750"/>
  </node>
  <node id="-787" version="0" timestamp="Fri Feb 24 10:53:32 +0100 2012" uid="1" user="" lat="48.99449" lon="12.11948">
    <tag k="shop" v="optician"/>
    <tag k="name" v="Apollo Optik"/>
    <tag k="wheelchair" v="yes"/>
    <tag k="addr:city" v="Regensburg"/>
    <tag k="addr:postcode" v="93053"/>
    <tag k="addr:housenumber" v="2"/>
    <tag k="addr:street" v="Langobardenstrasse"/>
    <tag k="wheelchair:description" v="Alles barrierefrei, nur kein Behindertengerschtes WC"/>
    <tag k="website" v="http://www.apollo.de"/>
    <tag k="phone" v="0941/70812670"/>
  </node>
  <node id="-1034" version="0" timestamp="Fri Feb 24 10:53:33 +0100 2012" uid="1" user="" lat="49.0303727" lon="12.1246966">
    <tag k="name" v="Physiodrom - Praxis für Krankengymnastik und Rehabilitation"/>
    <tag k="wheelchair" v="yes"/>
    <tag k="addr:city" v="Regensburg"/>
    <tag k="addr:postcode" v="93059"/>
    <tag k="addr:housenumber" v="C10"/>
    <tag k="addr:street" v="Im Gewerbepark"/>
    <tag k="wheelchair:description" v="Aufzug vorhanden , Behindertentoiletten"/>
    <tag k="amenity" v="doctors"/>
    <tag k="website" v="http://www.physiodrom-regensburg.de"/>
    <tag k="phone" v="094140789"/>
  </node>
  <node id="-1083" version="0" timestamp="Fri Feb 24 10:53:33 +0100 2012" uid="1" user="" lat="49.4456041" lon="11.8591105">
    <tag k="name" v="Öffentliche Toilette"/>
    <tag k="wheelchair" v="yes"/>
    <tag k="addr:city" v="Amberg"/>
    <tag k="addr:postcode" v="92224"/>
    <tag k="addr:street" v="Hallplatz"/>
    <tag k="amenity" v="toilets"/>
  </node>
  <node id="-1289" version="0" timestamp="Fri Feb 24 10:53:33 +0100 2012" uid="1" user="" lat="49.733688" lon="12.2073312">
    <tag k="name" v="Pfarrheim St. Salvator"/>
    <tag k="wheelchair" v="yes"/>
    <tag k="amenity" v="place_of_worship"/>
  </node>
  <node id="-1433" version="0" timestamp="Fri Feb 24 10:53:33 +0100 2012" uid="1" user="" lat="49.0158518" lon="12.1106243">
    <tag k="name" v="Kirche St. Cäcilia"/>
    <tag k="wheelchair" v="unknown"/>
    <tag k="amenity" v="place_of_worship"/>
  </node>
  <node id="-1435" version="0" timestamp="Fri Feb 24 10:53:33 +0100 2012" uid="1" user="" lat="49.0183733" lon="12.0999056">
    <tag k="name" v="Alte Kapelle"/>
    <tag k="wheelchair" v="limited"/>
    <tag k="amenity" v="place_of_worship"/>
  </node>
  <node id="-1438" version="0" timestamp="Fri Feb 24 10:53:33 +0100 2012" uid="1" user="" lat="48.9897354" lon="12.1919832">
    <tag k="name" v="Kirche St. Michael"/>
    <tag k="wheelchair" v="no"/>
    <tag k="wheelchair:description" v="Treppen am Eingang"/>
    <tag k="amenity" v="place_of_worship"/>
  </node>
  <node id="-1530" version="0" timestamp="Fri Feb 24 10:53:33 +0100 2012" uid="1" user="" lat="49.0640376" lon="12.0898168">
    <tag k="name" v="GreenOrange Bistro &amp; Snackbar"/>
    <tag k="wheelchair" v="yes"/>
    <tag k="addr:city" v="Lappersdorf"/>
    <tag k="addr:postcode" v="93138"/>
    <tag k="addr:housenumber" v="33"/>
    <tag k="addr:street" v="Regendorfer Str. "/>
    <tag k="wheelchair:description" v="Eingang mit Rollstuhlgerechter Auffahrt"/>
    <tag k="amenity" v="restaurant"/>
    <tag k="website" v="http://www.greenorange-bistro.de"/>
    <tag k="phone" v="0941 / 56816852"/>
  </node>
  <node id="-1642" version="0" timestamp="Fri Feb 24 10:53:33 +0100 2012" uid="1" user="" lat="49.01708" lon="12.09557">
    <tag k="name" v="ALB e.V."/>
    <tag k="wheelchair" v="yes"/>
    <tag k="addr:city" v="Regensburg"/>
    <tag k="addr:postcode" v="93047"/>
    <tag k="addr:housenumber" v="3"/>
    <tag k="addr:street" v="Rote-Stern-Gasse "/>
    <tag k="wheelchair:description" v="ISB-Dienst"/>
    <tag k="website" v="http://www.alb-regensburg.de"/>
    <tag k="phone" v="0941/562377"/>
  </node>
  <node id="-2477" version="0" timestamp="Fri Feb 24 10:53:34 +0100 2012" uid="1" user="" lat="48.9808797" lon="12.0678362">
    <tag k="name" v="Bäckerei Ebner Cafe und Drive in"/>
    <tag k="wheelchair" v="yes"/>
    <tag k="amenity" v="bank"/>
  </node>
  <node id="-2606" version="0" timestamp="Fri Feb 24 10:53:34 +0100 2012" uid="1" user="" lat="49.0192289" lon="12.0902371">
    <tag k="name" v="Mirabelle"/>
    <tag k="wheelchair" v="limited"/>
    <tag k="addr:city" v="Regensburg"/>
    <tag k="addr:postcode" v="93047"/>
    <tag k="addr:housenumber" v="11"/>
    <tag k="addr:street" v="Drei-Mohren Straße"/>
    <tag k="wheelchair:description" v="Toiletten im Keller (ohne Aufzug)"/>
    <tag k="amenity" v="restaurant"/>
    <tag k="phone" v="+49 941 5956550"/>
  </node>
  <node id="-2607" version="0" timestamp="Fri Feb 24 10:53:34 +0100 2012" uid="1" user="" lat="49.0070074" lon="12.0996671">
    <tag k="name" v="Cartoon"/>
    <tag k="wheelchair" v="yes"/>
    <tag k="addr:city" v="Regensburg"/>
    <tag k="addr:postcode" v="93053 "/>
    <tag k="addr:housenumber" v="20"/>
    <tag k="addr:street" v="Galgenbergstraße"/>
    <tag k="wheelchair:description" v="Ebenerdiger Hintereingang"/>
    <tag k="amenity" v="bar"/>
    <tag k="website" v="http://www.alte-maelzerei.de/de/gastro.php"/>
  </node>
  <node id="-2608" version="0" timestamp="Fri Feb 24 10:53:34 +0100 2012" uid="1" user="" lat="49.0035766" lon="12.0959587">
    <tag k="name" v="Mensa HS Regensburg"/>
    <tag k="wheelchair" v="yes"/>
    <tag k="amenity" v="restaurant"/>
  </node>
  <node id="-2609" version="0" timestamp="Fri Feb 24 10:53:34 +0100 2012" uid="1" user="" lat="49.0096367" lon="12.0820961">
    <tag k="shop" v="beverages"/>
    <tag k="name" v="Fristo Getrtänkemarkt"/>
    <tag k="wheelchair" v="yes"/>
  </node>
  <node id="-2619" version="0" timestamp="Fri Feb 24 10:53:34 +0100 2012" uid="1" user="" lat="49.57855" lon="11.68929">
    <tag k="name" v="Dr. Schmid Zahnarzt"/>
    <tag k="wheelchair" v="limited"/>
    <tag k="addr:city" v="Edelsfeld"/>
    <tag k="addr:postcode" v="92265"/>
    <tag k="addr:housenumber" v="14"/>
    <tag k="addr:street" v="Sigraser Straße"/>
    <tag k="wheelchair:description" v="Eingang und Räume barrierefrei, WC bedingt"/>
    <tag k="amenity" v="doctors"/>
  </node>
  <node id="-2626" version="0" timestamp="Fri Feb 24 10:53:34 +0100 2012" uid="1" user="" lat="49.0099326" lon="12.0875084">
    <tag k="name" v="Dr. Krieter (Zahnarzt)"/>
    <tag k="wheelchair" v="yes"/>
    <tag k="addr:city" v="Regensburg"/>
    <tag k="addr:postcode" v="93051"/>
    <tag k="addr:housenumber" v="30"/>
    <tag k="addr:street" v=" Kumpfmühler Straße"/>
    <tag k="wheelchair:description" v="Aufzug vorhanden, Praxis barrierefrei"/>
    <tag k="amenity" v="doctors"/>
    <tag k="website" v="http://www.dr-krieter.de"/>
    <tag k="phone" v="0941 55358"/>
  </node>
  <node id="-2642" version="0" timestamp="Fri Feb 24 10:53:34 +0100 2012" uid="1" user="" lat="49.00827" lon="12.08609">
    <tag k="name" v="Stadthotel"/>
    <tag k="wheelchair" v="no"/>
    <tag k="addr:city" v="Regensburg"/>
    <tag k="addr:postcode" v="93051"/>
    <tag k="tourism" v="hotel"/>
    <tag k="addr:street" v="Gutenbergstraße"/>
    <tag k="website" v="http://www.stadthotelinregensburg.de/"/>
    <tag k="phone" v="4917682165623"/>
  </node>
  <node id="-2936" version="0" timestamp="Fri Feb 24 10:53:34 +0100 2012" uid="1" user="" lat="49.2765902" lon="11.4651299">
    <tag k="shop" v="clothes"/>
    <tag k="name" v="GRAFIKERIA GmbH Werbeagentur Digitaldruck Werbemittel"/>
    <tag k="wheelchair" v="limited"/>
    <tag k="wheelchair:description" v="WC nicht rollstuhlgerecht, sonst barierefrei"/>
  </node>
  <node id="-3003" version="0" timestamp="Fri Feb 24 10:53:35 +0100 2012" uid="1" user="" lat="49.4484251" lon="11.8527812">
    <tag k="name" v="Parkdeck Kräuterwiese"/>
    <tag k="wheelchair" v="yes"/>
    <tag k="amenity" v="parking"/>
  </node>
  <node id="-3004" version="0" timestamp="Fri Feb 24 10:53:35 +0100 2012" uid="1" user="" lat="49.4360028" lon="11.8666491">
    <tag k="name" v="Öffentliche Toilette"/>
    <tag k="wheelchair" v="yes"/>
    <tag k="amenity" v="toilets"/>
  </node>
  <node id="-3678" version="0" timestamp="Fri Feb 24 10:53:35 +0100 2012" uid="1" user="" lat="49.0176633" lon="12.0734557">
    <tag k="name" v="Goethe-Gymnasium"/>
    <tag k="wheelchair" v="no"/>
    <tag k="addr:city" v="Regensburg"/>
    <tag k="addr:postcode" v="93049"/>
    <tag k="addr:housenumber" v="1"/>
    <tag k="addr:street" v="Goethestraße"/>
    <tag k="amenity" v="school"/>
  </node>
  <node id="-3856" version="0" timestamp="Fri Feb 24 10:53:35 +0100 2012" uid="1" user="" lat="49.0251299" lon="12.1328509">
    <tag k="name" v="Donau Arena"/>
    <tag k="wheelchair" v="yes"/>
    <tag k="addr:city" v="Regensburg"/>
    <tag k="addr:postcode" v="93059"/>
    <tag k="addr:housenumber" v="22"/>
    <tag k="addr:street" v="Walhalla Allee"/>
    <tag k="leisure" v="stadium"/>
    <tag k="website" v="http://www.donau-arena.de/"/>
  </node>
  <node id="-4309" version="0" timestamp="Fri Feb 24 10:53:36 +0100 2012" uid="1" user="" lat="49.2871319" lon="11.4457081">
    <tag k="shop" v="doityourself"/>
    <tag k="name" v="Toom"/>
    <tag k="wheelchair" v="yes"/>
    <tag k="addr:city" v="Neumarkt / OPf"/>
    <tag k="addr:postcode" v="92318"/>
    <tag k="addr:street" v="Nürnberger Str."/>
  </node>
  <node id="-4396" version="0" timestamp="Fri Feb 24 10:53:36 +0100 2012" uid="1" user="" lat="49.0166418" lon="12.1002889">
    <tag k="name" v="Rechtsanwältin Gudrun Fuchs "/>
    <tag k="wheelchair" v="limited"/>
    <tag k="addr:city" v="Regensburg"/>
    <tag k="addr:postcode" v="93047"/>
    <tag k="addr:housenumber" v="14"/>
    <tag k="addr:street" v="Maximilianstraße"/>
    <tag k="wheelchair:description" v="barrierefreier Zugang"/>
    <tag k="website" v="http://www.rain-fuchs.de"/>
    <tag k="phone" v="+49 941/561440"/>
    <tag k="office" v="lawyer"/>
  </node>
  <node id="-4491" version="0" timestamp="Fri Feb 24 10:53:36 +0100 2012" uid="1" user="" lat="49.279387" lon="11.4497576">
    <tag k="name" v="G6"/>
    <tag k="wheelchair" v="yes"/>
    <tag k="amenity" v="bank"/>
  </node>
  <node id="-4493" version="0" timestamp="Fri Feb 24 10:53:36 +0100 2012" uid="1" user="" lat="49.279387" lon="11.4497576">
    <tag k="name" v="G6"/>
    <tag k="wheelchair" v="yes"/>
    <tag k="amenity" v="community_center"/>
  </node>
  <node id="-4691" version="0" timestamp="Fri Feb 24 10:53:36 +0100 2012" uid="1" user="" lat="49.2089198" lon="11.7398429">
    <tag k="name" v="Samainhof Cafe / Sa-So Mittagstisch"/>
    <tag k="wheelchair" v="yes"/>
    <tag k="addr:city" v="Parsberg"/>
    <tag k="addr:postcode" v="92331"/>
    <tag k="addr:housenumber" v="16 a"/>
    <tag k="addr:street" v="Holzheim"/>
    <tag k="amenity" v="cafe"/>
    <tag k="phone" v="09492/60167/50"/>
  </node>
  <node id="-4692" version="0" timestamp="Fri Feb 24 10:53:36 +0100 2012" uid="1" user="" lat="49.20892" lon="11.73984">
    <tag k="name" v="Samainhof e.G. Ponyreiten"/>
    <tag k="wheelchair" v="yes"/>
    <tag k="addr:city" v="Parsberg"/>
    <tag k="addr:postcode" v="92331"/>
    <tag k="addr:housenumber" v="15-17"/>
    <tag k="tourism" v="theme_park"/>
    <tag k="addr:street" v="Holzheim"/>
    <tag k="wheelchair:description" v="Heilsames Reiten"/>
    <tag k="phone" v="09492/9549/0"/>
  </node>
  <node id="-4958" version="0" timestamp="Fri Feb 24 10:53:36 +0100 2012" uid="1" user="" lat="49.207457" lon="11.6478459">
    <tag k="name" v="Kneipenbühne O&apos;wei"/>
    <tag k="wheelchair" v="yes"/>
    <tag k="addr:city" v="Velburg"/>
    <tag k="addr:postcode" v="92355"/>
    <tag k="addr:housenumber" v="6"/>
    <tag k="addr:street" v="Pfarrweg"/>
    <tag k="wheelchair:description" v="Vorher telefonisch Bescheid sagen."/>
    <tag k="amenity" v="theatre"/>
    <tag k="website" v="http://www.kneipenbuehne.de/"/>
    <tag k="phone" v="+49 9182-450"/>
  </node>
  <node id="-5018" version="0" timestamp="Fri Feb 24 10:53:36 +0100 2012" uid="1" user="" lat="48.99301" lon="12.1365">
    <tag k="name" v="St. Franziskus Kirche"/>
    <tag k="wheelchair" v="yes"/>
    <tag k="addr:city" v="Regensburg / Burgweinting"/>
    <tag k="addr:postcode" v="93055"/>
    <tag k="addr:street" v="KIRCHFELDALLEE"/>
    <tag k="amenity" v="place_of_worship"/>
  </node>
  <node id="-5032" version="0" timestamp="Fri Feb 24 10:53:36 +0100 2012" uid="1" user="" lat="49.02431" lon="12.10023">
    <tag k="name" v="Andreasstadel"/>
    <tag k="wheelchair" v="yes"/>
    <tag k="addr:city" v="Regensburg"/>
    <tag k="addr:postcode" v="93059"/>
    <tag k="addr:housenumber" v="20"/>
    <tag k="addr:street" v="AndreasStr."/>
    <tag k="wheelchair:description" v="Kino Restaurant Ausstellungsraum"/>
    <tag k="amenity" v="cinema"/>
    <tag k="website" v="http://www.kinos-im-andreasstadel.de"/>
  </node>
  <node id="-5407" version="0" timestamp="Fri Feb 24 10:53:37 +0100 2012" uid="1" user="" lat="49.01872" lon="12.08534">
    <tag k="name" v="Santander Consumer Bank"/>
    <tag k="wheelchair" v="limited"/>
    <tag k="addr:city" v="Regensburg"/>
    <tag k="addr:postcode" v="93047"/>
    <tag k="addr:housenumber" v="5"/>
    <tag k="addr:street" v="Bismarckplatz"/>
    <tag k="amenity" v="bank"/>
    <tag k="website" v="http://www.santander.de"/>
  </node>
  <node id="-5468" version="0" timestamp="Fri Feb 24 10:53:37 +0100 2012" uid="1" user="" lat="49.5014" lon="11.74537">
    <tag k="name" v="Praxisgemeinschaft Physiotherapie M. Hüttner &amp; S.N. Turnhöfer"/>
    <tag k="wheelchair" v="limited"/>
    <tag k="addr:city" v="Sulzbach - Rosenberg"/>
    <tag k="addr:postcode" v="92237"/>
    <tag k="addr:housenumber" v="42-44"/>
    <tag k="addr:street" v="Rosenberger Str. "/>
    <tag k="wheelchair:description" v="Alles ohne Stufen nur WC normale Breite"/>
    <tag k="amenity" v="social_facility"/>
    <tag k="phone" v="9661 - 102290"/>
  </node>
  <node id="-5640" version="0" timestamp="Fri Feb 24 10:53:37 +0100 2012" uid="1" user="" lat="49.01333" lon="12.05184">
    <tag k="name" v="Dr. Hien"/>
    <tag k="wheelchair" v="yes"/>
    <tag k="addr:city" v="Regensburg"/>
    <tag k="addr:postcode" v="93049"/>
    <tag k="addr:housenumber" v="53"/>
    <tag k="addr:street" v="Franz-von-Taxis-Ring "/>
    <tag k="amenity" v="doctors"/>
  </node>
  <node id="-5641" version="0" timestamp="Fri Feb 24 10:53:37 +0100 2012" uid="1" user="" lat="49.0152585" lon="12.0446276">
    <tag k="shop" v="hairdresser"/>
    <tag k="name" v="Frisör"/>
    <tag k="wheelchair" v="no"/>
  </node>
</osm>
