<?xml version='1.0' encoding='UTF-8'?>
<osm version="0.6" generator="Osmosis 0.39">
  <node id="-11" version="0" timestamp="Fri Feb 24 10:53:32 +0100 2012" uid="1" user="" lat="48.27375" lon="12.15344">
    <tag k="name" v="Jugendzentrum"/>
    <tag k="wheelchair" v="limited"/>
    <tag k="wheelchair:description" v="Toiletten nur über enge Treppe erreichbar"/>
  </node>
  <node id="-16" version="0" timestamp="Fri Feb 24 10:53:32 +0100 2012" uid="1" user="" lat="48.0920884" lon="11.5483207">
    <tag k="natural" v="beach"/>
    <tag k="name" v="Badeplatz"/>
    <tag k="wheelchair" v="limited"/>
    <tag k="wheelchair:description" v="Isar, Barierefrei, bis ans Wasser, schmaler betonierter Weg."/>
  </node>
  <node id="-17" version="0" timestamp="Fri Feb 24 10:53:32 +0100 2012" uid="1" user="" lat="48.0963566" lon="11.5464308">
    <tag k="name" v="Schwimmbad Maria Einsiedel"/>
    <tag k="wheelchair" v="yes"/>
    <tag k="wheelchair:description" v="Weitläufige Anlage, barrierefreies WC, barrierefreies Becken, ohne Stufen ins Wasser, schönstes Freibad Münchens, schöne Gastronomie dabei "/>
    <tag k="amenity" v="swimming_pool"/>
  </node>
  <node id="-18" version="0" timestamp="Fri Feb 24 10:53:32 +0100 2012" uid="1" user="" lat="48.0983563" lon="11.5478425">
    <tag k="name" v="Biergarten"/>
    <tag k="wheelchair" v="limited"/>
    <tag k="wheelchair:description" v="WC nur über 3 Stufen, im Haus, WC großräumig"/>
    <tag k="amenity" v="restaurant"/>
  </node>
  <node id="-19" version="0" timestamp="Fri Feb 24 10:53:32 +0100 2012" uid="1" user="" lat="48.0336104" lon="11.5081436">
    <tag k="natural" v="beach"/>
    <tag k="name" v="Badeplatz Isar"/>
    <tag k="wheelchair" v="limited"/>
    <tag k="wheelchair:description" v="einsamer, naturnaher, Badeplatz, mit Assistenz über eine Wiese erreichbar, Isar sehr seicht, nicht bei Hochwasser, parken &quot;beim Kraftwerk&quot;"/>
  </node>
  <node id="-122" version="0" timestamp="Fri Feb 24 10:53:32 +0100 2012" uid="1" user="" lat="48.1498764" lon="11.5854496">
    <tag k="name" v="Milchhäusl"/>
    <tag k="wheelchair" v="limited"/>
    <tag k="wheelchair:description" v="Biergarten ohne Stufen, Haüsl selbst 1 Sufe"/>
    <tag k="amenity" v="cafe"/>
  </node>
  <node id="-123" version="0" timestamp="Fri Feb 24 10:53:32 +0100 2012" uid="1" user="" lat="48.15196" lon="11.5869381">
    <tag k="name" v="Chirurgische Tierklinik LMU"/>
    <tag k="wheelchair" v="yes"/>
    <tag k="wheelchair:description" v="Alles ebenerdig"/>
    <tag k="amenity" v="veterinary"/>
  </node>
  <node id="-124" version="0" timestamp="Fri Feb 24 10:53:32 +0100 2012" uid="1" user="" lat="48.1525541" lon="11.5876374">
    <tag k="name" v="Innere Tierklinik LMU"/>
    <tag k="wheelchair" v="no"/>
    <tag k="wheelchair:description" v="Treppe mit 5-6 Stufen, aber Zugang über Chirurgische TK möglich (anrufen!)"/>
    <tag k="amenity" v="veterinary"/>
  </node>
  <node id="-127" version="0" timestamp="Fri Feb 24 10:53:32 +0100 2012" uid="1" user="" lat="48.1502734" lon="11.5850163">
    <tag k="name" v="Campus Veterinärmedizin LMU"/>
    <tag k="wheelchair" v="no"/>
    <tag k="wheelchair:description" v="Kliniken barrierefrei (siehe Kliniken), die meisten Lehrgebäude aber nicht!"/>
    <tag k="amenity" v="university"/>
  </node>
  <node id="-128" version="0" timestamp="Fri Feb 24 10:53:32 +0100 2012" uid="1" user="" lat="48.1500564" lon="11.5837902">
    <tag k="shop" v="books"/>
    <tag k="name" v="Lehmanns"/>
    <tag k="wheelchair" v="limited"/>
    <tag k="wheelchair:description" v="1 Stufe"/>
  </node>
  <node id="-130" version="0" timestamp="Fri Feb 24 10:53:32 +0100 2012" uid="1" user="" lat="48.1498206" lon="11.5841037">
    <tag k="shop" v="kiosk"/>
    <tag k="name" v="Copyshop"/>
    <tag k="wheelchair" v="yes"/>
    <tag k="wheelchair:description" v="nur Türschwelle"/>
  </node>
  <node id="-131" version="0" timestamp="Fri Feb 24 10:53:32 +0100 2012" uid="1" user="" lat="48.1495808" lon="11.5836096">
    <tag k="name" v="Reptilienklinik LMU, Zoologie"/>
    <tag k="wheelchair" v="no"/>
    <tag k="wheelchair:description" v="Treppe mit 5-6 Stufen"/>
    <tag k="amenity" v="university"/>
  </node>
  <node id="-132" version="0" timestamp="Fri Feb 24 10:53:32 +0100 2012" uid="1" user="" lat="48.1492361" lon="11.5804493">
    <tag k="name" v="U Bahn Universität"/>
    <tag k="wheelchair" v="yes"/>
    <tag k="wheelchair:description" v="hier einziger rollstuhlgerechter Gleiszugang"/>
    <tag k="railway" v="subway_entrance"/>
  </node>
  <node id="-133" version="0" timestamp="Fri Feb 24 10:53:32 +0100 2012" uid="1" user="" lat="48.1499459" lon="11.5861998">
    <tag k="name" v="Englischer Garten"/>
    <tag k="wheelchair" v="yes"/>
    <tag k="tourism" v="theme_park"/>
    <tag k="wheelchair:description" v="komplett ebenerdig, z.T. Schotterwege"/>
  </node>
  <node id="-134" version="0" timestamp="Fri Feb 24 10:53:32 +0100 2012" uid="1" user="" lat="48.1563976" lon="11.5824529">
    <tag k="name" v="Mensa LMU"/>
    <tag k="wheelchair" v="no"/>
    <tag k="wheelchair:description" v="Bislang nicht, wird aber umgebaut (~Dez.11)"/>
    <tag k="amenity" v="restaurant"/>
  </node>
  <node id="-135" version="0" timestamp="Fri Feb 24 10:53:32 +0100 2012" uid="1" user="" lat="48.1502162" lon="11.5847925">
    <tag k="shop" v="bakery"/>
    <tag k="name" v="Bäckerei"/>
    <tag k="wheelchair" v="no"/>
    <tag k="wheelchair:description" v="1 Stufe &gt; 7cm"/>
  </node>
  <node id="-138" version="0" timestamp="Fri Feb 24 10:53:32 +0100 2012" uid="1" user="" lat="48.1516331" lon="11.5864604">
    <tag k="name" v="Pferdeklinik LMU"/>
    <tag k="wheelchair" v="limited"/>
    <tag k="wheelchair:description" v="ebenerdig, kein Rolli WC"/>
    <tag k="amenity" v="veterinary"/>
  </node>
  <node id="-174" version="0" timestamp="Fri Feb 24 10:53:32 +0100 2012" uid="1" user="" lat="48.1499173" lon="11.5840943">
    <tag k="name" v="ilove leo"/>
    <tag k="wheelchair" v="limited"/>
    <tag k="wheelchair:description" v="ebenerdig, kein Rolli WC"/>
    <tag k="amenity" v="cafe"/>
  </node>
  <node id="-300" version="0" timestamp="Fri Feb 24 10:53:32 +0100 2012" uid="1" user="" lat="48.1323396" lon="11.7063236">
    <tag k="name" v="Städtische Berufsschule für Rechts- und Verwaltungsberufe"/>
    <tag k="wheelchair" v="unknown"/>
    <tag k="addr:city" v="München"/>
    <tag k="addr:postcode" v="81829"/>
    <tag k="addr:housenumber" v="1"/>
    <tag k="addr:street" v="Astrid-Lindgren-Straße"/>
    <tag k="amenity" v="school"/>
    <tag k="website" v="http://www.bs-recht.musin.de/"/>
  </node>
  <node id="-301" version="0" timestamp="Fri Feb 24 10:53:32 +0100 2012" uid="1" user="" lat="48.130652" lon="11.7106967">
    <tag k="name" v="Aussichtspunkt Riemer Park"/>
    <tag k="wheelchair" v="yes"/>
    <tag k="tourism" v="viewpoint"/>
    <tag k="wheelchair:description" v="Am Südlichen Ende es Hügels befinden sich ein Serpentinenartig angelegter befestigter Weg "/>
  </node>
  <node id="-330" version="0" timestamp="Fri Feb 24 10:53:32 +0100 2012" uid="1" user="" lat="48.1257841" lon="11.5266966">
    <tag k="name" v="Hopfengarten"/>
    <tag k="wheelchair" v="yes"/>
    <tag k="wheelchair:description" v="biergarten mit rollitoilette, nach dem schlüssel fragen"/>
    <tag k="amenity" v="restaurant"/>
  </node>
  <node id="-341" version="0" timestamp="Fri Feb 24 10:53:32 +0100 2012" uid="1" user="" lat="48.0444859" lon="11.9605245">
    <tag k="name" v="Gymnasium Grafing"/>
    <tag k="wheelchair" v="limited"/>
    <tag k="addr:city" v="Grafing"/>
    <tag k="addr:postcode" v="85560"/>
    <tag k="addr:housenumber" v="17"/>
    <tag k="addr:street" v="Jahnstraße"/>
    <tag k="wheelchair:description" v="Altbau über Fahrstuhl im Hochbau befahrbar (ca. 3min/ nach Schlüssel vorher im Sekretariat fragen); Langbau sowie Turnhallen nicht rollstuhlgerecht"/>
    <tag k="amenity" v="school"/>
    <tag k="website" v="http://www.gymnasium-grafing.de"/>
  </node>
  <node id="-353" version="0" timestamp="Fri Feb 24 10:53:32 +0100 2012" uid="1" user="" lat="48.7154059" lon="11.493897">
    <tag k="shop" v="computer"/>
    <tag k="name" v="Druckshop - Tinte &amp; Toner"/>
    <tag k="wheelchair" v="limited"/>
    <tag k="addr:city" v="Manching"/>
    <tag k="addr:postcode" v="85077"/>
    <tag k="addr:housenumber" v="6"/>
    <tag k="addr:street" v="Bergstraße"/>
    <tag k="website" v="https://www.facebook.com/pages/Druckshop-Tinte-Toner/231966386819917"/>
    <tag k="phone" v="+49 8459 332032"/>
  </node>
  <node id="-527" version="0" timestamp="Fri Feb 24 10:53:32 +0100 2012" uid="1" user="" lat="48.7843569" lon="11.4818646">
    <tag k="shop" v="department_store"/>
    <tag k="name" v="Druck- und Werbezentrum"/>
    <tag k="wheelchair" v="yes"/>
    <tag k="addr:city" v="Ingolstadt"/>
    <tag k="addr:postcode" v="85055"/>
    <tag k="addr:housenumber" v="2"/>
    <tag k="addr:street" v="Otto-Hahn-Straße"/>
    <tag k="wheelchair:description" v="Abgesenkter Bordstein"/>
    <tag k="website" v="http://www.druck-werbe-zentrum.de"/>
    <tag k="phone" v="+49 841 45442930"/>
  </node>
  <node id="-565" version="0" timestamp="Fri Feb 24 10:53:32 +0100 2012" uid="1" user="" lat="47.94439" lon="12.75053">
    <tag k="name" v="Ferien Wohnung Strandcamping"/>
    <tag k="wheelchair" v="yes"/>
    <tag k="wheelchair:description" v="Teilweise auch Barrierfreie Wohnungen"/>
    <tag k="leisure" v="beach_resort"/>
  </node>
  <node id="-566" version="0" timestamp="Fri Feb 24 10:53:32 +0100 2012" uid="1" user="" lat="47.94325" lon="12.74709">
    <tag k="name" v="Strandcamping Wagin Rezeption"/>
    <tag k="wheelchair" v="yes"/>
    <tag k="tourism" v="caravan_site"/>
  </node>
  <node id="-579" version="0" timestamp="Fri Feb 24 10:53:32 +0100 2012" uid="1" user="" lat="48.1103561" lon="11.7832992">
    <tag k="name" v="Stadion des SC Baldham Vaterstetten"/>
    <tag k="wheelchair" v="yes"/>
    <tag k="leisure" v="stadium"/>
    <tag k="website" v="http://www.scbaldham.de"/>
  </node>
  <node id="-594" version="0" timestamp="Fri Feb 24 10:53:32 +0100 2012" uid="1" user="" lat="48.2617586" lon="11.6712338">
    <tag k="name" v="Max-Planck-Institut für extraterrestrische Physik"/>
    <tag k="wheelchair" v="yes"/>
    <tag k="wheelchair:description" v="ziemlich lange Wege zwischen Aufzug, WC und Aus-/Eingang"/>
    <tag k="amenity" v="college"/>
  </node>
  <node id="-595" version="0" timestamp="Fri Feb 24 10:53:32 +0100 2012" uid="1" user="" lat="48.145659" lon="11.5464613">
    <tag k="name" v="Berufsschule für Fertigungstechnik Deroystraße"/>
    <tag k="wheelchair" v="no"/>
    <tag k="amenity" v="school"/>
  </node>
  <node id="-599" version="0" timestamp="Fri Feb 24 10:53:32 +0100 2012" uid="1" user="" lat="48.14764" lon="11.46236">
    <tag k="shop" v="clothes"/>
    <tag k="name" v=" Chicas Boardshop - Boardshop für Ladies und Girls"/>
    <tag k="wheelchair" v="no"/>
    <tag k="addr:city" v="München"/>
    <tag k="addr:postcode" v="81241"/>
    <tag k="addr:housenumber" v="3"/>
    <tag k="addr:street" v="Am Schützeneck 3"/>
    <tag k="website" v="http://www.chicas-boardshop.de/"/>
    <tag k="phone" v="+498923684263"/>
  </node>
  <node id="-601" version="0" timestamp="Fri Feb 24 10:53:32 +0100 2012" uid="1" user="" lat="48.144004" lon="11.5547197">
    <tag k="name" v="Bayerischer Rundfunk"/>
    <tag k="wheelchair" v="no"/>
    <tag k="addr:city" v="München"/>
    <tag k="addr:postcode" v="80335"/>
    <tag k="addr:housenumber" v="1"/>
    <tag k="addr:street" v="Rundfunkplatz"/>
    <tag k="wheelchair:description" v="zwei Stufen (kleine Treppe)"/>
    <tag k="website" v="http://www.br-online.de"/>
    <tag k="phone" v="089590001"/>
  </node>
  <node id="-602" version="0" timestamp="Fri Feb 24 10:53:32 +0100 2012" uid="1" user="" lat="48.1427732" lon="11.5536393">
    <tag k="name" v="Bayerischer Rundfunk"/>
    <tag k="wheelchair" v="yes"/>
    <tag k="addr:city" v="München"/>
    <tag k="addr:postcode" v="80335"/>
    <tag k="addr:housenumber" v="4"/>
    <tag k="addr:street" v="Arnulfstraße"/>
    <tag k="wheelchair:description" v="Klingel + Automatiktür (nicht die Drehtür)"/>
    <tag k="website" v="http://www.br-online.de"/>
    <tag k="phone" v="089590001"/>
  </node>
  <node id="-684" version="0" timestamp="Fri Feb 24 10:53:32 +0100 2012" uid="1" user="" lat="48.1563885" lon="11.7604523">
    <tag k="name" v="High-east Kletterhallen GmbH"/>
    <tag k="wheelchair" v="no"/>
    <tag k="addr:city" v="Kirchheim bei München"/>
    <tag k="addr:postcode" v="85551"/>
    <tag k="addr:housenumber" v="2"/>
    <tag k="addr:street" v="Sonnenallee"/>
    <tag k="wheelchair:description" v="Eingang ca. 6 Treppenstufen"/>
    <tag k="leisure" v="sports_centre"/>
    <tag k="website" v="http://www.high-east.de/"/>
    <tag k="phone" v="+49 89 92794796"/>
  </node>
  <node id="-686" version="0" timestamp="Fri Feb 24 10:53:32 +0100 2012" uid="1" user="" lat="48.1628371" lon="11.7244406">
    <tag k="name" v="Wasserski Eventpark Aschheim"/>
    <tag k="wheelchair" v="limited"/>
    <tag k="tourism" v="attraction"/>
    <tag k="website" v="http://www.wasserskipark-aschheim.de/"/>
    <tag k="phone" v="+49 89 90019600"/>
  </node>
  <node id="-691" version="0" timestamp="Fri Feb 24 10:53:32 +0100 2012" uid="1" user="" lat="48.1440094" lon="11.5547325">
    <tag k="name" v="Bayerischer Rundfunk"/>
    <tag k="wheelchair" v="no"/>
    <tag k="addr:city" v="München"/>
    <tag k="addr:postcode" v="80335"/>
    <tag k="addr:housenumber" v="1"/>
    <tag k="addr:street" v="Rundfunkplatz"/>
    <tag k="wheelchair:description" v="Zwei Stufen (kleine Treppe)"/>
    <tag k="website" v="http://www.br-online.de"/>
    <tag k="phone" v="089590001"/>
  </node>
  <node id="-692" version="0" timestamp="Fri Feb 24 10:53:32 +0100 2012" uid="1" user="" lat="48.1427276" lon="11.5537297">
    <tag k="name" v="Bayerischer Rundfunk"/>
    <tag k="wheelchair" v="yes"/>
    <tag k="addr:city" v="München"/>
    <tag k="addr:postcode" v="80335"/>
    <tag k="addr:housenumber" v="42"/>
    <tag k="addr:street" v="Arnulfstraße"/>
    <tag k="wheelchair:description" v="Automatiktür + Klingel"/>
    <tag k="website" v="http://www.br-online.de"/>
    <tag k="phone" v="089590001"/>
  </node>
  <node id="-772" version="0" timestamp="Fri Feb 24 10:53:32 +0100 2012" uid="1" user="" lat="48.76418" lon="11.42764">
    <tag k="shop" v="clothes"/>
    <tag k="name" v="Galeria Kaufhof"/>
    <tag k="wheelchair" v="yes"/>
    <tag k="wheelchair:description" v="WC, Restaurant, Lift"/>
  </node>
  <node id="-804" version="0" timestamp="Fri Feb 24 10:53:32 +0100 2012" uid="1" user="" lat="48.15349" lon="11.51153">
    <tag k="shop" v="hairdresser"/>
    <tag k="name" v="Tarakei"/>
    <tag k="wheelchair" v="yes"/>
    <tag k="addr:city" v="München"/>
    <tag k="addr:postcode" v="80639"/>
    <tag k="addr:housenumber" v="105"/>
    <tag k="addr:street" v="Wotanstraße"/>
  </node>
  <node id="-808" version="0" timestamp="Fri Feb 24 10:53:32 +0100 2012" uid="1" user="" lat="48.1319372" lon="11.5712886">
    <tag k="name" v="Santo Anger Punkrock Pizzeria"/>
    <tag k="wheelchair" v="yes"/>
    <tag k="addr:city" v="München"/>
    <tag k="addr:postcode" v="80331"/>
    <tag k="addr:housenumber" v="25"/>
    <tag k="addr:street" v="Blumenstr."/>
    <tag k="amenity" v="restaurant"/>
    <tag k="website" v="http://www.santoanger.de/"/>
    <tag k="phone" v="+49 89 25547688"/>
  </node>
  <node id="-880" version="0" timestamp="Fri Feb 24 10:53:32 +0100 2012" uid="1" user="" lat="47.7185135" lon="11.7230313">
    <tag k="name" v="Wandelhalle"/>
    <tag k="wheelchair" v="limited"/>
    <tag k="addr:city" v="Bad Wiessee"/>
    <tag k="addr:postcode" v="83707"/>
    <tag k="addr:housenumber" v="37-47"/>
    <tag k="addr:street" v="Adrian-Stoop-Str."/>
    <tag k="wheelchair:description" v="Eine Stufe am Eingang; Keine Behindertengerechte Toilette vorhanden;"/>
    <tag k="amenity" v="townhall"/>
    <tag k="website" v="http://www.wandelhalle-tegernsee.de"/>
  </node>
  <node id="-881" version="0" timestamp="Fri Feb 24 10:53:32 +0100 2012" uid="1" user="" lat="47.7269049" lon="11.7168381">
    <tag k="name" v="Spielbank Bad Wiessee"/>
    <tag k="wheelchair" v="yes"/>
    <tag k="amenity" v="nightclub"/>
    <tag k="website" v="http://www.spielbanken-bayern.de/wDeutsch/wiessee/index.php"/>
  </node>
  <node id="-882" version="0" timestamp="Fri Feb 24 10:53:32 +0100 2012" uid="1" user="" lat="47.7075361" lon="11.7462714">
    <tag k="name" v="Tegernsee Schifffahrt"/>
    <tag k="wheelchair" v="yes"/>
    <tag k="tourism" v="attraction"/>
    <tag k="wheelchair:description" v="Die Schiffe MS TEGERNSEE und MS ROTTACH-EGERN sind behindertengerecht (inklusive Toilette)"/>
  </node>
  <node id="-883" version="0" timestamp="Fri Feb 24 10:53:32 +0100 2012" uid="1" user="" lat="48.1750905" lon="11.5500239">
    <tag k="name" v="Olympiahalle"/>
    <tag k="wheelchair" v="limited"/>
    <tag k="wheelchair:description" v="Kein Zugang zum Innenraum; Die Rollstuhlplätze sind nur ganz oben;"/>
    <tag k="leisure" v="arena"/>
    <tag k="website" v="http://www.olympiapark.de/"/>
  </node>
  <node id="-884" version="0" timestamp="Fri Feb 24 10:53:32 +0100 2012" uid="1" user="" lat="48.1744519" lon="11.5537419">
    <tag k="name" v="Olympiaturm"/>
    <tag k="wheelchair" v="yes"/>
    <tag k="tourism" v="viewpoint"/>
    <tag k="website" v="http://www.olympiapark.de/"/>
  </node>
  <node id="-885" version="0" timestamp="Fri Feb 24 10:53:32 +0100 2012" uid="1" user="" lat="48.1747619" lon="11.557146">
    <tag k="name" v="Olympia Eissportstadion"/>
    <tag k="wheelchair" v="yes"/>
    <tag k="wheelchair:description" v="Schöne Rollstuhlplätze"/>
    <tag k="leisure" v="arena"/>
    <tag k="website" v="http://www.olympiapark.de/"/>
  </node>
  <node id="-887" version="0" timestamp="Fri Feb 24 10:53:32 +0100 2012" uid="1" user="" lat="48.1730601" lon="11.5455268">
    <tag k="name" v="Olympiastadion"/>
    <tag k="wheelchair" v="yes"/>
    <tag k="wheelchair:description" v="Der Zugang für Rollstuhlfahrer in das Olympiastadion befindet sich an der Süd-West-Seite und geht durch das kleine Marathontor. Die Plätze befinden sich direkt am Spielfeldrand rechts der Haupttribüne."/>
    <tag k="leisure" v="arena"/>
    <tag k="website" v="http://www.olympiapark.de/"/>
  </node>
  <node id="-888" version="0" timestamp="Fri Feb 24 10:53:32 +0100 2012" uid="1" user="" lat="48.170842" lon="11.5411584">
    <tag k="name" v="Rollstuhlparkplätze / Olympiastadion"/>
    <tag k="wheelchair" v="yes"/>
    <tag k="amenity" v="parking"/>
  </node>
  <node id="-889" version="0" timestamp="Fri Feb 24 10:53:32 +0100 2012" uid="1" user="" lat="48.1751946" lon="11.5549107">
    <tag k="name" v="Rollstuhlparkplätze"/>
    <tag k="wheelchair" v="yes"/>
    <tag k="amenity" v="parking"/>
  </node>
  <node id="-890" version="0" timestamp="Fri Feb 24 10:53:32 +0100 2012" uid="1" user="" lat="48.1752623" lon="11.5583607">
    <tag k="name" v="Rollstuhlparkplätze"/>
    <tag k="wheelchair" v="yes"/>
    <tag k="amenity" v="parking"/>
  </node>
  <node id="-893" version="0" timestamp="Fri Feb 24 10:53:32 +0100 2012" uid="1" user="" lat="48.1773595" lon="11.5563266">
    <tag k="name" v="BMW Welt"/>
    <tag k="wheelchair" v="yes"/>
    <tag k="tourism" v="attraction"/>
    <tag k="website" v="http://www.bmw-welt.com"/>
  </node>
  <node id="-910" version="0" timestamp="Fri Feb 24 10:53:33 +0100 2012" uid="1" user="" lat="48.15" lon="11.5833">
    <tag k="name" v="Legends of Rock"/>
    <tag k="wheelchair" v="yes"/>
    <tag k="addr:city" v="Olching"/>
    <tag k="addr:postcode" v="82140"/>
    <tag k="addr:housenumber" v="1"/>
    <tag k="addr:street" v="Ilzweg "/>
    <tag k="wheelchair:description" v="Aufzug direkt in den Rockclub (Keller)"/>
    <tag k="amenity" v="nightclub"/>
    <tag k="website" v="http://www.fantasy-rock.de/"/>
  </node>
  <node id="-918" version="0" timestamp="Fri Feb 24 10:53:33 +0100 2012" uid="1" user="" lat="48.1595662" lon="11.5835934">
    <tag k="shop" v="shoes"/>
    <tag k="name" v="Vans Store Munich"/>
    <tag k="wheelchair" v="yes"/>
    <tag k="addr:city" v="München"/>
    <tag k="addr:postcode" v="80801"/>
    <tag k="addr:housenumber" v="9"/>
    <tag k="addr:street" v="Hohenzollernstraße"/>
    <tag k="website" v="Http://www.vans.com"/>
    <tag k="phone" v="+49 89 33019526"/>
  </node>
  <node id="-1085" version="0" timestamp="Fri Feb 24 10:53:33 +0100 2012" uid="1" user="" lat="48.0954164" lon="11.5260892">
    <tag k="name" v="Restaurant HU"/>
    <tag k="wheelchair" v="yes"/>
    <tag k="wheelchair:description" v="Aufzug zum 1.OG, behindertengerechte Toilette"/>
    <tag k="amenity" v="restaurant"/>
    <tag k="website" v="http://www.restauranthu.de/"/>
  </node>
  <node id="-1152" version="0" timestamp="Fri Feb 24 10:53:33 +0100 2012" uid="1" user="" lat="48.77041" lon="11.42732">
    <tag k="name" v="Johann-Nepomuk-von-Kurz-Schule (Förderschule mit dem Förderschwerpunkt körperliche und motorische Entwicklung)"/>
    <tag k="wheelchair" v="yes"/>
    <tag k="addr:city" v="Ingolstadt"/>
    <tag k="addr:postcode" v="85049"/>
    <tag k="addr:housenumber" v="20"/>
    <tag k="addr:street" v="Elbrachtstraße"/>
    <tag k="amenity" v="school"/>
    <tag k="website" v="http://www.jnvk.de"/>
    <tag k="phone" v="084193850"/>
  </node>
  <node id="-1195" version="0" timestamp="Fri Feb 24 10:53:33 +0100 2012" uid="1" user="" lat="48.1383188" lon="11.5666905">
    <tag k="name" v="Jugendinformationszentrum München"/>
    <tag k="wheelchair" v="yes"/>
    <tag k="addr:city" v="München"/>
    <tag k="addr:postcode" v="80331"/>
    <tag k="addr:housenumber" v="24"/>
    <tag k="addr:street" v="Herzogspitalstraße"/>
    <tag k="wheelchair:description" v="Eingang ebenerdig, keine Stufen. Toilettenbenutzung für Rollifahrer schwierig."/>
    <tag k="website" v="http://www.jiz-muenchen.de"/>
    <tag k="phone" v="0049 (0) 89 550 521 550"/>
  </node>
  <node id="-1211" version="0" timestamp="Fri Feb 24 10:53:33 +0100 2012" uid="1" user="" lat="48.1368791" lon="11.5796773">
    <tag k="name" v="Mandarin China Restaurant"/>
    <tag k="wheelchair" v="limited"/>
    <tag k="addr:city" v="München"/>
    <tag k="addr:postcode" v="80331"/>
    <tag k="addr:housenumber" v="21"/>
    <tag k="addr:street" v="Ledererstraße"/>
    <tag k="wheelchair:description" v="Keine Behindertentoilette"/>
    <tag k="amenity" v="restaurant"/>
    <tag k="phone" v="+49 89 226888"/>
  </node>
  <node id="-1231" version="0" timestamp="Fri Feb 24 10:53:33 +0100 2012" uid="1" user="" lat="47.6348222" lon="13.0109776">
    <tag k="name" v="Watzmanntherme"/>
    <tag k="wheelchair" v="yes"/>
    <tag k="amenity" v="swimming_pool"/>
  </node>
  <node id="-1232" version="0" timestamp="Fri Feb 24 10:53:33 +0100 2012" uid="1" user="" lat="47.7681261" lon="12.75085">
    <tag k="name" v="Bayerischer Hof"/>
    <tag k="wheelchair" v="yes"/>
    <tag k="amenity" v="restaurant"/>
  </node>
  <node id="-1233" version="0" timestamp="Fri Feb 24 10:53:33 +0100 2012" uid="1" user="" lat="47.7812843" lon="12.7529988">
    <tag k="name" v="Hutterer"/>
    <tag k="wheelchair" v="limited"/>
    <tag k="wheelchair:description" v="Teilweise"/>
    <tag k="amenity" v="restaurant"/>
  </node>
  <node id="-1257" version="0" timestamp="Fri Feb 24 10:53:33 +0100 2012" uid="1" user="" lat="47.7502049" lon="11.735129">
    <tag k="name" v="Raiffeisenbank Gmund am Tegernsee eG"/>
    <tag k="wheelchair" v="limited"/>
    <tag k="addr:city" v="Gmund"/>
    <tag k="addr:postcode" v="83703"/>
    <tag k="addr:housenumber" v="16"/>
    <tag k="addr:street" v="Wiesseer Str."/>
    <tag k="wheelchair:description" v="Zugang eben, Aufzug vorhanden, keine rollstuhlgerechte Toilette"/>
    <tag k="amenity" v="bank"/>
  </node>
  <node id="-1258" version="0" timestamp="Fri Feb 24 10:53:33 +0100 2012" uid="1" user="" lat="47.712985" lon="11.7248313">
    <tag k="name" v="Raiffeisenbank Gmund am Tegernsee eG"/>
    <tag k="wheelchair" v="limited"/>
    <tag k="addr:city" v="Bad Wiessee"/>
    <tag k="addr:postcode" v="83707"/>
    <tag k="addr:housenumber" v="9"/>
    <tag k="addr:street" v="Lindenplatz "/>
    <tag k="wheelchair:description" v="Rampe vorhanden, keine rollstuhlgerechte Toilette"/>
    <tag k="amenity" v="bank"/>
  </node>
  <node id="-1261" version="0" timestamp="Fri Feb 24 10:53:33 +0100 2012" uid="1" user="" lat="47.6887344" lon="11.768625">
    <tag k="name" v="Raiffeisenbank Gmund am Tegernsee eG"/>
    <tag k="wheelchair" v="limited"/>
    <tag k="addr:city" v="Rottach-Egern"/>
    <tag k="addr:postcode" v="83700"/>
    <tag k="addr:housenumber" v="7"/>
    <tag k="addr:street" v="Südl. Hauptstr. "/>
    <tag k="wheelchair:description" v="Zugang eben, keine rollstuhlgerechte Toilette"/>
    <tag k="amenity" v="bank"/>
  </node>
  <node id="-1262" version="0" timestamp="Fri Feb 24 10:53:33 +0100 2012" uid="1" user="" lat="47.7098647" lon="11.7573581">
    <tag k="name" v="Raiffeisenbank Gmund am Tegernsee eG"/>
    <tag k="wheelchair" v="limited"/>
    <tag k="addr:city" v="Tegernsee"/>
    <tag k="addr:postcode" v="83684"/>
    <tag k="addr:housenumber" v="1"/>
    <tag k="addr:street" v="Steinmetzplatz"/>
    <tag k="wheelchair:description" v="Zugang eben, keine rollstuhlgerechte Toilette"/>
    <tag k="amenity" v="bank"/>
  </node>
  <node id="-1266" version="0" timestamp="Fri Feb 24 10:53:33 +0100 2012" uid="1" user="" lat="47.7506651" lon="11.8397867">
    <tag k="name" v="Raiffeisenbank im Oberland eG"/>
    <tag k="wheelchair" v="unknown"/>
    <tag k="amenity" v="bank"/>
  </node>
  <node id="-1272" version="0" timestamp="Fri Feb 24 10:53:33 +0100 2012" uid="1" user="" lat="48.1434391" lon="11.5751198">
    <tag k="name" v="Carlton"/>
    <tag k="wheelchair" v="limited"/>
    <tag k="wheelchair:description" v="Aussenbereich ist rolligerecht"/>
    <tag k="amenity" v="restaurant"/>
  </node>
  <node id="-1278" version="0" timestamp="Fri Feb 24 10:53:33 +0100 2012" uid="1" user="" lat="48.891908" lon="11.1845475">
    <tag k="name" v="Öffentliche Toilette"/>
    <tag k="wheelchair" v="yes"/>
    <tag k="addr:city" v="Eichstätt"/>
    <tag k="addr:postcode" v="85072"/>
    <tag k="addr:street" v="Domplatz"/>
    <tag k="amenity" v="toilets"/>
  </node>
  <node id="-1280" version="0" timestamp="Fri Feb 24 10:53:33 +0100 2012" uid="1" user="" lat="48.8937006" lon="11.1814255">
    <tag k="name" v="Öffentliche Toilette"/>
    <tag k="wheelchair" v="yes"/>
    <tag k="addr:city" v="Eichstätt"/>
    <tag k="addr:postcode" v="85072"/>
    <tag k="wheelchair:description" v="Euroschlüssel"/>
    <tag k="amenity" v="toilets"/>
  </node>
  <node id="-1283" version="0" timestamp="Fri Feb 24 10:53:33 +0100 2012" uid="1" user="" lat="48.8912741" lon="11.1840303">
    <tag k="name" v="Toilette"/>
    <tag k="wheelchair" v="no"/>
    <tag k="wheelchair:description" v="Liegt im Treppenhaus d. Museum kein Aufzug"/>
    <tag k="amenity" v="toilets"/>
  </node>
  <node id="-1418" version="0" timestamp="Fri Feb 24 10:53:33 +0100 2012" uid="1" user="" lat="48.14944" lon="11.41505">
    <tag k="name" v="Dr. med. Michael Drescher, Internist"/>
    <tag k="wheelchair" v="no"/>
    <tag k="addr:city" v="München"/>
    <tag k="addr:postcode" v="81249"/>
    <tag k="addr:housenumber" v="68"/>
    <tag k="addr:street" v="Wiesentfelser Straße"/>
    <tag k="wheelchair:description" v="leider zwei längere Treppen, aberv Aufzug ist geplant"/>
    <tag k="amenity" v="doctors"/>
  </node>
  <node id="-1683" version="0" timestamp="Fri Feb 24 10:53:33 +0100 2012" uid="1" user="" lat="48.0759798" lon="11.9534942">
    <tag k="shop" v="supermarket"/>
    <tag k="name" v="Edeka Peschl"/>
    <tag k="wheelchair" v="yes"/>
    <tag k="addr:city" v="Steinhöring"/>
  </node>
  <node id="-1684" version="0" timestamp="Fri Feb 24 10:53:33 +0100 2012" uid="1" user="" lat="48.0763994" lon="11.955389">
    <tag k="shop" v="supermarket"/>
    <tag k="name" v="ALDI SÜD"/>
    <tag k="wheelchair" v="yes"/>
    <tag k="addr:city" v="Ebersberg"/>
  </node>
  <node id="-1685" version="0" timestamp="Fri Feb 24 10:53:33 +0100 2012" uid="1" user="" lat="48.0803565" lon="11.9640389">
    <tag k="name" v="Hauptschule Ebersberg"/>
    <tag k="wheelchair" v="yes"/>
    <tag k="addr:city" v="Ebersberg"/>
    <tag k="addr:street" v="Baldestr"/>
    <tag k="amenity" v="school"/>
  </node>
  <node id="-1686" version="0" timestamp="Fri Feb 24 10:53:33 +0100 2012" uid="1" user="" lat="48.0805237" lon="11.9642939">
    <tag k="name" v="Hallenbad Ebersberg"/>
    <tag k="wheelchair" v="yes"/>
    <tag k="addr:city" v="Ebersberg"/>
    <tag k="amenity" v="swimming_pool"/>
  </node>
  <node id="-1687" version="0" timestamp="Fri Feb 24 10:53:33 +0100 2012" uid="1" user="" lat="48.0836061" lon="11.9648857">
    <tag k="name" v="Familienbad Klostersee"/>
    <tag k="wheelchair" v="yes"/>
    <tag k="addr:city" v="Ebersberg"/>
    <tag k="amenity" v="swimming_pool"/>
  </node>
  <node id="-1701" version="0" timestamp="Fri Feb 24 10:53:33 +0100 2012" uid="1" user="" lat="48.0841117" lon="11.9654962">
    <tag k="name" v="Familienbad Klostersee"/>
    <tag k="wheelchair" v="yes"/>
    <tag k="addr:city" v="Ebersberg"/>
    <tag k="amenity" v="parking"/>
  </node>
  <node id="-1706" version="0" timestamp="Fri Feb 24 10:53:33 +0100 2012" uid="1" user="" lat="48.0464972" lon="11.9722979">
    <tag k="name" v="Siebenten-Tags-Adventisten Gemeinde"/>
    <tag k="wheelchair" v="limited"/>
    <tag k="addr:city" v="Grafing"/>
    <tag k="amenity" v="place_of_worship"/>
  </node>
  <node id="-1708" version="0" timestamp="Fri Feb 24 10:53:33 +0100 2012" uid="1" user="" lat="48.0440454" lon="11.9649378">
    <tag k="name" v="Evangelische Kirche"/>
    <tag k="wheelchair" v="limited"/>
    <tag k="addr:city" v="Grafing"/>
    <tag k="amenity" v="place_of_worship"/>
  </node>
  <node id="-1709" version="0" timestamp="Fri Feb 24 10:53:33 +0100 2012" uid="1" user="" lat="48.0433052" lon="11.9629935">
    <tag k="name" v="Scheißhaus"/>
    <tag k="wheelchair" v="limited"/>
    <tag k="addr:city" v="Grafing"/>
    <tag k="amenity" v="toilets"/>
  </node>
  <node id="-1883" version="0" timestamp="Fri Feb 24 10:53:33 +0100 2012" uid="1" user="" lat="48.1682777" lon="11.632479">
    <tag k="shop" v="bakery"/>
    <tag k="name" v="Rackls Backstube"/>
    <tag k="wheelchair" v="yes"/>
    <tag k="addr:city" v="München"/>
    <tag k="addr:postcode" v="81925"/>
    <tag k="addr:housenumber" v="5"/>
    <tag k="addr:street" v="Hochstiftsweg "/>
  </node>
  <node id="-2079" version="0" timestamp="Fri Feb 24 10:53:34 +0100 2012" uid="1" user="" lat="48.1723472" lon="11.2294207">
    <tag k="name" v="Cafe Bistro Bruck"/>
    <tag k="wheelchair" v="limited"/>
    <tag k="addr:city" v="Fürstenfeldbruck"/>
    <tag k="addr:postcode" v="82256"/>
    <tag k="addr:housenumber" v="75"/>
    <tag k="addr:street" v="Rothschwaiger Straße"/>
    <tag k="wheelchair:description" v="Barrierefreier Zugang, viel Platz, keine Rolli-Toiletten"/>
    <tag k="amenity" v="cafe"/>
    <tag k="phone" v="+49 8141 62537-80"/>
  </node>
  <node id="-2183" version="0" timestamp="Fri Feb 24 10:53:34 +0100 2012" uid="1" user="" lat="48.1462993" lon="11.7841573">
    <tag k="name" v="Behindertenparkplätze"/>
    <tag k="wheelchair" v="yes"/>
    <tag k="wheelchair:description" v="Behindertenparkplätze sind im Untergeschoß des Parkdecks"/>
    <tag k="amenity" v="parking"/>
  </node>
  <node id="-2186" version="0" timestamp="Fri Feb 24 10:53:34 +0100 2012" uid="1" user="" lat="48.1461819" lon="11.7852007">
    <tag k="shop" v="furniture"/>
    <tag k="name" v="Möbelhaus Segmüller"/>
    <tag k="wheelchair" v="yes"/>
    <tag k="addr:city" v="Parsdorf"/>
    <tag k="addr:postcode" v="85599"/>
    <tag k="addr:housenumber" v="10"/>
    <tag k="addr:street" v="Heimstettener Straße"/>
    <tag k="wheelchair:description" v="Behindertentoiletten sind vorhanden; "/>
    <tag k="website" v="http://www.segmueller.de"/>
  </node>
  <node id="-2207" version="0" timestamp="Fri Feb 24 10:53:34 +0100 2012" uid="1" user="" lat="48.6042535" lon="11.6280954">
    <tag k="name" v="Deutsches Hopfenmuseum"/>
    <tag k="wheelchair" v="yes"/>
    <tag k="addr:city" v="Wonzlach"/>
    <tag k="addr:postcode" v="85283"/>
    <tag k="addr:housenumber" v="2"/>
    <tag k="tourism" v="museum"/>
    <tag k="addr:street" v="Elsenheimerstraße"/>
    <tag k="website" v="http://www.hopfenmuseum.de"/>
  </node>
  <node id="-2226" version="0" timestamp="Fri Feb 24 10:53:34 +0100 2012" uid="1" user="" lat="48.4009" lon="11.74446">
    <tag k="name" v="Kathi´s Steakhaus"/>
    <tag k="wheelchair" v="limited"/>
    <tag k="addr:city" v="Freising"/>
    <tag k="addr:postcode" v="85354"/>
    <tag k="addr:housenumber" v=" 6"/>
    <tag k="addr:street" v="Angerbadergasse"/>
    <tag k="wheelchair:description" v="Man braucht Hilfe beim Eingang. Es gibt keine Rollstuhltoilette"/>
    <tag k="amenity" v="restaurant"/>
  </node>
  <node id="-2228" version="0" timestamp="Fri Feb 24 10:53:34 +0100 2012" uid="1" user="" lat="48.4009" lon="11.74349">
    <tag k="name" v="Echinger Bahnhof "/>
    <tag k="wheelchair" v="no"/>
    <tag k="addr:city" v="Eching"/>
    <tag k="addr:postcode" v="85386"/>
    <tag k="railway" v="platform"/>
  </node>
  <node id="-2232" version="0" timestamp="Fri Feb 24 10:53:34 +0100 2012" uid="1" user="" lat="48.0888065" lon="11.9615924">
    <tag k="name" v="Ebersberger Alm"/>
    <tag k="wheelchair" v="limited"/>
    <tag k="addr:city" v="Ebersberg"/>
    <tag k="addr:postcode" v="85560"/>
    <tag k="addr:housenumber" v="3"/>
    <tag k="addr:street" v="Ludwigshöhe"/>
    <tag k="wheelchair:description" v="Die Rampe zum Eingang ist sehr steil"/>
    <tag k="amenity" v="restaurant"/>
    <tag k="website" v="http://www.ebersberger-alm.de/"/>
  </node>
  <node id="-2236" version="0" timestamp="Fri Feb 24 10:53:34 +0100 2012" uid="1" user="" lat="48.2479614" lon="12.5194534">
    <tag k="name" v="Bahnhof Mührldorf am Inn"/>
    <tag k="wheelchair" v="yes"/>
    <tag k="wheelchair:description" v="Vor dem Bahnhof ein paar kleine Kanten aber mit dem rollstuhl gut erreichbar"/>
    <tag k="railway" v="platform"/>
  </node>
  <node id="-2237" version="0" timestamp="Fri Feb 24 10:53:34 +0100 2012" uid="1" user="" lat="48.2470064" lon="12.5204291">
    <tag k="shop" v="clothes"/>
    <tag k="name" v="Jeans Halle "/>
    <tag k="wheelchair" v="limited"/>
    <tag k="wheelchair:description" v="Im Eingangsbereich stufen"/>
  </node>
  <node id="-2238" version="0" timestamp="Fri Feb 24 10:53:34 +0100 2012" uid="1" user="" lat="48.2469329" lon="12.5062889">
    <tag k="name" v="FTZ Mühldorf"/>
    <tag k="wheelchair" v="limited"/>
    <tag k="leisure" v="sports_centre"/>
  </node>
  <node id="-2239" version="0" timestamp="Fri Feb 24 10:53:34 +0100 2012" uid="1" user="" lat="48.2497121" lon="12.5031664">
    <tag k="shop" v="supermarket"/>
    <tag k="name" v="Reifen Center GLOBUS Mühldorf"/>
    <tag k="wheelchair" v="yes"/>
    <tag k="wheelchair:description" v="Man kann direkt vor dem Laden parken"/>
    <tag k="website" v="http://www.globus-muehldorf.de/de/preiswert-leben/preiswert-bei-globus/ersatzteile_.htm"/>
  </node>
  <node id="-2240" version="0" timestamp="Fri Feb 24 10:53:34 +0100 2012" uid="1" user="" lat="48.249775" lon="12.5021603">
    <tag k="shop" v="electronics"/>
    <tag k="name" v="Media Markt Mühldorf"/>
    <tag k="wheelchair" v="yes"/>
  </node>
  <node id="-2241" version="0" timestamp="Fri Feb 24 10:53:34 +0100 2012" uid="1" user="" lat="48.2497821" lon="12.5005664">
    <tag k="shop" v="department_store"/>
    <tag k="name" v="DM Drogeriemarkt"/>
    <tag k="wheelchair" v="yes"/>
  </node>
  <node id="-2242" version="0" timestamp="Fri Feb 24 10:53:34 +0100 2012" uid="1" user="" lat="48.2497971" lon="12.4992485">
    <tag k="name" v="K&amp;L Ruppert "/>
    <tag k="wheelchair" v="yes"/>
    <tag k="amenity" v="bank"/>
  </node>
  <node id="-2243" version="0" timestamp="Fri Feb 24 10:53:34 +0100 2012" uid="1" user="" lat="48.2497314" lon="12.4996918">
    <tag k="shop" v="clothes"/>
    <tag k="name" v="K&amp;L Ruppert"/>
    <tag k="wheelchair" v="yes"/>
  </node>
  <node id="-2244" version="0" timestamp="Fri Feb 24 10:53:34 +0100 2012" uid="1" user="" lat="48.2497285" lon="12.4988802">
    <tag k="shop" v="shoes"/>
    <tag k="name" v="Siems Schuh Center"/>
    <tag k="wheelchair" v="yes"/>
  </node>
  <node id="-2245" version="0" timestamp="Fri Feb 24 10:53:34 +0100 2012" uid="1" user="" lat="48.2501729" lon="12.4992716">
    <tag k="name" v="Parkplatz Einkaufszentrum"/>
    <tag k="wheelchair" v="yes"/>
    <tag k="amenity" v="parking"/>
  </node>
  <node id="-2319" version="0" timestamp="Fri Feb 24 10:53:34 +0100 2012" uid="1" user="" lat="48.5929742" lon="11.38256">
    <tag k="name" v="MetzgerBräu"/>
    <tag k="wheelchair" v="yes"/>
    <tag k="amenity" v="restaurant"/>
  </node>
  <node id="-2374" version="0" timestamp="Fri Feb 24 10:53:34 +0100 2012" uid="1" user="" lat="48.2462844" lon="12.5213205">
    <tag k="name" v="Tierarzt"/>
    <tag k="wheelchair" v="yes"/>
    <tag k="amenity" v="veterinary"/>
  </node>
  <node id="-2375" version="0" timestamp="Fri Feb 24 10:53:34 +0100 2012" uid="1" user="" lat="48.2477865" lon="12.5211225">
    <tag k="name" v="Parkplatz am Bahnhof"/>
    <tag k="wheelchair" v="limited"/>
    <tag k="wheelchair:description" v="teilweise Kies teilweise Teer sehr eng. Die Parkautomaten sind nicht Rolligerecht teilweise"/>
    <tag k="amenity" v="parking"/>
  </node>
  <node id="-2376" version="0" timestamp="Fri Feb 24 10:53:34 +0100 2012" uid="1" user="" lat="48.247545" lon="12.520631">
    <tag k="name" v="Cafe Casablanka"/>
    <tag k="wheelchair" v="limited"/>
    <tag k="wheelchair:description" v="Der Eingang und der Innenraum sind Rollig gerecht. Toiletten weiß ich nicht"/>
    <tag k="amenity" v="cafe"/>
  </node>
  <node id="-2377" version="0" timestamp="Fri Feb 24 10:53:34 +0100 2012" uid="1" user="" lat="48.2501071" lon="12.4926043">
    <tag k="shop" v="doityourself"/>
    <tag k="name" v="GLOBUS Baumarkt"/>
    <tag k="wheelchair" v="yes"/>
    <tag k="wheelchair:description" v="Großzügige Gänge, leider sind die Reagle teilweiße sehr hoch, Behidertengerechte Toiletten"/>
  </node>
  <node id="-2390" version="0" timestamp="Fri Feb 24 10:53:34 +0100 2012" uid="1" user="" lat="48.0401036" lon="11.6573843">
    <tag k="shop" v="furniture"/>
    <tag k="name" v="Ikea"/>
    <tag k="wheelchair" v="yes"/>
  </node>
  <node id="-2391" version="0" timestamp="Fri Feb 24 10:53:34 +0100 2012" uid="1" user="" lat="48.0415247" lon="11.6597704">
    <tag k="shop" v="doityourself"/>
    <tag k="name" v="OBI Brunnthal"/>
    <tag k="wheelchair" v="yes"/>
  </node>
  <node id="-2394" version="0" timestamp="Fri Feb 24 10:53:34 +0100 2012" uid="1" user="" lat="48.05664" lon="11.65217">
    <tag k="name" v="Phönix Bad"/>
    <tag k="wheelchair" v="limited"/>
    <tag k="amenity" v="swimming_pool"/>
    <tag k="website" v="http://www.phoenixbad.de"/>
  </node>
  <node id="-2396" version="0" timestamp="Fri Feb 24 10:53:34 +0100 2012" uid="1" user="" lat="48.0632447" lon="11.6495537">
    <tag k="shop" v="mall"/>
    <tag k="name" v="Isar Einkaufszentrum"/>
    <tag k="wheelchair" v="yes"/>
    <tag k="website" v="http://www.isarcenter.de"/>
  </node>
  <node id="-2594" version="0" timestamp="Fri Feb 24 10:53:34 +0100 2012" uid="1" user="" lat="48.25974" lon="11.43299">
    <tag k="name" v="cotton club"/>
    <tag k="wheelchair" v="limited"/>
    <tag k="addr:city" v="Dachau"/>
    <tag k="addr:postcode" v="85221"/>
    <tag k="addr:housenumber" v="20"/>
    <tag k="addr:street" v="Konrad-Adenauer-Str. "/>
    <tag k="wheelchair:description" v="ebenerdiger Eingang, Toiletten zu schmal"/>
    <tag k="amenity" v="cafe"/>
    <tag k="website" v="http://www.cotton-club-dachau.com"/>
    <tag k="phone" v="08131-736859"/>
  </node>
  <node id="-2638" version="0" timestamp="Fri Feb 24 10:53:34 +0100 2012" uid="1" user="" lat="48.12515" lon="11.59026">
    <tag k="shop" v="clothes"/>
    <tag k="name" v="Sorrows"/>
    <tag k="wheelchair" v="yes"/>
    <tag k="addr:city" v="München"/>
    <tag k="addr:postcode" v="81669"/>
    <tag k="addr:housenumber" v="26"/>
    <tag k="addr:street" v="Franziskanerstraße"/>
    <tag k="website" v="http://www.sorrows-muenchen.de"/>
    <tag k="phone" v="089 54784966"/>
  </node>
  <node id="-2862" version="0" timestamp="Fri Feb 24 10:53:34 +0100 2012" uid="1" user="" lat="47.7705992" lon="11.7478222">
    <tag k="name" v="Töpferei Winter-Andres"/>
    <tag k="wheelchair" v="yes"/>
    <tag k="addr:city" v="Gmund"/>
    <tag k="addr:postcode" v="83703"/>
    <tag k="addr:housenumber" v="88"/>
    <tag k="addr:street" v="Miesbacher Strasse"/>
    <tag k="wheelchair:description" v="ebenerdig, hilfsbereit"/>
    <tag k="amenity" v="artwork"/>
    <tag k="website" v="http://www.facebook.com/pages/T%C3%B6pferei-Winter-Andres/155742477790585"/>
    <tag k="phone" v="+49 8022 74643"/>
  </node>
  <node id="-2983" version="0" timestamp="Fri Feb 24 10:53:35 +0100 2012" uid="1" user="" lat="48.23947" lon="12.68836">
    <tag k="name" v="Klostergarten"/>
    <tag k="wheelchair" v="yes"/>
    <tag k="addr:city" v="Neuötting"/>
    <tag k="addr:postcode" v="84524"/>
    <tag k="addr:housenumber" v="3"/>
    <tag k="addr:street" v="Sebastiansplatz"/>
    <tag k="amenity" v="restaurant"/>
    <tag k="website" v="http://www.klostergarten-neuoetting.de"/>
    <tag k="phone" v="+49 8671 507 1398"/>
  </node>
  <node id="-2991" version="0" timestamp="Fri Feb 24 10:53:35 +0100 2012" uid="1" user="" lat="47.8606582" lon="12.4019431">
    <tag k="name" v="Schloss Herrenchiemsee"/>
    <tag k="wheelchair" v="yes"/>
    <tag k="wheelchair:description" v="Die Schlossbesichtigung ist größtenteils barrierefrei"/>
    <tag k="website" v="http://www.herrenchiemsee.de"/>
    <tag k="historic" v="castle"/>
  </node>
  <node id="-2992" version="0" timestamp="Fri Feb 24 10:53:35 +0100 2012" uid="1" user="" lat="47.8690826" lon="12.3987998">
    <tag k="name" v="Chiemsee Schifffahrt"/>
    <tag k="wheelchair" v="yes"/>
    <tag k="amenity" v="ferry_terminal"/>
    <tag k="website" v="http://www.chiemsee-schifffahrt.de"/>
  </node>
  <node id="-3000" version="0" timestamp="Fri Feb 24 10:53:35 +0100 2012" uid="1" user="" lat="47.8719116" lon="12.4272091">
    <tag k="name" v="Chiemsee Schifffahrt"/>
    <tag k="wheelchair" v="yes"/>
    <tag k="amenity" v="ferry_terminal"/>
    <tag k="website" v="http://www.chiemsee-schifffahrt.de"/>
  </node>
  <node id="-3001" version="0" timestamp="Fri Feb 24 10:53:35 +0100 2012" uid="1" user="" lat="47.9012621" lon="12.2991131">
    <tag k="name" v="Chiemgau Thermen "/>
    <tag k="wheelchair" v="yes"/>
    <tag k="wheelchair:description" v="Hebelift vorhanden"/>
    <tag k="amenity" v="swimming_pool"/>
    <tag k="website" v="http://www.chiemgau-thermen.de"/>
  </node>
  <node id="-3312" version="0" timestamp="Fri Feb 24 10:53:35 +0100 2012" uid="1" user="" lat="48.2505613" lon="11.5232364">
    <tag k="name" v="LZM München"/>
    <tag k="wheelchair" v="limited"/>
    <tag k="addr:city" v="Oberschleißheim"/>
    <tag k="addr:postcode" v="85764"/>
    <tag k="addr:housenumber" v="35"/>
    <tag k="addr:street" v="Dachauerstraße "/>
    <tag k="wheelchair:description" v="Sporthalle"/>
    <tag k="leisure" v="sports_centre"/>
    <tag k="website" v="http://www.leistungszentrum-muenchen.de/"/>
  </node>
  <node id="-3313" version="0" timestamp="Fri Feb 24 10:53:35 +0100 2012" uid="1" user="" lat="48.249915" lon="11.5267854">
    <tag k="name" v="MTV Müchen Kanuabteilung"/>
    <tag k="wheelchair" v="limited"/>
    <tag k="wheelchair:description" v="Behindertensportabteilung, WC rollstuhlgerecht, aber etwas entfernt. Bootshalle voll rollstuhlgerecht, "/>
    <tag k="leisure" v="stadium"/>
    <tag k="website" v="http://www.mtv-muenchen.de/index.php?id=35"/>
  </node>
  <node id="-3337" version="0" timestamp="Fri Feb 24 10:53:35 +0100 2012" uid="1" user="" lat="47.8268431" lon="12.9754074">
    <tag k="name" v="ESV Stadion"/>
    <tag k="wheelchair" v="limited"/>
    <tag k="addr:city" v="Freilassing"/>
    <tag k="addr:postcode" v="83395"/>
    <tag k="addr:housenumber" v="85"/>
    <tag k="addr:street" v="Reichenhaller Straße"/>
    <tag k="wheelchair:description" v="Zuschauen nur im Freien möglich, da ca. 5 Stufen nach oben unters Dach führen."/>
    <tag k="leisure" v="arena"/>
  </node>
  <node id="-3338" version="0" timestamp="Fri Feb 24 10:53:35 +0100 2012" uid="1" user="" lat="47.8313645" lon="12.9755071">
    <tag k="name" v="St. Korbinian"/>
    <tag k="wheelchair" v="limited"/>
    <tag k="wheelchair:description" v="Behinderten WC: unbekannt"/>
    <tag k="amenity" v="place_of_worship"/>
  </node>
  <node id="-3339" version="0" timestamp="Fri Feb 24 10:53:35 +0100 2012" uid="1" user="" lat="47.8311259" lon="12.9758211">
    <tag k="name" v="Kindergarten St. Korbinian"/>
    <tag k="wheelchair" v="unknown"/>
    <tag k="amenity" v="kindergarten"/>
  </node>
  <node id="-3340" version="0" timestamp="Fri Feb 24 10:53:35 +0100 2012" uid="1" user="" lat="47.8419885" lon="12.9795011">
    <tag k="shop" v="computer"/>
    <tag k="name" v="Ruperti-Computer"/>
    <tag k="wheelchair" v="no"/>
    <tag k="wheelchair:description" v="2 oder mehr Stufen am Eingang"/>
  </node>
  <node id="-3341" version="0" timestamp="Fri Feb 24 10:53:35 +0100 2012" uid="1" user="" lat="47.8419749" lon="12.9794404">
    <tag k="name" v="Restaurant &quot;Fortuna&quot;"/>
    <tag k="wheelchair" v="no"/>
    <tag k="wheelchair:description" v="Eingang 2 oder mehr Stufen"/>
    <tag k="amenity" v="restaurant"/>
  </node>
  <node id="-3342" version="0" timestamp="Fri Feb 24 10:53:35 +0100 2012" uid="1" user="" lat="47.8418616" lon="12.979986">
    <tag k="shop" v="books"/>
    <tag k="name" v="Bücher Krittian"/>
    <tag k="wheelchair" v="no"/>
    <tag k="wheelchair:description" v="Eingang 2 oder mehr Stufen"/>
  </node>
  <node id="-3343" version="0" timestamp="Fri Feb 24 10:53:35 +0100 2012" uid="1" user="" lat="47.8416388" lon="12.9798899">
    <tag k="shop" v="electronics"/>
    <tag k="name" v="Elektro Kaiser"/>
    <tag k="wheelchair" v="yes"/>
    <tag k="wheelchair:description" v="Behinderten WC: unbekannt"/>
  </node>
  <node id="-3344" version="0" timestamp="Fri Feb 24 10:53:35 +0100 2012" uid="1" user="" lat="47.84182" lon="12.9802977">
    <tag k="name" v="Bonami"/>
    <tag k="wheelchair" v="limited"/>
    <tag k="wheelchair:description" v="Eingang ok. WC im Keller, Behinderten WC: unbekannt"/>
    <tag k="amenity" v="restaurant"/>
  </node>
  <node id="-3345" version="0" timestamp="Fri Feb 24 10:53:35 +0100 2012" uid="1" user="" lat="47.8416372" lon="12.9811482">
    <tag k="name" v="Jimmy´s Kebap Haus"/>
    <tag k="wheelchair" v="limited"/>
    <tag k="wheelchair:description" v="Behinderten-WC: unbekannt"/>
    <tag k="amenity" v="restaurant"/>
  </node>
  <node id="-3346" version="0" timestamp="Fri Feb 24 10:53:35 +0100 2012" uid="1" user="" lat="47.8375156" lon="12.9815544">
    <tag k="shop" v="shoes"/>
    <tag k="name" v="Schuhhaus Baumgartner"/>
    <tag k="wheelchair" v="limited"/>
    <tag k="wheelchair:description" v="Im Geschäft 2-3 Stufen bei Herrenschuhe; Behinderten-WC: unbekannt"/>
  </node>
  <node id="-3347" version="0" timestamp="Fri Feb 24 10:53:35 +0100 2012" uid="1" user="" lat="47.8370832" lon="12.9810045">
    <tag k="shop" v="clothes"/>
    <tag k="name" v="K &amp; L Rupert"/>
    <tag k="wheelchair" v="yes"/>
    <tag k="wheelchair:description" v="Behinderten-WC: unbekannt; Aufzug vorhanden"/>
  </node>
  <node id="-3348" version="0" timestamp="Fri Feb 24 10:53:35 +0100 2012" uid="1" user="" lat="47.8370648" lon="12.9807194">
    <tag k="name" v="Wieninger Bräu"/>
    <tag k="wheelchair" v="limited"/>
    <tag k="amenity" v="restaurant"/>
  </node>
  <node id="-3349" version="0" timestamp="Fri Feb 24 10:53:35 +0100 2012" uid="1" user="" lat="47.83706" lon="12.98072">
    <tag k="name" v="Parkplatz"/>
    <tag k="wheelchair" v="unknown"/>
    <tag k="amenity" v="parking"/>
  </node>
  <node id="-3350" version="0" timestamp="Fri Feb 24 10:53:35 +0100 2012" uid="1" user="" lat="47.8375497" lon="12.9794616">
    <tag k="shop" v="bakery"/>
    <tag k="name" v="Bäckerei Dallmeier"/>
    <tag k="wheelchair" v="unknown"/>
  </node>
  <node id="-3351" version="0" timestamp="Fri Feb 24 10:53:35 +0100 2012" uid="1" user="" lat="47.8373412" lon="12.9797336">
    <tag k="name" v="Restaurant &quot;Da Pippo&quot;"/>
    <tag k="wheelchair" v="limited"/>
    <tag k="amenity" v="restaurant"/>
  </node>
  <node id="-3352" version="0" timestamp="Fri Feb 24 10:53:35 +0100 2012" uid="1" user="" lat="47.8440288" lon="12.9859616">
    <tag k="shop" v="florist"/>
    <tag k="name" v="Blumen Holler"/>
    <tag k="wheelchair" v="limited"/>
    <tag k="addr:city" v="Freilassing"/>
    <tag k="addr:postcode" v="83395"/>
    <tag k="addr:housenumber" v="34"/>
    <tag k="addr:street" v="Laufener Straße"/>
    <tag k="wheelchair:description" v="Behinderten WC: unbekannt"/>
  </node>
  <node id="-3353" version="0" timestamp="Fri Feb 24 10:53:35 +0100 2012" uid="1" user="" lat="47.8472308" lon="12.9863882">
    <tag k="shop" v="supermarket"/>
    <tag k="name" v="EDEKA Albrecht"/>
    <tag k="wheelchair" v="limited"/>
  </node>
  <node id="-3354" version="0" timestamp="Fri Feb 24 10:53:35 +0100 2012" uid="1" user="" lat="47.8471328" lon="12.9863578">
    <tag k="shop" v="bakery"/>
    <tag k="name" v="Bäckerei Stadler (im EDEKA-Markt)"/>
    <tag k="wheelchair" v="limited"/>
    <tag k="wheelchair:description" v="Behinderten-WC: unbekannt"/>
  </node>
  <node id="-3355" version="0" timestamp="Fri Feb 24 10:53:35 +0100 2012" uid="1" user="" lat="47.8486424" lon="12.9870045">
    <tag k="name" v="Mädchenrealschule Franz von Assisi"/>
    <tag k="wheelchair" v="unknown"/>
    <tag k="addr:city" v="Freilassing"/>
    <tag k="addr:postcode" v="83395"/>
    <tag k="addr:street" v="Klosterweg"/>
    <tag k="amenity" v="school"/>
  </node>
  <node id="-3357" version="0" timestamp="Fri Feb 24 10:53:35 +0100 2012" uid="1" user="" lat="48.21122" lon="11.33404">
    <tag k="shop" v="florist"/>
    <tag k="name" v="Pusteblume"/>
    <tag k="wheelchair" v="limited"/>
    <tag k="addr:city" v="Olching"/>
    <tag k="addr:postcode" v="82140"/>
    <tag k="addr:housenumber" v="13a"/>
    <tag k="addr:street" v="Feursstrasse"/>
    <tag k="wheelchair:description" v="Türe geht nach aussen auf, einfach klopfen :-)"/>
    <tag k="website" v="http://pusteblume-olching.de/"/>
    <tag k="phone" v="08142-17670"/>
  </node>
  <node id="-3358" version="0" timestamp="Fri Feb 24 10:53:35 +0100 2012" uid="1" user="" lat="48.21125" lon="11.33314">
    <tag k="name" v="Billardstadl"/>
    <tag k="wheelchair" v="limited"/>
    <tag k="addr:city" v="Olching"/>
    <tag k="addr:postcode" v="82140"/>
    <tag k="addr:housenumber" v="3"/>
    <tag k="addr:street" v="Ilzweg "/>
    <tag k="amenity" v="bank"/>
  </node>
  <node id="-3359" version="0" timestamp="Fri Feb 24 10:53:35 +0100 2012" uid="1" user="" lat="48.20899" lon="11.3286">
    <tag k="name" v="Bräustüberl Aschenwald"/>
    <tag k="wheelchair" v="no"/>
    <tag k="addr:city" v="Olching"/>
    <tag k="addr:postcode" v="82140 "/>
    <tag k="addr:housenumber" v="6"/>
    <tag k="addr:street" v="nöscherstrass"/>
    <tag k="amenity" v="restaurant"/>
  </node>
  <node id="-3360" version="0" timestamp="Fri Feb 24 10:53:35 +0100 2012" uid="1" user="" lat="47.8518604" lon="12.9826074">
    <tag k="name" v="Bushaltestelle Wiesenstraße"/>
    <tag k="wheelchair" v="unknown"/>
    <tag k="addr:city" v="Freilassing"/>
    <tag k="addr:postcode" v="83395"/>
    <tag k="addr:street" v="Wiesenstraße"/>
    <tag k="amenity" v="bus_station"/>
  </node>
  <node id="-3361" version="0" timestamp="Fri Feb 24 10:53:35 +0100 2012" uid="1" user="" lat="47.8498148" lon="12.9865621">
    <tag k="name" v="Bushaltestelle Friedhof"/>
    <tag k="wheelchair" v="unknown"/>
    <tag k="amenity" v="bus_station"/>
  </node>
  <node id="-3362" version="0" timestamp="Fri Feb 24 10:53:35 +0100 2012" uid="1" user="" lat="47.8485452" lon="12.9866054">
    <tag k="name" v="Bushaltestelle Mädchenrealschule"/>
    <tag k="wheelchair" v="unknown"/>
    <tag k="amenity" v="bus_station"/>
  </node>
  <node id="-3363" version="0" timestamp="Fri Feb 24 10:53:35 +0100 2012" uid="1" user="" lat="47.8484528" lon="12.9868031">
    <tag k="name" v="Bushaltestelle"/>
    <tag k="wheelchair" v="unknown"/>
    <tag k="amenity" v="bus_station"/>
  </node>
  <node id="-3364" version="0" timestamp="Fri Feb 24 10:53:35 +0100 2012" uid="1" user="" lat="47.8431636" lon="12.9858248">
    <tag k="name" v="Parkplatz"/>
    <tag k="wheelchair" v="yes"/>
    <tag k="amenity" v="parking"/>
  </node>
  <node id="-3365" version="0" timestamp="Fri Feb 24 10:53:35 +0100 2012" uid="1" user="" lat="47.8403404" lon="12.9806964">
    <tag k="name" v="Jolly"/>
    <tag k="wheelchair" v="unknown"/>
    <tag k="amenity" v="restaurant"/>
  </node>
  <node id="-3366" version="0" timestamp="Fri Feb 24 10:53:35 +0100 2012" uid="1" user="" lat="47.8403429" lon="12.9806329">
    <tag k="shop" v="books"/>
    <tag k="name" v="Buchoase"/>
    <tag k="wheelchair" v="limited"/>
  </node>
  <node id="-3367" version="0" timestamp="Fri Feb 24 10:53:35 +0100 2012" uid="1" user="" lat="47.8377116" lon="12.979189">
    <tag k="name" v="Toiletten"/>
    <tag k="wheelchair" v="unknown"/>
    <tag k="amenity" v="toilets"/>
  </node>
  <node id="-3368" version="0" timestamp="Fri Feb 24 10:53:35 +0100 2012" uid="1" user="" lat="47.8363944" lon="12.9767093">
    <tag k="name" v="Toiletten"/>
    <tag k="wheelchair" v="unknown"/>
    <tag k="amenity" v="toilets"/>
  </node>
  <node id="-3369" version="0" timestamp="Fri Feb 24 10:53:35 +0100 2012" uid="1" user="" lat="47.836264" lon="12.9719148">
    <tag k="name" v="Parkplatz der Berufsschule"/>
    <tag k="wheelchair" v="limited"/>
    <tag k="wheelchair:description" v="Keine Behindertenparkplätze vorhanden!"/>
    <tag k="amenity" v="parking"/>
  </node>
  <node id="-3370" version="0" timestamp="Fri Feb 24 10:53:35 +0100 2012" uid="1" user="" lat="47.8211361" lon="12.9486365">
    <tag k="name" v="Freibad Ainring"/>
    <tag k="wheelchair" v="unknown"/>
    <tag k="amenity" v="swimming_pool"/>
  </node>
  <node id="-3371" version="0" timestamp="Fri Feb 24 10:53:35 +0100 2012" uid="1" user="" lat="47.8419648" lon="12.976958">
    <tag k="name" v="Rathaus Stadt Freilassing"/>
    <tag k="wheelchair" v="unknown"/>
  </node>
  <node id="-3372" version="0" timestamp="Fri Feb 24 10:53:35 +0100 2012" uid="1" user="" lat="47.8429496" lon="12.9704353">
    <tag k="name" v="Raiffeisenbank"/>
    <tag k="wheelchair" v="unknown"/>
    <tag k="amenity" v="bank"/>
  </node>
  <node id="-3373" version="0" timestamp="Fri Feb 24 10:53:35 +0100 2012" uid="1" user="" lat="47.8424927" lon="12.9708316">
    <tag k="shop" v="clothes"/>
    <tag k="name" v="Intersport Bauer"/>
    <tag k="wheelchair" v="unknown"/>
  </node>
  <node id="-3374" version="0" timestamp="Fri Feb 24 10:53:35 +0100 2012" uid="1" user="" lat="47.8426004" lon="12.9666925">
    <tag k="shop" v="clothes"/>
    <tag k="name" v="Baby Walz (Alles für das Baby)"/>
    <tag k="wheelchair" v="limited"/>
    <tag k="wheelchair:description" v="Aufzug vorhanden!"/>
  </node>
  <node id="-3375" version="0" timestamp="Fri Feb 24 10:53:35 +0100 2012" uid="1" user="" lat="47.8466456" lon="12.946547">
    <tag k="name" v="Freibad Freilassing"/>
    <tag k="wheelchair" v="unknown"/>
    <tag k="amenity" v="swimming_pool"/>
  </node>
  <node id="-3377" version="0" timestamp="Fri Feb 24 10:53:35 +0100 2012" uid="1" user="" lat="47.8372928" lon="12.9802686">
    <tag k="name" v="Parkplatz"/>
    <tag k="wheelchair" v="unknown"/>
    <tag k="amenity" v="parking"/>
  </node>
  <node id="-3386" version="0" timestamp="Fri Feb 24 10:53:35 +0100 2012" uid="1" user="" lat="47.8400188" lon="12.980767">
    <tag k="name" v="Galerie im Stadtmuseum"/>
    <tag k="wheelchair" v="limited"/>
    <tag k="amenity" v="gallery"/>
  </node>
  <node id="-3387" version="0" timestamp="Fri Feb 24 10:53:35 +0100 2012" uid="1" user="" lat="47.839552" lon="12.9808021">
    <tag k="shop" v="bakery"/>
    <tag k="name" v="Meßner"/>
    <tag k="wheelchair" v="unknown"/>
  </node>
  <node id="-3388" version="0" timestamp="Fri Feb 24 10:53:35 +0100 2012" uid="1" user="" lat="47.8465484" lon="12.985806">
    <tag k="shop" v="hairdresser"/>
    <tag k="name" v="Meister V.I.P."/>
    <tag k="wheelchair" v="unknown"/>
  </node>
  <node id="-3389" version="0" timestamp="Fri Feb 24 10:53:35 +0100 2012" uid="1" user="" lat="47.8067" lon="10.8951854">
    <tag k="name" v="Kommunalunternehmen Plantsch Badespaß und Saunaland"/>
    <tag k="wheelchair" v="yes"/>
    <tag k="addr:city" v="Schongau"/>
    <tag k="addr:postcode" v="86956"/>
    <tag k="addr:housenumber" v="6"/>
    <tag k="addr:street" v="Lechuferstrasse"/>
    <tag k="wheelchair:description" v="Barrierefrei und mit Rollstuhlfahrerumkleiden und Toiletten ausgestattet"/>
    <tag k="website" v="http://www.plantsch.de"/>
    <tag k="phone" v="08861/214444"/>
  </node>
  <node id="-3421" version="0" timestamp="Fri Feb 24 10:53:35 +0100 2012" uid="1" user="" lat="48.1568113" lon="11.58476">
    <tag k="name" v="Mumbai"/>
    <tag k="wheelchair" v="no"/>
    <tag k="addr:city" v="München"/>
    <tag k="addr:street" v="Leopoldstraße"/>
    <tag k="wheelchair:description" v="Kellerlokal mit sehr langer Zugangstreppe"/>
    <tag k="amenity" v="restaurant"/>
  </node>
  <node id="-3429" version="0" timestamp="Fri Feb 24 10:53:35 +0100 2012" uid="1" user="" lat="48.1592594" lon="11.500452">
    <tag k="name" v="Schlosskaffe im Palmenhaus"/>
    <tag k="wheelchair" v="limited"/>
    <tag k="addr:city" v="München"/>
    <tag k="addr:postcode" v="80638"/>
    <tag k="addr:street" v="Eingang 43"/>
    <tag k="wheelchair:description" v="Es sind Stufen am Eingang aber im Freien kann man gut sitzen. "/>
    <tag k="amenity" v="cafe"/>
    <tag k="website" v="http://www.palmenhaus.de"/>
  </node>
  <node id="-3498" version="0" timestamp="Fri Feb 24 10:53:35 +0100 2012" uid="1" user="" lat="48.7663752" lon="11.4249953">
    <tag k="name" v="Fotostudio Adlhoch"/>
    <tag k="wheelchair" v="yes"/>
    <tag k="addr:city" v="Ingolstadt"/>
    <tag k="addr:postcode" v="85049"/>
    <tag k="addr:housenumber" v="5a"/>
    <tag k="addr:street" v="Proviantstrasse"/>
    <tag k="website" v="http://www.fotostudio-adlhoch.de"/>
    <tag k="phone" v="+49 841 34292"/>
  </node>
  <node id="-3702" version="0" timestamp="Fri Feb 24 10:53:35 +0100 2012" uid="1" user="" lat="48.2907007" lon="11.5727509">
    <tag k="name" v="Reha Group Automotive"/>
    <tag k="wheelchair" v="yes"/>
    <tag k="addr:city" v="Unterschleißheim"/>
    <tag k="addr:postcode" v="85716"/>
    <tag k="addr:housenumber" v="4"/>
    <tag k="addr:street" v="Morsestrasse"/>
    <tag k="wheelchair:description" v="Barrierefreier Autoumrüster"/>
    <tag k="amenity" v="car_rental"/>
    <tag k="website" v="http://www.reha.com"/>
    <tag k="phone" v="+49 (0)89 - 319082-0"/>
  </node>
  <node id="-3769" version="0" timestamp="Fri Feb 24 10:53:35 +0100 2012" uid="1" user="" lat="47.8604495" lon="11.4822913">
    <tag k="shop" v="hairdresser"/>
    <tag k="name" v="Friseurteam HaarGenau GmbH"/>
    <tag k="wheelchair" v="yes"/>
    <tag k="addr:city" v="Geretsried"/>
    <tag k="addr:postcode" v="82538"/>
    <tag k="addr:housenumber" v="65"/>
    <tag k="addr:street" v="Adalbert-Stifter-Straße"/>
  </node>
  <node id="-3770" version="0" timestamp="Fri Feb 24 10:53:35 +0100 2012" uid="1" user="" lat="47.8524909" lon="11.4983596">
    <tag k="shop" v="computer"/>
    <tag k="name" v="Isar Computer"/>
    <tag k="wheelchair" v="yes"/>
  </node>
  <node id="-3772" version="0" timestamp="Fri Feb 24 10:53:35 +0100 2012" uid="1" user="" lat="48.1397529" lon="11.5227422">
    <tag k="name" v="Nachtgalarie"/>
    <tag k="wheelchair" v="no"/>
    <tag k="amenity" v="nightclub"/>
  </node>
  <node id="-3773" version="0" timestamp="Fri Feb 24 10:53:35 +0100 2012" uid="1" user="" lat="47.8668827" lon="11.4759318">
    <tag k="name" v="Papperlapub"/>
    <tag k="wheelchair" v="no"/>
    <tag k="amenity" v="bar"/>
  </node>
  <node id="-3786" version="0" timestamp="Fri Feb 24 10:53:35 +0100 2012" uid="1" user="" lat="48.1219196" lon="11.558488">
    <tag k="shop" v="butcher"/>
    <tag k="name" v="Metzgerei Magnus Bauch"/>
    <tag k="wheelchair" v="yes"/>
    <tag k="website" v="http://www.mbwassonst.de"/>
  </node>
  <node id="-3798" version="0" timestamp="Fri Feb 24 10:53:35 +0100 2012" uid="1" user="" lat="47.852832" lon="12.1309193">
    <tag k="name" v="Evang.-Luth. Gemeindehaus"/>
    <tag k="wheelchair" v="limited"/>
    <tag k="addr:city" v="Rosenheim"/>
    <tag k="addr:postcode" v="83022"/>
    <tag k="addr:housenumber" v="23 RG"/>
    <tag k="addr:street" v="Königstraße"/>
    <tag k="wheelchair:description" v="im EG Barrierefrei"/>
    <tag k="amenity" v="place_of_worship"/>
    <tag k="website" v="http://www.evangelisch-in-rosenheim.de/"/>
    <tag k="phone" v="+49 8031 20 71-0"/>
  </node>
  <node id="-3799" version="0" timestamp="Fri Feb 24 10:53:35 +0100 2012" uid="1" user="" lat="47.8530336" lon="12.1306356">
    <tag k="name" v="Evang.-Luth. Erlöserkirche"/>
    <tag k="wheelchair" v="yes"/>
    <tag k="addr:city" v="Rosenheim"/>
    <tag k="addr:postcode" v="83022"/>
    <tag k="addr:housenumber" v="21"/>
    <tag k="addr:street" v="Königstraße"/>
    <tag k="amenity" v="place_of_worship"/>
    <tag k="website" v="http://www.evangelisch-in-rosenheim.de/"/>
    <tag k="phone" v="+49 8031 20 71-0"/>
  </node>
  <node id="-3800" version="0" timestamp="Fri Feb 24 10:53:35 +0100 2012" uid="1" user="" lat="47.8658636" lon="12.1119922">
    <tag k="name" v="Evang.-Luth. Apostelkirche"/>
    <tag k="wheelchair" v="yes"/>
    <tag k="addr:city" v="Rosenheim"/>
    <tag k="addr:postcode" v="83024"/>
    <tag k="addr:housenumber" v="26"/>
    <tag k="addr:street" v="Lessingstraße"/>
    <tag k="amenity" v="place_of_worship"/>
    <tag k="website" v="http://www.evangelisch-in-rosenheim.de/"/>
    <tag k="phone" v="+49 8031 8 66 54"/>
  </node>
  <node id="-3923" version="0" timestamp="Fri Feb 24 10:53:35 +0100 2012" uid="1" user="" lat="47.6260822" lon="12.9993412">
    <tag k="name" v="Bahnhofsgebäude Berchtesgaden"/>
    <tag k="wheelchair" v="no"/>
    <tag k="addr:city" v="Berchtesgaden"/>
    <tag k="addr:postcode" v="83471"/>
    <tag k="wheelchair:description" v="Stufen und schwere Schwingtüren"/>
    <tag k="railway" v="platform"/>
  </node>
  <node id="-4020" version="0" timestamp="Fri Feb 24 10:53:36 +0100 2012" uid="1" user="" lat="48.1910835" lon="11.8667498">
    <tag k="name" v="Ambulante Dienste für Menschen mit Behinderung AWO Kreisverband Ebersberg "/>
    <tag k="wheelchair" v="yes"/>
    <tag k="addr:city" v="Markt Schwaben"/>
    <tag k="addr:postcode" v="85570 "/>
    <tag k="addr:housenumber" v="20"/>
    <tag k="addr:street" v="Herzog-Ludwig-Straße"/>
    <tag k="amenity" v="bank"/>
    <tag k="website" v="http://www.awo-kv-ebe.de"/>
    <tag k="phone" v="08121/9334-41"/>
  </node>
  <node id="-4113" version="0" timestamp="Fri Feb 24 10:53:36 +0100 2012" uid="1" user="" lat="48.1223634" lon="11.5500714">
    <tag k="shop" v="supermarket"/>
    <tag k="name" v="EDEKA Implerstraße"/>
    <tag k="wheelchair" v="yes"/>
  </node>
  <node id="-4139" version="0" timestamp="Fri Feb 24 10:53:36 +0100 2012" uid="1" user="" lat="48.1826304" lon="11.2176131">
    <tag k="name" v="Wiener Hendlhaus"/>
    <tag k="wheelchair" v="yes"/>
    <tag k="addr:city" v="Fürstenfeldbruck"/>
    <tag k="addr:postcode" v="82256"/>
    <tag k="addr:housenumber" v="11"/>
    <tag k="addr:street" v="Hauptstraße"/>
    <tag k="amenity" v="restaurant"/>
    <tag k="website" v="http://www.wiener-hendlhaus.de"/>
    <tag k="phone" v="+49 8141 16625"/>
  </node>
  <node id="-4150" version="0" timestamp="Fri Feb 24 10:53:36 +0100 2012" uid="1" user="" lat="47.90037" lon="12.06798">
    <tag k="shop" v="hairdresser"/>
    <tag k="name" v="Rudolp´s Hair"/>
    <tag k="wheelchair" v="limited"/>
    <tag k="addr:city" v="großkarolinenfeld"/>
    <tag k="addr:postcode" v="83109"/>
    <tag k="addr:housenumber" v="16"/>
    <tag k="addr:street" v="bahnhofstraße "/>
    <tag k="wheelchair:description" v="Rampen werden an Stufen gelegt Klingel an Tür vorhanden"/>
    <tag k="phone" v="08031-5152"/>
  </node>
  <node id="-4193" version="0" timestamp="Fri Feb 24 10:53:36 +0100 2012" uid="1" user="" lat="48.1405726" lon="11.5994715">
    <tag k="name" v="Zimmes &amp; Zores im Museum Villa Stuck "/>
    <tag k="wheelchair" v="yes"/>
    <tag k="addr:city" v="München"/>
    <tag k="addr:postcode" v="81675"/>
    <tag k="addr:housenumber" v="60"/>
    <tag k="addr:street" v="Prinzregentenstr."/>
    <tag k="amenity" v="cafe"/>
    <tag k="website" v="http://www.villastuck.de/information/cafe.htm"/>
  </node>
  <node id="-4292" version="0" timestamp="Fri Feb 24 10:53:36 +0100 2012" uid="1" user="" lat="47.8808326" lon="11.716575">
    <tag k="shop" v="bakery"/>
    <tag k="name" v="Bäckerei Ratschiller"/>
    <tag k="wheelchair" v="limited"/>
  </node>
  <node id="-4293" version="0" timestamp="Fri Feb 24 10:53:36 +0100 2012" uid="1" user="" lat="47.8777283" lon="11.70197">
    <tag k="name" v="Rathaus Holzkirchen"/>
    <tag k="wheelchair" v="yes"/>
    <tag k="amenity" v="townhall"/>
  </node>
  <node id="-4353" version="0" timestamp="Fri Feb 24 10:53:36 +0100 2012" uid="1" user="" lat="48.1234743" lon="11.5490109">
    <tag k="name" v="Kreisverwaltungsreferat München (KVR) - Verkehrsmanagement"/>
    <tag k="wheelchair" v="limited"/>
    <tag k="addr:city" v="München"/>
    <tag k="addr:housenumber" v="9"/>
    <tag k="addr:street" v="Implerstraße"/>
    <tag k="amenity" v="townhall"/>
    <tag k="website" v="http://www.muenchen.de"/>
  </node>
  <node id="-4359" version="0" timestamp="Fri Feb 24 10:53:36 +0100 2012" uid="1" user="" lat="48.20978" lon="11.61796">
    <tag k="name" v="Deutsches Theater"/>
    <tag k="wheelchair" v="yes"/>
    <tag k="addr:city" v="Fröttmaning bei München"/>
    <tag k="amenity" v="theatre"/>
  </node>
  <node id="-4379" version="0" timestamp="Fri Feb 24 10:53:36 +0100 2012" uid="1" user="" lat="48.6394725" lon="11.1064603">
    <tag k="shop" v="supermarket"/>
    <tag k="name" v="Netto - Discounter"/>
    <tag k="wheelchair" v="yes"/>
  </node>
  <node id="-4380" version="0" timestamp="Fri Feb 24 10:53:36 +0100 2012" uid="1" user="" lat="48.6372544" lon="11.1053685">
    <tag k="name" v="Bushaltestelle - Post"/>
    <tag k="wheelchair" v="limited"/>
    <tag k="wheelchair:description" v="Die Bushaltestelle selbst ist rollstuhlgerecht, aber die ankommenden Buse meistens nicht."/>
    <tag k="amenity" v="bus_station"/>
  </node>
  <node id="-4394" version="0" timestamp="Fri Feb 24 10:53:36 +0100 2012" uid="1" user="" lat="48.1167582" lon="11.6364342">
    <tag k="name" v="Michaelibad (Hallenbad)"/>
    <tag k="wheelchair" v="unknown"/>
    <tag k="amenity" v="swimming_pool"/>
  </node>
  <node id="-4395" version="0" timestamp="Fri Feb 24 10:53:36 +0100 2012" uid="1" user="" lat="48.1163947" lon="11.6350363">
    <tag k="name" v="Michaelibad (Freibad)"/>
    <tag k="wheelchair" v="yes"/>
    <tag k="amenity" v="swimming_pool"/>
  </node>
  <node id="-4399" version="0" timestamp="Fri Feb 24 10:53:36 +0100 2012" uid="1" user="" lat="48.1706632" lon="11.5680812">
    <tag k="name" v="Bamberger Haus"/>
    <tag k="wheelchair" v="yes"/>
    <tag k="amenity" v="restaurant"/>
  </node>
  <node id="-4556" version="0" timestamp="Fri Feb 24 10:53:36 +0100 2012" uid="1" user="" lat="48.13402" lon="11.5627">
    <tag k="name" v="Linsel Physiotherapie"/>
    <tag k="wheelchair" v="yes"/>
    <tag k="addr:city" v="München"/>
    <tag k="addr:postcode" v="80337"/>
    <tag k="addr:housenumber" v="103"/>
    <tag k="addr:street" v="Lindwurmstraße"/>
    <tag k="wheelchair:description" v="Aufzug"/>
    <tag k="amenity" v="doctors"/>
    <tag k="website" v="http://www.linsel-physiotherapie.de"/>
    <tag k="phone" v="08954344012"/>
  </node>
  <node id="-4567" version="0" timestamp="Fri Feb 24 10:53:36 +0100 2012" uid="1" user="" lat="47.70724" lon="11.39549">
    <tag k="name" v="KSFH Mensa, Bibliothek und Sporthalle"/>
    <tag k="wheelchair" v="yes"/>
    <tag k="addr:city" v="Benediktbeuern"/>
    <tag k="addr:postcode" v="83671"/>
    <tag k="addr:housenumber" v="1"/>
    <tag k="addr:street" v="Don-Bosco-Straße"/>
    <tag k="wheelchair:description" v="Aufzug und WC"/>
    <tag k="amenity" v="college"/>
    <tag k="website" v="http://www.ksfh.de"/>
  </node>
  <node id="-4568" version="0" timestamp="Fri Feb 24 10:53:36 +0100 2012" uid="1" user="" lat="47.7077503" lon="11.3964475">
    <tag k="name" v="Mena, Sporthalle und Bibliothek der KSFH"/>
    <tag k="wheelchair" v="yes"/>
    <tag k="addr:city" v="Benediktbeuern"/>
    <tag k="addr:postcode" v="83671"/>
    <tag k="addr:housenumber" v="1"/>
    <tag k="addr:street" v="Don-Bosco-Straße"/>
    <tag k="wheelchair:description" v="Aufzug und WC"/>
    <tag k="amenity" v="library"/>
    <tag k="website" v="http://www.ksfh.de/einrichtungen/mensa/mensa-benediktbeuern_4170"/>
  </node>
  <node id="-4636" version="0" timestamp="Fri Feb 24 10:53:36 +0100 2012" uid="1" user="" lat="47.8855566" lon="12.8485023">
    <tag k="name" v="Bräustüberl Schönram"/>
    <tag k="wheelchair" v="unknown"/>
    <tag k="amenity" v="parking"/>
  </node>
  <node id="-4638" version="0" timestamp="Fri Feb 24 10:53:36 +0100 2012" uid="1" user="" lat="47.8375284" lon="12.9808335">
    <tag k="name" v="O´Paddys"/>
    <tag k="wheelchair" v="no"/>
    <tag k="wheelchair:description" v="Mehrere Treppen am Eingang, WC im Keller"/>
    <tag k="amenity" v="pub"/>
  </node>
  <node id="-4639" version="0" timestamp="Fri Feb 24 10:53:36 +0100 2012" uid="1" user="" lat="47.8375624" lon="12.9805189">
    <tag k="name" v="Musikcafé zum Fred"/>
    <tag k="wheelchair" v="limited"/>
    <tag k="wheelchair:description" v="Kein Behinderten WC"/>
    <tag k="amenity" v="bar"/>
  </node>
  <node id="-4665" version="0" timestamp="Fri Feb 24 10:53:36 +0100 2012" uid="1" user="" lat="48.33466" lon="11.3437">
    <tag k="name" v="Mehrgenerationenhaus der AWO Dachau"/>
    <tag k="wheelchair" v="yes"/>
    <tag k="addr:city" v="Dachau"/>
    <tag k="addr:postcode" v="85221"/>
    <tag k="addr:housenumber" v="15"/>
    <tag k="addr:street" v="Konrad Adenauer Straße"/>
    <tag k="amenity" v="community_center"/>
    <tag k="website" v="http://www.awo-dachau.de"/>
    <tag k="phone" v="+49 8131 6150127"/>
  </node>
  <node id="-4850" version="0" timestamp="Fri Feb 24 10:53:36 +0100 2012" uid="1" user="" lat="48.1240199" lon="11.5513496">
    <tag k="name" v="Tiefgarage Kreisverwaltungsreferat"/>
    <tag k="wheelchair" v="yes"/>
    <tag k="addr:city" v="München"/>
    <tag k="addr:housenumber" v="19"/>
    <tag k="addr:street" v="Ruppertstraße"/>
    <tag k="wheelchair:description" v="Nur während der Öffnungszeiten des KVR geöffnet"/>
    <tag k="amenity" v="parking"/>
    <tag k="website" v="http://www.muenchen.de"/>
  </node>
  <node id="-4863" version="0" timestamp="Fri Feb 24 10:53:36 +0100 2012" uid="1" user="" lat="47.6454154" lon="11.7456216">
    <tag k="name" v="Raiffeisenbank Gmund am Tegernsee eG"/>
    <tag k="wheelchair" v="yes"/>
    <tag k="addr:city" v="Kreuth"/>
    <tag k="addr:postcode" v="83708"/>
    <tag k="addr:housenumber" v="8"/>
    <tag k="addr:street" v="Nördliche Hauptstraße"/>
    <tag k="amenity" v="atm"/>
  </node>
  <node id="-4904" version="0" timestamp="Fri Feb 24 10:53:36 +0100 2012" uid="1" user="" lat="48.10455" lon="11.41446">
    <tag k="name" v="Heide Volm - Rest. und Biergarten"/>
    <tag k="wheelchair" v="limited"/>
    <tag k="addr:city" v="Planegg"/>
    <tag k="wheelchair:description" v="Innenräume und Biergarten zugänglich u. befahrbar. Rolli-WC  in den kalten monaten nicht verfügbar. Parkplatzsituation für Rolli-Selbstfahrer oft extrem schwierig"/>
    <tag k="amenity" v="restaurant"/>
  </node>
  <node id="-5011" version="0" timestamp="Fri Feb 24 10:53:36 +0100 2012" uid="1" user="" lat="48.1045175" lon="11.4145856">
    <tag k="name" v="Heide Volm - Biergarten und Restaurant"/>
    <tag k="wheelchair" v="limited"/>
    <tag k="addr:city" v="Planegg"/>
    <tag k="wheelchair:description" v="Rolli-WC in den kalten Monaten nicht benutzbar - Parkplatzsituation oft sehr schwierig"/>
    <tag k="amenity" v="biergarten"/>
  </node>
  <node id="-5017" version="0" timestamp="Fri Feb 24 10:53:36 +0100 2012" uid="1" user="" lat="48.16438" lon="11.2276">
    <tag k="name" v="Frauennotruf und -beratung / Frauen helfen Frauen FFB e.V."/>
    <tag k="wheelchair" v="yes"/>
    <tag k="addr:city" v="Fürstenfeldbruck"/>
    <tag k="addr:postcode" v="82256"/>
    <tag k="addr:housenumber" v="56"/>
    <tag k="addr:street" v="Am Sulzbogen"/>
    <tag k="amenity" v="social_facility"/>
    <tag k="website" v="http://www.fhf-ffb.de"/>
    <tag k="phone" v="08141 / 290 850"/>
  </node>
  <node id="-5038" version="0" timestamp="Fri Feb 24 10:53:36 +0100 2012" uid="1" user="" lat="48.160717" lon="11.5735028">
    <tag k="name" v="MOP Integrativer Jugendtreff - Für Mädchen und Jungen mit und ohne Behinderung im Alter von 11-18 Jahren"/>
    <tag k="wheelchair" v="yes"/>
    <tag k="addr:city" v="München"/>
    <tag k="addr:postcode" v="80796"/>
    <tag k="addr:housenumber" v="2"/>
    <tag k="addr:street" v="Fallmerayerstraße"/>
    <tag k="wheelchair:description" v="Eingang stufenlos, alle Räume stufenlos, Rollstuhl-WC vorhanden."/>
    <tag k="amenity" v="cafe"/>
    <tag k="website" v="http://www.mop2.net"/>
    <tag k="phone" v="089 - 30 40 73"/>
  </node>
  <node id="-5076" version="0" timestamp="Fri Feb 24 10:53:37 +0100 2012" uid="1" user="" lat="48.09571" lon="11.77429">
    <tag k="name" v="Evang.-Luth. Gemeinde Petrikirche"/>
    <tag k="wheelchair" v="unknown"/>
    <tag k="addr:city" v="Baldham"/>
    <tag k="addr:postcode" v="85598"/>
    <tag k="addr:housenumber" v="28"/>
    <tag k="addr:street" v="Martin-Luther-Ring"/>
    <tag k="amenity" v="place_of_worship"/>
    <tag k="website" v="http://petrigemeinde.de/"/>
    <tag k="phone" v="+49 8106 9962-6"/>
  </node>
  <node id="-5077" version="0" timestamp="Fri Feb 24 10:53:37 +0100 2012" uid="1" user="" lat="48.0973067" lon="11.7866783">
    <tag k="name" v="Pfarrei Maria Königin"/>
    <tag k="wheelchair" v="unknown"/>
    <tag k="addr:city" v="Baldham"/>
    <tag k="addr:postcode" v="85598"/>
    <tag k="addr:housenumber" v="1"/>
    <tag k="addr:street" v="Brunnenstraße"/>
    <tag k="amenity" v="place_of_worship"/>
    <tag k="website" v="http://www.mariakoeniginbaldham.de/"/>
    <tag k="phone" v="+49 8106 37960"/>
  </node>
  <node id="-5078" version="0" timestamp="Fri Feb 24 10:53:37 +0100 2012" uid="1" user="" lat="48.0985349" lon="11.8021818">
    <tag k="name" v="Spielplatz"/>
    <tag k="wheelchair" v="unknown"/>
    <tag k="leisure" v="playground"/>
  </node>
  <node id="-5079" version="0" timestamp="Fri Feb 24 10:53:37 +0100 2012" uid="1" user="" lat="48.0816645" lon="11.8247181">
    <tag k="shop" v="medical_supply"/>
    <tag k="name" v="Orthomed Sanitätshaus - Medizintechnik GmbH"/>
    <tag k="wheelchair" v="limited"/>
    <tag k="addr:city" v="Zorneding"/>
    <tag k="addr:postcode" v="85604"/>
    <tag k="addr:housenumber" v="1"/>
    <tag k="addr:street" v="Ilchinger Weg"/>
    <tag k="website" v="http://www.orthomed-muenchen.de/"/>
    <tag k="phone" v="49 8106 364-0"/>
  </node>
  <node id="-5139" version="0" timestamp="Fri Feb 24 10:53:37 +0100 2012" uid="1" user="" lat="47.876617" lon="11.6966457">
    <tag k="name" v="BaTuSa"/>
    <tag k="wheelchair" v="unknown"/>
    <tag k="amenity" v="swimming_pool"/>
  </node>
  <node id="-5140" version="0" timestamp="Fri Feb 24 10:53:37 +0100 2012" uid="1" user="" lat="47.8760388" lon="11.6980226">
    <tag k="name" v="Hauptschule Holzkirchen"/>
    <tag k="wheelchair" v="unknown"/>
    <tag k="amenity" v="school"/>
  </node>
  <node id="-5141" version="0" timestamp="Fri Feb 24 10:53:37 +0100 2012" uid="1" user="" lat="47.880027" lon="11.7047174">
    <tag k="name" v="Kindergarten Frühlingsdorf"/>
    <tag k="wheelchair" v="unknown"/>
    <tag k="amenity" v="kindergarten"/>
  </node>
  <node id="-5208" version="0" timestamp="Fri Feb 24 10:53:37 +0100 2012" uid="1" user="" lat="47.7590943" lon="11.552739">
    <tag k="name" v="Tourist Info with Toilet"/>
    <tag k="wheelchair" v="yes"/>
    <tag k="amenity" v="toilets"/>
  </node>
  <node id="-5315" version="0" timestamp="Fri Feb 24 10:53:37 +0100 2012" uid="1" user="" lat="48.1367366" lon="11.5700981">
    <tag k="name" v="Bricelta"/>
    <tag k="wheelchair" v="limited"/>
    <tag k="wheelchair:description" v="Sehr klein und eng"/>
    <tag k="amenity" v="restaurant"/>
  </node>
  <node id="-5316" version="0" timestamp="Fri Feb 24 10:53:37 +0100 2012" uid="1" user="" lat="48.0960116" lon="11.7859649">
    <tag k="shop" v="beverages"/>
    <tag k="name" v="Bonvino Weine &amp; Präsente &amp; Tee"/>
    <tag k="wheelchair" v="unknown"/>
    <tag k="addr:city" v="Baldham"/>
    <tag k="addr:postcode" v="85598"/>
    <tag k="addr:housenumber" v="82"/>
    <tag k="addr:street" v="Karl-Böhm-Straße"/>
    <tag k="website" v="http://www.bonvino.de/"/>
    <tag k="phone" v="+49 8106 3480211"/>
  </node>
  <node id="-5317" version="0" timestamp="Fri Feb 24 10:53:37 +0100 2012" uid="1" user="" lat="48.0966442" lon="11.7860673">
    <tag k="shop" v="beverages"/>
    <tag k="name" v="NIDA III"/>
    <tag k="wheelchair" v="unknown"/>
    <tag k="addr:city" v="Baldham"/>
    <tag k="addr:postcode" v="85598"/>
    <tag k="addr:housenumber" v="2"/>
    <tag k="addr:street" v="Brunnenstraße"/>
    <tag k="phone" v="+49 8106 32828"/>
  </node>
  <node id="-5342" version="0" timestamp="Fri Feb 24 10:53:37 +0100 2012" uid="1" user="" lat="48.1269575" lon="11.3677543">
    <tag k="name" v="Jesus-Christus-Kirche"/>
    <tag k="wheelchair" v="yes"/>
    <tag k="addr:city" v="Germering"/>
    <tag k="addr:postcode" v="82110"/>
    <tag k="addr:housenumber" v="6-8"/>
    <tag k="addr:street" v="Hartstr. "/>
    <tag k="amenity" v="place_of_worship"/>
  </node>
  <node id="-5343" version="0" timestamp="Fri Feb 24 10:53:37 +0100 2012" uid="1" user="" lat="48.127028" lon="11.3681631">
    <tag k="name" v="Blue Bar"/>
    <tag k="wheelchair" v="no"/>
    <tag k="addr:city" v="Germering"/>
    <tag k="addr:postcode" v="82110"/>
    <tag k="addr:housenumber" v="6-8"/>
    <tag k="addr:street" v="Hartstr. "/>
    <tag k="wheelchair:description" v="Jugendhaus"/>
    <tag k="amenity" v="community_center"/>
  </node>
  <node id="-5435" version="0" timestamp="Fri Feb 24 10:53:37 +0100 2012" uid="1" user="" lat="48.16938" lon="11.53578">
    <tag k="name" v="Santander Consumer Bank"/>
    <tag k="wheelchair" v="limited"/>
    <tag k="addr:city" v="München - Borstei"/>
    <tag k="addr:postcode" v="80637"/>
    <tag k="addr:housenumber" v="2"/>
    <tag k="addr:street" v="Pickelstraße"/>
    <tag k="amenity" v="bank"/>
    <tag k="website" v="http://www.santander.de"/>
  </node>
  <node id="-5476" version="0" timestamp="Fri Feb 24 10:53:37 +0100 2012" uid="1" user="" lat="47.82064" lon="12.49325">
    <tag k="name" v="Gemeinschaftspraxis Übersee"/>
    <tag k="wheelchair" v="limited"/>
    <tag k="addr:city" v="Übersee"/>
    <tag k="addr:postcode" v="83236"/>
    <tag k="addr:housenumber" v="4"/>
    <tag k="addr:street" v="Dorfstraße"/>
    <tag k="wheelchair:description" v="1. Stock großer Aufzug vorhanden"/>
    <tag k="amenity" v="doctors"/>
    <tag k="website" v="http://www.gemeinschaftspraxis-uebersee.de"/>
    <tag k="phone" v="(08642)6565"/>
  </node>
  <node id="-5477" version="0" timestamp="Fri Feb 24 10:53:37 +0100 2012" uid="1" user="" lat="47.82075" lon="12.48834">
    <tag k="name" v="VR-Bank"/>
    <tag k="wheelchair" v="limited"/>
    <tag k="addr:city" v="Übersee"/>
    <tag k="addr:postcode" v="83236"/>
    <tag k="addr:housenumber" v="4"/>
    <tag k="addr:street" v="Dorfstraße"/>
    <tag k="wheelchair:description" v="keine Behindertentoilette"/>
    <tag k="amenity" v="bank"/>
    <tag k="phone" v="08642 8983-0"/>
  </node>
  <node id="-5478" version="0" timestamp="Fri Feb 24 10:53:37 +0100 2012" uid="1" user="" lat="47.84506" lon="12.47778">
    <tag k="name" v="Seewirtschaft"/>
    <tag k="wheelchair" v="no"/>
    <tag k="addr:city" v="Übersee"/>
    <tag k="addr:postcode" v="83236"/>
    <tag k="addr:housenumber" v="11"/>
    <tag k="addr:street" v="Julius-Exter-Promenade"/>
    <tag k="amenity" v="restaurant"/>
  </node>
  <node id="-5507" version="0" timestamp="Fri Feb 24 10:53:37 +0100 2012" uid="1" user="" lat="48.1356358" lon="11.5471584">
    <tag k="name" v="Mhmk, Hochschule für Medien und Kommunikation"/>
    <tag k="wheelchair" v="yes"/>
    <tag k="addr:city" v="München"/>
    <tag k="addr:postcode" v="80339"/>
    <tag k="addr:housenumber" v="4"/>
    <tag k="addr:street" v="Gollierstr."/>
    <tag k="amenity" v="bank"/>
    <tag k="website" v="http://www.mhmk.org"/>
    <tag k="phone" v="089 544 151 0"/>
  </node>
  <node id="-5544" version="0" timestamp="Fri Feb 24 10:53:37 +0100 2012" uid="1" user="" lat="48.1613372" lon="11.754102">
    <tag k="shop" v="medical_supply"/>
    <tag k="name" v="Rolli World GmbH"/>
    <tag k="wheelchair" v="yes"/>
    <tag k="addr:city" v="Kirchheim-Heimstetten"/>
    <tag k="addr:postcode" v="85551"/>
    <tag k="addr:housenumber" v="24"/>
    <tag k="addr:street" v="Hauptstraße"/>
    <tag k="wheelchair:description" v="Partner für Reha- und (In)Kontinenzartikel "/>
    <tag k="website" v="http://www.rolli-world.de"/>
  </node>
  <node id="-5602" version="0" timestamp="Fri Feb 24 10:53:37 +0100 2012" uid="1" user="" lat="48.3014543" lon="11.902392">
    <tag k="name" v="Grichisches Restaurant Ilios"/>
    <tag k="wheelchair" v="limited"/>
    <tag k="addr:city" v="Erding"/>
    <tag k="addr:postcode" v="85453"/>
    <tag k="addr:housenumber" v="40"/>
    <tag k="addr:street" v="Pointnermühle"/>
    <tag k="wheelchair:description" v="Super Essen. Zugang zum Restaurant sehr gut. Toilettentüren viel zu schmal"/>
    <tag k="amenity" v="restaurant"/>
  </node>
  <node id="-5625" version="0" timestamp="Fri Feb 24 10:53:37 +0100 2012" uid="1" user="" lat="47.81167" lon="10.8835">
    <tag k="name" v="Dr Lerch"/>
    <tag k="wheelchair" v="yes"/>
    <tag k="addr:city" v="Schongau"/>
    <tag k="addr:postcode" v="86956"/>
    <tag k="addr:housenumber" v="42"/>
    <tag k="addr:street" v="Schönlinde Str."/>
    <tag k="wheelchair:description" v="Barrierefreie Zahnarztpraxis"/>
    <tag k="amenity" v="doctors"/>
    <tag k="website" v="http://www.zahnarzt-lerch-schongau.de/"/>
  </node>
  <node id="-5626" version="0" timestamp="Fri Feb 24 10:53:37 +0100 2012" uid="1" user="" lat="47.81167" lon="10.8835">
    <tag k="name" v="Dr Lerch"/>
    <tag k="wheelchair" v="yes"/>
    <tag k="addr:city" v="Schongau"/>
    <tag k="addr:postcode" v="86956"/>
    <tag k="addr:housenumber" v="42"/>
    <tag k="addr:street" v="Schönlinder Str."/>
    <tag k="wheelchair:description" v="Barrierefreie Zahnarztpraxis"/>
    <tag k="amenity" v="doctors"/>
    <tag k="website" v="http://www.zahnarzt-lerch-schongau.de/"/>
  </node>
  <node id="-5627" version="0" timestamp="Fri Feb 24 10:53:37 +0100 2012" uid="1" user="" lat="47.81167" lon="10.8835">
    <tag k="name" v="Dr Lerch"/>
    <tag k="wheelchair" v="yes"/>
    <tag k="addr:city" v="Schongau"/>
    <tag k="addr:postcode" v="86956"/>
    <tag k="addr:housenumber" v="42"/>
    <tag k="addr:street" v="Schönlinder Straße"/>
    <tag k="wheelchair:description" v="Barrierefreie Zahnarztpraxis"/>
    <tag k="amenity" v="doctors"/>
    <tag k="website" v="http://www.zahnarzt-lerch-schongau.de/"/>
  </node>
</osm>
