<?xml version='1.0' encoding='UTF-8'?>
<osm version="0.6" generator="Osmosis 0.39">
  <node id="-12" version="0" timestamp="Fri Feb 24 10:53:32 +0100 2012" uid="1" user="" lat="48.26949" lon="10.895">
    <tag k="name" v="Brunnenschule "/>
    <tag k="wheelchair" v="yes"/>
    <tag k="amenity" v="school"/>
    <tag k="website" v="http://www.lebenshilfe-augsburg.de"/>
  </node>
  <node id="-13" version="0" timestamp="Fri Feb 24 10:53:32 +0100 2012" uid="1" user="" lat="48.27073" lon="10.89689">
    <tag k="name" v="Oppenländer Turnhalle"/>
    <tag k="wheelchair" v="yes"/>
  </node>
  <node id="-69" version="0" timestamp="Fri Feb 24 10:53:32 +0100 2012" uid="1" user="" lat="48.39453" lon="10.01199">
    <tag k="shop" v="doityourself"/>
    <tag k="name" v="OBI"/>
    <tag k="wheelchair" v="yes"/>
    <tag k="wheelchair:description" v="Rollstuhltoilette vorhanden"/>
  </node>
  <node id="-70" version="0" timestamp="Fri Feb 24 10:53:32 +0100 2012" uid="1" user="" lat="48.395664" lon="10.0218885">
    <tag k="name" v="KFC"/>
    <tag k="wheelchair" v="yes"/>
    <tag k="wheelchair:description" v="Rollstuhltoilette vorhanden"/>
    <tag k="amenity" v="fast_food"/>
  </node>
  <node id="-71" version="0" timestamp="Fri Feb 24 10:53:32 +0100 2012" uid="1" user="" lat="48.3950418" lon="10.0199541">
    <tag k="shop" v="electronics"/>
    <tag k="name" v="Pro-Viddeo"/>
    <tag k="wheelchair" v="no"/>
    <tag k="wheelchair:description" v="&gt; 10 Stufen"/>
  </node>
  <node id="-77" version="0" timestamp="Fri Feb 24 10:53:32 +0100 2012" uid="1" user="" lat="48.3989871" lon="10.006164">
    <tag k="name" v="Barfüßer Biergarten"/>
    <tag k="wheelchair" v="yes"/>
    <tag k="wheelchair:description" v="Rollstuhltoilette vorhanden"/>
    <tag k="amenity" v="restaurant"/>
  </node>
  <node id="-78" version="0" timestamp="Fri Feb 24 10:53:32 +0100 2012" uid="1" user="" lat="48.3965506" lon="10.0153637">
    <tag k="name" v="Italmarkt"/>
    <tag k="wheelchair" v="limited"/>
    <tag k="wheelchair:description" v="Stufenlos, keine Rollstuhltoilette"/>
    <tag k="amenity" v="bank"/>
  </node>
  <node id="-79" version="0" timestamp="Fri Feb 24 10:53:32 +0100 2012" uid="1" user="" lat="48.39166" lon="10.0204">
    <tag k="shop" v="doityourself"/>
    <tag k="name" v="Hornbach"/>
    <tag k="wheelchair" v="yes"/>
    <tag k="wheelchair:description" v="Rollstuhltoilette vorhanden"/>
  </node>
  <node id="-80" version="0" timestamp="Fri Feb 24 10:53:32 +0100 2012" uid="1" user="" lat="48.30447" lon="10.16034">
    <tag k="name" v="St-Ulrich Apotheke"/>
    <tag k="wheelchair" v="limited"/>
    <tag k="addr:city" v="Weißenhorn"/>
    <tag k="addr:postcode" v="89264"/>
    <tag k="addr:housenumber" v="3"/>
    <tag k="addr:street" v="Reichenbacher Str."/>
    <tag k="wheelchair:description" v="Stufenlos, keine Rollstuhltoilette"/>
    <tag k="amenity" v="pharmacy"/>
    <tag k="phone" v="07309-5200"/>
  </node>
  <node id="-142" version="0" timestamp="Fri Feb 24 10:53:32 +0100 2012" uid="1" user="" lat="48.42579" lon="10.40993">
    <tag k="name" v="raiba"/>
    <tag k="wheelchair" v="unknown"/>
    <tag k="addr:city" v="burgau"/>
    <tag k="addr:postcode" v="89331"/>
    <tag k="addr:housenumber" v="2"/>
    <tag k="addr:street" v="augsburger strasse"/>
    <tag k="amenity" v="bank"/>
  </node>
  <node id="-202" version="0" timestamp="Fri Feb 24 10:53:32 +0100 2012" uid="1" user="" lat="48.39126" lon="9.98768">
    <tag k="name" v="Ulmer Paddler e.V."/>
    <tag k="wheelchair" v="limited"/>
    <tag k="addr:city" v="Neu-Ulm"/>
    <tag k="addr:postcode" v="89231"/>
    <tag k="addr:housenumber" v="5"/>
    <tag k="tourism" v="camp_site"/>
    <tag k="addr:street" v="Bootshausstr."/>
    <tag k="wheelchair:description" v="über Terasse ohne Stufe, ansonsten je eine Stufe"/>
    <tag k="website" v="http://www.ulmer-paddler.de"/>
  </node>
  <node id="-214" version="0" timestamp="Fri Feb 24 10:53:32 +0100 2012" uid="1" user="" lat="48.37502" lon="10.89426">
    <tag k="shop" v="optician"/>
    <tag k="name" v="Augenoptik Frank e.K."/>
    <tag k="wheelchair" v="yes"/>
    <tag k="addr:city" v="Augsburg"/>
    <tag k="addr:postcode" v="86152"/>
    <tag k="addr:housenumber" v="42"/>
    <tag k="addr:street" v="Frauentorstr. "/>
    <tag k="wheelchair:description" v="stufenlos und extrbreite Ladentüre"/>
    <tag k="website" v="http://www.augenoptik-frank.de"/>
    <tag k="phone" v="+49 821 313 503"/>
  </node>
  <node id="-354" version="0" timestamp="Fri Feb 24 10:53:32 +0100 2012" uid="1" user="" lat="47.8789976" lon="10.6189934">
    <tag k="name" v="VR Bank"/>
    <tag k="wheelchair" v="yes"/>
    <tag k="amenity" v="bank"/>
  </node>
  <node id="-378" version="0" timestamp="Fri Feb 24 10:53:32 +0100 2012" uid="1" user="" lat="48.2208659" lon="10.1024785">
    <tag k="name" v="Altes Posthalterhaus"/>
    <tag k="wheelchair" v="yes"/>
    <tag k="amenity" v="restaurant"/>
  </node>
  <node id="-540" version="0" timestamp="Fri Feb 24 10:53:32 +0100 2012" uid="1" user="" lat="48.26434" lon="10.44546">
    <tag k="name" v="Gemeinde Ursberg"/>
    <tag k="wheelchair" v="yes"/>
    <tag k="addr:city" v="Ursberg"/>
    <tag k="addr:postcode" v="86513"/>
    <tag k="addr:housenumber" v="20"/>
    <tag k="addr:street" v="Prämonstratenserstr. "/>
    <tag k="website" v="http://www.ursberg.de"/>
    <tag k="phone" v="+4982819897-0"/>
  </node>
  <node id="-654" version="0" timestamp="Fri Feb 24 10:53:32 +0100 2012" uid="1" user="" lat="48.3915218" lon="10.0195226">
    <tag k="shop" v="doityourself"/>
    <tag k="name" v="Hornbach"/>
    <tag k="wheelchair" v="yes"/>
    <tag k="wheelchair:description" v="Rollstuhltoilette vorhanden, Alle Räume erreichbar"/>
  </node>
  <node id="-694" version="0" timestamp="Fri Feb 24 10:53:32 +0100 2012" uid="1" user="" lat="48.3667" lon="10.8833">
    <tag k="shop" v="clothes"/>
    <tag k="name" v="Mode Obermeier GmbH"/>
    <tag k="wheelchair" v="yes"/>
    <tag k="addr:city" v="Krumbach"/>
    <tag k="addr:postcode" v="86381"/>
    <tag k="addr:housenumber" v="46-48"/>
    <tag k="addr:street" v="Karl-Mantel-Straße"/>
    <tag k="wheelchair:description" v="Eigener, geräumiger Parkplatz am Haus, Eingang ebenerdig, großer Aufzug, keine Stufen in den Verkaufsflächen, genügend Bewegunsfreiheit im Verkaufsraum. Leider kein Rollstuhl-WC. Hilfsbereites Personal."/>
    <tag k="website" v="http://www.mode-obermeier.de/"/>
    <tag k="phone" v="(08282) 3035"/>
  </node>
  <node id="-792" version="0" timestamp="Fri Feb 24 10:53:32 +0100 2012" uid="1" user="" lat="48.0458993" lon="10.4869462">
    <tag k="shop" v="optician"/>
    <tag k="name" v="trendOptic"/>
    <tag k="wheelchair" v="yes"/>
    <tag k="addr:city" v="Mindelheim"/>
    <tag k="addr:postcode" v="87719"/>
    <tag k="addr:housenumber" v="61"/>
    <tag k="addr:street" v="Maximilianstr."/>
  </node>
  <node id="-793" version="0" timestamp="Fri Feb 24 10:53:32 +0100 2012" uid="1" user="" lat="48.0458642" lon="10.489429">
    <tag k="name" v="Städt. Tiefgarage"/>
    <tag k="wheelchair" v="yes"/>
    <tag k="wheelchair:description" v="Innenstadt barrierefrei erreichbar"/>
    <tag k="amenity" v="parking"/>
  </node>
  <node id="-798" version="0" timestamp="Fri Feb 24 10:53:32 +0100 2012" uid="1" user="" lat="48.1837791" lon="10.4223776">
    <tag k="name" v="Kreuzbräu / Kellerbar"/>
    <tag k="wheelchair" v="no"/>
    <tag k="amenity" v="pub"/>
  </node>
  <node id="-926" version="0" timestamp="Fri Feb 24 10:53:33 +0100 2012" uid="1" user="" lat="47.8757579" lon="10.6209157">
    <tag k="name" v="McCallion&apos;s Irish Pub"/>
    <tag k="wheelchair" v="limited"/>
    <tag k="addr:city" v="Kaufbeuren"/>
    <tag k="addr:postcode" v="87600"/>
    <tag k="addr:housenumber" v="22"/>
    <tag k="addr:street" v="Innere Buchleuthenstraße"/>
    <tag k="wheelchair:description" v="WC&apos;s über eine 8 cm hohe Stufe erreichbar. Personal jedoch sehr Hilfsbereit und zuvorkommend."/>
    <tag k="amenity" v="pub"/>
    <tag k="website" v="http://www.mccallionsirishpub.de/"/>
    <tag k="phone" v="08341/2901"/>
  </node>
  <node id="-928" version="0" timestamp="Fri Feb 24 10:53:33 +0100 2012" uid="1" user="" lat="47.9204518" lon="10.6279592">
    <tag k="name" v="Freibad Neugablonz"/>
    <tag k="wheelchair" v="limited"/>
    <tag k="addr:city" v="Kauf"/>
    <tag k="addr:postcode" v="87600"/>
    <tag k="addr:housenumber" v="83"/>
    <tag k="addr:street" v="Gewerbestraße"/>
    <tag k="wheelchair:description" v="WC&apos;s über eine Stufe erreichbar."/>
    <tag k="amenity" v="swimming_pool"/>
  </node>
  <node id="-948" version="0" timestamp="Fri Feb 24 10:53:33 +0100 2012" uid="1" user="" lat="48.4579788" lon="11.1292561">
    <tag k="name" v="Taormina"/>
    <tag k="wheelchair" v="no"/>
    <tag k="wheelchair:description" v="Stufe am Eingang"/>
    <tag k="amenity" v="restaurant"/>
  </node>
  <node id="-969" version="0" timestamp="Fri Feb 24 10:53:33 +0100 2012" uid="1" user="" lat="48.3703517" lon="10.9063794">
    <tag k="shop" v="optician"/>
    <tag k="name" v="Designer Optik"/>
    <tag k="wheelchair" v="yes"/>
    <tag k="addr:city" v="Augsburg"/>
    <tag k="addr:postcode" v="86152"/>
    <tag k="addr:housenumber" v="51"/>
    <tag k="addr:street" v="Jakober Str. "/>
    <tag k="wheelchair:description" v="Ebenerdiger Seiteneingang, Eigener Parkplatz mit Eingang"/>
    <tag k="website" v="http://www.designer-optik.de"/>
    <tag k="phone" v="+49 821 31983644"/>
  </node>
  <node id="-970" version="0" timestamp="Fri Feb 24 10:53:33 +0100 2012" uid="1" user="" lat="48.3703518" lon="10.9063818">
    <tag k="shop" v="optician"/>
    <tag k="name" v="Designer Optik"/>
    <tag k="wheelchair" v="unknown"/>
    <tag k="addr:city" v="Augsburg"/>
    <tag k="addr:postcode" v="86152"/>
    <tag k="addr:housenumber" v="51"/>
    <tag k="addr:street" v="Jakober Str."/>
    <tag k="wheelchair:description" v="Ebenerdiger Seiteneingang, Eigener Parkplatz mit Eingang"/>
    <tag k="website" v="http://www.designer-optik.de"/>
    <tag k="phone" v="+49 821 31983644"/>
  </node>
  <node id="-971" version="0" timestamp="Fri Feb 24 10:53:33 +0100 2012" uid="1" user="" lat="48.3702823" lon="10.90638">
    <tag k="shop" v="clothes"/>
    <tag k="name" v="Designer Diamonds Juwelier"/>
    <tag k="wheelchair" v="yes"/>
    <tag k="addr:city" v="Augsburg"/>
    <tag k="addr:postcode" v="86152"/>
    <tag k="addr:housenumber" v="51"/>
    <tag k="addr:street" v="Jakober Str."/>
    <tag k="wheelchair:description" v="Ebenerdiger Seiteneingang, Eigener Parkplatz mit Eingang"/>
    <tag k="website" v="http://www.designer-diamonds.de"/>
    <tag k="phone" v="+49 821 159021"/>
  </node>
  <node id="-972" version="0" timestamp="Fri Feb 24 10:53:33 +0100 2012" uid="1" user="" lat="48.3658964" lon="10.9060306">
    <tag k="shop" v="clothes"/>
    <tag k="name" v="Designer Diamonds Juwelier City Galerie Augsburg"/>
    <tag k="wheelchair" v="yes"/>
    <tag k="addr:city" v="Augsburg"/>
    <tag k="addr:postcode" v="86153"/>
    <tag k="addr:housenumber" v="1"/>
    <tag k="addr:street" v="Willy-Brandt-Platz"/>
    <tag k="wheelchair:description" v="Fahrstuhl, ebenerdiger Eingang, Behindertenparklätze"/>
    <tag k="website" v="http://www.designer-diamonds.de"/>
    <tag k="phone" v="+49 821 5670351"/>
  </node>
  <node id="-1005" version="0" timestamp="Fri Feb 24 10:53:33 +0100 2012" uid="1" user="" lat="47.5626304" lon="10.2034055">
    <tag k="shop" v="clothes"/>
    <tag k="name" v="Kunert Herstellerverkauf Bau5"/>
    <tag k="wheelchair" v="yes"/>
    <tag k="addr:city" v="Immenstadt"/>
    <tag k="addr:postcode" v="87509"/>
    <tag k="addr:housenumber" v="44"/>
    <tag k="addr:street" v="Julius Kunert Straße "/>
    <tag k="website" v="http://www.bau5.de"/>
    <tag k="phone" v="+49832312275"/>
  </node>
  <node id="-1230" version="0" timestamp="Fri Feb 24 10:53:33 +0100 2012" uid="1" user="" lat="47.5026308" lon="10.2792871">
    <tag k="name" v="Wonnemar"/>
    <tag k="wheelchair" v="yes"/>
    <tag k="amenity" v="swimming_pool"/>
  </node>
  <node id="-1353" version="0" timestamp="Fri Feb 24 10:53:33 +0100 2012" uid="1" user="" lat="48.26257" lon="10.87786">
    <tag k="name" v="Fritz-"/>
    <tag k="wheelchair" v="unknown"/>
    <tag k="amenity" v="bank"/>
  </node>
  <node id="-1355" version="0" timestamp="Fri Feb 24 10:53:33 +0100 2012" uid="1" user="" lat="48.26881" lon="10.8949">
    <tag k="name" v="Fritz-Felsenstein-Haus e.V."/>
    <tag k="wheelchair" v="yes"/>
    <tag k="addr:city" v="Königsbrunn"/>
    <tag k="addr:postcode" v="86343"/>
    <tag k="addr:housenumber" v="6-8"/>
    <tag k="addr:street" v="Karwendelstr."/>
    <tag k="amenity" v="school"/>
    <tag k="website" v="http://www.felsenstein.org"/>
  </node>
  <node id="-2147" version="0" timestamp="Fri Feb 24 10:53:34 +0100 2012" uid="1" user="" lat="48.232447" lon="10.3195244">
    <tag k="shop" v="beverages"/>
    <tag k="name" v="Milchbar"/>
    <tag k="wheelchair" v="yes"/>
  </node>
  <node id="-2148" version="0" timestamp="Fri Feb 24 10:53:34 +0100 2012" uid="1" user="" lat="48.2306774" lon="10.3165674">
    <tag k="name" v="Kartoffeldepot"/>
    <tag k="wheelchair" v="no"/>
    <tag k="tourism" v="zoo"/>
  </node>
  <node id="-2149" version="0" timestamp="Fri Feb 24 10:53:34 +0100 2012" uid="1" user="" lat="48.2363973" lon="10.3385498">
    <tag k="name" v="Alexas Sexschuppen"/>
    <tag k="wheelchair" v="limited"/>
    <tag k="tourism" v="theme_park"/>
  </node>
  <node id="-2409" version="0" timestamp="Fri Feb 24 10:53:34 +0100 2012" uid="1" user="" lat="47.9839514" lon="10.1859905">
    <tag k="name" v="Rex Palast"/>
    <tag k="wheelchair" v="yes"/>
    <tag k="addr:city" v="Memmingen"/>
    <tag k="addr:postcode" v="87700"/>
    <tag k="addr:housenumber" v="16"/>
    <tag k="addr:street" v="Bahnhofstraße"/>
    <tag k="wheelchair:description" v="Extra Rollstuhlrampe, leider die Toiletten nicht"/>
    <tag k="amenity" v="cinema"/>
    <tag k="website" v="http://www.rex-memmingen.de"/>
    <tag k="phone" v="+49 8331 96 10 244"/>
  </node>
  <node id="-2412" version="0" timestamp="Fri Feb 24 10:53:34 +0100 2012" uid="1" user="" lat="47.9829087" lon="10.1849708">
    <tag k="name" v="Parkhaus Steinbogenstraße"/>
    <tag k="wheelchair" v="yes"/>
    <tag k="addr:city" v="Memmingen"/>
    <tag k="addr:postcode" v="87700"/>
    <tag k="addr:street" v="Steinbogenstrasse"/>
    <tag k="wheelchair:description" v="Behindertenparkplätze im EG"/>
    <tag k="amenity" v="parking"/>
  </node>
  <node id="-2621" version="0" timestamp="Fri Feb 24 10:53:34 +0100 2012" uid="1" user="" lat="48.8498788" lon="10.4886734">
    <tag k="name" v="Dr. Kroczek (Internist)"/>
    <tag k="wheelchair" v="limited"/>
    <tag k="wheelchair:description" v="über Hintereingang"/>
    <tag k="amenity" v="doctors"/>
  </node>
  <node id="-2622" version="0" timestamp="Fri Feb 24 10:53:34 +0100 2012" uid="1" user="" lat="48.84916" lon="10.49097">
    <tag k="name" v="P"/>
    <tag k="wheelchair" v="yes"/>
    <tag k="amenity" v="parking"/>
  </node>
  <node id="-2624" version="0" timestamp="Fri Feb 24 10:53:34 +0100 2012" uid="1" user="" lat="48.8541" lon="10.48264">
    <tag k="shop" v="electronics"/>
    <tag k="name" v="Expert Müller"/>
    <tag k="wheelchair" v="limited"/>
  </node>
  <node id="-2784" version="0" timestamp="Fri Feb 24 10:53:34 +0100 2012" uid="1" user="" lat="48.2184004" lon="10.3104913">
    <tag k="name" v="Mitzy&apos;s - Sex auf Rädern"/>
    <tag k="wheelchair" v="yes"/>
    <tag k="railway" v="subway_entrance"/>
  </node>
  <node id="-3090" version="0" timestamp="Fri Feb 24 10:53:35 +0100 2012" uid="1" user="" lat="47.874098" lon="10.6409076">
    <tag k="shop" v="supermarket"/>
    <tag k="name" v="V-Markt"/>
    <tag k="wheelchair" v="yes"/>
  </node>
  <node id="-3093" version="0" timestamp="Fri Feb 24 10:53:35 +0100 2012" uid="1" user="" lat="47.8812" lon="10.62146">
    <tag k="name" v="Stadttheater"/>
    <tag k="wheelchair" v="limited"/>
    <tag k="amenity" v="theatre"/>
  </node>
  <node id="-3094" version="0" timestamp="Fri Feb 24 10:53:35 +0100 2012" uid="1" user="" lat="47.87739" lon="10.62627">
    <tag k="name" v="Sparkassenarena"/>
    <tag k="wheelchair" v="limited"/>
    <tag k="leisure" v="arena"/>
  </node>
  <node id="-3146" version="0" timestamp="Fri Feb 24 10:53:35 +0100 2012" uid="1" user="" lat="48.3541998" lon="10.9791879">
    <tag k="name" v="Cosmoscafe"/>
    <tag k="wheelchair" v="limited"/>
    <tag k="addr:city" v="Friedberg"/>
    <tag k="addr:postcode" v="86316"/>
    <tag k="addr:housenumber" v="8"/>
    <tag k="addr:street" v="Jungbräustr."/>
    <tag k="wheelchair:description" v="Nebeneingang mit einer Stufe"/>
    <tag k="amenity" v="bar"/>
    <tag k="website" v="http://www.cosmoscafe.de"/>
    <tag k="phone" v="0821 2638959"/>
  </node>
  <node id="-3213" version="0" timestamp="Fri Feb 24 10:53:35 +0100 2012" uid="1" user="" lat="48.35486" lon="10.91241">
    <tag k="name" v="Asia Sunshine"/>
    <tag k="wheelchair" v="yes"/>
    <tag k="wheelchair:description" v="Keine Stufen, elektr. Türöffner, Behindertentoilette"/>
    <tag k="amenity" v="restaurant"/>
  </node>
  <node id="-3267" version="0" timestamp="Fri Feb 24 10:53:35 +0100 2012" uid="1" user="" lat="48.3692252" lon="10.8950691">
    <tag k="name" v="Neue Stadtbücherei"/>
    <tag k="wheelchair" v="yes"/>
    <tag k="amenity" v="library"/>
  </node>
  <node id="-3268" version="0" timestamp="Fri Feb 24 10:53:35 +0100 2012" uid="1" user="" lat="48.2915173" lon="10.889633">
    <tag k="shop" v="supermarket"/>
    <tag k="name" v="real Warenhaus"/>
    <tag k="wheelchair" v="yes"/>
  </node>
  <node id="-3269" version="0" timestamp="Fri Feb 24 10:53:35 +0100 2012" uid="1" user="" lat="48.2907808" lon="10.8890315">
    <tag k="shop" v="supermarket"/>
    <tag k="name" v="Aldi Süd"/>
    <tag k="wheelchair" v="yes"/>
  </node>
  <node id="-3391" version="0" timestamp="Fri Feb 24 10:53:35 +0100 2012" uid="1" user="" lat="47.8083471" lon="10.2869189">
    <tag k="name" v="Sparkasse"/>
    <tag k="wheelchair" v="yes"/>
    <tag k="amenity" v="bank"/>
  </node>
  <node id="-3764" version="0" timestamp="Fri Feb 24 10:53:35 +0100 2012" uid="1" user="" lat="48.3621479" lon="10.8691915">
    <tag k="name" v="Postagentur"/>
    <tag k="wheelchair" v="no"/>
    <tag k="amenity" v="post_office"/>
  </node>
  <node id="-4678" version="0" timestamp="Fri Feb 24 10:53:36 +0100 2012" uid="1" user="" lat="48.8528048" lon="10.4906792">
    <tag k="name" v="Schwarzer Reisebüro"/>
    <tag k="wheelchair" v="limited"/>
    <tag k="addr:city" v="Nördlingen"/>
    <tag k="addr:postcode" v="86720"/>
    <tag k="addr:housenumber" v="17"/>
    <tag k="addr:street" v="Löpsinger Straße"/>
    <tag k="wheelchair:description" v="Eine Stufe am Eingang"/>
    <tag k="website" v="http://www.schwarzer-reisen.de/"/>
    <tag k="phone" v="+49  9081  290 888"/>
    <tag k="office" v="company"/>
  </node>
  <node id="-4679" version="0" timestamp="Fri Feb 24 10:53:36 +0100 2012" uid="1" user="" lat="48.8631548" lon="10.5050308">
    <tag k="name" v="Schwarzer Riese- und Verkehrsbüro GmbH"/>
    <tag k="wheelchair" v="limited"/>
    <tag k="addr:city" v="Nördlingen"/>
    <tag k="addr:postcode" v="86720"/>
    <tag k="addr:housenumber" v="5"/>
    <tag k="addr:street" v="Oettinger Straße"/>
    <tag k="website" v="http://www.billiger-fliegen.de"/>
    <tag k="phone" v="+49 9081 4018"/>
    <tag k="office" v="company"/>
  </node>
  <node id="-4680" version="0" timestamp="Fri Feb 24 10:53:36 +0100 2012" uid="1" user="" lat="48.5811774" lon="10.4949407">
    <tag k="name" v="Reisebüro Dillingen"/>
    <tag k="wheelchair" v="yes"/>
    <tag k="addr:city" v="Dillingen an der Donau"/>
    <tag k="addr:postcode" v="89407"/>
    <tag k="addr:housenumber" v="17"/>
    <tag k="addr:street" v="Kapuzinerstraße"/>
    <tag k="phone" v="+49  9071 - 3292"/>
    <tag k="office" v="company"/>
  </node>
  <node id="-5164" version="0" timestamp="Fri Feb 24 10:53:37 +0100 2012" uid="1" user="" lat="48.3667" lon="10.8833">
    <tag k="name" v="&quot;Brodwoschd&quot; - Restaurant, Bratwursthäusle"/>
    <tag k="wheelchair" v="limited"/>
    <tag k="addr:city" v="Rothenburg ob der Tauber"/>
    <tag k="addr:postcode" v="91541"/>
    <tag k="addr:housenumber" v="33"/>
    <tag k="addr:street" v="Galgengasse"/>
    <tag k="wheelchair:description" v="Das Lokal ist, außer der Toilette, komplett mit Rollstuhl zu befahren"/>
    <tag k="amenity" v="restaurant"/>
    <tag k="website" v="http://www.brodwoschd.de"/>
    <tag k="phone" v="+49 (9861) 9361509"/>
  </node>
</osm>
