<?xml version='1.0' encoding='UTF-8'?>
<osm version="0.6" generator="Osmosis 0.39">
  <node id="-129" version="0" timestamp="Fri Feb 24 10:53:32 +0100 2012" uid="1" user="" lat="49.73546" lon="10.1614">
    <tag k="name" v="Döner Kervan"/>
    <tag k="wheelchair" v="yes"/>
    <tag k="amenity" v="restaurant"/>
  </node>
  <node id="-218" version="0" timestamp="Fri Feb 24 10:53:32 +0100 2012" uid="1" user="" lat="49.9817904" lon="9.1386091">
    <tag k="name" v="Gesundheitsamt Aschaffenburg"/>
    <tag k="wheelchair" v="yes"/>
    <tag k="addr:city" v="Aschaffenburg"/>
    <tag k="addr:postcode" v="63741"/>
    <tag k="addr:housenumber" v="1-3"/>
    <tag k="addr:street" v="Merlostrasse"/>
    <tag k="wheelchair:description" v="Aufzug und Behindertenparkplatz im Hof"/>
    <tag k="website" v="http://www.landkreis-aschaffenburg.de/gesund-soziales/gesundheit/gesundheitsamt/"/>
    <tag k="phone" v="+49 6021 394-100"/>
  </node>
  <node id="-232" version="0" timestamp="Fri Feb 24 10:53:32 +0100 2012" uid="1" user="" lat="49.9788604" lon="9.1506081">
    <tag k="name" v="Kinopolis"/>
    <tag k="wheelchair" v="yes"/>
    <tag k="addr:city" v="Aschaffenburg"/>
    <tag k="addr:postcode" v="63739"/>
    <tag k="addr:housenumber" v="25"/>
    <tag k="addr:street" v="Goldbcher Strasse"/>
    <tag k="wheelchair:description" v="Aufzug"/>
    <tag k="amenity" v="cinema"/>
    <tag k="website" v="http://www.kinopolis.de/ab"/>
    <tag k="phone" v="+49 6021 35-7357"/>
  </node>
  <node id="-345" version="0" timestamp="Fri Feb 24 10:53:32 +0100 2012" uid="1" user="" lat="49.9804706" lon="9.1531433">
    <tag k="shop" v="supermarket"/>
    <tag k="name" v="AMAVINO"/>
    <tag k="wheelchair" v="limited"/>
    <tag k="addr:city" v="Aschaffenburg"/>
    <tag k="addr:postcode" v="63739"/>
    <tag k="addr:housenumber" v="51"/>
    <tag k="addr:street" v="Goldbacher Straße"/>
    <tag k="wheelchair:description" v="stufenloser Zugang, Parkplätze vorhanden"/>
    <tag k="website" v="http://www.amavino.de"/>
    <tag k="phone" v="+49 6021 3869429"/>
  </node>
  <node id="-1077" version="0" timestamp="Fri Feb 24 10:53:33 +0100 2012" uid="1" user="" lat="49.7819244" lon="9.1699018">
    <tag k="name" v="Wika Casino"/>
    <tag k="wheelchair" v="unknown"/>
    <tag k="amenity" v="restaurant"/>
  </node>
  <node id="-1080" version="0" timestamp="Fri Feb 24 10:53:33 +0100 2012" uid="1" user="" lat="49.7817133" lon="9.1770898">
    <tag k="name" v="Restaurant Schöne Aussicht"/>
    <tag k="wheelchair" v="unknown"/>
    <tag k="amenity" v="restaurant"/>
  </node>
  <node id="-1082" version="0" timestamp="Fri Feb 24 10:53:33 +0100 2012" uid="1" user="" lat="49.78171" lon="9.17709">
    <tag k="name" v="Hotel Schöne Aussicht"/>
    <tag k="wheelchair" v="unknown"/>
    <tag k="tourism" v="hotel"/>
  </node>
  <node id="-1090" version="0" timestamp="Fri Feb 24 10:53:33 +0100 2012" uid="1" user="" lat="49.8500084" lon="9.07555">
    <tag k="shop" v="supermarket"/>
    <tag k="name" v="Netto Marken-Discount"/>
    <tag k="wheelchair" v="limited"/>
  </node>
  <node id="-1093" version="0" timestamp="Fri Feb 24 10:53:33 +0100 2012" uid="1" user="" lat="49.8502314" lon="9.0766336">
    <tag k="shop" v="department_store"/>
    <tag k="name" v="Rofu -Spielwaren"/>
    <tag k="wheelchair" v="limited"/>
  </node>
  <node id="-1095" version="0" timestamp="Fri Feb 24 10:53:33 +0100 2012" uid="1" user="" lat="49.8507558" lon="9.0781481">
    <tag k="shop" v="clothes"/>
    <tag k="name" v="hefa Moden"/>
    <tag k="wheelchair" v="limited"/>
  </node>
  <node id="-1097" version="0" timestamp="Fri Feb 24 10:53:33 +0100 2012" uid="1" user="" lat="49.84975" lon="9.07477">
    <tag k="shop" v="department_store"/>
    <tag k="name" v="Schlecker "/>
    <tag k="wheelchair" v="limited"/>
  </node>
  <node id="-1098" version="0" timestamp="Fri Feb 24 10:53:33 +0100 2012" uid="1" user="" lat="49.8498641" lon="9.0750919">
    <tag k="shop" v="beverages"/>
    <tag k="name" v="Gentränke Hohm"/>
    <tag k="wheelchair" v="limited"/>
  </node>
  <node id="-1099" version="0" timestamp="Fri Feb 24 10:53:33 +0100 2012" uid="1" user="" lat="49.8501089" lon="9.0783868">
    <tag k="shop" v="garden_centre"/>
    <tag k="name" v="Gärtnerei Löwer"/>
    <tag k="wheelchair" v="limited"/>
  </node>
  <node id="-1100" version="0" timestamp="Fri Feb 24 10:53:33 +0100 2012" uid="1" user="" lat="49.8543716" lon="9.0865964">
    <tag k="name" v="Eiscafe Lido"/>
    <tag k="wheelchair" v="no"/>
    <tag k="amenity" v="cafe"/>
  </node>
  <node id="-1519" version="0" timestamp="Fri Feb 24 10:53:33 +0100 2012" uid="1" user="" lat="50.3131257" lon="9.8864449">
    <tag k="name" v="Frank Clemens"/>
    <tag k="wheelchair" v="limited"/>
    <tag k="wheelchair:description" v="Eine Stufe"/>
    <tag k="amenity" v="restaurant"/>
  </node>
  <node id="-1758" version="0" timestamp="Fri Feb 24 10:53:33 +0100 2012" uid="1" user="" lat="50.05" lon="10.3167">
    <tag k="name" v="Cinestar Metropolis"/>
    <tag k="wheelchair" v="yes"/>
    <tag k="addr:city" v="Frankfurt am Main"/>
    <tag k="addr:postcode" v="60322"/>
    <tag k="addr:housenumber" v="40"/>
    <tag k="addr:street" v="Eschersheimer Straße"/>
    <tag k="wheelchair:description" v="Kinosaal 1,2,3,7,10 nicht befahrbar"/>
    <tag k="amenity" v="cinema"/>
    <tag k="website" v="http://www.cinestar.de"/>
  </node>
  <node id="-2493" version="0" timestamp="Fri Feb 24 10:53:34 +0100 2012" uid="1" user="" lat="49.7466385" lon="9.9581749">
    <tag k="name" v="PHYSIOpuls - Praxis für Physiotherapie, Krankengymnastik und Massage"/>
    <tag k="wheelchair" v="yes"/>
    <tag k="addr:city" v="Würzburg"/>
    <tag k="addr:postcode" v="97084"/>
    <tag k="addr:housenumber" v="11"/>
    <tag k="addr:street" v="Place de Caen"/>
    <tag k="wheelchair:description" v="Stufenloser Zugang zu der Praxis"/>
    <tag k="amenity" v="doctors"/>
    <tag k="website" v="http://www.physiopuls.de"/>
    <tag k="phone" v="+49 931 20535105"/>
  </node>
  <node id="-2732" version="0" timestamp="Fri Feb 24 10:53:34 +0100 2012" uid="1" user="" lat="49.97887" lon="9.14942">
    <tag k="name" v="Kinopolis"/>
    <tag k="wheelchair" v="yes"/>
    <tag k="amenity" v="cinema"/>
  </node>
  <node id="-2733" version="0" timestamp="Fri Feb 24 10:53:34 +0100 2012" uid="1" user="" lat="49.9778544" lon="9.1505302">
    <tag k="shop" v="mall"/>
    <tag k="name" v="City Galerie "/>
    <tag k="wheelchair" v="yes"/>
  </node>
  <node id="-2735" version="0" timestamp="Fri Feb 24 10:53:34 +0100 2012" uid="1" user="" lat="49.9783914" lon="9.1501104">
    <tag k="name" v="Oskar"/>
    <tag k="wheelchair" v="yes"/>
    <tag k="amenity" v="restaurant"/>
  </node>
  <node id="-2738" version="0" timestamp="Fri Feb 24 10:53:34 +0100 2012" uid="1" user="" lat="49.7942635" lon="9.9533593">
    <tag k="name" v="Missionsärztliches Institut"/>
    <tag k="wheelchair" v="yes"/>
    <tag k="addr:city" v="Würzburg"/>
    <tag k="addr:postcode" v="97074"/>
    <tag k="addr:housenumber" v="7"/>
    <tag k="addr:street" v="Salvattorstraße"/>
    <tag k="amenity" v="hospital"/>
    <tag k="website" v="http://www.medmissio.de/"/>
    <tag k="phone" v="+49 931 7910"/>
  </node>
  <node id="-2781" version="0" timestamp="Fri Feb 24 10:53:34 +0100 2012" uid="1" user="" lat="49.7281781" lon="9.9959449">
    <tag k="name" v="Romantische Scheune im Weingut Leo Sauer (Veranstaltungsraum, nur temporär buchbar)"/>
    <tag k="wheelchair" v="limited"/>
    <tag k="addr:city" v="Eibelstadt"/>
    <tag k="addr:postcode" v="97246"/>
    <tag k="addr:housenumber" v="33"/>
    <tag k="addr:street" v="Würzburger Strasse "/>
    <tag k="wheelchair:description" v="Veranstaltungsscheune komplett barrierefrei, Toiletten über Aufzug und 3 Stufen erreichbar."/>
    <tag k="amenity" v="restaurant"/>
    <tag k="website" v="http://www.weingut-leo-sauer.de"/>
    <tag k="phone" v="0049 9303 536"/>
  </node>
  <node id="-3204" version="0" timestamp="Fri Feb 24 10:53:35 +0100 2012" uid="1" user="" lat="50.3772613" lon="9.9142954">
    <tag k="shop" v="supermarket"/>
    <tag k="name" v="Rewe"/>
    <tag k="wheelchair" v="yes"/>
    <tag k="addr:city" v="Wildflecken"/>
    <tag k="addr:postcode" v="97772"/>
    <tag k="addr:housenumber" v="58"/>
    <tag k="addr:street" v="Bischofsheimer Straße"/>
    <tag k="wheelchair:description" v="Zugang ebenerdig, Gänge breit"/>
    <tag k="website" v="http://www.rewe.de/meinkaufsbox/markt/marktinfo.html?marketId=361641"/>
    <tag k="phone" v="09745-9300131"/>
  </node>
  <node id="-3205" version="0" timestamp="Fri Feb 24 10:53:35 +0100 2012" uid="1" user="" lat="50.3784334" lon="9.9144985">
    <tag k="name" v="Volksbank (VR-Bank)"/>
    <tag k="wheelchair" v="limited"/>
    <tag k="addr:city" v="Wildflecken"/>
    <tag k="addr:postcode" v="97772"/>
    <tag k="addr:housenumber" v="61"/>
    <tag k="addr:street" v="Bischofsheimer Str."/>
    <tag k="wheelchair:description" v="Zugang über Stufe, innen ebenerdig"/>
    <tag k="amenity" v="bank"/>
    <tag k="website" v="https://www.die-vrbank.de/unsere-filialen/60-wildflecken.html"/>
    <tag k="phone" v="09745/2011"/>
  </node>
  <node id="-4155" version="0" timestamp="Fri Feb 24 10:53:36 +0100 2012" uid="1" user="" lat="49.97439" lon="9.1499">
    <tag k="name" v="Domus"/>
    <tag k="wheelchair" v="limited"/>
    <tag k="addr:city" v="Aschaffenburg"/>
    <tag k="addr:postcode" v="63739"/>
    <tag k="addr:housenumber" v="49"/>
    <tag k="addr:street" v="Sandgasse"/>
    <tag k="amenity" v="bar"/>
    <tag k="website" v="http://domus-ab.de/"/>
  </node>
  <node id="-4609" version="0" timestamp="Fri Feb 24 10:53:36 +0100 2012" uid="1" user="" lat="49.7554697" lon="10.1767869">
    <tag k="shop" v="supermarket"/>
    <tag k="name" v="Kaufland"/>
    <tag k="wheelchair" v="yes"/>
  </node>
  <node id="-4611" version="0" timestamp="Fri Feb 24 10:53:36 +0100 2012" uid="1" user="" lat="49.7555878" lon="10.1776268">
    <tag k="name" v="Parkplatz am Kaufland"/>
    <tag k="wheelchair" v="yes"/>
    <tag k="amenity" v="parking"/>
  </node>
  <node id="-5411" version="0" timestamp="Fri Feb 24 10:53:37 +0100 2012" uid="1" user="" lat="49.7953" lon="9.93552">
    <tag k="name" v="Santander Consumer Bank"/>
    <tag k="wheelchair" v="limited"/>
    <tag k="addr:city" v="Würzburg"/>
    <tag k="addr:postcode" v="97070"/>
    <tag k="addr:housenumber" v="14"/>
    <tag k="addr:street" v="Theaterstraße"/>
    <tag k="amenity" v="bank"/>
    <tag k="website" v="http://www.santander.de"/>
  </node>
  <node id="-5472" version="0" timestamp="Fri Feb 24 10:53:37 +0100 2012" uid="1" user="" lat="50.0102887" lon="9.0625243">
    <tag k="name" v="Kempf`s Partyküche"/>
    <tag k="wheelchair" v="yes"/>
    <tag k="addr:city" v="Kleinostheim"/>
    <tag k="addr:postcode" v="63801"/>
    <tag k="addr:housenumber" v="59"/>
    <tag k="addr:street" v="Hörsteiner Straße "/>
    <tag k="wheelchair:description" v="Der komplette Gastraum, Gartenwirtschaft ist Stufenlos und somit für Rollstuhlfahrer und Kinderwägen barrierefrei! Barrierefrei Feier!"/>
    <tag k="amenity" v="restaurant"/>
    <tag k="website" v="http://www.kempfs-partykueche.de"/>
    <tag k="phone" v="+49 6027 - 5968"/>
  </node>
  <node id="-5683" version="0" timestamp="Fri Feb 24 10:53:37 +0100 2012" uid="1" user="" lat="49.801505" lon="9.8110694">
    <tag k="name" v="Lebenshilfe Würzburg e.V., Offene Hilfen"/>
    <tag k="wheelchair" v="yes"/>
    <tag k="addr:city" v="Würzburg"/>
    <tag k="addr:postcode" v="97ß82"/>
    <tag k="addr:housenumber" v="16"/>
    <tag k="addr:street" v="Wilhelm-Dahl-Straße"/>
    <tag k="office" v="company"/>
  </node>
</osm>
