<?xml version='1.0' encoding='UTF-8'?>
<osm version="0.6" generator="Osmosis 0.39">
  <node id="-2962" version="0" timestamp="Fri Feb 24 10:53:34 +0100 2012" uid="1" user="" lat="50.9944102" lon="12.4363754">
    <tag k="name" v="Lerchenberggx"/>
    <tag k="wheelchair" v="unknown"/>
    <tag k="amenity" v="bank"/>
  </node>
  <node id="-2963" version="0" timestamp="Fri Feb 24 10:53:34 +0100 2012" uid="1" user="" lat="50.9944203" lon="12.4364076">
    <tag k="name" v="Lerchenberggymnasium"/>
    <tag k="wheelchair" v="yes"/>
    <tag k="addr:city" v="Altenburg"/>
    <tag k="addr:postcode" v="04600"/>
    <tag k="addr:housenumber" v="2 - 4"/>
    <tag k="addr:street" v="Borchertstraße"/>
    <tag k="wheelchair:description" v="Parkplatzeingang rollstuhlgerecht/Aufzug vorhanden/Behindertentoilette"/>
    <tag k="amenity" v="school"/>
    <tag k="website" v="http://www.lerchenberggymnasium.de/"/>
    <tag k="phone" v="03 44 7 / 50 00 21"/>
  </node>
  <node id="-3166" version="0" timestamp="Fri Feb 24 10:53:35 +0100 2012" uid="1" user="" lat="50.98441" lon="12.4339">
    <tag k="shop" v="convenience"/>
    <tag k="name" v="Konsum"/>
    <tag k="wheelchair" v="yes"/>
    <tag k="addr:city" v="Altenburg"/>
    <tag k="addr:postcode" v="04600"/>
    <tag k="addr:street" v="Kornmarkt"/>
  </node>
  <node id="-3167" version="0" timestamp="Fri Feb 24 10:53:35 +0100 2012" uid="1" user="" lat="50.98407" lon="12.43566">
    <tag k="name" v="Commerzbank"/>
    <tag k="wheelchair" v="yes"/>
    <tag k="addr:city" v="Altenburg"/>
    <tag k="addr:postcode" v="04600"/>
    <tag k="addr:street" v="wallstr-Hillgasse"/>
    <tag k="amenity" v="bank"/>
  </node>
  <node id="-3168" version="0" timestamp="Fri Feb 24 10:53:35 +0100 2012" uid="1" user="" lat="50.98519" lon="12.43366">
    <tag k="shop" v="department_store"/>
    <tag k="name" v="Drogeriemarkt Müller"/>
    <tag k="wheelchair" v="limited"/>
    <tag k="addr:city" v="Altenburg"/>
    <tag k="addr:postcode" v="04600"/>
    <tag k="addr:street" v="Markt"/>
  </node>
  <node id="-3169" version="0" timestamp="Fri Feb 24 10:53:35 +0100 2012" uid="1" user="" lat="50.98548" lon="12.43418">
    <tag k="shop" v="department_store"/>
    <tag k="name" v="Drogeriemarkt Roßmann"/>
    <tag k="wheelchair" v="limited"/>
    <tag k="addr:city" v="Atenburg"/>
    <tag k="addr:postcode" v="04600"/>
    <tag k="addr:street" v="Markt"/>
  </node>
  <node id="-3170" version="0" timestamp="Fri Feb 24 10:53:35 +0100 2012" uid="1" user="" lat="50.9834" lon="12.43632">
    <tag k="name" v="Zur Kunst"/>
    <tag k="wheelchair" v="no"/>
    <tag k="addr:city" v="Altenburg"/>
    <tag k="addr:street" v="Kunstgasse"/>
    <tag k="amenity" v="pub"/>
  </node>
  <node id="-3171" version="0" timestamp="Fri Feb 24 10:53:35 +0100 2012" uid="1" user="" lat="50.97941" lon="12.43385">
    <tag k="name" v="Inselzoo"/>
    <tag k="wheelchair" v="limited"/>
    <tag k="addr:city" v="Altenburg"/>
    <tag k="addr:postcode" v="04600"/>
    <tag k="tourism" v="zoo"/>
  </node>
  <node id="-3172" version="0" timestamp="Fri Feb 24 10:53:35 +0100 2012" uid="1" user="" lat="50.9961823" lon="12.4423666">
    <tag k="shop" v="mall"/>
    <tag k="name" v="Bahnhof-Center"/>
    <tag k="wheelchair" v="yes"/>
    <tag k="addr:city" v="Altenburg"/>
  </node>
</osm>
