<?xml version='1.0' encoding='UTF-8'?>
<osm version="0.6" generator="Osmosis 0.39">
  <node id="-366" version="0" timestamp="Fri Feb 24 10:53:32 +0100 2012" uid="1" user="" lat="51.3833144" lon="10.3257811">
    <tag k="name" v="Verband der Behinderten e.V "/>
    <tag k="wheelchair" v="yes"/>
    <tag k="addr:city" v="Leinefelde"/>
    <tag k="addr:postcode" v="37327"/>
    <tag k="addr:housenumber" v="12"/>
    <tag k="addr:street" v="Jahnstrße "/>
    <tag k="wheelchair:description" v="komplett rollstuhlgrecht"/>
    <tag k="website" v="http://www.vdbeichsfeld.de.vu"/>
    <tag k="phone" v="03605/513384"/>
  </node>
  <node id="-368" version="0" timestamp="Fri Feb 24 10:53:32 +0100 2012" uid="1" user="" lat="51.3835075" lon="10.3278568">
    <tag k="name" v="Edeka"/>
    <tag k="wheelchair" v="yes"/>
    <tag k="wheelchair:description" v="etwas eng- geht aber"/>
    <tag k="amenity" v="bank"/>
  </node>
  <node id="-650" version="0" timestamp="Fri Feb 24 10:53:32 +0100 2012" uid="1" user="" lat="51.3879701" lon="10.3278752">
    <tag k="shop" v="department_store"/>
    <tag k="name" v="Kaufland"/>
    <tag k="wheelchair" v="yes"/>
    <tag k="wheelchair:description" v="4 Rollstuhlparkplätze, Rollitoilette"/>
  </node>
  <node id="-651" version="0" timestamp="Fri Feb 24 10:53:32 +0100 2012" uid="1" user="" lat="51.3865957" lon="10.323307">
    <tag k="name" v="Post"/>
    <tag k="wheelchair" v="yes"/>
    <tag k="amenity" v="post_office"/>
  </node>
  <node id="-652" version="0" timestamp="Fri Feb 24 10:53:32 +0100 2012" uid="1" user="" lat="51.3865096" lon="10.3232188">
    <tag k="name" v="Neurologiepraxis"/>
    <tag k="wheelchair" v="yes"/>
    <tag k="amenity" v="doctors"/>
  </node>
  <node id="-1146" version="0" timestamp="Fri Feb 24 10:53:33 +0100 2012" uid="1" user="" lat="51.35" lon="10.28548">
    <tag k="name" v="Kaffeerösterei Schnibbe"/>
    <tag k="wheelchair" v="yes"/>
    <tag k="addr:city" v="Bad Lauterberg"/>
    <tag k="addr:postcode" v="37431"/>
    <tag k="addr:housenumber" v="2"/>
    <tag k="addr:street" v="Brauhardtgasse"/>
    <tag k="amenity" v="bank"/>
    <tag k="website" v="http://www.schnibbe-kaffee.de"/>
    <tag k="phone" v="05524/921040"/>
  </node>
  <node id="-4902" version="0" timestamp="Fri Feb 24 10:53:36 +0100 2012" uid="1" user="" lat="51.3838684" lon="10.329008">
    <tag k="name" v="Obereichsfeldhalle"/>
    <tag k="wheelchair" v="yes"/>
    <tag k="amenity" v="townhall"/>
  </node>
  <node id="-4903" version="0" timestamp="Fri Feb 24 10:53:36 +0100 2012" uid="1" user="" lat="51.3653341" lon="10.3335196">
    <tag k="name" v="Festhalle Siechen"/>
    <tag k="wheelchair" v="yes"/>
    <tag k="addr:city" v="Leinefelde-Worbis"/>
    <tag k="addr:postcode" v="37327"/>
    <tag k="addr:housenumber" v="20"/>
    <tag k="addr:street" v="Siehenstra0e"/>
    <tag k="amenity" v="townhall"/>
  </node>
</osm>
