<?xml version='1.0' encoding='UTF-8'?>
<osm version="0.6" generator="Osmosis 0.39">
  <node id="-88" version="0" timestamp="Fri Feb 24 10:53:32 +0100 2012" uid="1" user="" lat="50.9565396" lon="11.0245357">
    <tag k="name" v="Waldkasino"/>
    <tag k="wheelchair" v="yes"/>
    <tag k="addr:city" v="Erfurt"/>
    <tag k="addr:postcode" v="99096"/>
    <tag k="addr:housenumber" v="2"/>
    <tag k="addr:street" v="Waldkasino"/>
    <tag k="wheelchair:description" v="Rampe und Toilette vorhanden"/>
    <tag k="amenity" v="restaurant"/>
    <tag k="website" v="http://www.waldkasino.de/"/>
    <tag k="phone" v="0361/345 66 77"/>
  </node>
  <node id="-106" version="0" timestamp="Fri Feb 24 10:53:32 +0100 2012" uid="1" user="" lat="50.9771423" lon="11.0437325">
    <tag k="shop" v="bakery"/>
    <tag k="name" v="Bäckerei Wamser"/>
    <tag k="wheelchair" v="no"/>
    <tag k="addr:city" v="Erfurt"/>
    <tag k="addr:postcode" v="99085"/>
    <tag k="addr:housenumber" v="39"/>
    <tag k="addr:street" v="Ruhrstr. "/>
    <tag k="wheelchair:description" v="3 Stufen zum Eingang"/>
    <tag k="phone" v="+49 361 5620 349"/>
  </node>
  <node id="-774" version="0" timestamp="Fri Feb 24 10:53:32 +0100 2012" uid="1" user="" lat="50.95651" lon="11.02444">
    <tag k="name" v="Waldkasino Itailener "/>
    <tag k="wheelchair" v="yes"/>
    <tag k="wheelchair:description" v="alles zugänglich "/>
    <tag k="amenity" v="restaurant"/>
  </node>
  <node id="-1145" version="0" timestamp="Fri Feb 24 10:53:33 +0100 2012" uid="1" user="" lat="50.9833" lon="11.0333">
    <tag k="name" v="MW Autohaus Erfurt"/>
    <tag k="wheelchair" v="yes"/>
    <tag k="addr:city" v="Erfurt"/>
    <tag k="addr:postcode" v="99099"/>
    <tag k="addr:housenumber" v="33a"/>
    <tag k="addr:street" v="Weimarische Straße"/>
    <tag k="wheelchair:description" v="Minimale Stufen &amp; freundliche Helfer sofort zur Stelle!"/>
    <tag k="amenity" v="car_rental"/>
    <tag k="website" v="http://www.autohaus-erfurt.de"/>
    <tag k="phone" v="+49 361 262 89110"/>
  </node>
  <node id="-1361" version="0" timestamp="Fri Feb 24 10:53:33 +0100 2012" uid="1" user="" lat="50.974219" lon="11.060112">
    <tag k="name" v="MW Autohaus Erfurt"/>
    <tag k="wheelchair" v="yes"/>
    <tag k="addr:city" v="Erfurt"/>
    <tag k="addr:postcode" v="99099"/>
    <tag k="addr:housenumber" v="33a"/>
    <tag k="addr:street" v="Weimarische Straße"/>
    <tag k="wheelchair:description" v="Minimale Stufen &amp; freundliche Helfer sofort zur Stelle!"/>
    <tag k="amenity" v="car_rental"/>
    <tag k="website" v="http://www.autohaus-erfurt.de"/>
    <tag k="phone" v="+49 361 262 89110"/>
  </node>
  <node id="-1596" version="0" timestamp="Fri Feb 24 10:53:33 +0100 2012" uid="1" user="" lat="50.9803279" lon="11.0477762">
    <tag k="name" v="Fitness unlimited XS"/>
    <tag k="wheelchair" v="no"/>
    <tag k="addr:city" v="Erfurt"/>
    <tag k="addr:postcode" v="99085"/>
    <tag k="addr:housenumber" v="10a"/>
    <tag k="addr:street" v="Werner-Uhlworm-Str."/>
    <tag k="leisure" v="sports_centre"/>
    <tag k="phone" v="+49 361 5615314"/>
  </node>
  <node id="-4196" version="0" timestamp="Fri Feb 24 10:53:36 +0100 2012" uid="1" user="" lat="50.979366" lon="11.0604382">
    <tag k="name" v="Coworking Space Erfurt"/>
    <tag k="wheelchair" v="yes"/>
    <tag k="addr:city" v="Erfurt"/>
    <tag k="addr:postcode" v="99085"/>
    <tag k="addr:housenumber" v="8"/>
    <tag k="addr:street" v="Otto-Schwade-Straße "/>
    <tag k="wheelchair:description" v="Coworking Space auf 2 Etagen, voll barrierefrei erreichbar"/>
    <tag k="amenity" v="school"/>
    <tag k="website" v="http://www.coworking-erfurt.de"/>
    <tag k="phone" v="+49 361 6795567 "/>
  </node>
  <node id="-4328" version="0" timestamp="Fri Feb 24 10:53:36 +0100 2012" uid="1" user="" lat="50.97895" lon="11.03159">
    <tag k="name" v="Augustiener an der Krämerbrücke"/>
    <tag k="wheelchair" v="no"/>
    <tag k="addr:city" v="Erfurt"/>
    <tag k="addr:postcode" v="99084"/>
    <tag k="addr:housenumber" v="3"/>
    <tag k="addr:street" v="Horngasse"/>
    <tag k="wheelchair:description" v="nur bei Sonnenschein Biergarten"/>
    <tag k="amenity" v="restaurant"/>
    <tag k="website" v="http://www.augustiner-erfurt.de"/>
  </node>
  <node id="-4329" version="0" timestamp="Fri Feb 24 10:53:36 +0100 2012" uid="1" user="" lat="50.97835" lon="11.03047">
    <tag k="name" v="si-ju"/>
    <tag k="wheelchair" v="yes"/>
    <tag k="addr:city" v="Erfurt"/>
    <tag k="addr:postcode" v="99084"/>
    <tag k="addr:housenumber" v="1"/>
    <tag k="addr:street" v="Fischmarkt"/>
    <tag k="wheelchair:description" v="Direkt im Rathaus (seitlich, ebenerdig, WC)"/>
    <tag k="amenity" v="restaurant"/>
    <tag k="website" v="http://www.si-ju-erfurt.de/siju/"/>
  </node>
  <node id="-4330" version="0" timestamp="Fri Feb 24 10:53:36 +0100 2012" uid="1" user="" lat="50.97739" lon="11.03129">
    <tag k="shop" v="clothes"/>
    <tag k="name" v="Breuninger"/>
    <tag k="wheelchair" v="yes"/>
    <tag k="addr:city" v="Erfurt"/>
    <tag k="addr:postcode" v="99084"/>
    <tag k="addr:housenumber" v="4"/>
    <tag k="addr:street" v="Junkersand"/>
  </node>
  <node id="-4376" version="0" timestamp="Fri Feb 24 10:53:36 +0100 2012" uid="1" user="" lat="50.9748" lon="11.0208">
    <tag k="name" v="HNO-GEMEINSCHAFTSPRAXIS Weißflog"/>
    <tag k="wheelchair" v="limited"/>
    <tag k="addr:city" v="Erfurt"/>
    <tag k="addr:postcode" v="99084"/>
    <tag k="addr:housenumber" v="14"/>
    <tag k="addr:street" v="Mainzerhofplatz"/>
    <tag k="wheelchair:description" v="WC? schwere Glastüren, ebenerdig und Aufzug"/>
    <tag k="amenity" v="doctors"/>
    <tag k="website" v="http://www.hno-erfurt.de/"/>
    <tag k="phone" v="+49 361 5621255"/>
  </node>
  <node id="-4377" version="0" timestamp="Fri Feb 24 10:53:36 +0100 2012" uid="1" user="" lat="50.9748" lon="11.0208">
    <tag k="name" v="Dr. med. Horst Popp"/>
    <tag k="wheelchair" v="limited"/>
    <tag k="addr:city" v="Erfurt"/>
    <tag k="addr:postcode" v="99084"/>
    <tag k="addr:housenumber" v="14"/>
    <tag k="addr:street" v="Mainzerhofplatz"/>
    <tag k="wheelchair:description" v="WC? schwere Glastüren, ebenerdig und Aufzug"/>
    <tag k="amenity" v="doctors"/>
  </node>
  <node id="-4378" version="0" timestamp="Fri Feb 24 10:53:36 +0100 2012" uid="1" user="" lat="50.9748" lon="11.0208">
    <tag k="name" v="Große-Leege Hubertus Dr."/>
    <tag k="wheelchair" v="unknown"/>
    <tag k="addr:city" v="Erfurt"/>
    <tag k="addr:postcode" v="99084"/>
    <tag k="addr:housenumber" v="14"/>
    <tag k="addr:street" v="Mainzerhofplatz"/>
    <tag k="wheelchair:description" v="WC? schwere Glastüren, ebenerdig und Aufzug"/>
    <tag k="amenity" v="doctors"/>
  </node>
  <node id="-5189" version="0" timestamp="Fri Feb 24 10:53:37 +0100 2012" uid="1" user="" lat="50.9916808" lon="11.0106077">
    <tag k="name" v="Audimax"/>
    <tag k="wheelchair" v="unknown"/>
    <tag k="wheelchair:description" v="Fahrstuhl"/>
    <tag k="amenity" v="college"/>
  </node>
  <node id="-5190" version="0" timestamp="Fri Feb 24 10:53:37 +0100 2012" uid="1" user="" lat="50.9910823" lon="11.0108836">
    <tag k="name" v="Mitarbeitergebäude 1"/>
    <tag k="wheelchair" v="yes"/>
    <tag k="wheelchair:description" v="Rampe, Fahrstuhl, Zugang zu Senatssaal über gesonderten Fahrstuhl"/>
    <tag k="amenity" v="college"/>
  </node>
  <node id="-5191" version="0" timestamp="Fri Feb 24 10:53:37 +0100 2012" uid="1" user="" lat="50.9911948" lon="11.0089274">
    <tag k="name" v="Verwaltungsgebäude "/>
    <tag k="wheelchair" v="limited"/>
    <tag k="wheelchair:description" v="Abteilung Studium und Lehre sowie Mensa: Zugang über Rampe"/>
    <tag k="amenity" v="college"/>
  </node>
  <node id="-5192" version="0" timestamp="Fri Feb 24 10:53:37 +0100 2012" uid="1" user="" lat="50.9918991" lon="11.0084311">
    <tag k="name" v="Mensa (Zugang über Unikum)"/>
    <tag k="wheelchair" v="yes"/>
    <tag k="wheelchair:description" v="Rampe"/>
    <tag k="amenity" v="college"/>
  </node>
  <node id="-5193" version="0" timestamp="Fri Feb 24 10:53:37 +0100 2012" uid="1" user="" lat="50.9920182" lon="11.0088752">
    <tag k="name" v="Mensa (Zugang vom LG 2)"/>
    <tag k="wheelchair" v="yes"/>
    <tag k="wheelchair:description" v="Rampe, Behinderten-WC"/>
    <tag k="amenity" v="bank"/>
  </node>
  <node id="-5194" version="0" timestamp="Fri Feb 24 10:53:37 +0100 2012" uid="1" user="" lat="50.992064" lon="11.0088351">
    <tag k="name" v="Mensa (Zugang LG2)"/>
    <tag k="wheelchair" v="yes"/>
    <tag k="wheelchair:description" v="Rampe, Behinderten-WC"/>
    <tag k="amenity" v="bank"/>
  </node>
  <node id="-5195" version="0" timestamp="Fri Feb 24 10:53:37 +0100 2012" uid="1" user="" lat="50.992231" lon="11.0080783">
    <tag k="name" v="Lehrgebäude 2 (LG2)"/>
    <tag k="wheelchair" v="limited"/>
    <tag k="wheelchair:description" v="Rampe, Behinderten-WC im Erdgeschoss"/>
    <tag k="amenity" v="college"/>
  </node>
  <node id="-5196" version="0" timestamp="Fri Feb 24 10:53:37 +0100 2012" uid="1" user="" lat="50.9925339" lon="11.0097912">
    <tag k="name" v="Lehrgebäude 2"/>
    <tag k="wheelchair" v="limited"/>
    <tag k="wheelchair:description" v="Rampe, Fahrstuhl, Behinderten-WC, Zugang zu Hörsaal 3 (Erdgeschoss)"/>
    <tag k="amenity" v="college"/>
  </node>
  <node id="-5197" version="0" timestamp="Fri Feb 24 10:53:37 +0100 2012" uid="1" user="" lat="50.9902035" lon="11.0101065">
    <tag k="name" v="Lehrgebäude 4"/>
    <tag k="wheelchair" v="yes"/>
    <tag k="wheelchair:description" v="Fahrstuhl, Rampe, Behinderten-WC"/>
    <tag k="amenity" v="college"/>
  </node>
  <node id="-5198" version="0" timestamp="Fri Feb 24 10:53:37 +0100 2012" uid="1" user="" lat="50.9901275" lon="11.0077878">
    <tag k="name" v="Sporthalle USV"/>
    <tag k="wheelchair" v="yes"/>
    <tag k="wheelchair:description" v="Rampe, Behinderten-WC"/>
    <tag k="amenity" v="college"/>
  </node>
  <node id="-5199" version="0" timestamp="Fri Feb 24 10:53:37 +0100 2012" uid="1" user="" lat="50.9889837" lon="11.0073633">
    <tag k="name" v="Villa Martin"/>
    <tag k="wheelchair" v="limited"/>
    <tag k="wheelchair:description" v="Nur Erdgeschoss: Rampe, Behinderten-WC"/>
    <tag k="amenity" v="college"/>
  </node>
</osm>
