<?xml version='1.0' encoding='UTF-8'?>
<osm version="0.6" generator="Osmosis 0.39">
  <node id="-1056" version="0" timestamp="Fri Feb 24 10:53:33 +0100 2012" uid="1" user="" lat="50.95965" lon="10.71645">
    <tag k="name" v="Verband der Behinderten KV Gotha e.V."/>
    <tag k="wheelchair" v="yes"/>
    <tag k="addr:city" v="Gotha"/>
    <tag k="addr:postcode" v="99867"/>
    <tag k="addr:housenumber" v="33"/>
    <tag k="addr:street" v="Damaschkestrasse"/>
    <tag k="website" v="http://www.vdb-gotha.de"/>
    <tag k="phone" v="+493621 408080"/>
  </node>
  <node id="-2598" version="0" timestamp="Fri Feb 24 10:53:34 +0100 2012" uid="1" user="" lat="50.95463" lon="10.69521">
    <tag k="name" v="Stadthalle Gotha"/>
    <tag k="wheelchair" v="yes"/>
    <tag k="addr:city" v="Gotha"/>
    <tag k="addr:postcode" v="99867"/>
    <tag k="addr:housenumber" v="35"/>
    <tag k="addr:street" v="Goldbacher Strasse"/>
    <tag k="wheelchair:description" v="Behindertentoilette vorhanden"/>
    <tag k="amenity" v="townhall"/>
    <tag k="website" v="http://www.stadthalle-gotha.de"/>
    <tag k="phone" v="03621 743730"/>
  </node>
  <node id="-3595" version="0" timestamp="Fri Feb 24 10:53:35 +0100 2012" uid="1" user="" lat="50.9500135" lon="10.7165552">
    <tag k="name" v="Grenzmuseum Schifflersgrund"/>
    <tag k="wheelchair" v="yes"/>
    <tag k="addr:city" v="Asbach-Sickenberg"/>
    <tag k="addr:postcode" v="37318"/>
    <tag k="addr:housenumber" v="1"/>
    <tag k="tourism" v="museum"/>
    <tag k="addr:street" v="Platz der Wiedervereinigung "/>
    <tag k="wheelchair:description" v="Alles mit Rollstuhl erreichbar inkl. Behindertentoilette"/>
    <tag k="website" v="http://www.grenzmuseum.de"/>
    <tag k="phone" v="036087/98409"/>
  </node>
</osm>
