<?xml version='1.0' encoding='UTF-8'?>
<osm version="0.6" generator="Osmosis 0.39">
  <node id="-164" version="0" timestamp="Fri Feb 24 10:53:32 +0100 2012" uid="1" user="" lat="50.88808" lon="11.63113">
    <tag k="name" v="Landgaststätte am Goethepark"/>
    <tag k="wheelchair" v="limited"/>
    <tag k="wheelchair:description" v="Zugang über den Hintereingang, Toilette nur für Fußgänger"/>
    <tag k="amenity" v="restaurant"/>
  </node>
  <node id="-1837" version="0" timestamp="Fri Feb 24 10:53:33 +0100 2012" uid="1" user="" lat="50.932938" lon="11.5784601">
    <tag k="name" v="Uni Jena Institut für Psychologie"/>
    <tag k="wheelchair" v="no"/>
    <tag k="amenity" v="university"/>
  </node>
  <node id="-2741" version="0" timestamp="Fri Feb 24 10:53:34 +0100 2012" uid="1" user="" lat="50.9305748" lon="11.579252">
    <tag k="name" v="Grete-Unrein-Schule"/>
    <tag k="wheelchair" v="yes"/>
    <tag k="addr:city" v="Jena"/>
    <tag k="addr:postcode" v="07743"/>
    <tag k="addr:housenumber" v="1"/>
    <tag k="addr:street" v="August-Bebel-Straße"/>
    <tag k="wheelchair:description" v="Fahrstuhl vorhanden"/>
    <tag k="amenity" v="school"/>
    <tag k="website" v="http://www.igsjena.de/"/>
  </node>
  <node id="-2742" version="0" timestamp="Fri Feb 24 10:53:34 +0100 2012" uid="1" user="" lat="50.9380989" lon="11.5924024">
    <tag k="shop" v="supermarket"/>
    <tag k="name" v="Lidl"/>
    <tag k="wheelchair" v="yes"/>
  </node>
  <node id="-2743" version="0" timestamp="Fri Feb 24 10:53:34 +0100 2012" uid="1" user="" lat="50.8979023" lon="11.5823948">
    <tag k="name" v="Galaxsea"/>
    <tag k="wheelchair" v="unknown"/>
    <tag k="amenity" v="swimming_pool"/>
  </node>
  <node id="-2744" version="0" timestamp="Fri Feb 24 10:53:34 +0100 2012" uid="1" user="" lat="50.9293809" lon="11.5595983">
    <tag k="name" v="Bismarckturm"/>
    <tag k="wheelchair" v="no"/>
    <tag k="tourism" v="viewpoint"/>
  </node>
  <node id="-2745" version="0" timestamp="Fri Feb 24 10:53:34 +0100 2012" uid="1" user="" lat="50.9226719" lon="11.5548188">
    <tag k="name" v="Forstturm"/>
    <tag k="wheelchair" v="no"/>
    <tag k="tourism" v="viewpoint"/>
  </node>
  <node id="-2747" version="0" timestamp="Fri Feb 24 10:53:34 +0100 2012" uid="1" user="" lat="50.9391935" lon="11.5897027">
    <tag k="shop" v="bakery"/>
    <tag k="name" v="Bäckerei Bretschneider "/>
    <tag k="wheelchair" v="no"/>
    <tag k="addr:city" v="Jena"/>
    <tag k="addr:postcode" v="07743"/>
    <tag k="addr:housenumber" v="54"/>
    <tag k="addr:street" v="Dornburger Straße"/>
  </node>
  <node id="-2893" version="0" timestamp="Fri Feb 24 10:53:34 +0100 2012" uid="1" user="" lat="50.9236168" lon="11.591958">
    <tag k="name" v="Kooperative Gesamtschule &quot;Adolf Reichwein&quot; Jena"/>
    <tag k="wheelchair" v="unknown"/>
    <tag k="amenity" v="school"/>
  </node>
  <node id="-5383" version="0" timestamp="Fri Feb 24 10:53:37 +0100 2012" uid="1" user="" lat="50.92638" lon="11.58486">
    <tag k="name" v="Santander Consumer Bank"/>
    <tag k="wheelchair" v="limited"/>
    <tag k="addr:city" v="Jena"/>
    <tag k="addr:postcode" v="07743"/>
    <tag k="addr:housenumber" v="22"/>
    <tag k="addr:street" v="Grietgasse "/>
    <tag k="amenity" v="bank"/>
    <tag k="website" v="http://www.santander.de"/>
  </node>
  <node id="-5390" version="0" timestamp="Fri Feb 24 10:53:37 +0100 2012" uid="1" user="" lat="50.92844" lon="11.58695">
    <tag k="name" v="Rechtsanwälte Kögler &amp; Coll."/>
    <tag k="wheelchair" v="yes"/>
    <tag k="addr:city" v="Jena"/>
    <tag k="addr:postcode" v="07743"/>
    <tag k="addr:housenumber" v="5"/>
    <tag k="addr:street" v="Markt"/>
    <tag k="website" v="http://www.kanzlei-koegler.de"/>
    <tag k="phone" v="+49 3641 443655"/>
    <tag k="office" v="lawyer"/>
  </node>
  <node id="-5551" version="0" timestamp="Fri Feb 24 10:53:37 +0100 2012" uid="1" user="" lat="50.9294834" lon="11.5819784">
    <tag k="name" v="F-Haus"/>
    <tag k="wheelchair" v="no"/>
    <tag k="addr:city" v="Jena"/>
    <tag k="addr:postcode" v="07743"/>
    <tag k="addr:housenumber" v="14"/>
    <tag k="addr:street" v="Johannisplatz"/>
    <tag k="amenity" v="bar"/>
    <tag k="website" v="http://www.f-haus.de"/>
  </node>
</osm>
