<?xml version='1.0' encoding='UTF-8'?>
<osm version="0.6" generator="Osmosis 0.39">
  <node id="-85" version="0" timestamp="Fri Feb 24 10:53:32 +0100 2012" uid="1" user="" lat="50.6449344" lon="11.3615972">
    <tag k="shop" v="supermarket"/>
    <tag k="name" v="Weltladen Saalfeld"/>
    <tag k="wheelchair" v="yes"/>
    <tag k="addr:city" v="Saalfeld"/>
    <tag k="addr:postcode" v="07318"/>
    <tag k="addr:housenumber" v="1"/>
    <tag k="addr:street" v="Knochstraße"/>
    <tag k="wheelchair:description" v="Der gesamte ladenbereich und das integrierte Café sind rollstuhlgerecht. behinderten WC aud dem Parkplatz direkt neben dem Laden."/>
    <tag k="website" v="http://www.mein-weltladen.de"/>
    <tag k="phone" v="+49 3671 527953"/>
  </node>
  <node id="-2809" version="0" timestamp="Fri Feb 24 10:53:34 +0100 2012" uid="1" user="" lat="50.71955" lon="11.3338">
    <tag k="name" v="Heidecksburg Werkstätten"/>
    <tag k="wheelchair" v="yes"/>
    <tag k="addr:city" v="Rudolstadt"/>
    <tag k="addr:postcode" v="07407"/>
    <tag k="addr:housenumber" v="8"/>
    <tag k="addr:street" v="An den katzenlöchern "/>
    <tag k="wheelchair:description" v="WfbM"/>
    <tag k="website" v="http://www.lebenshilfewerk-ilmenau-rudolstadt.de/"/>
    <tag k="phone" v="03672-42950"/>
  </node>
  <node id="-4384" version="0" timestamp="Fri Feb 24 10:53:36 +0100 2012" uid="1" user="" lat="50.68576" lon="11.26393">
    <tag k="name" v="Evangelisches Allianzhaus"/>
    <tag k="wheelchair" v="limited"/>
    <tag k="addr:city" v="Bad Blankenburg"/>
    <tag k="addr:postcode" v="07422"/>
    <tag k="addr:housenumber" v="10"/>
    <tag k="tourism" v="hotel"/>
    <tag k="addr:street" v="Esplande"/>
    <tag k="website" v="http://www.allianzhaus.de"/>
    <tag k="phone" v="036741 210"/>
  </node>
  <node id="-4385" version="0" timestamp="Fri Feb 24 10:53:36 +0100 2012" uid="1" user="" lat="50.6855187" lon="11.2633882">
    <tag k="name" v="Evanglisches Allianzhaus"/>
    <tag k="wheelchair" v="yes"/>
    <tag k="addr:city" v="Bad Blankenburg"/>
    <tag k="addr:postcode" v="07422"/>
    <tag k="addr:housenumber" v="8"/>
    <tag k="tourism" v="hotel"/>
    <tag k="addr:street" v="Esplanade "/>
    <tag k="website" v="http://www.allianzhaus.de"/>
    <tag k="phone" v="036741 210"/>
  </node>
  <node id="-4386" version="0" timestamp="Fri Feb 24 10:53:36 +0100 2012" uid="1" user="" lat="50.685469" lon="11.2641142">
    <tag k="name" v="Leuchtbilick"/>
    <tag k="wheelchair" v="limited"/>
    <tag k="amenity" v="cafe"/>
  </node>
  <node id="-4387" version="0" timestamp="Fri Feb 24 10:53:36 +0100 2012" uid="1" user="" lat="50.6855059" lon="11.2638065">
    <tag k="name" v="Evangelisches Allianzhaus"/>
    <tag k="wheelchair" v="limited"/>
    <tag k="addr:city" v="Bad Blankenburg"/>
    <tag k="addr:postcode" v="07422"/>
    <tag k="addr:housenumber" v="7"/>
    <tag k="tourism" v="hotel"/>
    <tag k="addr:street" v="Esplanade "/>
    <tag k="website" v="http://www.allianzhaus.de"/>
    <tag k="phone" v="036741 210"/>
  </node>
  <node id="-4388" version="0" timestamp="Fri Feb 24 10:53:36 +0100 2012" uid="1" user="" lat="50.6845307" lon="11.2638881">
    <tag k="shop" v="books"/>
    <tag k="name" v="Lese-Insel Harfe"/>
    <tag k="wheelchair" v="limited"/>
    <tag k="website" v="http://www.leseinselharfe.de"/>
    <tag k="phone" v="036741 2370"/>
  </node>
</osm>
