<?xml version='1.0' encoding='UTF-8'?>
<osm version="0.6" generator="Osmosis 0.39">
  <node id="-2557" version="0" timestamp="Fri Feb 24 10:53:34 +0100 2012" uid="1" user="" lat="50.96944" lon="11.89692">
    <tag k="shop" v="department_store"/>
    <tag k="name" v="Rossmann Drogerie"/>
    <tag k="wheelchair" v="yes"/>
    <tag k="addr:city" v="Eisenberg"/>
    <tag k="addr:postcode" v="07607"/>
    <tag k="addr:street" v="Steinweg"/>
    <tag k="website" v="http://www.rossmann.de"/>
  </node>
  <node id="-3417" version="0" timestamp="Fri Feb 24 10:53:35 +0100 2012" uid="1" user="" lat="50.9619046" lon="11.838878">
    <tag k="name" v="Kirche Hainspitz"/>
    <tag k="wheelchair" v="yes"/>
    <tag k="addr:city" v="Haisnpitz"/>
    <tag k="addr:postcode" v="07607"/>
    <tag k="addr:street" v="Kirchstr"/>
    <tag k="amenity" v="place_of_worship"/>
  </node>
  <node id="-5548" version="0" timestamp="Fri Feb 24 10:53:37 +0100 2012" uid="1" user="" lat="50.83736" lon="11.73108">
    <tag k="name" v="Gasthaus zum Mohr"/>
    <tag k="wheelchair" v="limited"/>
    <tag k="addr:city" v="Tröbnitz"/>
    <tag k="addr:postcode" v="07646"/>
    <tag k="addr:housenumber" v="5"/>
    <tag k="addr:street" v="Hauptstraße"/>
    <tag k="amenity" v="restaurant"/>
    <tag k="website" v="http://www.gasthaus-zum-mohr.de/"/>
    <tag k="phone" v="0 36 428 / 13 95 7"/>
  </node>
</osm>
