<?xml version='1.0' encoding='UTF-8'?>
<osm version="0.6" generator="Osmosis 0.39">
  <node id="-991" version="0" timestamp="Fri Feb 24 10:53:33 +0100 2012" uid="1" user="" lat="50.8338598" lon="12.8907503">
    <tag k="shop" v="hairdresser"/>
    <tag k="name" v="Friseurr Haase"/>
    <tag k="wheelchair" v="no"/>
    <tag k="addr:city" v="Chemnitz"/>
    <tag k="addr:postcode" v="09116"/>
    <tag k="addr:housenumber" v="15"/>
    <tag k="addr:street" v="Schiersandstraße "/>
  </node>
  <node id="-992" version="0" timestamp="Fri Feb 24 10:53:33 +0100 2012" uid="1" user="" lat="50.8332447" lon="12.8906608">
    <tag k="shop" v="hairdresser"/>
    <tag k="name" v="Friseur La PErla"/>
    <tag k="wheelchair" v="no"/>
    <tag k="addr:city" v="Chemnitz"/>
    <tag k="addr:postcode" v="091"/>
    <tag k="addr:housenumber" v="18"/>
    <tag k="addr:street" v="Schiersandstraße"/>
  </node>
  <node id="-993" version="0" timestamp="Fri Feb 24 10:53:33 +0100 2012" uid="1" user="" lat="50.8305825" lon="12.8953891">
    <tag k="shop" v="supermarket"/>
    <tag k="name" v="Edeka"/>
    <tag k="wheelchair" v="yes"/>
  </node>
  <node id="-995" version="0" timestamp="Fri Feb 24 10:53:33 +0100 2012" uid="1" user="" lat="50.8311058" lon="12.8936706">
    <tag k="name" v="Ärzte (Hill&amp;Jäckel)"/>
    <tag k="wheelchair" v="no"/>
    <tag k="addr:city" v="Chemnitz"/>
    <tag k="addr:postcode" v="09116"/>
    <tag k="addr:housenumber" v="82"/>
    <tag k="addr:street" v="Weststraße"/>
    <tag k="amenity" v="bank"/>
  </node>
  <node id="-997" version="0" timestamp="Fri Feb 24 10:53:33 +0100 2012" uid="1" user="" lat="50.8311947" lon="12.8929941">
    <tag k="name" v="Zahnarzt Arnold"/>
    <tag k="wheelchair" v="no"/>
    <tag k="addr:city" v="Chemnitz"/>
    <tag k="addr:postcode" v="09116"/>
    <tag k="addr:housenumber" v="98a"/>
    <tag k="addr:street" v="Weststraße"/>
    <tag k="amenity" v="doctors"/>
  </node>
  <node id="-1031" version="0" timestamp="Fri Feb 24 10:53:33 +0100 2012" uid="1" user="" lat="50.8259101" lon="12.9364183">
    <tag k="name" v="Pizzeria"/>
    <tag k="wheelchair" v="no"/>
    <tag k="addr:city" v="Chemnitz"/>
    <tag k="addr:postcode" v="09126"/>
    <tag k="addr:housenumber" v="1"/>
    <tag k="addr:street" v="Lutherstrasse"/>
    <tag k="wheelchair:description" v="Stufen am Eingan"/>
    <tag k="amenity" v="fast_food"/>
    <tag k="phone" v="0371-23521833 oder ...32"/>
  </node>
  <node id="-4594" version="0" timestamp="Fri Feb 24 10:53:36 +0100 2012" uid="1" user="" lat="50.8346963" lon="12.915912">
    <tag k="name" v="Die Paukkammer in Chemnitz"/>
    <tag k="wheelchair" v="limited"/>
    <tag k="addr:city" v="Chemnitz"/>
    <tag k="addr:postcode" v="09111"/>
    <tag k="addr:housenumber" v="4"/>
    <tag k="addr:street" v="An der Markthalle"/>
    <tag k="wheelchair:description" v="Zugang sowie alle Räume &quot;stufenlos&quot;. Toilettenraum etwas knapp"/>
    <tag k="website" v="http://www.paukkammer.de/standorte/chemnitz/das-institut.html"/>
    <tag k="phone" v="+49 371 6660551"/>
    <tag k="office" v="company"/>
  </node>
  <node id="-5441" version="0" timestamp="Fri Feb 24 10:53:37 +0100 2012" uid="1" user="" lat="50.815037" lon="12.9307797">
    <tag k="name" v="Mensa Reichenhainer Straße"/>
    <tag k="wheelchair" v="yes"/>
    <tag k="addr:city" v="Chemnitz"/>
    <tag k="addr:postcode" v="09126"/>
    <tag k="addr:housenumber" v="55"/>
    <tag k="addr:street" v="Reichenhainerstr."/>
    <tag k="amenity" v="restaurant"/>
  </node>
</osm>
