<?xml version='1.0' encoding='UTF-8'?>
<osm version="0.6" generator="Osmosis 0.39">
  <node id="-30" version="0" timestamp="Fri Feb 24 10:53:32 +0100 2012" uid="1" user="" lat="51.04676" lon="13.77914">
    <tag k="name" v="Restaurant Schillergarten"/>
    <tag k="wheelchair" v="yes"/>
    <tag k="addr:city" v="Dresden"/>
    <tag k="addr:postcode" v="01309"/>
    <tag k="addr:housenumber" v="9"/>
    <tag k="addr:street" v="Schillerplatz "/>
    <tag k="wheelchair:description" v="Eingang über Terrasse ebenerdig barrierefrei. große Behindertentoilette vorhanden"/>
    <tag k="amenity" v="restaurant"/>
    <tag k="website" v="http://www.schillergarten.de/startseite/"/>
    <tag k="phone" v="+49 351 811 99-0"/>
  </node>
  <node id="-83" version="0" timestamp="Fri Feb 24 10:53:32 +0100 2012" uid="1" user="" lat="51.0518284" lon="13.7170038">
    <tag k="shop" v="shoes"/>
    <tag k="name" v="&quot;Hans Sachs&quot; Orthopädietechnik und Orthopädieschuhtechnik"/>
    <tag k="wheelchair" v="yes"/>
    <tag k="addr:city" v="Dresden"/>
    <tag k="addr:postcode" v="01159"/>
    <tag k="addr:housenumber" v="14"/>
    <tag k="addr:street" v="Wölfnitzstraße "/>
    <tag k="wheelchair:description" v="Behindertengerechte Toilette"/>
    <tag k="website" v="http://www.hanssachs-orthopaedie.de"/>
    <tag k="phone" v="+49 351 496 7318"/>
  </node>
  <node id="-114" version="0" timestamp="Fri Feb 24 10:53:32 +0100 2012" uid="1" user="" lat="51.0491349" lon="13.7213084">
    <tag k="name" v="komödie "/>
    <tag k="wheelchair" v="yes"/>
    <tag k="addr:city" v="dresden"/>
    <tag k="addr:postcode" v="01067"/>
    <tag k="addr:housenumber" v="74"/>
    <tag k="addr:street" v="Ammonstraße"/>
    <tag k="amenity" v="theatre"/>
    <tag k="website" v="http://www.wtc-dresden.de"/>
  </node>
  <node id="-121" version="0" timestamp="Fri Feb 24 10:53:32 +0100 2012" uid="1" user="" lat="51.0442271" lon="13.7375266">
    <tag k="name" v="Ufa Palast"/>
    <tag k="wheelchair" v="yes"/>
    <tag k="wheelchair:description" v="ein Saal von acht ist nicht Rollstuhlgerecht, bitte vorher anrufen. Personal ist kompetent."/>
    <tag k="amenity" v="cinema"/>
    <tag k="website" v="http://www.ufa-dresden.de"/>
  </node>
  <node id="-126" version="0" timestamp="Fri Feb 24 10:53:32 +0100 2012" uid="1" user="" lat="51.0619083" lon="13.7434207">
    <tag k="name" v="Ausonia"/>
    <tag k="wheelchair" v="yes"/>
    <tag k="addr:city" v="Dresden"/>
    <tag k="addr:postcode" v="01097"/>
    <tag k="addr:housenumber" v="9"/>
    <tag k="addr:street" v="Königsstrasse"/>
    <tag k="wheelchair:description" v="Toiletten nicht behindertenfreundlich"/>
    <tag k="amenity" v="restaurant"/>
  </node>
  <node id="-951" version="0" timestamp="Fri Feb 24 10:53:33 +0100 2012" uid="1" user="" lat="51.0521042" lon="13.7404899">
    <tag k="shop" v="mall"/>
    <tag k="name" v="QF Quartier an der Frauenkirche"/>
    <tag k="wheelchair" v="yes"/>
    <tag k="addr:city" v="Dresden"/>
    <tag k="addr:postcode" v="01067"/>
    <tag k="addr:housenumber" v="6"/>
    <tag k="addr:street" v="Töpferstraße"/>
    <tag k="wheelchair:description" v="Alle Eingänge zur Passage ohne Stufen, Rollstuhl-WC mit Euroschlüssel, 2 Aufzüge und Treppenlift im 1.UG zur Tiefgarage mit Euroschlüssel"/>
    <tag k="website" v="http://www.qf-dresden.de"/>
    <tag k="phone" v="+49 351.4843389755"/>
  </node>
  <node id="-1045" version="0" timestamp="Fri Feb 24 10:53:33 +0100 2012" uid="1" user="" lat="51.0629385" lon="13.9505987">
    <tag k="name" v="Helmholtz-Zentrum Dresden-Rossendorf"/>
    <tag k="wheelchair" v="limited"/>
    <tag k="addr:city" v="Dresden"/>
    <tag k="addr:postcode" v="01328"/>
    <tag k="addr:housenumber" v="400"/>
    <tag k="addr:street" v="Bautznr Landstraße"/>
    <tag k="website" v="http://www.hzdr.de"/>
    <tag k="phone" v="+49 351 260-0"/>
  </node>
  <node id="-1188" version="0" timestamp="Fri Feb 24 10:53:33 +0100 2012" uid="1" user="" lat="51.05115" lon="13.73475">
    <tag k="name" v="Max"/>
    <tag k="wheelchair" v="yes"/>
    <tag k="addr:city" v="Dresden"/>
    <tag k="addr:postcode" v="01067"/>
    <tag k="addr:housenumber" v="24"/>
    <tag k="addr:street" v="Wilsdruffer Str."/>
    <tag k="amenity" v="bar"/>
    <tag k="website" v="http://www.max-dresden.de/max_altstadt"/>
    <tag k="phone" v="+49351- 484 33 87 0  "/>
  </node>
  <node id="-1193" version="0" timestamp="Fri Feb 24 10:53:33 +0100 2012" uid="1" user="" lat="51.0441191" lon="13.7373927">
    <tag k="name" v="Ufa Palast"/>
    <tag k="wheelchair" v="yes"/>
    <tag k="addr:city" v="Dresden"/>
    <tag k="addr:postcode" v="01069"/>
    <tag k="addr:housenumber" v="24a"/>
    <tag k="addr:street" v="St. Petersburger Straße"/>
    <tag k="amenity" v="cinema"/>
    <tag k="website" v="http://www.ufa-dresden.de/ufa-kino-dresden.html"/>
    <tag k="phone" v="+49351/4825825"/>
  </node>
  <node id="-1269" version="0" timestamp="Fri Feb 24 10:53:33 +0100 2012" uid="1" user="" lat="51.0338394" lon="13.7480556">
    <tag k="name" v="BSZ Elektrotechnik"/>
    <tag k="wheelchair" v="yes"/>
    <tag k="addr:city" v="Dresden"/>
    <tag k="addr:postcode" v="01219"/>
    <tag k="addr:housenumber" v="2"/>
    <tag k="addr:street" v="Strehlener Platz"/>
    <tag k="wheelchair:description" v="Hintereingang barrierefrei, Fahrstuhlschlüssel auf Anfrage im Sekretariat erhältich, Barrierefreies WC im 1. OG"/>
    <tag k="amenity" v="school"/>
    <tag k="website" v="http://www.bszet.de/"/>
    <tag k="phone" v="+493514735201"/>
  </node>
  <node id="-1516" version="0" timestamp="Fri Feb 24 10:53:33 +0100 2012" uid="1" user="" lat="51.0433615" lon="13.73651">
    <tag k="name" v="Behinderten WC (Euro Schlüssel)"/>
    <tag k="wheelchair" v="yes"/>
    <tag k="amenity" v="toilets"/>
  </node>
  <node id="-1517" version="0" timestamp="Fri Feb 24 10:53:33 +0100 2012" uid="1" user="" lat="51.0500248" lon="13.7335621">
    <tag k="name" v="Behinderten WC (Euro Schlüssel)"/>
    <tag k="wheelchair" v="yes"/>
    <tag k="amenity" v="toilets"/>
  </node>
  <node id="-1668" version="0" timestamp="Fri Feb 24 10:53:33 +0100 2012" uid="1" user="" lat="51.04264" lon="13.74942">
    <tag k="name" v="Geoprg Arnold Bad"/>
    <tag k="wheelchair" v="yes"/>
    <tag k="addr:city" v="Dresden"/>
    <tag k="addr:postcode" v="01069"/>
    <tag k="addr:housenumber" v="2"/>
    <tag k="addr:street" v="Helmut-Schön-Allee "/>
    <tag k="wheelchair:description" v="sehr gute Unterstützung der Badegäste, eigene bequeme Umkleidekabine für Rollstuhlfahrer "/>
    <tag k="amenity" v="swimming_pool"/>
    <tag k="website" v="http://www.dresden.de/de/05/01_gab.php"/>
    <tag k="phone" v="+49 351 494 2203"/>
  </node>
  <node id="-1670" version="0" timestamp="Fri Feb 24 10:53:33 +0100 2012" uid="1" user="" lat="51.04468" lon="13.75338">
    <tag k="name" v="Gläserene Manufaktur"/>
    <tag k="wheelchair" v="yes"/>
    <tag k="addr:city" v="Dresden"/>
    <tag k="addr:postcode" v="01069"/>
    <tag k="addr:housenumber" v="1"/>
    <tag k="tourism" v="attraction"/>
    <tag k="addr:street" v="Lennéstr. "/>
    <tag k="wheelchair:description" v="fast alle Bereiche der Gläsernen Manufaktur sind barrierefrei zu erreichen.. Die Toiletten sind barrierefrei."/>
    <tag k="website" v="http://www.glaesernemanufaktur.de/"/>
    <tag k="phone" v="+49 351 420 40"/>
  </node>
  <node id="-1672" version="0" timestamp="Fri Feb 24 10:53:33 +0100 2012" uid="1" user="" lat="51.04073" lon="13.71962">
    <tag k="name" v="Feldschlößchen Stammhaus"/>
    <tag k="wheelchair" v="yes"/>
    <tag k="addr:city" v="Dresden"/>
    <tag k="addr:postcode" v="01067"/>
    <tag k="addr:housenumber" v="32"/>
    <tag k="addr:street" v="Budapester Straße "/>
    <tag k="wheelchair:description" v="alle Bereiche barrierefrei, Behindertentoilette im 1. Stock über Lift erreichbar"/>
    <tag k="amenity" v="restaurant"/>
    <tag k="website" v="http://www.feldschloesschen-stammhaus.de/"/>
    <tag k="phone" v="+49 351 471 88 55"/>
  </node>
  <node id="-2216" version="0" timestamp="Fri Feb 24 10:53:34 +0100 2012" uid="1" user="" lat="51.09818" lon="13.72957">
    <tag k="name" v="BBW Dresden"/>
    <tag k="wheelchair" v="yes"/>
    <tag k="addr:city" v="Dresden"/>
    <tag k="addr:postcode" v="01129"/>
    <tag k="addr:housenumber" v="21"/>
    <tag k="addr:street" v="Hellerhofstraße"/>
    <tag k="wheelchair:description" v="Berufsbildungswerk mit barrierefreien Ausbildungsräumen und Wohnheimen"/>
    <tag k="amenity" v="school"/>
    <tag k="website" v="http://www.bbw-dresden.de"/>
    <tag k="phone" v="+49 351  84 37-676"/>
  </node>
  <node id="-2235" version="0" timestamp="Fri Feb 24 10:53:34 +0100 2012" uid="1" user="" lat="51.0783303" lon="13.7598046">
    <tag k="name" v="Militärhistorisch Museum der Bundeswehr"/>
    <tag k="wheelchair" v="yes"/>
    <tag k="addr:city" v="Dresden"/>
    <tag k="addr:postcode" v="01099 "/>
    <tag k="addr:housenumber" v="2 "/>
    <tag k="tourism" v="museum"/>
    <tag k="addr:street" v="Olbrichtplatz "/>
    <tag k="wheelchair:description" v="alle stufenlos erreichbar"/>
    <tag k="website" v="http://www.streitkraeftebasis.de"/>
    <tag k="phone" v="+49 0351 823-0"/>
  </node>
  <node id="-2433" version="0" timestamp="Fri Feb 24 10:53:34 +0100 2012" uid="1" user="" lat="51.050269" lon="13.7354775">
    <tag k="shop" v="clothes"/>
    <tag k="name" v="Joseph Ribkoff Partner Store"/>
    <tag k="wheelchair" v="yes"/>
    <tag k="addr:city" v="Dresde"/>
    <tag k="addr:postcode" v="01067"/>
    <tag k="addr:housenumber" v="25"/>
    <tag k="addr:street" v="Altmarkt "/>
    <tag k="wheelchair:description" v="Große Umkleidekabine"/>
    <tag k="website" v="http://www.joseph-ribkoff-dresden.de"/>
    <tag k="phone" v="0351-82125920"/>
  </node>
  <node id="-3117" version="0" timestamp="Fri Feb 24 10:53:35 +0100 2012" uid="1" user="" lat="51.0383227" lon="13.8067093">
    <tag k="name" v="AOK PLUS"/>
    <tag k="wheelchair" v="yes"/>
    <tag k="addr:city" v="Dresden"/>
    <tag k="addr:postcode" v="01277"/>
    <tag k="addr:housenumber" v="35"/>
    <tag k="addr:street" v="Altenberger Str."/>
    <tag k="wheelchair:description" v="elektrische Tür - Besucherseite, nicht Parkplatzseite"/>
  </node>
  <node id="-3118" version="0" timestamp="Fri Feb 24 10:53:35 +0100 2012" uid="1" user="" lat="51.0395123" lon="13.8051465">
    <tag k="shop" v="supermarket"/>
    <tag k="name" v="EDEKA"/>
    <tag k="wheelchair" v="yes"/>
    <tag k="wheelchair:description" v="wird noch gebaut"/>
  </node>
  <node id="-3120" version="0" timestamp="Fri Feb 24 10:53:35 +0100 2012" uid="1" user="" lat="51.04566" lon="13.7702">
    <tag k="name" v="Frauenarzt"/>
    <tag k="wheelchair" v="no"/>
    <tag k="amenity" v="doctors"/>
  </node>
  <node id="-3416" version="0" timestamp="Fri Feb 24 10:53:35 +0100 2012" uid="1" user="" lat="51.0536158" lon="13.7388664">
    <tag k="name" v="Brühlsche Terrasse"/>
    <tag k="wheelchair" v="limited"/>
    <tag k="tourism" v="viewpoint"/>
    <tag k="wheelchair:description" v="Zugänglich nur von hinterster Ecke des Albertinums"/>
  </node>
  <node id="-4071" version="0" timestamp="Fri Feb 24 10:53:36 +0100 2012" uid="1" user="" lat="51.13938" lon="13.7968">
    <tag k="shop" v="department_store"/>
    <tag k="name" v="Thomas Philips"/>
    <tag k="wheelchair" v="yes"/>
    <tag k="addr:city" v="Dresden"/>
    <tag k="addr:postcode" v="01108"/>
    <tag k="addr:housenumber" v="1"/>
    <tag k="addr:street" v="Ewald-Kluge-Straße"/>
    <tag k="wheelchair:description" v="keine Toilette"/>
    <tag k="website" v="http://www.thomas-philipps.de"/>
    <tag k="phone" v="+49351-7958880"/>
  </node>
  <node id="-4302" version="0" timestamp="Fri Feb 24 10:53:36 +0100 2012" uid="1" user="" lat="51.0506" lon="13.80749">
    <tag k="shop" v="alcohol"/>
    <tag k="name" v="VOM FASS Dresden-Blasewitz "/>
    <tag k="wheelchair" v="no"/>
    <tag k="addr:city" v="Dresden"/>
    <tag k="addr:postcode" v="01277"/>
    <tag k="addr:housenumber" v="4"/>
    <tag k="addr:street" v="Tolkewitzer Straße"/>
    <tag k="website" v="http://www.vomfass.de"/>
    <tag k="phone" v="+49 351 3144920"/>
  </node>
  <node id="-4589" version="0" timestamp="Fri Feb 24 10:53:36 +0100 2012" uid="1" user="" lat="51.0715" lon="13.74938">
    <tag k="name" v="Öz Nemrut"/>
    <tag k="wheelchair" v="limited"/>
    <tag k="addr:city" v="Dresden"/>
    <tag k="addr:postcode" v="01097"/>
    <tag k="addr:housenumber" v="4"/>
    <tag k="addr:street" v="Bischofsweg"/>
    <tag k="wheelchair:description" v="Tresen nicht direkt erreichbar, aber der Gästebereich."/>
    <tag k="amenity" v="fast_food"/>
    <tag k="website" v="http://www.oez-nemrut.de"/>
  </node>
  <node id="-4590" version="0" timestamp="Fri Feb 24 10:53:36 +0100 2012" uid="1" user="" lat="51.0713" lon="13.74949">
    <tag k="shop" v="alcohol"/>
    <tag k="name" v="Carlos"/>
    <tag k="wheelchair" v="yes"/>
    <tag k="addr:city" v="Dresden"/>
    <tag k="addr:postcode" v="01097"/>
    <tag k="addr:housenumber" v="4"/>
    <tag k="addr:street" v="Bischofsweg"/>
    <tag k="website" v="http://www.carlosvinos.de/"/>
    <tag k="phone" v="+49 351 81061410"/>
  </node>
  <node id="-4919" version="0" timestamp="Fri Feb 24 10:53:36 +0100 2012" uid="1" user="" lat="51.0131791" lon="13.7914401">
    <tag k="name" v="Ergotherapie Lauterbach &amp; Marek"/>
    <tag k="wheelchair" v="no"/>
    <tag k="addr:city" v="Dresden"/>
    <tag k="addr:postcode" v="01237"/>
    <tag k="addr:housenumber" v="118"/>
    <tag k="addr:street" v="Reicker Straße"/>
    <tag k="wheelchair:description" v="mehrere Stufen am Eingang"/>
    <tag k="amenity" v="social_facility"/>
    <tag k="website" v="http://www.dresdner-ergotherapie.de/"/>
    <tag k="phone" v="0351 / 50 11 010"/>
  </node>
  <node id="-5013" version="0" timestamp="Fri Feb 24 10:53:36 +0100 2012" uid="1" user="" lat="51.1520742" lon="13.805764">
    <tag k="name" v="Jugendcentrum Weixdorf e.V."/>
    <tag k="wheelchair" v="yes"/>
    <tag k="addr:city" v="Dresden"/>
    <tag k="addr:postcode" v="01108"/>
    <tag k="addr:housenumber" v="14a"/>
    <tag k="addr:street" v="Pastor-Roller-Str. "/>
    <tag k="amenity" v="bank"/>
    <tag k="website" v="http://www.jzwev.de"/>
  </node>
  <node id="-5014" version="0" timestamp="Fri Feb 24 10:53:36 +0100 2012" uid="1" user="" lat="51.1534108" lon="13.8098263">
    <tag k="shop" v="electronics"/>
    <tag k="name" v="Uhrmachermeister Liepke"/>
    <tag k="wheelchair" v="no"/>
    <tag k="addr:city" v="Dresden"/>
    <tag k="addr:postcode" v="01108"/>
    <tag k="addr:housenumber" v=" 426"/>
    <tag k="addr:street" v="Königsbrücker Landstraße"/>
    <tag k="phone" v="+49351 8805394"/>
  </node>
  <node id="-5015" version="0" timestamp="Fri Feb 24 10:53:36 +0100 2012" uid="1" user="" lat="51.15134" lon="13.80725">
    <tag k="name" v="Evangelische Kita Dresden Weixdorf &quot;Himmelsschlüssel&quot;"/>
    <tag k="wheelchair" v="unknown"/>
    <tag k="addr:city" v="Dresden"/>
    <tag k="addr:postcode" v="01108"/>
    <tag k="addr:housenumber" v="1-3"/>
    <tag k="addr:street" v="Lausaer Kirchgasse"/>
    <tag k="amenity" v="kindergarten"/>
    <tag k="website" v="http://www.diakonie-dresden.de/kindertages-einrichtungen/evangelische-kitas/evangelische-kita-dresden-weixdorf-himmelsschluessel.html"/>
    <tag k="phone" v="+49 351 81 16 04 99"/>
  </node>
  <node id="-5379" version="0" timestamp="Fri Feb 24 10:53:37 +0100 2012" uid="1" user="" lat="51.0816" lon="13.75923">
    <tag k="name" v="Santander Consumer Bank"/>
    <tag k="wheelchair" v="limited"/>
    <tag k="addr:city" v="Dresden"/>
    <tag k="addr:postcode" v="01099"/>
    <tag k="addr:housenumber" v="49"/>
    <tag k="addr:street" v="Königsbrücker Straße"/>
    <tag k="amenity" v="bank"/>
    <tag k="website" v="http://www.santander.de"/>
  </node>
  <node id="-5419" version="0" timestamp="Fri Feb 24 10:53:37 +0100 2012" uid="1" user="" lat="51.04996" lon="13.74177">
    <tag k="name" v="Santander Consumer Bank"/>
    <tag k="wheelchair" v="limited"/>
    <tag k="addr:city" v="Dresden"/>
    <tag k="addr:postcode" v="01067"/>
    <tag k="addr:housenumber" v="20"/>
    <tag k="addr:street" v="Wilsdruffer Straße"/>
    <tag k="amenity" v="bank"/>
    <tag k="website" v="http://www.santander.de"/>
  </node>
</osm>
