<?xml version='1.0' encoding='UTF-8'?>
<osm version="0.6" generator="Osmosis 0.39">
  <node id="-304" version="0" timestamp="Fri Feb 24 10:53:32 +0100 2012" uid="1" user="" lat="50.7" lon="12.85">
    <tag k="name" v="Zahnarztpraxis DS U. Maak"/>
    <tag k="wheelchair" v="yes"/>
    <tag k="addr:city" v="Thalheim"/>
    <tag k="addr:postcode" v="09380"/>
    <tag k="addr:housenumber" v="10a"/>
    <tag k="addr:street" v="Friedrichstraße"/>
    <tag k="amenity" v="doctors"/>
  </node>
  <node id="-1679" version="0" timestamp="Fri Feb 24 10:53:33 +0100 2012" uid="1" user="" lat="50.6768021" lon="12.9786338">
    <tag k="name" v="Zahnarzt"/>
    <tag k="wheelchair" v="no"/>
    <tag k="amenity" v="doctors"/>
  </node>
  <node id="-1680" version="0" timestamp="Fri Feb 24 10:53:33 +0100 2012" uid="1" user="" lat="50.6898712" lon="12.9848927">
    <tag k="shop" v="beverages"/>
    <tag k="name" v="Trinkparadies"/>
    <tag k="wheelchair" v="yes"/>
  </node>
  <node id="-1681" version="0" timestamp="Fri Feb 24 10:53:33 +0100 2012" uid="1" user="" lat="50.6829496" lon="12.9842289">
    <tag k="name" v="Dr.Francke"/>
    <tag k="wheelchair" v="no"/>
    <tag k="amenity" v="doctors"/>
  </node>
  <node id="-1682" version="0" timestamp="Fri Feb 24 10:53:33 +0100 2012" uid="1" user="" lat="50.6719679" lon="12.9728717">
    <tag k="shop" v="hairdresser"/>
    <tag k="name" v="Frisörsalon"/>
    <tag k="wheelchair" v="no"/>
  </node>
  <node id="-1832" version="0" timestamp="Fri Feb 24 10:53:33 +0100 2012" uid="1" user="" lat="50.5930201" lon="12.7057297">
    <tag k="name" v="Sparkasse"/>
    <tag k="wheelchair" v="no"/>
    <tag k="amenity" v="bank"/>
  </node>
  <node id="-2709" version="0" timestamp="Fri Feb 24 10:53:34 +0100 2012" uid="1" user="" lat="50.6146876" lon="12.9859654">
    <tag k="shop" v="department_store"/>
    <tag k="name" v="Erzgebirgsstube"/>
    <tag k="wheelchair" v="yes"/>
    <tag k="addr:city" v="Thermalbad Wiesenbad OT Schönfeld"/>
    <tag k="addr:postcode" v="09488"/>
    <tag k="addr:housenumber" v="31"/>
    <tag k="addr:street" v="Annaberger Straße"/>
    <tag k="website" v="http://www.erzgebirgsstube.de"/>
    <tag k="phone" v="03733-52947"/>
  </node>
  <node id="-2910" version="0" timestamp="Fri Feb 24 10:53:34 +0100 2012" uid="1" user="" lat="50.5960745" lon="13.0097719">
    <tag k="shop" v="clothes"/>
    <tag k="name" v="Sanitätshaus Hauke GmbH"/>
    <tag k="wheelchair" v="yes"/>
    <tag k="addr:city" v="Annaberg-Buchholz"/>
    <tag k="addr:postcode" v="09456"/>
    <tag k="addr:housenumber" v="2"/>
    <tag k="addr:street" v="Anton-Günther-Platz"/>
    <tag k="wheelchair:description" v="Auch mit Behindertenparkplatz"/>
    <tag k="website" v="http://www.dein-sanitaetshaus.de"/>
    <tag k="phone" v="+49 3733 556400"/>
  </node>
  <node id="-5393" version="0" timestamp="Fri Feb 24 10:53:37 +0100 2012" uid="1" user="" lat="50.5802287" lon="13.0032386">
    <tag k="name" v="Rathaus"/>
    <tag k="wheelchair" v="yes"/>
    <tag k="amenity" v="embassy"/>
  </node>
  <node id="-5394" version="0" timestamp="Fri Feb 24 10:53:37 +0100 2012" uid="1" user="" lat="50.5803542" lon="13.0010186">
    <tag k="name" v="Bergkirche"/>
    <tag k="wheelchair" v="yes"/>
    <tag k="amenity" v="place_of_worship"/>
  </node>
  <node id="-5395" version="0" timestamp="Fri Feb 24 10:53:37 +0100 2012" uid="1" user="" lat="50.566853" lon="12.996155">
    <tag k="name" v="St.-Katharinenkirche"/>
    <tag k="wheelchair" v="yes"/>
    <tag k="amenity" v="place_of_worship"/>
  </node>
</osm>
