<?xml version='1.0' encoding='UTF-8'?>
<osm version="0.6" generator="Osmosis 0.39">
  <node id="-2731" version="0" timestamp="Fri Feb 24 10:53:34 +0100 2012" uid="1" user="" lat="51.1539547" lon="14.9870278">
    <tag k="shop" v="clothes"/>
    <tag k="name" v="Modehaus Schwinds Erben"/>
    <tag k="wheelchair" v="yes"/>
    <tag k="addr:city" v="Görlitz"/>
    <tag k="addr:postcode" v="02826"/>
    <tag k="addr:housenumber" v="9"/>
    <tag k="addr:street" v="Steinstraße"/>
    <tag k="wheelchair:description" v="Eingang Marienplatz ohne Stufe, Fahrstuhl vorhanden, große Umkleidekabinen"/>
    <tag k="website" v="http://www.modehaus-schwind.de"/>
    <tag k="phone" v="03581405005"/>
  </node>
  <node id="-4915" version="0" timestamp="Fri Feb 24 10:53:36 +0100 2012" uid="1" user="" lat="50.8925323" lon="14.8107533">
    <tag k="name" v="Döner Imbiss (Döner, Pizza, Dürüm)"/>
    <tag k="wheelchair" v="no"/>
    <tag k="addr:city" v="Zittau"/>
    <tag k="addr:postcode" v="02763"/>
    <tag k="addr:housenumber" v="7"/>
    <tag k="addr:street" v="Friedensstraße"/>
    <tag k="wheelchair:description" v="Leider zwei recht hohe Stufen zu überwinden. Innen eher klein und schlecht zum rangieren."/>
    <tag k="amenity" v="fast_food"/>
    <tag k="phone" v="+493583681205"/>
  </node>
</osm>
