<?xml version='1.0' encoding='UTF-8'?>
<osm version="0.6" generator="Osmosis 0.39">
  <node id="-55" version="0" timestamp="Fri Feb 24 10:53:32 +0100 2012" uid="1" user="" lat="51.37687" lon="12.4908388">
    <tag k="name" v="Kindertagesstätte Tausendfüßler"/>
    <tag k="wheelchair" v="no"/>
    <tag k="addr:city" v="Taucha"/>
    <tag k="addr:postcode" v="04425"/>
    <tag k="addr:housenumber" v="15"/>
    <tag k="addr:street" v="Ernst-Moritz-Arndt-Straße"/>
    <tag k="amenity" v="kindergarten"/>
  </node>
  <node id="-56" version="0" timestamp="Fri Feb 24 10:53:32 +0100 2012" uid="1" user="" lat="51.3766816" lon="12.4903608">
    <tag k="name" v="Ärztehaus"/>
    <tag k="wheelchair" v="yes"/>
    <tag k="addr:city" v="Taucha"/>
    <tag k="addr:postcode" v="04425"/>
    <tag k="addr:housenumber" v="15"/>
    <tag k="addr:street" v="Ernst-Moritz-Arndt-Straße"/>
    <tag k="wheelchair:description" v="rollstuhlgerechter Zugang über einen Fahrstuhl an der Hofseite des Gebäudes"/>
    <tag k="amenity" v="doctors"/>
  </node>
  <node id="-57" version="0" timestamp="Fri Feb 24 10:53:32 +0100 2012" uid="1" user="" lat="51.3740113" lon="12.4874561">
    <tag k="name" v="Regenbogenschule"/>
    <tag k="wheelchair" v="limited"/>
    <tag k="addr:city" v="Taucha"/>
    <tag k="addr:postcode" v="04425"/>
    <tag k="addr:housenumber" v="1"/>
    <tag k="addr:street" v="Rudolf-Breitscheid-Straße"/>
    <tag k="wheelchair:description" v="untere Etage rollstuhlgerecht"/>
    <tag k="amenity" v="school"/>
  </node>
  <node id="-59" version="0" timestamp="Fri Feb 24 10:53:32 +0100 2012" uid="1" user="" lat="51.3792298" lon="12.5032637">
    <tag k="name" v="Grundschule Am Park"/>
    <tag k="wheelchair" v="limited"/>
    <tag k="addr:city" v="Taucha"/>
    <tag k="addr:postcode" v="04425"/>
    <tag k="addr:housenumber" v="24"/>
    <tag k="addr:street" v="An der Parthe"/>
    <tag k="wheelchair:description" v="untere Etage stufenlos erreichbar"/>
    <tag k="amenity" v="school"/>
  </node>
  <node id="-61" version="0" timestamp="Fri Feb 24 10:53:32 +0100 2012" uid="1" user="" lat="51.381034" lon="12.5043406">
    <tag k="name" v="Geschwister-Scholl-Gymnasium"/>
    <tag k="wheelchair" v="no"/>
    <tag k="addr:city" v="Taucha"/>
    <tag k="addr:postcode" v="04425"/>
    <tag k="addr:housenumber" v="4"/>
    <tag k="addr:street" v="Geschwister-Scholl-Straße"/>
    <tag k="amenity" v="school"/>
  </node>
  <node id="-62" version="0" timestamp="Fri Feb 24 10:53:32 +0100 2012" uid="1" user="" lat="51.38351" lon="12.51024">
    <tag k="shop" v="mall"/>
    <tag k="name" v="Einkaufszentrum WYN-Passagen"/>
    <tag k="wheelchair" v="limited"/>
    <tag k="addr:city" v="Taucha"/>
    <tag k="addr:postcode" v="04425"/>
    <tag k="addr:housenumber" v="77"/>
    <tag k="addr:street" v="Dewitzer Straße"/>
    <tag k="wheelchair:description" v="untere Etage stufenlos, aber Toilette zu eng"/>
  </node>
  <node id="-63" version="0" timestamp="Fri Feb 24 10:53:32 +0100 2012" uid="1" user="" lat="51.3787575" lon="12.4919281">
    <tag k="name" v="CT-Lichtspiele"/>
    <tag k="wheelchair" v="no"/>
    <tag k="addr:city" v="Taucha"/>
    <tag k="addr:postcode" v="04425"/>
    <tag k="addr:housenumber" v="2"/>
    <tag k="addr:street" v="Karl-Große-Straße"/>
    <tag k="amenity" v="cinema"/>
  </node>
  <node id="-2644" version="0" timestamp="Fri Feb 24 10:53:34 +0100 2012" uid="1" user="" lat="51.5235197" lon="12.3379011">
    <tag k="name" v="Volksbank Delitzsch e.G."/>
    <tag k="wheelchair" v="limited"/>
    <tag k="addr:city" v="Delitzsch"/>
    <tag k="addr:postcode" v="04509"/>
    <tag k="addr:housenumber" v="18"/>
    <tag k="addr:street" v="Eilenburger Str."/>
    <tag k="amenity" v="bank"/>
    <tag k="website" v="http://www.vb-delitzsch.de"/>
    <tag k="phone" v="+49 34202-806-0"/>
  </node>
</osm>
