<?xml version='1.0' encoding='UTF-8'?>
<osm version="0.6" generator="Osmosis 0.39">
  <node id="-175" version="0" timestamp="Fri Feb 24 10:53:32 +0100 2012" uid="1" user="" lat="51.1252816" lon="12.5078824">
    <tag k="name" v="Vereinshaus Borna"/>
    <tag k="wheelchair" v="no"/>
    <tag k="addr:city" v="Borna"/>
    <tag k="addr:postcode" v="04552"/>
    <tag k="addr:housenumber" v="19"/>
    <tag k="addr:street" v="Schulstraße"/>
  </node>
  <node id="-177" version="0" timestamp="Fri Feb 24 10:53:32 +0100 2012" uid="1" user="" lat="51.1241858" lon="12.495762">
    <tag k="name" v="DAA-Wirtschaftfachschule"/>
    <tag k="wheelchair" v="limited"/>
    <tag k="addr:city" v="Borna"/>
    <tag k="addr:postcode" v="04552"/>
    <tag k="addr:housenumber" v="15–21"/>
    <tag k="addr:street" v="Wilhelm-Külz-Straße"/>
    <tag k="wheelchair:description" v="über Eingang Mühlgasse problemlos erreichbar"/>
    <tag k="amenity" v="school"/>
    <tag k="website" v="http://www.daa-borna.de/"/>
    <tag k="phone" v="03433 7447-0"/>
  </node>
  <node id="-178" version="0" timestamp="Fri Feb 24 10:53:32 +0100 2012" uid="1" user="" lat="51.1240183" lon="12.4973801">
    <tag k="name" v="Bürgerhaus „Goldener Stern“"/>
    <tag k="wheelchair" v="limited"/>
    <tag k="addr:city" v="Borna"/>
    <tag k="addr:postcode" v="04552"/>
    <tag k="addr:housenumber" v="11"/>
    <tag k="addr:street" v="Markt"/>
    <tag k="phone" v="+49 3433 209773"/>
  </node>
  <node id="-179" version="0" timestamp="Fri Feb 24 10:53:32 +0100 2012" uid="1" user="" lat="51.1222502" lon="12.4981436">
    <tag k="name" v="Borna, Mühlgasse/Markt"/>
    <tag k="wheelchair" v="limited"/>
    <tag k="amenity" v="bus_station"/>
  </node>
  <node id="-180" version="0" timestamp="Fri Feb 24 10:53:32 +0100 2012" uid="1" user="" lat="51.1333416" lon="12.501183">
    <tag k="name" v="Robinienhof -Schule"/>
    <tag k="wheelchair" v="yes"/>
    <tag k="addr:city" v="Borna"/>
    <tag k="addr:postcode" v="04552"/>
    <tag k="addr:housenumber" v="2"/>
    <tag k="addr:street" v="Pawlowstraße"/>
    <tag k="amenity" v="school"/>
    <tag k="website" v="http://www.sn.schule.de/~schule-gb-borna/index.html"/>
    <tag k="phone" v="+49 03433 208661"/>
  </node>
  <node id="-181" version="0" timestamp="Fri Feb 24 10:53:32 +0100 2012" uid="1" user="" lat="51.1345153" lon="12.5050542">
    <tag k="name" v="Helios Klinikum Borna"/>
    <tag k="wheelchair" v="yes"/>
    <tag k="addr:city" v="Borna"/>
    <tag k="addr:postcode" v="04552"/>
    <tag k="addr:housenumber" v="2"/>
    <tag k="addr:street" v="Rudolf-Virchow-Straße"/>
    <tag k="amenity" v="hospital"/>
    <tag k="website" v="http://www.helios-kliniken.de/klinik/leipziger-land-borna.html"/>
    <tag k="phone" v="+49 3433 210"/>
  </node>
  <node id="-183" version="0" timestamp="Fri Feb 24 10:53:32 +0100 2012" uid="1" user="" lat="51.1254911" lon="12.5003387">
    <tag k="name" v="Amtsgericht Borna"/>
    <tag k="wheelchair" v="no"/>
    <tag k="addr:city" v="Borna"/>
    <tag k="addr:postcode" v="04552"/>
    <tag k="addr:housenumber" v="2"/>
    <tag k="addr:street" v="Am Gericht"/>
    <tag k="amenity" v="courthouse"/>
    <tag k="website" v="http://www.justiz.sachsen.de/lgl/content/agbrn.htm"/>
    <tag k="phone" v="+49 3433 27550"/>
  </node>
  <node id="-188" version="0" timestamp="Fri Feb 24 10:53:32 +0100 2012" uid="1" user="" lat="51.1225771" lon="12.4999874">
    <tag k="name" v="Dintersporthalle"/>
    <tag k="wheelchair" v="yes"/>
    <tag k="addr:city" v="Borna"/>
    <tag k="addr:postcode" v="04552"/>
    <tag k="addr:housenumber" v="3"/>
    <tag k="addr:street" v="Dinterplatz"/>
    <tag k="leisure" v="stadium"/>
  </node>
  <node id="-201" version="0" timestamp="Fri Feb 24 10:53:32 +0100 2012" uid="1" user="" lat="51.0784707" lon="12.5165973">
    <tag k="name" v="Volkskundemuseum Wyhra"/>
    <tag k="wheelchair" v="limited"/>
    <tag k="addr:city" v="Borna OT Wyhra"/>
    <tag k="addr:postcode" v="04552"/>
    <tag k="addr:housenumber" v="3"/>
    <tag k="tourism" v="museum"/>
    <tag k="addr:street" v="Benndorfer Weg"/>
    <tag k="website" v="http://www.volkskundemuseum-wyhra.de/"/>
    <tag k="phone" v="+49 3433 851071"/>
  </node>
  <node id="-600" version="0" timestamp="Fri Feb 24 10:53:32 +0100 2012" uid="1" user="" lat="51.1541208" lon="12.6437718">
    <tag k="name" v="Parkplatz/Parkhaus"/>
    <tag k="wheelchair" v="unknown"/>
    <tag k="amenity" v="parking"/>
  </node>
  <node id="-727" version="0" timestamp="Fri Feb 24 10:53:32 +0100 2012" uid="1" user="" lat="51.3680596" lon="12.7589719">
    <tag k="shop" v="florist"/>
    <tag k="name" v="Gärtnerei Grünert"/>
    <tag k="wheelchair" v="limited"/>
    <tag k="addr:city" v="Wurzen"/>
    <tag k="addr:postcode" v="04808"/>
    <tag k="addr:housenumber" v="39"/>
    <tag k="addr:street" v="Roitzscher Weg"/>
    <tag k="wheelchair:description" v="Verkauf im überdachten Freigelände, stufenlos vom Parkplatz aus zu erreichen"/>
  </node>
  <node id="-1174" version="0" timestamp="Fri Feb 24 10:53:33 +0100 2012" uid="1" user="" lat="51.36909" lon="12.73943">
    <tag k="name" v="Cafe Eisblume"/>
    <tag k="wheelchair" v="yes"/>
    <tag k="addr:city" v="Wurzen"/>
    <tag k="addr:postcode" v="04808"/>
    <tag k="addr:housenumber" v="48"/>
    <tag k="addr:street" v="Dresdener Straße "/>
    <tag k="wheelchair:description" v="Komplet Barrierefrei"/>
    <tag k="amenity" v="cafe"/>
    <tag k="website" v="http://www.cafe-eisblume.de"/>
    <tag k="phone" v="015226368119"/>
  </node>
</osm>
