<?xml version='1.0' encoding='UTF-8'?>
<osm version="0.6" generator="Osmosis 0.39">
  <node id="-58" version="0" timestamp="Fri Feb 24 10:53:32 +0100 2012" uid="1" user="" lat="51.3873031" lon="12.4540044">
    <tag k="name" v="Schule Portitz - Grundschule"/>
    <tag k="wheelchair" v="no"/>
    <tag k="addr:city" v="Leipzig"/>
    <tag k="addr:postcode" v="04349"/>
    <tag k="addr:housenumber" v="1"/>
    <tag k="addr:street" v="Göbschelwitzer Weg"/>
    <tag k="amenity" v="school"/>
  </node>
  <node id="-91" version="0" timestamp="Fri Feb 24 10:53:32 +0100 2012" uid="1" user="" lat="51.3403171" lon="12.3601914">
    <tag k="name" v="Gaststätte/ Café &quot;Davignon&quot;"/>
    <tag k="wheelchair" v="yes"/>
    <tag k="addr:city" v="Leipzig"/>
    <tag k="addr:postcode" v="04109"/>
    <tag k="addr:housenumber" v="77"/>
    <tag k="addr:street" v="Friedrich-Ebert-Straße"/>
    <tag k="wheelchair:description" v="&quot;Haus ohne Barrieren&quot;; Rampe, Lift, WC"/>
    <tag k="amenity" v="cafe"/>
    <tag k="website" v="http://www.mobiler-behindertendienst.de"/>
    <tag k="phone" v="+49 177 2110631"/>
  </node>
  <node id="-103" version="0" timestamp="Fri Feb 24 10:53:32 +0100 2012" uid="1" user="" lat="51.3953477" lon="12.3715296">
    <tag k="name" v="Hotel Hiemann"/>
    <tag k="wheelchair" v="yes"/>
    <tag k="addr:city" v="Leipzig-Wiederitzsch"/>
    <tag k="addr:postcode" v="04158"/>
    <tag k="addr:housenumber" v="75"/>
    <tag k="tourism" v="hotel"/>
    <tag k="addr:street" v="Delitzscher Landstraße"/>
    <tag k="wheelchair:description" v="1 barrierefreies Zimmer"/>
    <tag k="website" v="http://www.hotel-hiemann.de"/>
    <tag k="phone" v="+49 (0)341 - 52 53 0"/>
  </node>
  <node id="-325" version="0" timestamp="Fri Feb 24 10:53:32 +0100 2012" uid="1" user="" lat="51.3404594" lon="12.3814434">
    <tag k="name" v="Oper Leipzig"/>
    <tag k="wheelchair" v="yes"/>
    <tag k="wheelchair:description" v="es gibt einen Eingang an der seite. 2 parkplätze sind ebenfalls vorhanden, die man über den Fußweg am Taxistand erreichen kann"/>
    <tag k="amenity" v="theatre"/>
  </node>
  <node id="-327" version="0" timestamp="Fri Feb 24 10:53:32 +0100 2012" uid="1" user="" lat="51.3389482" lon="12.3921312">
    <tag k="name" v="Zunftkeller"/>
    <tag k="wheelchair" v="no"/>
    <tag k="wheelchair:description" v="am Eingang eine hohe Stufe und dann ca. 12 stufen nach unten. Freisitz im sommer ist zu erreichen"/>
    <tag k="amenity" v="restaurant"/>
  </node>
  <node id="-328" version="0" timestamp="Fri Feb 24 10:53:32 +0100 2012" uid="1" user="" lat="51.3501852" lon="12.4767991">
    <tag k="name" v="Kaufland"/>
    <tag k="wheelchair" v="yes"/>
    <tag k="amenity" v="bank"/>
  </node>
  <node id="-329" version="0" timestamp="Fri Feb 24 10:53:32 +0100 2012" uid="1" user="" lat="51.3484813" lon="12.4772721">
    <tag k="name" v="Rollitoilette"/>
    <tag k="wheelchair" v="yes"/>
    <tag k="amenity" v="toilets"/>
  </node>
  <node id="-676" version="0" timestamp="Fri Feb 24 10:53:32 +0100 2012" uid="1" user="" lat="51.3021069" lon="12.3742215">
    <tag k="name" v="Conne Island Saal"/>
    <tag k="wheelchair" v="unknown"/>
    <tag k="addr:city" v="Leipzig"/>
    <tag k="addr:postcode" v="04277"/>
    <tag k="addr:housenumber" v="3"/>
    <tag k="addr:street" v="Koburger Straße"/>
    <tag k="amenity" v="nightclub"/>
    <tag k="website" v="http://www.conne-island.de"/>
    <tag k="phone" v="+49 341 3013038"/>
  </node>
  <node id="-677" version="0" timestamp="Fri Feb 24 10:53:32 +0100 2012" uid="1" user="" lat="51.3022269" lon="12.3745551">
    <tag k="name" v="Conne Island Café / Freisitz"/>
    <tag k="wheelchair" v="unknown"/>
    <tag k="addr:city" v="Leipzig"/>
    <tag k="addr:postcode" v="04277"/>
    <tag k="addr:housenumber" v="3"/>
    <tag k="addr:street" v="Koburger Straße"/>
    <tag k="amenity" v="cafe"/>
    <tag k="website" v="http://www.conne-island.de"/>
    <tag k="phone" v="+49 341 3013038"/>
  </node>
  <node id="-681" version="0" timestamp="Fri Feb 24 10:53:32 +0100 2012" uid="1" user="" lat="51.3023407" lon="12.3744527">
    <tag k="name" v="Conne Island Infoladen"/>
    <tag k="wheelchair" v="no"/>
    <tag k="addr:city" v="Leipzig"/>
    <tag k="addr:postcode" v="04277"/>
    <tag k="addr:housenumber" v="3"/>
    <tag k="addr:street" v="Koburger Straße"/>
    <tag k="website" v="http://www.conne-island.de"/>
    <tag k="phone" v="+49 341 3013038"/>
  </node>
  <node id="-767" version="0" timestamp="Fri Feb 24 10:53:32 +0100 2012" uid="1" user="" lat="51.3012609" lon="12.3971352">
    <tag k="name" v="Restaurant Sparta"/>
    <tag k="wheelchair" v="yes"/>
    <tag k="addr:city" v="Leipzig"/>
    <tag k="addr:postcode" v="04279"/>
    <tag k="addr:housenumber" v="125-129"/>
    <tag k="addr:street" v="Zwickauer Str."/>
    <tag k="wheelchair:description" v="Toiletten für Rollstuhlfahrer geeignet, Kabinen jedoch etwas eng,"/>
    <tag k="amenity" v="restaurant"/>
    <tag k="website" v="http://www.facebook.com/Sparta.Leipzig"/>
    <tag k="phone" v="+49 341 60460323"/>
  </node>
  <node id="-770" version="0" timestamp="Fri Feb 24 10:53:32 +0100 2012" uid="1" user="" lat="51.3088011" lon="12.3725025">
    <tag k="name" v="UT Connewitz"/>
    <tag k="wheelchair" v="limited"/>
    <tag k="addr:city" v="Leipzig"/>
    <tag k="addr:postcode" v="04277"/>
    <tag k="addr:housenumber" v="12a"/>
    <tag k="addr:street" v="Wolfgang-Heinze-Str."/>
    <tag k="wheelchair:description" v="Saal barrierefrei, Toiletten im Keller"/>
    <tag k="amenity" v="cinema"/>
    <tag k="website" v="http://utconnewitz.de"/>
    <tag k="phone" v="+49 341 4626776"/>
  </node>
  <node id="-2046" version="0" timestamp="Fri Feb 24 10:53:34 +0100 2012" uid="1" user="" lat="51.34034" lon="12.37237">
    <tag k="name" v="Varadero"/>
    <tag k="wheelchair" v="limited"/>
    <tag k="wheelchair:description" v="nur ein Stufe 15 cm, viel Platz innen, keine behindertengerechten Toiletten"/>
    <tag k="amenity" v="restaurant"/>
  </node>
  <node id="-2049" version="0" timestamp="Fri Feb 24 10:53:34 +0100 2012" uid="1" user="" lat="51.3401044" lon="12.3701159">
    <tag k="name" v="Varadero"/>
    <tag k="wheelchair" v="limited"/>
    <tag k="wheelchair:description" v="1 Stufe 15 cm hoch, viel Platz im Innenraum, keine behindertengerechten Toiletten"/>
    <tag k="amenity" v="restaurant"/>
    <tag k="website" v="http://www.varadero-leipzig.de/"/>
  </node>
  <node id="-2685" version="0" timestamp="Fri Feb 24 10:53:34 +0100 2012" uid="1" user="" lat="51.3" lon="12.3333">
    <tag k="name" v="IPPON"/>
    <tag k="wheelchair" v="no"/>
    <tag k="addr:city" v="Leipzig"/>
    <tag k="addr:postcode" v="04317"/>
    <tag k="addr:housenumber" v="51"/>
    <tag k="addr:street" v="Dresdnerstr."/>
    <tag k="amenity" v="restaurant"/>
  </node>
  <node id="-2686" version="0" timestamp="Fri Feb 24 10:53:34 +0100 2012" uid="1" user="" lat="51.33821" lon="12.40536">
    <tag k="name" v="IPPON"/>
    <tag k="wheelchair" v="no"/>
    <tag k="addr:city" v="Leipzig"/>
    <tag k="addr:postcode" v="04317"/>
    <tag k="addr:housenumber" v="51"/>
    <tag k="addr:street" v="Dresdner Str."/>
    <tag k="wheelchair:description" v="Du wirst nicht essen gehen können, da der restaurationsbereich nur über hohe Stufen erreichbar ist. Aber du kannst das Take Away angebot nutzen, da du die Anmeldung gut erreichst."/>
    <tag k="amenity" v="restaurant"/>
  </node>
  <node id="-3420" version="0" timestamp="Fri Feb 24 10:53:35 +0100 2012" uid="1" user="" lat="51.30094" lon="12.37566">
    <tag k="shop" v="supermarket"/>
    <tag k="name" v="Bioflair"/>
    <tag k="wheelchair" v="yes"/>
    <tag k="addr:city" v=";Leipzig"/>
    <tag k="addr:postcode" v="04317"/>
    <tag k="addr:housenumber" v="38"/>
    <tag k="addr:street" v="Prager Straße "/>
    <tag k="wheelchair:description" v="barrierefrei"/>
    <tag k="website" v="http://www.Bio-Flair.de"/>
    <tag k="phone" v="0431 46277762"/>
  </node>
  <node id="-3455" version="0" timestamp="Fri Feb 24 10:53:35 +0100 2012" uid="1" user="" lat="51.3421808" lon="12.3757808">
    <tag k="name" v="Museum der Bildenden Künste"/>
    <tag k="wheelchair" v="yes"/>
    <tag k="tourism" v="museum"/>
  </node>
  <node id="-3456" version="0" timestamp="Fri Feb 24 10:53:35 +0100 2012" uid="1" user="" lat="51.33706" lon="12.38887">
    <tag k="name" v="Johannisfriedhof"/>
    <tag k="wheelchair" v="yes"/>
    <tag k="historic" v="memorial"/>
  </node>
  <node id="-3675" version="0" timestamp="Fri Feb 24 10:53:35 +0100 2012" uid="1" user="" lat="51.31826" lon="12.36963">
    <tag k="shop" v="supermarket"/>
    <tag k="name" v="Bioflair"/>
    <tag k="wheelchair" v="yes"/>
    <tag k="addr:city" v="Leipzig"/>
    <tag k="addr:postcode" v="04317"/>
    <tag k="addr:housenumber" v="38"/>
    <tag k="addr:street" v="Prager Straße "/>
    <tag k="website" v="http://www.bio-flair.de"/>
    <tag k="phone" v="0341 62277762"/>
  </node>
  <node id="-3676" version="0" timestamp="Fri Feb 24 10:53:35 +0100 2012" uid="1" user="" lat="51.31826" lon="12.36963">
    <tag k="shop" v="supermarket"/>
    <tag k="name" v="Bioflair"/>
    <tag k="wheelchair" v="yes"/>
    <tag k="addr:city" v="Leipzig"/>
    <tag k="addr:postcode" v="04317"/>
    <tag k="addr:housenumber" v="38"/>
    <tag k="addr:street" v="Prager Straße"/>
    <tag k="website" v="http://www.bio-flair.de"/>
    <tag k="phone" v="0341 46277762"/>
  </node>
  <node id="-3677" version="0" timestamp="Fri Feb 24 10:53:35 +0100 2012" uid="1" user="" lat="51.32231" lon="12.40285">
    <tag k="shop" v="supermarket"/>
    <tag k="name" v="Bioflair"/>
    <tag k="wheelchair" v="yes"/>
    <tag k="addr:city" v="Leipzig"/>
    <tag k="addr:postcode" v="03417"/>
    <tag k="addr:housenumber" v="38"/>
    <tag k="addr:street" v="Prager Straße"/>
    <tag k="website" v="http://www.bio-flair.der"/>
    <tag k="phone" v="0341 46277762"/>
  </node>
  <node id="-3759" version="0" timestamp="Fri Feb 24 10:53:35 +0100 2012" uid="1" user="" lat="51.3618333" lon="12.2744766">
    <tag k="name" v="Schloßkrug Gundorf"/>
    <tag k="wheelchair" v="yes"/>
    <tag k="amenity" v="bank"/>
  </node>
  <node id="-3899" version="0" timestamp="Fri Feb 24 10:53:35 +0100 2012" uid="1" user="" lat="51.344305" lon="12.3689084">
    <tag k="name" v="Sleepy Lion Hostel &amp; Apartments"/>
    <tag k="wheelchair" v="yes"/>
    <tag k="addr:city" v="Leipzig"/>
    <tag k="addr:postcode" v="04105"/>
    <tag k="addr:housenumber" v="1"/>
    <tag k="tourism" v="hostel"/>
    <tag k="addr:street" v="Jacobstraße "/>
    <tag k="wheelchair:description" v="Fahrstuhl und behindertengerechte Zimmer (Türbreiten, Bäder)"/>
    <tag k="website" v="http://www.hostel-leipzig.de"/>
    <tag k="phone" v="+49 341 9939480"/>
  </node>
  <node id="-4371" version="0" timestamp="Fri Feb 24 10:53:36 +0100 2012" uid="1" user="" lat="51.32203" lon="12.26789">
    <tag k="name" v="Institut für Förderpädagogik"/>
    <tag k="wheelchair" v="limited"/>
    <tag k="addr:city" v="Leipzig"/>
    <tag k="addr:postcode" v="04109"/>
    <tag k="addr:housenumber" v="29 a"/>
    <tag k="addr:street" v="Marschner Str."/>
    <tag k="wheelchair:description" v="kein Rollstuhl-WC"/>
    <tag k="amenity" v="college"/>
    <tag k="website" v="http://www.uni-leipzig.de/~foepaed/wb/"/>
  </node>
  <node id="-4715" version="0" timestamp="Fri Feb 24 10:53:36 +0100 2012" uid="1" user="" lat="51.34211" lon="12.37366">
    <tag k="name" v="Dark Flower"/>
    <tag k="wheelchair" v="no"/>
    <tag k="addr:city" v="Leipzig"/>
    <tag k="addr:postcode" v="04109"/>
    <tag k="addr:housenumber" v="12"/>
    <tag k="addr:street" v="Hainstraße"/>
    <tag k="wheelchair:description" v="lange Treppe direkt im Eingangsbereich, Kellergeschoss ohne Fahrstuhl"/>
    <tag k="amenity" v="nightclub"/>
  </node>
  <node id="-4716" version="0" timestamp="Fri Feb 24 10:53:36 +0100 2012" uid="1" user="" lat="51.336882" lon="12.3754627">
    <tag k="name" v="Musikschule Johann Sebastian Bach"/>
    <tag k="wheelchair" v="limited"/>
    <tag k="wheelchair:description" v="Treppen im Eingangsbereich, teilweise Fahrstuhl im Gebäude vorhanden"/>
    <tag k="amenity" v="bank"/>
  </node>
  <node id="-4717" version="0" timestamp="Fri Feb 24 10:53:36 +0100 2012" uid="1" user="" lat="51.3634179" lon="12.3688894">
    <tag k="name" v="Friedrich-Schiller-Gymnasium"/>
    <tag k="wheelchair" v="no"/>
    <tag k="addr:city" v="Leipzig"/>
    <tag k="addr:postcode" v="04175"/>
    <tag k="addr:housenumber" v="4"/>
    <tag k="addr:street" v="Elsbethstraße"/>
    <tag k="wheelchair:description" v="Treppen"/>
    <tag k="amenity" v="school"/>
  </node>
  <node id="-5375" version="0" timestamp="Fri Feb 24 10:53:37 +0100 2012" uid="1" user="" lat="51.35002" lon="12.37428">
    <tag k="name" v="Santander Consumer Bank"/>
    <tag k="wheelchair" v="limited"/>
    <tag k="addr:city" v="Leipzig"/>
    <tag k="addr:postcode" v="04105"/>
    <tag k="addr:housenumber" v="1"/>
    <tag k="addr:street" v="Nordstraße "/>
    <tag k="amenity" v="bank"/>
    <tag k="website" v="http://santander.de"/>
  </node>
  <node id="-5418" version="0" timestamp="Fri Feb 24 10:53:37 +0100 2012" uid="1" user="" lat="51.33584" lon="12.37361">
    <tag k="name" v="Santander Consumer Bank"/>
    <tag k="wheelchair" v="limited"/>
    <tag k="addr:city" v="Leipzig"/>
    <tag k="addr:postcode" v="04109"/>
    <tag k="addr:housenumber" v="3-5"/>
    <tag k="addr:street" v="Martin-Luther-Ring"/>
    <tag k="amenity" v="bank"/>
    <tag k="website" v="http://www.santander.de"/>
  </node>
  <node id="-5718" version="0" timestamp="Fri Feb 24 10:53:37 +0100 2012" uid="1" user="" lat="51.3373" lon="12.34836">
    <tag k="name" v="Institut für Förderpädagogik"/>
    <tag k="wheelchair" v="limited"/>
    <tag k="wheelchair:description" v="Keine behindertengerechte Toilette vorhanden"/>
    <tag k="amenity" v="university"/>
    <tag k="website" v="http://www.uni-leipzig.de/~foepaed/wb/"/>
  </node>
  <node id="-5719" version="0" timestamp="Fri Feb 24 10:53:37 +0100 2012" uid="1" user="" lat="51.3389991" lon="12.3542662">
    <tag k="name" v="Institut für Förderpädagogik"/>
    <tag k="wheelchair" v="limited"/>
    <tag k="amenity" v="university"/>
    <tag k="website" v="http://www.uni-leipzig.de/~foepaed/wb/"/>
  </node>
</osm>
