<?xml version='1.0' encoding='UTF-8'?>
<osm version="0.6" generator="Osmosis 0.39">
  <node id="-1662" version="0" timestamp="Fri Feb 24 10:53:33 +0100 2012" uid="1" user="" lat="50.8580381" lon="13.0659892">
    <tag k="name" v="Sonnenstudio Solimar Flöha"/>
    <tag k="wheelchair" v="limited"/>
    <tag k="addr:city" v="09577"/>
    <tag k="addr:postcode" v="Flöha"/>
    <tag k="addr:housenumber" v="23"/>
    <tag k="addr:street" v="Augustusburger Straße"/>
    <tag k="amenity" v="gallery"/>
  </node>
  <node id="-2136" version="0" timestamp="Fri Feb 24 10:53:34 +0100 2012" uid="1" user="" lat="50.90694" lon="13.04715">
    <tag k="name" v="Neubau Schule"/>
    <tag k="wheelchair" v="no"/>
    <tag k="addr:city" v="Frankenberg"/>
    <tag k="addr:postcode" v="09669"/>
    <tag k="addr:housenumber" v="26"/>
    <tag k="addr:street" v="Kopernikussstrasse"/>
    <tag k="wheelchair:description" v="keine Aufzüge,nur Stufen"/>
    <tag k="amenity" v="school"/>
  </node>
  <node id="-2142" version="0" timestamp="Fri Feb 24 10:53:34 +0100 2012" uid="1" user="" lat="50.9117398" lon="13.0345208">
    <tag k="name" v="Parkplatz"/>
    <tag k="wheelchair" v="yes"/>
    <tag k="addr:city" v="Frankenberg"/>
    <tag k="addr:postcode" v="09669"/>
    <tag k="wheelchair:description" v="Wer schlau ist kann allen Stufen entweichen"/>
    <tag k="amenity" v="parking"/>
  </node>
  <node id="-2151" version="0" timestamp="Fri Feb 24 10:53:34 +0100 2012" uid="1" user="" lat="50.9063867" lon="13.0479511">
    <tag k="name" v="Kiga Tiangel"/>
    <tag k="wheelchair" v="no"/>
    <tag k="addr:city" v="Frankenberg"/>
    <tag k="addr:postcode" v="09669"/>
    <tag k="wheelchair:description" v="nur Treppen"/>
    <tag k="amenity" v="kindergarten"/>
  </node>
  <node id="-2562" version="0" timestamp="Fri Feb 24 10:53:34 +0100 2012" uid="1" user="" lat="50.9873296" lon="12.9764277">
    <tag k="name" v="Jugendkeller+Kirche"/>
    <tag k="wheelchair" v="limited"/>
    <tag k="wheelchair:description" v="Nur eine Stufe"/>
    <tag k="amenity" v="place_of_worship"/>
  </node>
  <node id="-5439" version="0" timestamp="Fri Feb 24 10:53:37 +0100 2012" uid="1" user="" lat="50.81784" lon="13.09862">
    <tag k="name" v="Rost&apos;s Wiesen"/>
    <tag k="wheelchair" v="yes"/>
    <tag k="addr:city" v="Augustusburg"/>
    <tag k="addr:postcode" v="09573 "/>
    <tag k="addr:housenumber" v="1 "/>
    <tag k="addr:street" v="Str. an der Rodelbahn "/>
    <tag k="amenity" v="restaurant"/>
    <tag k="website" v="http://www.augustusburg.net/"/>
    <tag k="phone" v="037291/12451"/>
  </node>
</osm>
