<?xml version='1.0' encoding='UTF-8'?>
<osm version="0.6" generator="Osmosis 0.39">
  <node id="-3216" version="0" timestamp="Fri Feb 24 10:53:35 +0100 2012" uid="1" user="" lat="50.9521871" lon="13.8905073">
    <tag k="name" v="Barockgarten Großsedlitz"/>
    <tag k="wheelchair" v="yes"/>
    <tag k="addr:city" v="Heidenau"/>
    <tag k="addr:postcode" v="01809"/>
    <tag k="addr:housenumber" v="85"/>
    <tag k="tourism" v="attraction"/>
    <tag k="addr:street" v="Parkstraße"/>
    <tag k="wheelchair:description" v="fast alle Wege mit dem Rolli zu befahren, viele Treppen durch Rampen rollstuhlgerecht"/>
    <tag k="website" v="http://www.barockgarten-grosssedlitz.de/"/>
  </node>
  <node id="-3234" version="0" timestamp="Fri Feb 24 10:53:35 +0100 2012" uid="1" user="" lat="50.9809687" lon="13.5817671">
    <tag k="name" v="Kuppelhalle"/>
    <tag k="wheelchair" v="limited"/>
    <tag k="addr:city" v="Tharandt"/>
    <tag k="addr:postcode" v="01737"/>
    <tag k="addr:housenumber" v="13"/>
    <tag k="addr:street" v="Pienner Str. "/>
    <tag k="wheelchair:description" v="Veranstaltungsort und Ausstellungsräume sind komplett Rollstuhlgerecht"/>
    <tag k="amenity" v="arts_centre"/>
    <tag k="website" v="http://www.kuppelhalle.com"/>
    <tag k="phone" v="03520330042"/>
  </node>
  <node id="-3755" version="0" timestamp="Fri Feb 24 10:53:35 +0100 2012" uid="1" user="" lat="50.9686646" lon="14.2820994">
    <tag k="name" v="KiEZ &quot;An der Grenzbaude&quot;"/>
    <tag k="wheelchair" v="limited"/>
    <tag k="addr:city" v="Sebnitz"/>
    <tag k="addr:postcode" v="01855"/>
    <tag k="addr:housenumber" v="28"/>
    <tag k="tourism" v="bed_and_breakfast"/>
    <tag k="addr:street" v="Bergweg "/>
    <tag k="wheelchair:description" v="ab und zu eine Stufe zu überwinden, "/>
    <tag k="website" v="http://www.kiez-sebnitz.de"/>
    <tag k="phone" v="+49 35 97 1 / 598 16"/>
  </node>
</osm>
