<?xml version='1.0' encoding='UTF-8'?>
<osm version="0.6" generator="Osmosis 0.39">
  <node id="-593" version="0" timestamp="Fri Feb 24 10:53:32 +0100 2012" uid="1" user="" lat="50.27875" lon="12.23734">
    <tag k="name" v="Salzgrotte Bad Elster"/>
    <tag k="wheelchair" v="yes"/>
    <tag k="addr:city" v="Bad Elster"/>
    <tag k="addr:postcode" v="08645"/>
    <tag k="addr:housenumber" v="7"/>
    <tag k="tourism" v="attraction"/>
    <tag k="addr:street" v="Johann-Christoph-Hilf-Strasse "/>
    <tag k="wheelchair:description" v="Parkplatz direkt vor dem Objakt, keine Stufen"/>
    <tag k="website" v="http://www.salzgrotte-rosengarten.de"/>
    <tag k="phone" v="037437909943"/>
  </node>
  <node id="-3324" version="0" timestamp="Fri Feb 24 10:53:35 +0100 2012" uid="1" user="" lat="50.27895" lon="12.23579">
    <tag k="name" v="Salzgrotte Bad Elster am Rosengarten"/>
    <tag k="wheelchair" v="yes"/>
    <tag k="addr:city" v="Bad Elster"/>
    <tag k="addr:postcode" v="08645"/>
    <tag k="addr:housenumber" v="7"/>
    <tag k="tourism" v="attraction"/>
    <tag k="addr:street" v="Johann-Christoph-Hilf-Straße "/>
    <tag k="website" v="http://www.salzgrotte-rosengarten.de"/>
    <tag k="phone" v="01749065124"/>
  </node>
  <node id="-4689" version="0" timestamp="Fri Feb 24 10:53:36 +0100 2012" uid="1" user="" lat="50.50045" lon="12.40366">
    <tag k="name" v="Waldpark Grünheide"/>
    <tag k="wheelchair" v="yes"/>
    <tag k="addr:city" v="Auerbach"/>
    <tag k="addr:postcode" v="08209"/>
    <tag k="addr:housenumber" v="5"/>
    <tag k="tourism" v="hostel"/>
    <tag k="addr:street" v="Rautenkranzer Straße "/>
    <tag k="website" v="http://www.waldpark.de"/>
    <tag k="phone" v="49 3744 83730"/>
  </node>
</osm>
