<?xml version='1.0' encoding='UTF-8'?>
<osm version="0.6" generator="Osmosis 0.39">
  <node id="-738" version="0" timestamp="Fri Feb 24 10:53:32 +0100 2012" uid="1" user="" lat="50.7178488" lon="12.4824637">
    <tag k="shop" v="computer"/>
    <tag k="name" v="BlueFox Computer"/>
    <tag k="wheelchair" v="yes"/>
    <tag k="addr:city" v="Zwickau"/>
    <tag k="addr:postcode" v="08056"/>
    <tag k="addr:housenumber" v="36"/>
    <tag k="addr:street" v="Bahnhofstraße"/>
    <tag k="wheelchair:description" v="Eine kleine Stufe von weniger als 5cm Höhe befindet sich vor dem Eingang. Die Mitarbeiter helfen jederzeit gern diese zu überwinden."/>
    <tag k="website" v="http://www.bluefox-computer.de"/>
    <tag k="phone" v="0375 / 88 29 83 - 11"/>
  </node>
  <node id="-933" version="0" timestamp="Fri Feb 24 10:53:33 +0100 2012" uid="1" user="" lat="50.72601" lon="12.34654">
    <tag k="name" v="Hotel Friesen"/>
    <tag k="wheelchair" v="limited"/>
    <tag k="addr:city" v="Werdau"/>
    <tag k="addr:postcode" v="08412"/>
    <tag k="addr:housenumber" v="58"/>
    <tag k="addr:street" v="Zwickauer Strasse"/>
    <tag k="wheelchair:description" v="Restaurant, Biergarten &amp; Pils Pub ebenerdig "/>
    <tag k="amenity" v="restaurant"/>
    <tag k="website" v="http://www.hotel-friesen.de/"/>
    <tag k="phone" v="+493761/88000"/>
  </node>
  <node id="-1390" version="0" timestamp="Fri Feb 24 10:53:33 +0100 2012" uid="1" user="" lat="50.73327" lon="12.37674">
    <tag k="name" v="Zahnarztpraxis Stracke"/>
    <tag k="wheelchair" v="limited"/>
    <tag k="addr:city" v="Werdau"/>
    <tag k="addr:postcode" v="08412"/>
    <tag k="addr:housenumber" v="1A"/>
    <tag k="addr:street" v="Ziegelstraße"/>
    <tag k="wheelchair:description" v="Fahrstuhl, keine Stufen in Eingang und Räumen, nur Standardtoilette"/>
    <tag k="amenity" v="doctors"/>
    <tag k="phone" v="03761 2754"/>
  </node>
  <node id="-3064" version="0" timestamp="Fri Feb 24 10:53:35 +0100 2012" uid="1" user="" lat="50.7278825" lon="12.491723">
    <tag k="name" v="Moritzkirche"/>
    <tag k="wheelchair" v="limited"/>
    <tag k="addr:city" v="Zwickau"/>
    <tag k="addr:postcode" v="08058"/>
    <tag k="addr:street" v="Leipziger Straße"/>
    <tag k="wheelchair:description" v="mobile Rampe im Eingangsbereich"/>
    <tag k="amenity" v="place_of_worship"/>
    <tag k="website" v="http://www.moritzkirche-zwickau.de"/>
  </node>
  <node id="-3065" version="0" timestamp="Fri Feb 24 10:53:35 +0100 2012" uid="1" user="" lat="50.72008" lon="12.49919">
    <tag k="name" v="Katharinenkirche"/>
    <tag k="wheelchair" v="unknown"/>
    <tag k="amenity" v="place_of_worship"/>
  </node>
  <node id="-3066" version="0" timestamp="Fri Feb 24 10:53:35 +0100 2012" uid="1" user="" lat="50.72037" lon="12.49947">
    <tag k="name" v="St. Nepomuk"/>
    <tag k="wheelchair" v="limited"/>
    <tag k="amenity" v="place_of_worship"/>
  </node>
  <node id="-3067" version="0" timestamp="Fri Feb 24 10:53:35 +0100 2012" uid="1" user="" lat="50.71986" lon="12.4981">
    <tag k="name" v="Ärztehaus Alter Steinweg"/>
    <tag k="wheelchair" v="limited"/>
    <tag k="amenity" v="doctors"/>
  </node>
  <node id="-5595" version="0" timestamp="Fri Feb 24 10:53:37 +0100 2012" uid="1" user="" lat="50.82671" lon="12.51256">
    <tag k="name" v="Sachsenlandhalle"/>
    <tag k="wheelchair" v="yes"/>
    <tag k="addr:city" v="Glauchau"/>
    <tag k="addr:postcode" v="08371"/>
    <tag k="addr:street" v="An der Sachsenlandhalle"/>
    <tag k="amenity" v="community_center"/>
    <tag k="website" v="http://sachsenlandhalle-glauchau.de/"/>
    <tag k="phone" v="+49 3763 13604"/>
  </node>
</osm>
