<?xml version='1.0' encoding='UTF-8'?>
<osm version="0.6" generator="Osmosis 0.39">
  <node id="-153" version="0" timestamp="Fri Feb 24 10:53:32 +0100 2012" uid="1" user="" lat="49.93245" lon="8.67746">
    <tag k="name" v="Kommunikations und Bürogebäude West"/>
    <tag k="wheelchair" v="yes"/>
    <tag k="wheelchair:description" v="Teilweise öffentlich"/>
  </node>
  <node id="-571" version="0" timestamp="Fri Feb 24 10:53:32 +0100 2012" uid="1" user="" lat="49.8708005" lon="8.6497727">
    <tag k="name" v="Lokanta Hasso&apos;m"/>
    <tag k="wheelchair" v="yes"/>
    <tag k="addr:city" v="Darmstadt"/>
    <tag k="addr:postcode" v="64283"/>
    <tag k="addr:housenumber" v="10"/>
    <tag k="addr:street" v="Adelungstr."/>
    <tag k="amenity" v="fast_food"/>
    <tag k="phone" v="+49 6151 273194"/>
  </node>
  <node id="-814" version="0" timestamp="Fri Feb 24 10:53:32 +0100 2012" uid="1" user="" lat="49.87131" lon="8.65562">
    <tag k="name" v="Zoo Bar"/>
    <tag k="wheelchair" v="yes"/>
    <tag k="addr:city" v="Darmstadt"/>
    <tag k="addr:postcode" v="64283"/>
    <tag k="addr:housenumber" v="17-19"/>
    <tag k="addr:street" v="An der Stadtkirche"/>
    <tag k="wheelchair:description" v="Wheelchair toilet available, others at the 1st. floor"/>
    <tag k="amenity" v="restaurant"/>
    <tag k="website" v="http://www.zoo-bar.de/"/>
    <tag k="phone" v="+49 6151-4923535"/>
  </node>
  <node id="-3062" version="0" timestamp="Fri Feb 24 10:53:35 +0100 2012" uid="1" user="" lat="49.8625906" lon="8.6506766">
    <tag k="name" v="Balkontür-Rampe"/>
    <tag k="wheelchair" v="yes"/>
    <tag k="addr:city" v="Darmstadt"/>
    <tag k="addr:postcode" v="64285"/>
    <tag k="addr:housenumber" v="12"/>
    <tag k="tourism" v="guest_house"/>
    <tag k="addr:street" v="Eichbergstraße"/>
    <tag k="wheelchair:description" v="Mietwohnung im EG mit Balkontür-Rampe"/>
  </node>
  <node id="-3776" version="0" timestamp="Fri Feb 24 10:53:35 +0100 2012" uid="1" user="" lat="49.87366" lon="8.62665">
    <tag k="name" v="Evangelische Hochschule Darmstadt"/>
    <tag k="wheelchair" v="yes"/>
    <tag k="addr:city" v="Darmstadt"/>
    <tag k="addr:housenumber" v="12"/>
    <tag k="addr:street" v="Zweifalltorweg"/>
    <tag k="amenity" v="college"/>
    <tag k="website" v="http://www.efh-darmstadt.de"/>
  </node>
  <node id="-3900" version="0" timestamp="Fri Feb 24 10:53:35 +0100 2012" uid="1" user="" lat="49.8629163" lon="8.6423023">
    <tag k="shop" v="supermarket"/>
    <tag k="name" v="Rewe"/>
    <tag k="wheelchair" v="yes"/>
  </node>
  <node id="-5422" version="0" timestamp="Fri Feb 24 10:53:37 +0100 2012" uid="1" user="" lat="49.87063" lon="8.64908">
    <tag k="name" v="Santander Consumer Bank"/>
    <tag k="wheelchair" v="limited"/>
    <tag k="addr:city" v="Darmstadt"/>
    <tag k="addr:postcode" v="64283"/>
    <tag k="addr:housenumber" v="29"/>
    <tag k="addr:street" v="Elisabethenstraße"/>
    <tag k="amenity" v="bank"/>
    <tag k="website" v="http://www.santander.de"/>
  </node>
  <node id="-5557" version="0" timestamp="Fri Feb 24 10:53:37 +0100 2012" uid="1" user="" lat="49.8706" lon="8.6494">
    <tag k="name" v="brandstage.tv GmbH"/>
    <tag k="wheelchair" v="yes"/>
    <tag k="addr:city" v="Hamburg"/>
    <tag k="addr:postcode" v="22765"/>
    <tag k="addr:housenumber" v="28 A"/>
    <tag k="addr:street" v="Behringstrasse"/>
    <tag k="website" v="http://www.brandstage.tv"/>
    <tag k="phone" v="+4940 325096 60"/>
    <tag k="office" v="company"/>
  </node>
  <node id="-5558" version="0" timestamp="Fri Feb 24 10:53:37 +0100 2012" uid="1" user="" lat="49.8706" lon="8.6494">
    <tag k="name" v="parapictures film production GmbH"/>
    <tag k="wheelchair" v="yes"/>
    <tag k="addr:city" v="Hamburg"/>
    <tag k="addr:postcode" v="22765"/>
    <tag k="addr:housenumber" v="28 A"/>
    <tag k="addr:street" v="Behringstrasse"/>
    <tag k="wheelchair:description" v="barrierefreie Filmproduktion"/>
    <tag k="phone" v="+4940 325096 60"/>
    <tag k="office" v="company"/>
  </node>
</osm>
