<?xml version='1.0' encoding='UTF-8'?>
<osm version="0.6" generator="Osmosis 0.39">
  <node id="-779" version="0" timestamp="Fri Feb 24 10:53:32 +0100 2012" uid="1" user="" lat="49.8323385" lon="8.6998268">
    <tag k="name" v="Steinbruchtheater Darmstadt"/>
    <tag k="wheelchair" v="no"/>
    <tag k="addr:city" v="Mühltal"/>
    <tag k="addr:postcode" v="64367"/>
    <tag k="addr:housenumber" v="26"/>
    <tag k="addr:street" v="Odenwaldstraße"/>
    <tag k="amenity" v="bank"/>
    <tag k="website" v="http://steinbruchtheater.de"/>
    <tag k="phone" v="06151 / 148783"/>
  </node>
  <node id="-1065" version="0" timestamp="Fri Feb 24 10:53:33 +0100 2012" uid="1" user="" lat="49.8040786" lon="8.5993316">
    <tag k="shop" v="optician"/>
    <tag k="name" v="Optik Bogorinski"/>
    <tag k="wheelchair" v="limited"/>
    <tag k="addr:city" v="Pfungstadt"/>
    <tag k="addr:postcode" v="64319"/>
    <tag k="addr:housenumber" v="36"/>
    <tag k="addr:street" v="Eberstädter Straße"/>
    <tag k="website" v="http://www.bogorinski.de"/>
    <tag k="phone" v="+496157 2962"/>
  </node>
  <node id="-1127" version="0" timestamp="Fri Feb 24 10:53:33 +0100 2012" uid="1" user="" lat="49.8046405" lon="8.6038652">
    <tag k="shop" v="hairdresser"/>
    <tag k="name" v="Haarfabrik"/>
    <tag k="wheelchair" v="yes"/>
    <tag k="addr:city" v="Pfungstadt"/>
    <tag k="addr:postcode" v="64319"/>
    <tag k="addr:housenumber" v="81"/>
    <tag k="addr:street" v="Eberstädter Straße"/>
  </node>
  <node id="-1132" version="0" timestamp="Fri Feb 24 10:53:33 +0100 2012" uid="1" user="" lat="49.8029227" lon="8.5959844">
    <tag k="shop" v="butcher"/>
    <tag k="name" v="Metzgerei Feldmann"/>
    <tag k="wheelchair" v="yes"/>
  </node>
  <node id="-1133" version="0" timestamp="Fri Feb 24 10:53:33 +0100 2012" uid="1" user="" lat="49.8035632" lon="8.5975037">
    <tag k="name" v="Parkplatz"/>
    <tag k="wheelchair" v="yes"/>
    <tag k="wheelchair:description" v="1 Behindertenparkplatz"/>
    <tag k="amenity" v="parking"/>
  </node>
  <node id="-1134" version="0" timestamp="Fri Feb 24 10:53:33 +0100 2012" uid="1" user="" lat="49.8037904" lon="8.5986776">
    <tag k="shop" v="hairdresser"/>
    <tag k="name" v="Hair Lounge"/>
    <tag k="wheelchair" v="yes"/>
  </node>
  <node id="-1135" version="0" timestamp="Fri Feb 24 10:53:33 +0100 2012" uid="1" user="" lat="49.8038315" lon="8.5987927">
    <tag k="shop" v="clothes"/>
    <tag k="name" v="Township"/>
    <tag k="wheelchair" v="yes"/>
    <tag k="website" v="http://telit-agentur.de/township/"/>
  </node>
  <node id="-1166" version="0" timestamp="Fri Feb 24 10:53:33 +0100 2012" uid="1" user="" lat="49.9708284" lon="8.9566523">
    <tag k="shop" v="beverages"/>
    <tag k="name" v="Getränkemarkt Gotta"/>
    <tag k="wheelchair" v="limited"/>
    <tag k="addr:city" v="Babenhausen"/>
    <tag k="addr:postcode" v="64832"/>
    <tag k="addr:housenumber" v="2"/>
    <tag k="addr:street" v="Elsässerstrasse"/>
    <tag k="website" v="http://www.getraenke-gotta.de/"/>
    <tag k="phone" v="06073-6730"/>
  </node>
  <node id="-1172" version="0" timestamp="Fri Feb 24 10:53:33 +0100 2012" uid="1" user="" lat="49.9629073" lon="8.9541943">
    <tag k="name" v="Parkplatz"/>
    <tag k="wheelchair" v="yes"/>
    <tag k="amenity" v="parking"/>
  </node>
  <node id="-1234" version="0" timestamp="Fri Feb 24 10:53:33 +0100 2012" uid="1" user="" lat="49.8038931" lon="8.6003394">
    <tag k="shop" v="books"/>
    <tag k="name" v="Buchhandlung Faller"/>
    <tag k="wheelchair" v="yes"/>
  </node>
  <node id="-1332" version="0" timestamp="Fri Feb 24 10:53:33 +0100 2012" uid="1" user="" lat="49.8044798" lon="8.6031323">
    <tag k="shop" v="electronics"/>
    <tag k="name" v="EUronics Neumann"/>
    <tag k="wheelchair" v="yes"/>
  </node>
  <node id="-1333" version="0" timestamp="Fri Feb 24 10:53:33 +0100 2012" uid="1" user="" lat="49.80428" lon="8.6008">
    <tag k="shop" v="books"/>
    <tag k="name" v="Buchhandlung Julius Helene"/>
    <tag k="wheelchair" v="limited"/>
  </node>
  <node id="-1335" version="0" timestamp="Fri Feb 24 10:53:33 +0100 2012" uid="1" user="" lat="49.8035834" lon="8.5993687">
    <tag k="shop" v="hairdresser"/>
    <tag k="name" v="Eicke H+"/>
    <tag k="wheelchair" v="yes"/>
  </node>
  <node id="-1336" version="0" timestamp="Fri Feb 24 10:53:33 +0100 2012" uid="1" user="" lat="49.80397" lon="8.5995">
    <tag k="name" v="Sparkasse"/>
    <tag k="wheelchair" v="yes"/>
    <tag k="amenity" v="bank"/>
  </node>
  <node id="-1337" version="0" timestamp="Fri Feb 24 10:53:33 +0100 2012" uid="1" user="" lat="49.80387" lon="8.59843">
    <tag k="name" v="Commerzbank"/>
    <tag k="wheelchair" v="no"/>
    <tag k="amenity" v="bank"/>
  </node>
  <node id="-1338" version="0" timestamp="Fri Feb 24 10:53:33 +0100 2012" uid="1" user="" lat="49.80351" lon="8.59721">
    <tag k="shop" v="department_store"/>
    <tag k="name" v="NKD"/>
    <tag k="wheelchair" v="yes"/>
  </node>
  <node id="-1386" version="0" timestamp="Fri Feb 24 10:53:33 +0100 2012" uid="1" user="" lat="49.890732" lon="8.6101556">
    <tag k="shop" v="beverages"/>
    <tag k="name" v="Weinhaus Hamm, Weinfachhandel"/>
    <tag k="wheelchair" v="yes"/>
    <tag k="addr:city" v="Weiterstadt - Riedbahn"/>
    <tag k="addr:postcode" v="64331"/>
    <tag k="addr:housenumber" v="19"/>
    <tag k="addr:street" v="Waldstraße "/>
    <tag k="wheelchair:description" v="Eingang: stufenlos erreichbar Räume: alle stufenlos erreichbar "/>
    <tag k="website" v="http://www.weinhaushamm.de"/>
    <tag k="phone" v="061518007858"/>
  </node>
  <node id="-1993" version="0" timestamp="Fri Feb 24 10:53:34 +0100 2012" uid="1" user="" lat="49.78666" lon="8.71055">
    <tag k="name" v="Dorfgemeinschaftshaus Frankenhausen"/>
    <tag k="wheelchair" v="yes"/>
    <tag k="addr:city" v="Mühltal"/>
    <tag k="addr:postcode" v="64367"/>
    <tag k="addr:housenumber" v="8"/>
    <tag k="addr:street" v="Gewannstraße"/>
  </node>
  <node id="-2342" version="0" timestamp="Fri Feb 24 10:53:34 +0100 2012" uid="1" user="" lat="49.84141" lon="8.82889">
    <tag k="name" v="Ristorante Sicilia"/>
    <tag k="wheelchair" v="yes"/>
    <tag k="addr:city" v="Reinheim"/>
    <tag k="addr:postcode" v="64354"/>
    <tag k="addr:housenumber" v="2"/>
    <tag k="addr:street" v="Lessingstrasse "/>
    <tag k="amenity" v="restaurant"/>
    <tag k="website" v="http://www.ristorante-sicilia.de"/>
    <tag k="phone" v="061621442"/>
  </node>
  <node id="-2970" version="0" timestamp="Fri Feb 24 10:53:35 +0100 2012" uid="1" user="" lat="49.8997211" lon="8.8385301">
    <tag k="name" v="Museum"/>
    <tag k="wheelchair" v="yes"/>
    <tag k="addr:city" v="Dieburg"/>
    <tag k="addr:postcode" v="64807"/>
    <tag k="addr:housenumber" v="8"/>
    <tag k="tourism" v="museum"/>
    <tag k="addr:street" v="Eulengasse"/>
    <tag k="website" v="http://www.museum-schloss-fechenbach.de/"/>
    <tag k="phone" v="06071-2002-460"/>
  </node>
  <node id="-2973" version="0" timestamp="Fri Feb 24 10:53:35 +0100 2012" uid="1" user="" lat="49.9033189" lon="8.8404938">
    <tag k="name" v="Haltestelle Süd"/>
    <tag k="wheelchair" v="yes"/>
    <tag k="addr:street" v="Am Bahnhof"/>
    <tag k="wheelchair:description" v="Blindenstreifen und Kasseler Bord"/>
    <tag k="amenity" v="bus_station"/>
  </node>
  <node id="-2974" version="0" timestamp="Fri Feb 24 10:53:35 +0100 2012" uid="1" user="" lat="49.9006857" lon="8.8391944">
    <tag k="name" v="Haltestelle Steinstraße Ost"/>
    <tag k="wheelchair" v="no"/>
    <tag k="addr:housenumber" v="Höhe Nr. 53"/>
    <tag k="addr:street" v="Steinstraße"/>
    <tag k="amenity" v="bus_station"/>
  </node>
  <node id="-2975" version="0" timestamp="Fri Feb 24 10:53:35 +0100 2012" uid="1" user="" lat="49.9006857" lon="8.8391944">
    <tag k="name" v="Haltestelle Steinstraße Ost"/>
    <tag k="wheelchair" v="no"/>
    <tag k="addr:housenumber" v="Höhe Nr. 53"/>
    <tag k="addr:street" v="Steinstraße"/>
    <tag k="amenity" v="bus_station"/>
  </node>
  <node id="-2976" version="0" timestamp="Fri Feb 24 10:53:35 +0100 2012" uid="1" user="" lat="49.9006658" lon="8.8390613">
    <tag k="name" v="Haltestelle Streinstraße West"/>
    <tag k="wheelchair" v="no"/>
    <tag k="addr:housenumber" v="Höhe 34"/>
    <tag k="addr:street" v="Steinstraße"/>
    <tag k="amenity" v="bus_station"/>
  </node>
  <node id="-2977" version="0" timestamp="Fri Feb 24 10:53:35 +0100 2012" uid="1" user="" lat="49.8980668" lon="8.8379118">
    <tag k="name" v="Haltestelle Markt West"/>
    <tag k="wheelchair" v="no"/>
    <tag k="addr:housenumber" v="Höhe Nr. 20"/>
    <tag k="addr:street" v="Markt"/>
    <tag k="amenity" v="bus_station"/>
  </node>
  <node id="-2978" version="0" timestamp="Fri Feb 24 10:53:35 +0100 2012" uid="1" user="" lat="49.8981218" lon="8.8380173">
    <tag k="name" v="Haltestelle Markt Ost"/>
    <tag k="wheelchair" v="no"/>
    <tag k="addr:housenumber" v="Höhe Mini-Café"/>
    <tag k="addr:street" v="Markt"/>
    <tag k="amenity" v="bank"/>
  </node>
  <node id="-2982" version="0" timestamp="Fri Feb 24 10:53:35 +0100 2012" uid="1" user="" lat="49.8980727" lon="8.8380609">
    <tag k="name" v="Haltestelle Markt Ost"/>
    <tag k="wheelchair" v="no"/>
    <tag k="addr:housenumber" v="Höhe Mini-Café"/>
    <tag k="addr:street" v="Markt"/>
    <tag k="amenity" v="bus_station"/>
  </node>
  <node id="-3006" version="0" timestamp="Fri Feb 24 10:53:35 +0100 2012" uid="1" user="" lat="49.9023536" lon="8.8540863">
    <tag k="name" v="Haltestelle Hochschule Nord"/>
    <tag k="wheelchair" v="no"/>
    <tag k="addr:street" v="Aschaffenburger Straße"/>
    <tag k="amenity" v="bus_station"/>
  </node>
  <node id="-3008" version="0" timestamp="Fri Feb 24 10:53:35 +0100 2012" uid="1" user="" lat="49.9022913" lon="8.8541597">
    <tag k="name" v="Haltestelle Hochschule Süd"/>
    <tag k="wheelchair" v="no"/>
    <tag k="addr:street" v="Aschaffenburger Straße"/>
    <tag k="amenity" v="bus_station"/>
  </node>
  <node id="-3011" version="0" timestamp="Fri Feb 24 10:53:35 +0100 2012" uid="1" user="" lat="49.9003738" lon="8.8548013">
    <tag k="name" v="Haltestelle Hochschule Ost"/>
    <tag k="wheelchair" v="yes"/>
    <tag k="addr:street" v="Max-Plank-Straße"/>
    <tag k="amenity" v="bus_station"/>
  </node>
  <node id="-3013" version="0" timestamp="Fri Feb 24 10:53:35 +0100 2012" uid="1" user="" lat="49.8996367" lon="8.8546578">
    <tag k="name" v="Haltestelle Hochschule West"/>
    <tag k="wheelchair" v="yes"/>
    <tag k="addr:housenumber" v="Höhe Parkplatz"/>
    <tag k="addr:street" v="Max-Plank-Straße"/>
    <tag k="amenity" v="bus_station"/>
  </node>
  <node id="-3017" version="0" timestamp="Fri Feb 24 10:53:35 +0100 2012" uid="1" user="" lat="49.8995694" lon="8.8385742">
    <tag k="name" v="Museum"/>
    <tag k="wheelchair" v="yes"/>
    <tag k="addr:city" v="Dieburg"/>
    <tag k="addr:postcode" v="64807"/>
    <tag k="addr:housenumber" v="8"/>
    <tag k="addr:street" v="Eulengasse"/>
    <tag k="wheelchair:description" v="nur während des Öffnungszeiten des Cafés und des Museums"/>
    <tag k="amenity" v="toilets"/>
    <tag k="website" v="http://www.schloss-fechenbach.de"/>
    <tag k="phone" v="+49 6071 2002-460"/>
  </node>
  <node id="-3018" version="0" timestamp="Fri Feb 24 10:53:35 +0100 2012" uid="1" user="" lat="49.8988129" lon="8.8397536">
    <tag k="name" v="Pater-Delp-Haus"/>
    <tag k="wheelchair" v="yes"/>
    <tag k="addr:city" v="Dieburg"/>
    <tag k="addr:postcode" v="64807"/>
    <tag k="addr:housenumber" v="5"/>
    <tag k="addr:street" v="Steinstraße"/>
    <tag k="wheelchair:description" v="nur mit dem Schlüssel zur Schüssel erreichbar"/>
    <tag k="amenity" v="toilets"/>
  </node>
  <node id="-3020" version="0" timestamp="Fri Feb 24 10:53:35 +0100 2012" uid="1" user="" lat="49.89749" lon="8.81756">
    <tag k="name" v="Freizeitzentrum Spießfeld"/>
    <tag k="wheelchair" v="yes"/>
    <tag k="addr:city" v="Dieburg"/>
    <tag k="addr:postcode" v="64807"/>
    <tag k="addr:housenumber" v="180"/>
    <tag k="addr:street" v="Darmstädter Straße"/>
    <tag k="wheelchair:description" v="nur mit dem Schlüssel zur Schüssel"/>
    <tag k="amenity" v="toilets"/>
  </node>
  <node id="-3021" version="0" timestamp="Fri Feb 24 10:53:35 +0100 2012" uid="1" user="" lat="49.8953372" lon="8.8051843">
    <tag k="name" v="Freizeitzentrum Spießfeld"/>
    <tag k="wheelchair" v="yes"/>
    <tag k="addr:city" v="Dieburg"/>
    <tag k="addr:postcode" v="64807"/>
    <tag k="addr:housenumber" v="180"/>
    <tag k="addr:street" v="Darmstädter Straße"/>
    <tag k="wheelchair:description" v="nut mit dem Schlüssel zu Schüssel"/>
    <tag k="amenity" v="toilets"/>
  </node>
</osm>
