<?xml version='1.0' encoding='UTF-8'?>
<osm version="0.6" generator="Osmosis 0.39">
  <node id="-550" version="0" timestamp="Fri Feb 24 10:53:32 +0100 2012" uid="1" user="" lat="50.1312109" lon="8.6922067">
    <tag k="name" v="Bibliothek der Fachhochschule Frankfurt am Main"/>
    <tag k="wheelchair" v="yes"/>
    <tag k="amenity" v="library"/>
  </node>
  <node id="-574" version="0" timestamp="Fri Feb 24 10:53:32 +0100 2012" uid="1" user="" lat="50.1052199" lon="8.6878522">
    <tag k="name" v="Rechtsanwälte Prüfer"/>
    <tag k="wheelchair" v="limited"/>
    <tag k="addr:city" v="Frankfurt am Main"/>
    <tag k="addr:postcode" v="60594 "/>
    <tag k="addr:housenumber" v="24"/>
    <tag k="addr:street" v="Wallstraße"/>
    <tag k="website" v="http://www.kanzleipruefer.de"/>
    <tag k="phone" v="069/84844177"/>
  </node>
  <node id="-646" version="0" timestamp="Fri Feb 24 10:53:32 +0100 2012" uid="1" user="" lat="50.14239" lon="8.68388">
    <tag k="name" v="Speak Easy"/>
    <tag k="wheelchair" v="yes"/>
    <tag k="addr:city" v="Frankfurt am Main"/>
    <tag k="addr:postcode" v="60594"/>
    <tag k="addr:housenumber" v="42"/>
    <tag k="addr:street" v="Große Rittergasse"/>
    <tag k="wheelchair:description" v="keine Rollstuhlfahrertoilette aber WC ebenerdi erreichbar"/>
    <tag k="amenity" v="bar"/>
    <tag k="phone" v="+49 69618075"/>
  </node>
  <node id="-925" version="0" timestamp="Fri Feb 24 10:53:33 +0100 2012" uid="1" user="" lat="50.12707" lon="8.7558">
    <tag k="name" v="TÜV Hessen GmbH"/>
    <tag k="wheelchair" v="yes"/>
    <tag k="addr:city" v="Frankfurt Fechenheim"/>
    <tag k="addr:postcode" v="60386"/>
    <tag k="addr:housenumber" v="5"/>
    <tag k="addr:street" v="Ernst-Heinkel-Strasse"/>
    <tag k="wheelchair:description" v="Alles ebenerdig. Rollitoilette vorhanden."/>
    <tag k="website" v="http://www.tuevhessen.de"/>
    <tag k="phone" v="069-9047500"/>
  </node>
  <node id="-927" version="0" timestamp="Fri Feb 24 10:53:33 +0100 2012" uid="1" user="" lat="50.12707" lon="8.7558">
    <tag k="name" v="TÜV Hessen GmbH"/>
    <tag k="wheelchair" v="yes"/>
    <tag k="addr:city" v="Dietzenbach"/>
    <tag k="addr:postcode" v="63128"/>
    <tag k="addr:housenumber" v="10"/>
    <tag k="addr:street" v="Elisabeth-Selbert-Strasse"/>
    <tag k="website" v="http://www.tuevhessen.de"/>
    <tag k="phone" v="060747290610"/>
  </node>
  <node id="-1402" version="0" timestamp="Fri Feb 24 10:53:33 +0100 2012" uid="1" user="" lat="50.0895255" lon="8.7120357">
    <tag k="name" v="Goetheruh"/>
    <tag k="wheelchair" v="yes"/>
    <tag k="amenity" v="restaurant"/>
  </node>
  <node id="-1404" version="0" timestamp="Fri Feb 24 10:53:33 +0100 2012" uid="1" user="" lat="50.0977334" lon="8.6907722">
    <tag k="shop" v="supermarket"/>
    <tag k="name" v="Rewe"/>
    <tag k="wheelchair" v="yes"/>
  </node>
  <node id="-1424" version="0" timestamp="Fri Feb 24 10:53:33 +0100 2012" uid="1" user="" lat="50.1224615" lon="8.7670123">
    <tag k="name" v="Behinderten Parkplatz"/>
    <tag k="wheelchair" v="yes"/>
    <tag k="amenity" v="pharmacy"/>
  </node>
  <node id="-1496" version="0" timestamp="Fri Feb 24 10:53:33 +0100 2012" uid="1" user="" lat="50.11004" lon="8.68526">
    <tag k="name" v="Caricatura Museum"/>
    <tag k="wheelchair" v="yes"/>
    <tag k="addr:city" v="Frankfurt am Main"/>
    <tag k="addr:postcode" v="60311"/>
    <tag k="addr:housenumber" v="17"/>
    <tag k="tourism" v="museum"/>
    <tag k="addr:street" v="Weckmarkt"/>
    <tag k="wheelchair:description" v="Keine Stufen, Behindertentoilette vorhanden"/>
    <tag k="website" v="http://www.caricatura-museum.de"/>
  </node>
  <node id="-1498" version="0" timestamp="Fri Feb 24 10:53:33 +0100 2012" uid="1" user="" lat="50.11451" lon="8.68233">
    <tag k="name" v="Cafe Douglas (im Pohland_Haus)"/>
    <tag k="wheelchair" v="yes"/>
    <tag k="addr:street" v="Zeil"/>
    <tag k="wheelchair:description" v="Cafe im 3. OG, Behinderten WC im 2. OG per Aufzug"/>
    <tag k="amenity" v="cafe"/>
  </node>
  <node id="-2584" version="0" timestamp="Fri Feb 24 10:53:34 +0100 2012" uid="1" user="" lat="50.11296" lon="8.70167">
    <tag k="name" v="Cafe Sonnenschein im August-Stunz-Zentrum"/>
    <tag k="wheelchair" v="yes"/>
    <tag k="addr:city" v="Frankfurt"/>
    <tag k="addr:postcode" v="60314"/>
    <tag k="addr:housenumber" v="82"/>
    <tag k="addr:street" v="Röderbergweg "/>
    <tag k="amenity" v="cafe"/>
    <tag k="phone" v="+4969405040"/>
  </node>
  <node id="-2585" version="0" timestamp="Fri Feb 24 10:53:34 +0100 2012" uid="1" user="" lat="50.11519" lon="8.70858">
    <tag k="name" v="Speisesaal im August-Stunz-Zentrum"/>
    <tag k="wheelchair" v="yes"/>
    <tag k="addr:city" v="Frankfurt"/>
    <tag k="addr:postcode" v="60314"/>
    <tag k="addr:housenumber" v="82"/>
    <tag k="addr:street" v="Röderbergweg"/>
    <tag k="amenity" v="restaurant"/>
    <tag k="website" v="http://www.awo-frankfurt.de"/>
    <tag k="phone" v="069/405040"/>
  </node>
  <node id="-2716" version="0" timestamp="Fri Feb 24 10:53:34 +0100 2012" uid="1" user="" lat="50.14212" lon="8.69613">
    <tag k="shop" v="supermarket"/>
    <tag k="name" v="Teegut"/>
    <tag k="wheelchair" v="yes"/>
  </node>
  <node id="-2718" version="0" timestamp="Fri Feb 24 10:53:34 +0100 2012" uid="1" user="" lat="50.12864" lon="8.69559">
    <tag k="name" v="Ärztehaus"/>
    <tag k="wheelchair" v="yes"/>
    <tag k="addr:city" v="Frankfurt am main"/>
    <tag k="addr:housenumber" v="22"/>
    <tag k="addr:street" v="Böttgerstr."/>
    <tag k="wheelchair:description" v="nicht bekannt ob Behindetengerechtes WC vorhanden"/>
    <tag k="amenity" v="doctors"/>
  </node>
  <node id="-3250" version="0" timestamp="Fri Feb 24 10:53:35 +0100 2012" uid="1" user="" lat="50.1201713" lon="8.6362378">
    <tag k="name" v="DB Training, Trainingszentrum Frankfurt"/>
    <tag k="wheelchair" v="yes"/>
    <tag k="addr:city" v="Frankfurt"/>
    <tag k="addr:postcode" v="60486"/>
    <tag k="addr:housenumber" v="8"/>
    <tag k="addr:street" v="Solmsstraße"/>
    <tag k="amenity" v="school"/>
    <tag k="website" v="http://www.db-training.de"/>
    <tag k="phone" v="069 265 27400"/>
  </node>
  <node id="-4120" version="0" timestamp="Fri Feb 24 10:53:36 +0100 2012" uid="1" user="" lat="50.12731" lon="8.67264">
    <tag k="name" v="Kursana Villa Frankfurt"/>
    <tag k="wheelchair" v="yes"/>
    <tag k="amenity" v="toilets"/>
  </node>
  <node id="-4138" version="0" timestamp="Fri Feb 24 10:53:36 +0100 2012" uid="1" user="" lat="50.10531" lon="8.68965">
    <tag k="name" v="Ponyhof Club"/>
    <tag k="wheelchair" v="limited"/>
    <tag k="addr:city" v="Frankfurt"/>
    <tag k="addr:postcode" v="60594"/>
    <tag k="addr:housenumber" v="16"/>
    <tag k="addr:street" v="Klappergasse"/>
    <tag k="wheelchair:description" v="1 Stufe am Eingang, kein Klo"/>
    <tag k="amenity" v="nightclub"/>
    <tag k="website" v="http://www.ponyhof-club.de"/>
    <tag k="phone" v="069 97767408"/>
  </node>
  <node id="-4363" version="0" timestamp="Fri Feb 24 10:53:36 +0100 2012" uid="1" user="" lat="50.1167" lon="8.6833">
    <tag k="name" v="Rechtsanwälte Ahl &amp; Kollegen"/>
    <tag k="wheelchair" v="yes"/>
    <tag k="addr:city" v="Meldorf"/>
    <tag k="addr:postcode" v="25704"/>
    <tag k="addr:housenumber" v="2"/>
    <tag k="addr:street" v="Südermarkt "/>
    <tag k="phone" v="0483295890"/>
    <tag k="office" v="lawyer"/>
  </node>
  <node id="-4651" version="0" timestamp="Fri Feb 24 10:53:36 +0100 2012" uid="1" user="" lat="50.0685023" lon="8.6455024">
    <tag k="name" v="Commerzbank Arena"/>
    <tag k="wheelchair" v="unknown"/>
    <tag k="addr:city" v="Frankfurt am Main"/>
    <tag k="addr:postcode" v="60528"/>
    <tag k="addr:housenumber" v="362"/>
    <tag k="addr:street" v="Mörfelder Landstraße"/>
    <tag k="leisure" v="arena"/>
    <tag k="website" v="http://www.commerzbank-arena.de"/>
    <tag k="phone" v="069 238080121"/>
  </node>
  <node id="-4793" version="0" timestamp="Fri Feb 24 10:53:36 +0100 2012" uid="1" user="" lat="50.1781052" lon="8.6289614">
    <tag k="name" v="Café Wacker "/>
    <tag k="wheelchair" v="yes"/>
    <tag k="wheelchair:description" v="-Keine Toilette vorhanden -Türen zum Einkaufszentrum sind sehr schwergängig, Zugang vom Parkhaus via Aufzug ist super, B-Parkplätze sind dort vorhanden"/>
    <tag k="amenity" v="cafe"/>
  </node>
  <node id="-4895" version="0" timestamp="Fri Feb 24 10:53:36 +0100 2012" uid="1" user="" lat="50.1167" lon="8.6833">
    <tag k="name" v="FKanzlei"/>
    <tag k="wheelchair" v="limited"/>
    <tag k="addr:city" v="Frankfurt"/>
    <tag k="addr:postcode" v="60323"/>
    <tag k="addr:housenumber" v="10"/>
    <tag k="addr:street" v="Wöhlertsrasse "/>
    <tag k="office" v="lawyer"/>
  </node>
  <node id="-5095" version="0" timestamp="Fri Feb 24 10:53:37 +0100 2012" uid="1" user="" lat="50.1252986" lon="8.6786148">
    <tag k="name" v="Begegnungszentrum Drehscheibe"/>
    <tag k="wheelchair" v="yes"/>
    <tag k="addr:city" v="Frankfurt am Main"/>
    <tag k="addr:postcode" v="60322"/>
    <tag k="addr:housenumber" v="27"/>
    <tag k="addr:street" v="Fürstenbergerstraße"/>
    <tag k="amenity" v="community_center"/>
    <tag k="website" v="http://www.diakonischeswerk-frankfurt.de/integrationshilfen/drehscheibe.php"/>
  </node>
  <node id="-5389" version="0" timestamp="Fri Feb 24 10:53:37 +0100 2012" uid="1" user="" lat="50.11381" lon="8.66946">
    <tag k="name" v="Santander Consumer Bank"/>
    <tag k="wheelchair" v="limited"/>
    <tag k="addr:city" v="Frankfurt"/>
    <tag k="addr:postcode" v="60325"/>
    <tag k="addr:housenumber" v="21"/>
    <tag k="addr:street" v="Taunusanlage"/>
    <tag k="amenity" v="bank"/>
    <tag k="website" v="http://www.santander.de"/>
  </node>
  <node id="-5420" version="0" timestamp="Fri Feb 24 10:53:37 +0100 2012" uid="1" user="" lat="50.1016" lon="8.5462">
    <tag k="name" v="Santander Consumer Bank"/>
    <tag k="wheelchair" v="limited"/>
    <tag k="addr:city" v="Frankfurt"/>
    <tag k="addr:postcode" v="65929"/>
    <tag k="addr:housenumber" v="4A"/>
    <tag k="addr:street" v="Hostatostraße"/>
    <tag k="amenity" v="bank"/>
    <tag k="website" v="http://www.santander.de"/>
  </node>
  <node id="-5613" version="0" timestamp="Fri Feb 24 10:53:37 +0100 2012" uid="1" user="" lat="50.1167" lon="8.6833">
    <tag k="name" v="Stalburg"/>
    <tag k="wheelchair" v="limited"/>
    <tag k="addr:city" v="Frankfurt am Main"/>
    <tag k="addr:postcode" v="60318"/>
    <tag k="addr:housenumber" v="80"/>
    <tag k="addr:street" v="Glauburgstrasse"/>
    <tag k="wheelchair:description" v="Hintereingang "/>
    <tag k="amenity" v="restaurant"/>
  </node>
</osm>
