<?xml version='1.0' encoding='UTF-8'?>
<osm version="0.6" generator="Osmosis 0.39">
  <node id="-1368" version="0" timestamp="Fri Feb 24 10:53:33 +0100 2012" uid="1" user="" lat="50.4983698" lon="9.9472322">
    <tag k="name" v="Rhön Info Zentrum"/>
    <tag k="wheelchair" v="yes"/>
    <tag k="addr:city" v="Gersfeld"/>
    <tag k="addr:postcode" v="36129"/>
    <tag k="addr:housenumber" v="1"/>
    <tag k="addr:street" v="Wasserkuppe "/>
    <tag k="wheelchair:description" v="Rampe, Rollstuhlgerechte Toilette"/>
    <tag k="website" v="http://www.facebook.com/wasserkuppe"/>
    <tag k="phone" v="00496654918340"/>
  </node>
  <node id="-1401" version="0" timestamp="Fri Feb 24 10:53:33 +0100 2012" uid="1" user="" lat="50.5572363" lon="9.6946166">
    <tag k="name" v="Richard-Müller-Schule"/>
    <tag k="wheelchair" v="yes"/>
    <tag k="wheelchair:description" v="2 Aufzüge, Beh.Parkpl., alle Ebenen per Rolli erreichbar, Beh.WC"/>
    <tag k="amenity" v="school"/>
  </node>
  <node id="-2200" version="0" timestamp="Fri Feb 24 10:53:34 +0100 2012" uid="1" user="" lat="50.486916" lon="9.7998356">
    <tag k="name" v="Charlys Lindengarten"/>
    <tag k="wheelchair" v="yes"/>
    <tag k="addr:city" v="Ebersburg"/>
    <tag k="addr:postcode" v="36157"/>
    <tag k="addr:housenumber" v="1"/>
    <tag k="addr:street" v="Burgstraße"/>
    <tag k="wheelchair:description" v="nicht zur kalten Jahreszeit"/>
    <tag k="amenity" v="restaurant"/>
    <tag k="phone" v="06656/339"/>
  </node>
  <node id="-2201" version="0" timestamp="Fri Feb 24 10:53:34 +0100 2012" uid="1" user="" lat="50.4861196" lon="9.8007232">
    <tag k="name" v="Bürgerhaus Weyhers"/>
    <tag k="wheelchair" v="yes"/>
    <tag k="addr:city" v="Ebersburg Weyhers"/>
    <tag k="addr:postcode" v="36157"/>
    <tag k="addr:housenumber" v="2"/>
    <tag k="addr:street" v="Georgsweg"/>
    <tag k="wheelchair:description" v="neu barrierefrei gestalter"/>
    <tag k="amenity" v="townhall"/>
  </node>
  <node id="-2205" version="0" timestamp="Fri Feb 24 10:53:34 +0100 2012" uid="1" user="" lat="50.487261" lon="9.8002111">
    <tag k="name" v="DRK Seniorenzentrum Bruder Konrad"/>
    <tag k="wheelchair" v="yes"/>
    <tag k="addr:city" v="Ebersburg Weyhers"/>
    <tag k="addr:postcode" v="36157"/>
    <tag k="addr:housenumber" v="1"/>
    <tag k="addr:street" v="Fuldaer Straße"/>
    <tag k="website" v="http://www.seniorenzentrum-petersberg.de/aktuelles/newsdetails/archiv/2011/maerz/31/meldung/15-neue-heime-in-der-traegerschaft-der-drk-fulda-ggmbh.html"/>
    <tag k="phone" v="06656 96 26 - 20"/>
  </node>
  <node id="-2248" version="0" timestamp="Fri Feb 24 10:53:34 +0100 2012" uid="1" user="" lat="50.45168" lon="9.79015">
    <tag k="name" v="Gemeindeverwaltung Ebersburg"/>
    <tag k="wheelchair" v="limited"/>
    <tag k="addr:city" v="Ebersburg"/>
    <tag k="addr:postcode" v="36157"/>
    <tag k="wheelchair:description" v="Bürgerbüro barrierefrei, alle anderen Dienstleistungen werden ermöglicht"/>
    <tag k="amenity" v="drinking_water"/>
    <tag k="phone" v="06656982-0"/>
  </node>
  <node id="-2249" version="0" timestamp="Fri Feb 24 10:53:34 +0100 2012" uid="1" user="" lat="50.48489" lon="9.80089">
    <tag k="name" v="Sportplatz Weyhers"/>
    <tag k="wheelchair" v="yes"/>
    <tag k="addr:city" v="Ebersburg Weyhers"/>
    <tag k="addr:postcode" v="36157"/>
    <tag k="addr:street" v="Jahnstraße"/>
    <tag k="wheelchair:description" v="Zugang über Ebersberger Weg Richtung Schule"/>
    <tag k="leisure" v="arena"/>
  </node>
  <node id="-2250" version="0" timestamp="Fri Feb 24 10:53:34 +0100 2012" uid="1" user="" lat="50.4849241" lon="9.8011636">
    <tag k="name" v="Multifunktionshalle Weyhers"/>
    <tag k="wheelchair" v="yes"/>
    <tag k="wheelchair:description" v="Z"/>
  </node>
  <node id="-2251" version="0" timestamp="Fri Feb 24 10:53:34 +0100 2012" uid="1" user="" lat="50.4863107" lon="9.8016093">
    <tag k="name" v="St. Bonifatius"/>
    <tag k="wheelchair" v="limited"/>
    <tag k="addr:city" v="Ebersburg Weyhers"/>
    <tag k="addr:postcode" v="36157"/>
    <tag k="addr:street" v="Kichweg"/>
    <tag k="wheelchair:description" v="Eingang rechte Seite (südlich) nur eine Stufe"/>
    <tag k="amenity" v="place_of_worship"/>
  </node>
  <node id="-2252" version="0" timestamp="Fri Feb 24 10:53:34 +0100 2012" uid="1" user="" lat="50.486839" lon="9.8025863">
    <tag k="name" v="Kindertagesstätte Weyhers"/>
    <tag k="wheelchair" v="yes"/>
    <tag k="addr:city" v="Ebersburg Weyhers"/>
    <tag k="addr:postcode" v="36157"/>
    <tag k="addr:housenumber" v="Hochstraße/10"/>
    <tag k="addr:street" v="Gersfelder Weg"/>
    <tag k="amenity" v="kindergarten"/>
    <tag k="phone" v="06656 17 89 "/>
  </node>
  <node id="-2253" version="0" timestamp="Fri Feb 24 10:53:34 +0100 2012" uid="1" user="" lat="50.4859327" lon="9.804323">
    <tag k="name" v="Friedhof Weyhers"/>
    <tag k="wheelchair" v="yes"/>
    <tag k="addr:city" v="Ebersburg Weyhers"/>
    <tag k="addr:postcode" v="36157"/>
    <tag k="addr:street" v="Friedhofsweg"/>
    <tag k="amenity" v="place_of_worship"/>
  </node>
  <node id="-2254" version="0" timestamp="Fri Feb 24 10:53:34 +0100 2012" uid="1" user="" lat="50.4892326" lon="9.8015017">
    <tag k="name" v="Feuerwehr Gerätehaus"/>
    <tag k="wheelchair" v="yes"/>
    <tag k="addr:city" v="Ebersburg Weyhers"/>
    <tag k="addr:postcode" v="36157"/>
    <tag k="addr:housenumber" v="Hochstraße/10"/>
    <tag k="addr:street" v="Fuldaer Straße"/>
    <tag k="phone" v="112"/>
  </node>
  <node id="-2398" version="0" timestamp="Fri Feb 24 10:53:34 +0100 2012" uid="1" user="" lat="50.4618084" lon="9.7728965">
    <tag k="shop" v="bakery"/>
    <tag k="name" v="Ottis Kajüte"/>
    <tag k="wheelchair" v="yes"/>
    <tag k="addr:city" v="Ebersburg"/>
    <tag k="addr:postcode" v="36157"/>
  </node>
  <node id="-3427" version="0" timestamp="Fri Feb 24 10:53:35 +0100 2012" uid="1" user="" lat="50.6217598" lon="9.5055654">
    <tag k="name" v="Dschingis Khan"/>
    <tag k="wheelchair" v="limited"/>
    <tag k="wheelchair:description" v="Toilette nicht Rollstuhlgerecht"/>
    <tag k="amenity" v="restaurant"/>
  </node>
  <node id="-4763" version="0" timestamp="Fri Feb 24 10:53:36 +0100 2012" uid="1" user="" lat="50.6601829" lon="9.7618234">
    <tag k="name" v="Nüst"/>
    <tag k="wheelchair" v="yes"/>
    <tag k="addr:city" v="Nüst"/>
    <tag k="addr:postcode" v="36088"/>
    <tag k="addr:street" v="Dammersbacher Straße"/>
    <tag k="highway" v="bus_stop"/>
  </node>
  <node id="-4764" version="0" timestamp="Fri Feb 24 10:53:36 +0100 2012" uid="1" user="" lat="50.6685848" lon="9.7695282">
    <tag k="name" v="Paul-Gerhardt-Schule Hünfeld"/>
    <tag k="wheelchair" v="limited"/>
    <tag k="addr:city" v="Hünfeld"/>
    <tag k="addr:postcode" v="36088"/>
    <tag k="addr:housenumber" v="4"/>
    <tag k="addr:street" v="Mackenzeller Straße"/>
    <tag k="amenity" v="school"/>
    <tag k="website" v="http://www.paul-gerhardt-schule-huenfeld.de/index.html"/>
  </node>
</osm>
