<?xml version='1.0' encoding='UTF-8'?>
<osm version="0.6" generator="Osmosis 0.39">
  <node id="-945" version="0" timestamp="Fri Feb 24 10:53:33 +0100 2012" uid="1" user="" lat="50.57997" lon="8.72932">
    <tag k="shop" v="department_store"/>
    <tag k="name" v="Egon Klein GmbH"/>
    <tag k="wheelchair" v="yes"/>
    <tag k="addr:city" v="Gießen"/>
    <tag k="addr:postcode" v="35394"/>
    <tag k="addr:housenumber" v="17"/>
    <tag k="addr:street" v="Europastraße"/>
    <tag k="website" v="http://www.egon-klein.de"/>
    <tag k="phone" v="0641975550"/>
  </node>
  <node id="-1155" version="0" timestamp="Fri Feb 24 10:53:33 +0100 2012" uid="1" user="" lat="50.54802" lon="8.9883">
    <tag k="name" v="Friedrich-Magnus-Gesamtschule"/>
    <tag k="wheelchair" v="yes"/>
    <tag k="addr:city" v="Laubach"/>
    <tag k="addr:postcode" v="35321"/>
    <tag k="addr:street" v="Andree Allee"/>
    <tag k="wheelchair:description" v="ebenerdiger Eingang, Aufzug, Behindertentoilette"/>
    <tag k="amenity" v="school"/>
  </node>
  <node id="-1880" version="0" timestamp="Fri Feb 24 10:53:33 +0100 2012" uid="1" user="" lat="50.58203" lon="8.67017">
    <tag k="name" v="Elefantenklo"/>
    <tag k="wheelchair" v="limited"/>
    <tag k="wheelchair:description" v="Überquerung der Straße nach Ladenschluss Karstadt nicht mehr möglich."/>
    <tag k="amenity" v="bank"/>
  </node>
  <node id="-1881" version="0" timestamp="Fri Feb 24 10:53:33 +0100 2012" uid="1" user="" lat="50.5805426" lon="8.6769804">
    <tag k="name" v="Justus-Liebig-Universität, Fronteingang"/>
    <tag k="wheelchair" v="no"/>
    <tag k="wheelchair:description" v="4 Stufen"/>
  </node>
  <node id="-1882" version="0" timestamp="Fri Feb 24 10:53:33 +0100 2012" uid="1" user="" lat="50.5810219" lon="8.6655512">
    <tag k="name" v="Mathematikum"/>
    <tag k="wheelchair" v="yes"/>
    <tag k="tourism" v="museum"/>
  </node>
  <node id="-2351" version="0" timestamp="Fri Feb 24 10:53:34 +0100 2012" uid="1" user="" lat="50.58963" lon="8.69016">
    <tag k="name" v="Park-Haus am Teich"/>
    <tag k="wheelchair" v="limited"/>
    <tag k="addr:city" v="Giessen"/>
    <tag k="addr:postcode" v="35394"/>
    <tag k="addr:housenumber" v="56"/>
    <tag k="addr:street" v="Eichgärtenallee"/>
    <tag k="wheelchair:description" v="Biergarten Ja, 2Stufen ins Lokal, Toiletten im Keller also NEIN"/>
    <tag k="amenity" v="restaurant"/>
    <tag k="website" v="http://park-haus-giessen.de/home.htm"/>
    <tag k="phone" v="0641 - 49 90 469 "/>
  </node>
  <node id="-2359" version="0" timestamp="Fri Feb 24 10:53:34 +0100 2012" uid="1" user="" lat="50.5919894" lon="8.9612044">
    <tag k="name" v="Gallus-Apothr"/>
    <tag k="wheelchair" v="yes"/>
    <tag k="addr:city" v="Grünberg"/>
    <tag k="addr:postcode" v="35305"/>
    <tag k="addr:housenumber" v="14"/>
    <tag k="addr:street" v="Alsfelder Straße "/>
    <tag k="amenity" v="pharmacy"/>
    <tag k="phone" v="06401 7523"/>
  </node>
  <node id="-2362" version="0" timestamp="Fri Feb 24 10:53:34 +0100 2012" uid="1" user="" lat="50.58981" lon="8.97046">
    <tag k="name" v="Freibad Grünberg am Campingplatz &quot;Spitzer Stein&quot;"/>
    <tag k="wheelchair" v="yes"/>
    <tag k="addr:city" v="Grünberg"/>
    <tag k="addr:postcode" v="35305"/>
    <tag k="wheelchair:description" v="Umkliede, Dusche, WC OK, es gibt einen Lifter um ins Wasser zu kommen, Bitte das Personal ansprechen!"/>
    <tag k="amenity" v="swimming_pool"/>
    <tag k="phone" v="06401 6552"/>
  </node>
  <node id="-4066" version="0" timestamp="Fri Feb 24 10:53:36 +0100 2012" uid="1" user="" lat="50.59186" lon="8.65938">
    <tag k="name" v="Herderschule"/>
    <tag k="wheelchair" v="yes"/>
    <tag k="addr:city" v="Gießen"/>
    <tag k="addr:postcode" v="35398"/>
    <tag k="addr:housenumber" v="45"/>
    <tag k="addr:street" v="Kropbacher Weg "/>
    <tag k="amenity" v="school"/>
    <tag k="website" v="http://www.herderschule-giessen.de/"/>
    <tag k="phone" v="0641/3063430"/>
  </node>
  <node id="-4067" version="0" timestamp="Fri Feb 24 10:53:36 +0100 2012" uid="1" user="" lat="50.5899974" lon="8.6848328">
    <tag k="name" v="Hallenbad Ringalle"/>
    <tag k="wheelchair" v="yes"/>
    <tag k="amenity" v="swimming_pool"/>
  </node>
  <node id="-4068" version="0" timestamp="Fri Feb 24 10:53:36 +0100 2012" uid="1" user="" lat="50.5826133" lon="8.6708709">
    <tag k="shop" v="department_store"/>
    <tag k="name" v="Karstadt"/>
    <tag k="wheelchair" v="yes"/>
  </node>
  <node id="-4712" version="0" timestamp="Fri Feb 24 10:53:36 +0100 2012" uid="1" user="" lat="50.5885841" lon="8.6757836">
    <tag k="name" v="Arbeitsloseninitiative"/>
    <tag k="wheelchair" v="yes"/>
    <tag k="addr:city" v="Gießen"/>
    <tag k="addr:postcode" v="35390"/>
    <tag k="addr:housenumber" v="17"/>
    <tag k="addr:street" v="Walltorstrasse"/>
    <tag k="amenity" v="social_facility"/>
    <tag k="website" v="http://www.ali-giessen.de"/>
  </node>
  <node id="-4713" version="0" timestamp="Fri Feb 24 10:53:36 +0100 2012" uid="1" user="" lat="50.5886992" lon="8.6757585">
    <tag k="name" v="Gewerkschaftshaus (DGB, IG BAU, Ver.Di, NGG"/>
    <tag k="wheelchair" v="yes"/>
    <tag k="addr:city" v="Gießen"/>
    <tag k="addr:postcode" v="35390"/>
    <tag k="addr:housenumber" v="17"/>
    <tag k="addr:street" v="Walltorstrasse"/>
    <tag k="amenity" v="social_facility"/>
    <tag k="website" v="http://www.dgb.de"/>
  </node>
</osm>
