<?xml version='1.0' encoding='UTF-8'?>
<osm version="0.6" generator="Osmosis 0.39">
  <node id="-740" version="0" timestamp="Fri Feb 24 10:53:32 +0100 2012" uid="1" user="" lat="50.002101" lon="8.5757206">
    <tag k="name" v="Frankfurter Volksbank"/>
    <tag k="wheelchair" v="yes"/>
    <tag k="addr:city" v="Mörfelden-Walldorf"/>
    <tag k="addr:postcode" v="64546"/>
    <tag k="addr:housenumber" v="49-53"/>
    <tag k="addr:street" v="Ludwigstr."/>
    <tag k="amenity" v="atm"/>
  </node>
  <node id="-742" version="0" timestamp="Fri Feb 24 10:53:32 +0100 2012" uid="1" user="" lat="50.0068673" lon="8.5737934">
    <tag k="name" v="Wirtshaus"/>
    <tag k="wheelchair" v="limited"/>
    <tag k="wheelchair:description" v="ebenerdiger Eingang, Toiletten nicht barrierefrei"/>
    <tag k="amenity" v="restaurant"/>
  </node>
  <node id="-743" version="0" timestamp="Fri Feb 24 10:53:32 +0100 2012" uid="1" user="" lat="50.0070183" lon="8.5740207">
    <tag k="name" v="P49"/>
    <tag k="wheelchair" v="yes"/>
    <tag k="addr:city" v="Mörfelden-Walldorf"/>
    <tag k="addr:postcode" v="64546"/>
    <tag k="addr:housenumber" v="49"/>
    <tag k="addr:street" v="Platanenallee"/>
    <tag k="wheelchair:description" v="ebenerdiger Eingang u. Toiletten"/>
    <tag k="amenity" v="restaurant"/>
  </node>
  <node id="-749" version="0" timestamp="Fri Feb 24 10:53:32 +0100 2012" uid="1" user="" lat="50.0037027" lon="8.5757479">
    <tag k="name" v="Rosenapotheke"/>
    <tag k="wheelchair" v="yes"/>
    <tag k="amenity" v="pharmacy"/>
  </node>
  <node id="-891" version="0" timestamp="Fri Feb 24 10:53:32 +0100 2012" uid="1" user="" lat="49.9742" lon="8.3567">
    <tag k="name" v="Heep Schreiben&amp;Schenken"/>
    <tag k="wheelchair" v="yes"/>
    <tag k="addr:city" v="Taunusstein"/>
    <tag k="addr:postcode" v="65232"/>
    <tag k="addr:housenumber" v="15a"/>
    <tag k="addr:street" v="Weiherstr."/>
    <tag k="amenity" v="post_office"/>
    <tag k="website" v="http://www.heep-taunusstein.de"/>
    <tag k="phone" v="+496128982810"/>
  </node>
  <node id="-1074" version="0" timestamp="Fri Feb 24 10:53:33 +0100 2012" uid="1" user="" lat="49.98209" lon="8.44088">
    <tag k="name" v="Alexander von Humboldt Schule"/>
    <tag k="wheelchair" v="limited"/>
    <tag k="wheelchair:description" v="Weitgehend Barierefrei , verfügt über Aufzug"/>
    <tag k="amenity" v="school"/>
  </node>
  <node id="-1076" version="0" timestamp="Fri Feb 24 10:53:33 +0100 2012" uid="1" user="" lat="49.9764603" lon="8.433247">
    <tag k="shop" v="supermarket"/>
    <tag k="name" v="Aldi Süd"/>
    <tag k="wheelchair" v="yes"/>
    <tag k="wheelchair:description" v="Uneingeschränkt Rollstuhlgerecht"/>
  </node>
  <node id="-1079" version="0" timestamp="Fri Feb 24 10:53:33 +0100 2012" uid="1" user="" lat="49.9832064" lon="8.4233679">
    <tag k="name" v="GPR Klinikum"/>
    <tag k="wheelchair" v="yes"/>
    <tag k="amenity" v="hospital"/>
  </node>
  <node id="-1081" version="0" timestamp="Fri Feb 24 10:53:33 +0100 2012" uid="1" user="" lat="49.9891148" lon="8.4273">
    <tag k="name" v="Tierartztpraxis Kepermuth"/>
    <tag k="wheelchair" v="no"/>
    <tag k="wheelchair:description" v="Leider 2 Stufige Treppe vor Eingang"/>
    <tag k="amenity" v="veterinary"/>
  </node>
  <node id="-1121" version="0" timestamp="Fri Feb 24 10:53:33 +0100 2012" uid="1" user="" lat="49.9889507" lon="8.4271992">
    <tag k="name" v="DAS Versicherungen"/>
    <tag k="wheelchair" v="yes"/>
  </node>
  <node id="-1122" version="0" timestamp="Fri Feb 24 10:53:33 +0100 2012" uid="1" user="" lat="49.9811959" lon="8.4405893">
    <tag k="name" v="Dönerbude"/>
    <tag k="wheelchair" v="yes"/>
    <tag k="amenity" v="fast_food"/>
  </node>
  <node id="-1123" version="0" timestamp="Fri Feb 24 10:53:33 +0100 2012" uid="1" user="" lat="49.9813" lon="8.4402467">
    <tag k="name" v="Pizzeria"/>
    <tag k="wheelchair" v="yes"/>
    <tag k="amenity" v="fast_food"/>
  </node>
  <node id="-1209" version="0" timestamp="Fri Feb 24 10:53:33 +0100 2012" uid="1" user="" lat="49.8808557" lon="8.4932469">
    <tag k="name" v="Seniorenhaus Dornheim"/>
    <tag k="wheelchair" v="yes"/>
    <tag k="addr:city" v="Groß-Gerau"/>
    <tag k="addr:postcode" v="64521"/>
    <tag k="addr:housenumber" v="85"/>
    <tag k="addr:street" v="Alte Darmstädter Straße "/>
    <tag k="wheelchair:description" v="Zugang und alle Räume sind barrierefrei"/>
    <tag k="amenity" v="hospital"/>
    <tag k="website" v="http://www.seniorenhaus-dornheim.de"/>
    <tag k="phone" v="06152 - 51 201"/>
  </node>
  <node id="-1268" version="0" timestamp="Fri Feb 24 10:53:33 +0100 2012" uid="1" user="" lat="50.01257" lon="8.58606">
    <tag k="name" v="Comfort Inn Hotel"/>
    <tag k="wheelchair" v="no"/>
    <tag k="addr:city" v="Mörfelden-Walldorf"/>
    <tag k="addr:postcode" v="64546"/>
    <tag k="addr:housenumber" v="10"/>
    <tag k="tourism" v="hotel"/>
    <tag k="addr:street" v="Am Zollstock"/>
    <tag k="phone" v="06105-7050"/>
  </node>
  <node id="-1907" version="0" timestamp="Fri Feb 24 10:53:33 +0100 2012" uid="1" user="" lat="50.0139545" lon="8.5832638">
    <tag k="name" v="Comfort Inn Hotel"/>
    <tag k="wheelchair" v="no"/>
    <tag k="addr:city" v="Mörfelden-Walldorf"/>
    <tag k="addr:postcode" v="64546"/>
    <tag k="addr:housenumber" v="10"/>
    <tag k="tourism" v="hotel"/>
    <tag k="addr:street" v="Am Zollstock"/>
  </node>
  <node id="-2549" version="0" timestamp="Fri Feb 24 10:53:34 +0100 2012" uid="1" user="" lat="50.002659" lon="8.5808896">
    <tag k="shop" v="hairdresser"/>
    <tag k="name" v="Frisörsalon Lukas"/>
    <tag k="wheelchair" v="yes"/>
    <tag k="addr:city" v="Mörfelden-Walldorf"/>
    <tag k="addr:postcode" v="64546"/>
    <tag k="addr:housenumber" v="17"/>
    <tag k="addr:street" v="Farmstr."/>
    <tag k="wheelchair:description" v="Behindertenparkplatz 20 m entfernt, beim Frisör ist ein umsetzen aus dem Rolli nicht nötig, da die vorhanden Stühle auf Rollen sind und entfernt werden können"/>
    <tag k="website" v="http://www.frisierstube-lukas.de/"/>
    <tag k="phone" v="06105 76664 "/>
  </node>
  <node id="-3260" version="0" timestamp="Fri Feb 24 10:53:35 +0100 2012" uid="1" user="" lat="49.9189619" lon="8.4862157">
    <tag k="shop" v="optician"/>
    <tag k="name" v="Die Brille"/>
    <tag k="wheelchair" v="yes"/>
    <tag k="addr:city" v="Groß Gerau"/>
    <tag k="addr:postcode" v="64521"/>
    <tag k="addr:housenumber" v="16"/>
    <tag k="addr:street" v="Marktplatz "/>
    <tag k="wheelchair:description" v="Behindertentoilette , ebenerdig , automatische Eingangstür "/>
    <tag k="website" v="http://www.die-brille.net"/>
  </node>
  <node id="-3261" version="0" timestamp="Fri Feb 24 10:53:35 +0100 2012" uid="1" user="" lat="49.9017376" lon="8.5146258">
    <tag k="shop" v="optician"/>
    <tag k="name" v="Die Brille"/>
    <tag k="wheelchair" v="yes"/>
    <tag k="addr:city" v="Büttelborn"/>
    <tag k="addr:postcode" v="64572"/>
    <tag k="addr:housenumber" v="2"/>
    <tag k="addr:street" v="Mainzer Str. "/>
    <tag k="wheelchair:description" v="Behindertentoilette , ebenerdig , "/>
    <tag k="website" v="http://www.die-brille.net"/>
  </node>
</osm>
