<?xml version='1.0' encoding='UTF-8'?>
<osm version="0.6" generator="Osmosis 0.39">
  <node id="-2739" version="0" timestamp="Fri Feb 24 10:53:34 +0100 2012" uid="1" user="" lat="50.7746772" lon="9.5172336">
    <tag k="name" v="Theatertreff Breitenbach - &quot;Klarteckst&quot;"/>
    <tag k="wheelchair" v="limited"/>
    <tag k="addr:city" v="Breitenbach am Herzberg"/>
    <tag k="addr:postcode" v="36287"/>
    <tag k="addr:housenumber" v="42"/>
    <tag k="addr:street" v="Hauptstrasse"/>
    <tag k="wheelchair:description" v="Saal zugänglich für Rollis (Toilettenanlage wird gebaut)"/>
    <tag k="amenity" v="theatre"/>
    <tag k="website" v="http://www.klarteckst.de"/>
  </node>
  <node id="-4194" version="0" timestamp="Fri Feb 24 10:53:36 +0100 2012" uid="1" user="" lat="50.86209" lon="9.70197">
    <tag k="name" v="stadthalle"/>
    <tag k="wheelchair" v="yes"/>
    <tag k="addr:city" v="Bad Hersfeld"/>
    <tag k="addr:postcode" v="36251"/>
    <tag k="addr:housenumber" v="5"/>
    <tag k="addr:street" v="Wittastraße "/>
    <tag k="amenity" v="townhall"/>
    <tag k="website" v="http://www.stadthalle.bad-hersfeld.de"/>
    <tag k="phone" v="+49 6621 508900"/>
  </node>
</osm>
