<?xml version='1.0' encoding='UTF-8'?>
<osm version="0.6" generator="Osmosis 0.39">
  <node id="-1137" version="0" timestamp="Fri Feb 24 10:53:33 +0100 2012" uid="1" user="" lat="50.1862018" lon="8.4698447">
    <tag k="name" v="Kurbad Königstein"/>
    <tag k="wheelchair" v="yes"/>
    <tag k="addr:city" v="Königstein"/>
    <tag k="addr:postcode" v="60462"/>
    <tag k="addr:street" v="Le Cannet Rocheville Str "/>
    <tag k="amenity" v="swimming_pool"/>
    <tag k="website" v="http://www.koenigstein.de"/>
  </node>
  <node id="-4406" version="0" timestamp="Fri Feb 24 10:53:36 +0100 2012" uid="1" user="" lat="50.22575" lon="8.68004">
    <tag k="name" v="Alte Kelterei"/>
    <tag k="wheelchair" v="yes"/>
    <tag k="addr:city" v="Bad Homburg"/>
    <tag k="addr:postcode" v="61352"/>
    <tag k="addr:housenumber" v="15"/>
    <tag k="addr:street" v="Josef-Baumann-Straße"/>
    <tag k="amenity" v="restaurant"/>
    <tag k="website" v="http://www.alte-kelterei.de"/>
    <tag k="phone" v="+496172682858"/>
  </node>
  <node id="-4721" version="0" timestamp="Fri Feb 24 10:53:36 +0100 2012" uid="1" user="" lat="50.22627" lon="8.62819">
    <tag k="name" v="Orangerie"/>
    <tag k="wheelchair" v="yes"/>
    <tag k="amenity" v="toilets"/>
  </node>
  <node id="-4722" version="0" timestamp="Fri Feb 24 10:53:36 +0100 2012" uid="1" user="" lat="50.2261465" lon="8.6285816">
    <tag k="name" v="Orangerie"/>
    <tag k="wheelchair" v="yes"/>
    <tag k="amenity" v="cafe"/>
  </node>
  <node id="-4723" version="0" timestamp="Fri Feb 24 10:53:36 +0100 2012" uid="1" user="" lat="50.2238199" lon="8.622447">
    <tag k="name" v="Rathausgarage"/>
    <tag k="wheelchair" v="yes"/>
    <tag k="wheelchair:description" v="3 Behindertenparkplätze vor der Einfahrt"/>
    <tag k="amenity" v="parking"/>
  </node>
  <node id="-4724" version="0" timestamp="Fri Feb 24 10:53:36 +0100 2012" uid="1" user="" lat="50.2281412" lon="8.6128488">
    <tag k="name" v="SpardaBank und Geldautomat"/>
    <tag k="wheelchair" v="yes"/>
    <tag k="amenity" v="bank"/>
  </node>
  <node id="-4725" version="0" timestamp="Fri Feb 24 10:53:36 +0100 2012" uid="1" user="" lat="50.2288" lon="8.61145">
    <tag k="name" v="Standesamt    eider keine eigene kategorie"/>
    <tag k="wheelchair" v="yes"/>
    <tag k="wheelchair:description" v="Behindertenparkplatz - Aufzug"/>
    <tag k="amenity" v="townhall"/>
  </node>
  <node id="-4726" version="0" timestamp="Fri Feb 24 10:53:36 +0100 2012" uid="1" user="" lat="50.271524" lon="8.5672428">
    <tag k="name" v="Saalburg Museum"/>
    <tag k="wheelchair" v="limited"/>
    <tag k="wheelchair:description" v="näheres Beschreibung auf der Internetseite abrufbar"/>
    <tag k="website" v="http://www.saalburgmuseum.de/"/>
    <tag k="historic" v="archaeological_site"/>
  </node>
  <node id="-4727" version="0" timestamp="Fri Feb 24 10:53:36 +0100 2012" uid="1" user="" lat="50.22412" lon="8.63436">
    <tag k="name" v="Seedammbad"/>
    <tag k="wheelchair" v="limited"/>
    <tag k="wheelchair:description" v="Näheres findet man im Behindertenwegweiser der Stadt Bad Homburg"/>
    <tag k="amenity" v="swimming_pool"/>
  </node>
  <node id="-4728" version="0" timestamp="Fri Feb 24 10:53:36 +0100 2012" uid="1" user="" lat="50.226991" lon="8.6160588">
    <tag k="name" v="Bushaltestelle Kurhaus Fichtung Bahnhof"/>
    <tag k="wheelchair" v="unknown"/>
    <tag k="wheelchair:description" v="Hochbord"/>
    <tag k="amenity" v="bus_station"/>
  </node>
  <node id="-4729" version="0" timestamp="Fri Feb 24 10:53:36 +0100 2012" uid="1" user="" lat="50.22847" lon="8.61358">
    <tag k="shop" v="department_store"/>
    <tag k="name" v="Div Geschäfte"/>
    <tag k="wheelchair" v="yes"/>
  </node>
  <node id="-4730" version="0" timestamp="Fri Feb 24 10:53:36 +0100 2012" uid="1" user="" lat="50.2247858" lon="8.621238">
    <tag k="name" v="LouisenCenter - div Geschäfte "/>
    <tag k="wheelchair" v="yes"/>
    <tag k="amenity" v="bank"/>
  </node>
  <node id="-4731" version="0" timestamp="Fri Feb 24 10:53:36 +0100 2012" uid="1" user="" lat="50.2238604" lon="8.622309">
    <tag k="shop" v="department_store"/>
    <tag k="name" v="Rathaus-Passage Cafes - Geschäfte - "/>
    <tag k="wheelchair" v="yes"/>
  </node>
  <node id="-4732" version="0" timestamp="Fri Feb 24 10:53:36 +0100 2012" uid="1" user="" lat="50.22386" lon="8.62231">
    <tag k="name" v="Rathaus öffentliches WC"/>
    <tag k="wheelchair" v="yes"/>
    <tag k="amenity" v="toilets"/>
  </node>
  <node id="-4733" version="0" timestamp="Fri Feb 24 10:53:36 +0100 2012" uid="1" user="" lat="50.2193951" lon="8.639022">
    <tag k="name" v="WC U-Gonzenheim Kiosk Neumann"/>
    <tag k="wheelchair" v="unknown"/>
    <tag k="amenity" v="toilets"/>
  </node>
  <node id="-4734" version="0" timestamp="Fri Feb 24 10:53:36 +0100 2012" uid="1" user="" lat="50.2192186" lon="8.6486252">
    <tag k="name" v="Bus Haltestelle Hessengärten Richtung stadtauswärts"/>
    <tag k="wheelchair" v="yes"/>
    <tag k="wheelchair:description" v="Busbord 16 cm"/>
    <tag k="amenity" v="bus_station"/>
  </node>
  <node id="-4735" version="0" timestamp="Fri Feb 24 10:53:36 +0100 2012" uid="1" user="" lat="50.2199894" lon="8.6462721">
    <tag k="name" v="Bus Haltestelle beide Richtungen "/>
    <tag k="wheelchair" v="yes"/>
    <tag k="railway" v="halt"/>
  </node>
  <node id="-4736" version="0" timestamp="Fri Feb 24 10:53:36 +0100 2012" uid="1" user="" lat="50.2292165" lon="8.6104556">
    <tag k="name" v="W C Parhaus Schlossgarage"/>
    <tag k="wheelchair" v="yes"/>
    <tag k="amenity" v="toilets"/>
  </node>
  <node id="-4737" version="0" timestamp="Fri Feb 24 10:53:36 +0100 2012" uid="1" user="" lat="50.2291802" lon="8.6284346">
    <tag k="name" v="WC Casino Parkhaus"/>
    <tag k="wheelchair" v="yes"/>
    <tag k="amenity" v="toilets"/>
  </node>
  <node id="-4738" version="0" timestamp="Fri Feb 24 10:53:36 +0100 2012" uid="1" user="" lat="50.2271163" lon="8.6169411">
    <tag k="name" v="WC Kurhaus"/>
    <tag k="wheelchair" v="yes"/>
    <tag k="amenity" v="toilets"/>
  </node>
  <node id="-4795" version="0" timestamp="Fri Feb 24 10:53:36 +0100 2012" uid="1" user="" lat="50.241509" lon="8.5965226">
    <tag k="name" v="Klekheimer Straße"/>
    <tag k="wheelchair" v="yes"/>
    <tag k="amenity" v="bus_station"/>
  </node>
  <node id="-4796" version="0" timestamp="Fri Feb 24 10:53:36 +0100 2012" uid="1" user="" lat="50.226975" lon="8.6780565">
    <tag k="name" v="Erlenbachhalle mit Restaurant"/>
    <tag k="wheelchair" v="yes"/>
    <tag k="amenity" v="townhall"/>
  </node>
  <node id="-4797" version="0" timestamp="Fri Feb 24 10:53:36 +0100 2012" uid="1" user="" lat="50.2162532" lon="8.6399592">
    <tag k="name" v="Stadtteilzentrum Gotenstaße"/>
    <tag k="wheelchair" v="limited"/>
    <tag k="amenity" v="bank"/>
  </node>
  <node id="-4798" version="0" timestamp="Fri Feb 24 10:53:36 +0100 2012" uid="1" user="" lat="50.23345" lon="8.57462">
    <tag k="name" v="Museum gotisches Haus"/>
    <tag k="wheelchair" v="limited"/>
    <tag k="tourism" v="museum"/>
  </node>
  <node id="-4799" version="0" timestamp="Fri Feb 24 10:53:36 +0100 2012" uid="1" user="" lat="50.2338434" lon="8.5935049">
    <tag k="name" v="Stadtteilzentrum Gartenfeld"/>
    <tag k="wheelchair" v="limited"/>
    <tag k="amenity" v="community_center"/>
  </node>
  <node id="-4800" version="0" timestamp="Fri Feb 24 10:53:36 +0100 2012" uid="1" user="" lat="50.2355681" lon="8.6060154">
    <tag k="name" v="integrat. Spielplatz Weberstraße"/>
    <tag k="wheelchair" v="limited"/>
    <tag k="leisure" v="playground"/>
  </node>
  <node id="-4801" version="0" timestamp="Fri Feb 24 10:53:36 +0100 2012" uid="1" user="" lat="50.2429802" lon="8.600238">
    <tag k="name" v="Haltestelle Eichenstahl Beginn"/>
    <tag k="wheelchair" v="yes"/>
    <tag k="amenity" v="bus_station"/>
  </node>
  <node id="-4802" version="0" timestamp="Fri Feb 24 10:53:36 +0100 2012" uid="1" user="" lat="50.2307747" lon="8.612792">
    <tag k="name" v="Volkshochschule"/>
    <tag k="wheelchair" v="yes"/>
    <tag k="amenity" v="bank"/>
  </node>
  <node id="-4803" version="0" timestamp="Fri Feb 24 10:53:36 +0100 2012" uid="1" user="" lat="50.2472673" lon="8.6215601">
    <tag k="name" v="WC Waldfriedhof"/>
    <tag k="wheelchair" v="yes"/>
    <tag k="amenity" v="toilets"/>
  </node>
  <node id="-4804" version="0" timestamp="Fri Feb 24 10:53:36 +0100 2012" uid="1" user="" lat="50.22229" lon="8.60994">
    <tag k="name" v="Humboldtgymnasium"/>
    <tag k="wheelchair" v="yes"/>
    <tag k="amenity" v="school"/>
  </node>
  <node id="-4805" version="0" timestamp="Fri Feb 24 10:53:36 +0100 2012" uid="1" user="" lat="50.2253466" lon="8.6351881">
    <tag k="name" v="Kaiserin-Friedrich-Gymnasium"/>
    <tag k="wheelchair" v="no"/>
    <tag k="amenity" v="school"/>
  </node>
  <node id="-4806" version="0" timestamp="Fri Feb 24 10:53:36 +0100 2012" uid="1" user="" lat="50.22535" lon="8.63519">
    <tag k="name" v="KFG-turn- Mehrzweckhalle"/>
    <tag k="wheelchair" v="yes"/>
    <tag k="amenity" v="school"/>
  </node>
  <node id="-4807" version="0" timestamp="Fri Feb 24 10:53:36 +0100 2012" uid="1" user="" lat="50.2431896" lon="8.5864601">
    <tag k="name" v="Grundschule Dornholzhausen"/>
    <tag k="wheelchair" v="yes"/>
    <tag k="amenity" v="school"/>
  </node>
  <node id="-4808" version="0" timestamp="Fri Feb 24 10:53:36 +0100 2012" uid="1" user="" lat="50.2407761" lon="8.5981659">
    <tag k="name" v="Gesamtschule am Gluckenstein  GaG"/>
    <tag k="wheelchair" v="limited"/>
    <tag k="amenity" v="school"/>
  </node>
  <node id="-4809" version="0" timestamp="Fri Feb 24 10:53:36 +0100 2012" uid="1" user="" lat="50.2237261" lon="8.6219657">
    <tag k="name" v="Rathauspassage div. Cafes"/>
    <tag k="wheelchair" v="yes"/>
    <tag k="amenity" v="cafe"/>
  </node>
  <node id="-4810" version="0" timestamp="Fri Feb 24 10:53:36 +0100 2012" uid="1" user="" lat="50.2234752" lon="8.6221555">
    <tag k="shop" v="photo"/>
    <tag k="name" v="Fotostudio"/>
    <tag k="wheelchair" v="yes"/>
  </node>
  <node id="-4811" version="0" timestamp="Fri Feb 24 10:53:36 +0100 2012" uid="1" user="" lat="50.2233633" lon="8.6235601">
    <tag k="name" v="Louisenkeller "/>
    <tag k="wheelchair" v="no"/>
    <tag k="amenity" v="restaurant"/>
  </node>
  <node id="-4812" version="0" timestamp="Fri Feb 24 10:53:36 +0100 2012" uid="1" user="" lat="50.2262832" lon="8.6147029">
    <tag k="name" v="Stadtbibliothek"/>
    <tag k="wheelchair" v="yes"/>
    <tag k="amenity" v="library"/>
  </node>
  <node id="-4813" version="0" timestamp="Fri Feb 24 10:53:36 +0100 2012" uid="1" user="" lat="50.2255831" lon="8.6167172">
    <tag k="name" v="Maintain"/>
    <tag k="wheelchair" v="limited"/>
    <tag k="leisure" v="sports_centre"/>
  </node>
  <node id="-4814" version="0" timestamp="Fri Feb 24 10:53:36 +0100 2012" uid="1" user="" lat="50.2270301" lon="8.6150966">
    <tag k="name" v="Spada Bank"/>
    <tag k="wheelchair" v="yes"/>
    <tag k="amenity" v="bank"/>
  </node>
  <node id="-4815" version="0" timestamp="Fri Feb 24 10:53:36 +0100 2012" uid="1" user="" lat="50.2261556" lon="8.6753787">
    <tag k="name" v="REWE Parkplatz"/>
    <tag k="wheelchair" v="yes"/>
    <tag k="amenity" v="parking"/>
  </node>
  <node id="-4816" version="0" timestamp="Fri Feb 24 10:53:36 +0100 2012" uid="1" user="" lat="50.2278732" lon="8.6825294">
    <tag k="name" v="Parkplatz Friedhof"/>
    <tag k="wheelchair" v="limited"/>
    <tag k="amenity" v="parking"/>
  </node>
  <node id="-4818" version="0" timestamp="Fri Feb 24 10:53:36 +0100 2012" uid="1" user="" lat="50.2295599" lon="8.6667474">
    <tag k="name" v="Parkplatz Sporthalle"/>
    <tag k="wheelchair" v="yes"/>
    <tag k="amenity" v="parking"/>
  </node>
  <node id="-4819" version="0" timestamp="Fri Feb 24 10:53:36 +0100 2012" uid="1" user="" lat="50.2301171" lon="8.6663305">
    <tag k="name" v="Sporthalle"/>
    <tag k="wheelchair" v="yes"/>
    <tag k="leisure" v="stadium"/>
  </node>
  <node id="-4820" version="0" timestamp="Fri Feb 24 10:53:36 +0100 2012" uid="1" user="" lat="50.21872" lon="8.64953">
    <tag k="name" v="Albin-Göring-Halle  Parkplatz"/>
    <tag k="wheelchair" v="yes"/>
    <tag k="amenity" v="bank"/>
  </node>
  <node id="-4821" version="0" timestamp="Fri Feb 24 10:53:36 +0100 2012" uid="1" user="" lat="50.2178176" lon="8.655246">
    <tag k="name" v="Parkplatz albin-Göring-Halle"/>
    <tag k="wheelchair" v="yes"/>
    <tag k="amenity" v="parking"/>
  </node>
  <node id="-4822" version="0" timestamp="Fri Feb 24 10:53:36 +0100 2012" uid="1" user="" lat="50.2242821" lon="8.6328408">
    <tag k="name" v="Parhaus Taunus-Therme/Seedammbad"/>
    <tag k="wheelchair" v="yes"/>
    <tag k="amenity" v="parking"/>
  </node>
  <node id="-4823" version="0" timestamp="Fri Feb 24 10:53:36 +0100 2012" uid="1" user="" lat="50.2209127" lon="8.6212584">
    <tag k="name" v="Parkplatz Bahnhof"/>
    <tag k="wheelchair" v="yes"/>
    <tag k="amenity" v="parking"/>
  </node>
  <node id="-4824" version="0" timestamp="Fri Feb 24 10:53:36 +0100 2012" uid="1" user="" lat="50.2197708" lon="8.6417498">
    <tag k="name" v="Parkplätze REWE"/>
    <tag k="wheelchair" v="yes"/>
    <tag k="amenity" v="parking"/>
  </node>
  <node id="-4825" version="0" timestamp="Fri Feb 24 10:53:36 +0100 2012" uid="1" user="" lat="50.2196979" lon="8.6424742">
    <tag k="shop" v="supermarket"/>
    <tag k="name" v="REWE"/>
    <tag k="wheelchair" v="yes"/>
  </node>
  <node id="-4826" version="0" timestamp="Fri Feb 24 10:53:36 +0100 2012" uid="1" user="" lat="50.2251118" lon="8.6282828">
    <tag k="name" v="Parkplatz Agustaallee"/>
    <tag k="wheelchair" v="yes"/>
    <tag k="amenity" v="parking"/>
  </node>
  <node id="-4827" version="0" timestamp="Fri Feb 24 10:53:36 +0100 2012" uid="1" user="" lat="50.2277932" lon="8.6193041">
    <tag k="name" v="Parkplatz"/>
    <tag k="wheelchair" v="limited"/>
    <tag k="amenity" v="parking"/>
  </node>
  <node id="-4828" version="0" timestamp="Fri Feb 24 10:53:36 +0100 2012" uid="1" user="" lat="50.2263381" lon="8.6178466">
    <tag k="name" v="Behindertenparkplatz"/>
    <tag k="wheelchair" v="yes"/>
    <tag k="amenity" v="parking"/>
  </node>
  <node id="-4829" version="0" timestamp="Fri Feb 24 10:53:36 +0100 2012" uid="1" user="" lat="50.2275564" lon="8.6163524">
    <tag k="name" v="Behindertenparkplatz"/>
    <tag k="wheelchair" v="yes"/>
    <tag k="amenity" v="parking"/>
  </node>
  <node id="-4830" version="0" timestamp="Fri Feb 24 10:53:36 +0100 2012" uid="1" user="" lat="50.2277175" lon="8.6151313">
    <tag k="name" v="Behindertenparkplatz"/>
    <tag k="wheelchair" v="yes"/>
    <tag k="amenity" v="parking"/>
  </node>
  <node id="-4831" version="0" timestamp="Fri Feb 24 10:53:36 +0100 2012" uid="1" user="" lat="50.2260945" lon="8.6150156">
    <tag k="name" v="Behindertenparkplatz"/>
    <tag k="wheelchair" v="yes"/>
    <tag k="amenity" v="parking"/>
  </node>
  <node id="-4832" version="0" timestamp="Fri Feb 24 10:53:36 +0100 2012" uid="1" user="" lat="50.2277977" lon="8.6125055">
    <tag k="name" v="Behindertenparkplatz"/>
    <tag k="wheelchair" v="yes"/>
    <tag k="amenity" v="parking"/>
  </node>
  <node id="-4833" version="0" timestamp="Fri Feb 24 10:53:36 +0100 2012" uid="1" user="" lat="50.2290812" lon="8.6120352">
    <tag k="name" v="Behindertenparkplatz"/>
    <tag k="wheelchair" v="yes"/>
    <tag k="amenity" v="parking"/>
  </node>
  <node id="-4834" version="0" timestamp="Fri Feb 24 10:53:36 +0100 2012" uid="1" user="" lat="50.2304319" lon="8.6127016">
    <tag k="name" v="Behindertenparkplatz"/>
    <tag k="wheelchair" v="yes"/>
    <tag k="amenity" v="parking"/>
  </node>
  <node id="-4835" version="0" timestamp="Fri Feb 24 10:53:36 +0100 2012" uid="1" user="" lat="50.2297471" lon="8.6135476">
    <tag k="name" v="Behindertenparkplatz"/>
    <tag k="wheelchair" v="yes"/>
    <tag k="amenity" v="parking"/>
  </node>
  <node id="-4836" version="0" timestamp="Fri Feb 24 10:53:36 +0100 2012" uid="1" user="" lat="50.2300533" lon="8.6196677">
    <tag k="name" v="Behindertenparkplätze"/>
    <tag k="wheelchair" v="yes"/>
    <tag k="amenity" v="parking"/>
  </node>
  <node id="-4837" version="0" timestamp="Fri Feb 24 10:53:36 +0100 2012" uid="1" user="" lat="50.2337078" lon="8.6045593">
    <tag k="name" v="Behindertenparkplatz ev. Freikirche"/>
    <tag k="wheelchair" v="yes"/>
    <tag k="amenity" v="parking"/>
  </node>
  <node id="-4838" version="0" timestamp="Fri Feb 24 10:53:36 +0100 2012" uid="1" user="" lat="50.239386" lon="8.6011031">
    <tag k="name" v="Parkplätze Bürgerhaus"/>
    <tag k="wheelchair" v="yes"/>
    <tag k="amenity" v="parking"/>
  </node>
  <node id="-4839" version="0" timestamp="Fri Feb 24 10:53:36 +0100 2012" uid="1" user="" lat="50.23939" lon="8.6011">
    <tag k="name" v="Bürgerhaus Kirdorf"/>
    <tag k="wheelchair" v="no"/>
    <tag k="amenity" v="townhall"/>
  </node>
  <node id="-4840" version="0" timestamp="Fri Feb 24 10:53:36 +0100 2012" uid="1" user="" lat="50.23985" lon="8.59711">
    <tag k="name" v="Haltestelle Gesamtschule richtg Stadt"/>
    <tag k="wheelchair" v="yes"/>
    <tag k="amenity" v="bus_station"/>
  </node>
  <node id="-4841" version="0" timestamp="Fri Feb 24 10:53:36 +0100 2012" uid="1" user="" lat="50.24214" lon="8.60908">
    <tag k="name" v="Behindertenparkplatz"/>
    <tag k="wheelchair" v="yes"/>
    <tag k="amenity" v="parking"/>
  </node>
  <node id="-4842" version="0" timestamp="Fri Feb 24 10:53:36 +0100 2012" uid="1" user="" lat="50.2341163" lon="8.5744344">
    <tag k="name" v="Parkplatz Gotisches haus"/>
    <tag k="wheelchair" v="yes"/>
    <tag k="amenity" v="parking"/>
  </node>
  <node id="-4843" version="0" timestamp="Fri Feb 24 10:53:36 +0100 2012" uid="1" user="" lat="50.2406995" lon="8.5888143">
    <tag k="name" v="Stadtteilzentrum"/>
    <tag k="wheelchair" v="yes"/>
    <tag k="amenity" v="community_center"/>
  </node>
  <node id="-4844" version="0" timestamp="Fri Feb 24 10:53:36 +0100 2012" uid="1" user="" lat="50.2407755" lon="8.5889012">
    <tag k="name" v="Behindertenparkplatz"/>
    <tag k="wheelchair" v="yes"/>
    <tag k="amenity" v="parking"/>
  </node>
  <node id="-4845" version="0" timestamp="Fri Feb 24 10:53:36 +0100 2012" uid="1" user="" lat="50.2471916" lon="8.6210829">
    <tag k="name" v="Behindertenparkplatz"/>
    <tag k="wheelchair" v="yes"/>
    <tag k="amenity" v="parking"/>
  </node>
  <node id="-4846" version="0" timestamp="Fri Feb 24 10:53:36 +0100 2012" uid="1" user="" lat="50.245008" lon="8.6234155">
    <tag k="name" v="Behindertenparkplatz"/>
    <tag k="wheelchair" v="yes"/>
    <tag k="amenity" v="parking"/>
  </node>
  <node id="-4847" version="0" timestamp="Fri Feb 24 10:53:36 +0100 2012" uid="1" user="" lat="50.243508" lon="8.5890349">
    <tag k="name" v="Behindertenparkplatz"/>
    <tag k="wheelchair" v="yes"/>
    <tag k="amenity" v="parking"/>
  </node>
  <node id="-4848" version="0" timestamp="Fri Feb 24 10:53:36 +0100 2012" uid="1" user="" lat="50.2249547" lon="8.6352429">
    <tag k="name" v="Behindertenparkplatz Gericht"/>
    <tag k="wheelchair" v="yes"/>
    <tag k="amenity" v="parking"/>
  </node>
  <node id="-4849" version="0" timestamp="Fri Feb 24 10:53:36 +0100 2012" uid="1" user="" lat="50.2257088" lon="8.6347565">
    <tag k="name" v="Behindertenparkplatz Sporthalle"/>
    <tag k="wheelchair" v="yes"/>
    <tag k="amenity" v="parking"/>
  </node>
  <node id="-4935" version="0" timestamp="Fri Feb 24 10:53:36 +0100 2012" uid="1" user="" lat="50.2373311" lon="8.6131471">
    <tag k="name" v="Sportplatz am wiesenborn (Gebäude)"/>
    <tag k="wheelchair" v="unknown"/>
    <tag k="wheelchair:description" v="kein geeigneter Begriff wie Sportplatz oder Sporthalle vorhanden"/>
    <tag k="leisure" v="stadium"/>
  </node>
  <node id="-4936" version="0" timestamp="Fri Feb 24 10:53:36 +0100 2012" uid="1" user="" lat="50.24073" lon="8.61162">
    <tag k="name" v="St Johannes"/>
    <tag k="wheelchair" v="yes"/>
    <tag k="wheelchair:description" v="Rampe Ostseite - geöffnet zu gottesdiensten"/>
    <tag k="amenity" v="bank"/>
  </node>
  <node id="-4937" version="0" timestamp="Fri Feb 24 10:53:36 +0100 2012" uid="1" user="" lat="50.2302095" lon="8.6137701">
    <tag k="name" v="Ärztehaus apotheke"/>
    <tag k="wheelchair" v="limited"/>
    <tag k="amenity" v="doctors"/>
  </node>
  <node id="-4938" version="0" timestamp="Fri Feb 24 10:53:36 +0100 2012" uid="1" user="" lat="50.231159" lon="8.6153512">
    <tag k="name" v="Rindsches Bürgerstift altenheim+Cafe"/>
    <tag k="wheelchair" v="yes"/>
    <tag k="amenity" v="cafe"/>
  </node>
  <node id="-4939" version="0" timestamp="Fri Feb 24 10:53:36 +0100 2012" uid="1" user="" lat="50.22528" lon="8.61911">
    <tag k="shop" v="department_store"/>
    <tag k="name" v="Karstadt  mit Restaurant"/>
    <tag k="wheelchair" v="yes"/>
  </node>
  <node id="-4940" version="0" timestamp="Fri Feb 24 10:53:36 +0100 2012" uid="1" user="" lat="50.2224233" lon="8.6680193">
    <tag k="name" v="Bushaltestelle "/>
    <tag k="wheelchair" v="no"/>
    <tag k="amenity" v="bus_station"/>
  </node>
  <node id="-4941" version="0" timestamp="Fri Feb 24 10:53:36 +0100 2012" uid="1" user="" lat="50.2241605" lon="8.6765415">
    <tag k="name" v="ev. Gemeindezentrum"/>
    <tag k="wheelchair" v="limited"/>
    <tag k="amenity" v="place_of_worship"/>
  </node>
  <node id="-4942" version="0" timestamp="Fri Feb 24 10:53:36 +0100 2012" uid="1" user="" lat="50.2168596" lon="8.6514901">
    <tag k="name" v="Ev. Kirche/Gemeindezentrum"/>
    <tag k="wheelchair" v="yes"/>
    <tag k="amenity" v="place_of_worship"/>
  </node>
  <node id="-4943" version="0" timestamp="Fri Feb 24 10:53:36 +0100 2012" uid="1" user="" lat="50.22872" lon="8.61226">
    <tag k="name" v="Landgraf Ludwig Schule"/>
    <tag k="wheelchair" v="no"/>
    <tag k="amenity" v="school"/>
  </node>
  <node id="-4944" version="0" timestamp="Fri Feb 24 10:53:36 +0100 2012" uid="1" user="" lat="50.2187068" lon="8.6526963">
    <tag k="name" v="Pfarrbornweg richtig Ober-Erlenbach"/>
    <tag k="wheelchair" v="yes"/>
    <tag k="amenity" v="bus_station"/>
  </node>
  <node id="-4945" version="0" timestamp="Fri Feb 24 10:53:36 +0100 2012" uid="1" user="" lat="50.2170587" lon="8.6472737">
    <tag k="name" v="Lindenstraße"/>
    <tag k="wheelchair" v="yes"/>
    <tag k="amenity" v="bus_station"/>
  </node>
  <node id="-4946" version="0" timestamp="Fri Feb 24 10:53:36 +0100 2012" uid="1" user="" lat="50.2210527" lon="8.6418265">
    <tag k="name" v="Vereinshaus Gonzenheim"/>
    <tag k="wheelchair" v="limited"/>
    <tag k="wheelchair:description" v="BehindertenWC tw ok "/>
    <tag k="amenity" v="townhall"/>
  </node>
  <node id="-4947" version="0" timestamp="Fri Feb 24 10:53:36 +0100 2012" uid="1" user="" lat="50.2210637" lon="8.641653">
    <tag k="name" v="Behindertenparkplatz Vereinshaus"/>
    <tag k="wheelchair" v="yes"/>
    <tag k="amenity" v="parking"/>
  </node>
  <node id="-4948" version="0" timestamp="Fri Feb 24 10:53:36 +0100 2012" uid="1" user="" lat="50.220877" lon="8.640384">
    <tag k="name" v="ev Kirche und Gemeindehaus"/>
    <tag k="wheelchair" v="no"/>
    <tag k="amenity" v="place_of_worship"/>
  </node>
  <node id="-4949" version="0" timestamp="Fri Feb 24 10:53:36 +0100 2012" uid="1" user="" lat="50.2216262" lon="8.6219211">
    <tag k="name" v="Techn. Rathaus"/>
    <tag k="wheelchair" v="limited"/>
    <tag k="wheelchair:description" v="Fahrstuhl 80cm breit "/>
    <tag k="amenity" v="townhall"/>
  </node>
  <node id="-4950" version="0" timestamp="Fri Feb 24 10:53:36 +0100 2012" uid="1" user="" lat="50.2271208" lon="8.6155081">
    <tag k="name" v="Ärzte Cario/Augen/"/>
    <tag k="wheelchair" v="limited"/>
    <tag k="wheelchair:description" v="bis zur Praxis voll ruhlstuhlgerecht"/>
    <tag k="amenity" v="doctors"/>
  </node>
  <node id="-4951" version="0" timestamp="Fri Feb 24 10:53:36 +0100 2012" uid="1" user="" lat="50.2157621" lon="8.6161808">
    <tag k="name" v="Landratsamt"/>
    <tag k="wheelchair" v="yes"/>
    <tag k="amenity" v="townhall"/>
  </node>
  <node id="-4952" version="0" timestamp="Fri Feb 24 10:53:36 +0100 2012" uid="1" user="" lat="50.2428734" lon="8.5961324">
    <tag k="name" v="Karl-Horn-Str."/>
    <tag k="wheelchair" v="yes"/>
    <tag k="amenity" v="bus_station"/>
  </node>
  <node id="-4953" version="0" timestamp="Fri Feb 24 10:53:36 +0100 2012" uid="1" user="" lat="50.2479193" lon="8.59397">
    <tag k="name" v="BehindertenWC Sportplatz "/>
    <tag k="wheelchair" v="yes"/>
    <tag k="wheelchair:description" v="geöffnet bei Veranstaltungen"/>
    <tag k="amenity" v="toilets"/>
  </node>
</osm>
