<?xml version='1.0' encoding='UTF-8'?>
<osm version="0.6" generator="Osmosis 0.39">
  <node id="-1696" version="0" timestamp="Fri Feb 24 10:53:33 +0100 2012" uid="1" user="" lat="51.2880531" lon="9.4955302">
    <tag k="name" v="Messe Kassel GmbH"/>
    <tag k="wheelchair" v="yes"/>
    <tag k="addr:city" v="Kassel"/>
    <tag k="addr:postcode" v="34121"/>
    <tag k="addr:housenumber" v="55"/>
    <tag k="addr:street" v="Damaschke Straße"/>
    <tag k="wheelchair:description" v="Alle Hallen und das Gelände sind komplett Barrierefrei"/>
    <tag k="website" v="http://www.messe-kassel.de"/>
    <tag k="phone" v="0561 95986 0"/>
  </node>
  <node id="-1852" version="0" timestamp="Fri Feb 24 10:53:33 +0100 2012" uid="1" user="" lat="51.30927" lon="9.47702">
    <tag k="name" v="Restaurant Karlshospital"/>
    <tag k="wheelchair" v="yes"/>
    <tag k="addr:city" v="Kassel"/>
    <tag k="addr:postcode" v="34117"/>
    <tag k="addr:housenumber" v="2a"/>
    <tag k="addr:street" v="Weserstrasse"/>
    <tag k="amenity" v="restaurant"/>
    <tag k="website" v="http://www.restaurant-karlshospital.com"/>
    <tag k="phone" v="0561-8166523"/>
  </node>
  <node id="-2600" version="0" timestamp="Fri Feb 24 10:53:34 +0100 2012" uid="1" user="" lat="51.3159191" lon="9.4702506">
    <tag k="shop" v="bakery"/>
    <tag k="name" v="Bäcker Becker"/>
    <tag k="wheelchair" v="limited"/>
    <tag k="wheelchair:description" v="kein rollstuhlgerechtes WC"/>
  </node>
  <node id="-2604" version="0" timestamp="Fri Feb 24 10:53:34 +0100 2012" uid="1" user="" lat="51.3160814" lon="9.4726844">
    <tag k="name" v="Rewe"/>
    <tag k="wheelchair" v="limited"/>
    <tag k="wheelchair:description" v="wc noch nicht bekannt"/>
    <tag k="amenity" v="bank"/>
  </node>
  <node id="-2605" version="0" timestamp="Fri Feb 24 10:53:34 +0100 2012" uid="1" user="" lat="51.3161205" lon="9.47285">
    <tag k="shop" v="bakery"/>
    <tag k="name" v="Bäckerei im Rewe"/>
    <tag k="wheelchair" v="limited"/>
  </node>
  <node id="-2717" version="0" timestamp="Fri Feb 24 10:53:34 +0100 2012" uid="1" user="" lat="51.32408" lon="9.47424">
    <tag k="name" v="Joachim Priedemann Fotodesign"/>
    <tag k="wheelchair" v="limited"/>
    <tag k="addr:city" v="Kassel"/>
    <tag k="addr:postcode" v="34127"/>
    <tag k="addr:housenumber" v="17"/>
    <tag k="addr:street" v="Philippistraße"/>
    <tag k="amenity" v="artwork"/>
    <tag k="website" v="http://www.priedemann.com"/>
    <tag k="phone" v="+4916097701663"/>
  </node>
  <node id="-3285" version="0" timestamp="Fri Feb 24 10:53:35 +0100 2012" uid="1" user="" lat="51.31322" lon="9.42961">
    <tag k="name" v="Gutshof"/>
    <tag k="wheelchair" v="yes"/>
    <tag k="amenity" v="restaurant"/>
  </node>
  <node id="-3394" version="0" timestamp="Fri Feb 24 10:53:35 +0100 2012" uid="1" user="" lat="51.3167" lon="9.5">
    <tag k="name" v="Landhotel-Henkenhof"/>
    <tag k="wheelchair" v="yes"/>
    <tag k="addr:city" v="Usseln"/>
    <tag k="addr:postcode" v="34508"/>
    <tag k="addr:housenumber" v="23"/>
    <tag k="addr:street" v="Hochsauerlandstr."/>
    <tag k="amenity" v="restaurant"/>
    <tag k="website" v="http://www.landhotel-henkenhof.de"/>
    <tag k="phone" v="+4956321817"/>
  </node>
  <node id="-4785" version="0" timestamp="Fri Feb 24 10:53:36 +0100 2012" uid="1" user="" lat="51.2848747" lon="9.4534322">
    <tag k="name" v="Praxis Dr. Mahrt"/>
    <tag k="wheelchair" v="yes"/>
    <tag k="addr:city" v="Kassel"/>
    <tag k="addr:postcode" v="34132 "/>
    <tag k="addr:housenumber" v="72"/>
    <tag k="addr:street" v="Oberzwehrener Straße "/>
    <tag k="wheelchair:description" v="Lift vorhanden"/>
    <tag k="amenity" v="doctors"/>
    <tag k="phone" v="+49 56 01 - 400 00 11"/>
  </node>
  <node id="-4786" version="0" timestamp="Fri Feb 24 10:53:36 +0100 2012" uid="1" user="" lat="51.2837289" lon="9.4676877">
    <tag k="name" v="Matthäus Kirche"/>
    <tag k="wheelchair" v="yes"/>
    <tag k="addr:city" v="Kassel"/>
    <tag k="addr:postcode" v="34134"/>
    <tag k="addr:housenumber" v="8"/>
    <tag k="addr:street" v="Am Frohnhof"/>
    <tag k="amenity" v="place_of_worship"/>
  </node>
</osm>
