<?xml version='1.0' encoding='UTF-8'?>
<osm version="0.6" generator="Osmosis 0.39">
  <node id="-2993" version="0" timestamp="Fri Feb 24 10:53:35 +0100 2012" uid="1" user="" lat="50.51859" lon="8.58049">
    <tag k="shop" v="convenience"/>
    <tag k="name" v="Auto - Müller GmbH &amp; Co.KG"/>
    <tag k="wheelchair" v="yes"/>
    <tag k="addr:city" v="Hüttenberg"/>
    <tag k="addr:postcode" v="35625"/>
    <tag k="addr:housenumber" v="1"/>
    <tag k="addr:street" v="Hessenstrasse "/>
    <tag k="wheelchair:description" v="komplett incl. Behindertengerechte WCs"/>
    <tag k="website" v="http://www.auto-mueller-online.de"/>
    <tag k="phone" v="06441-9797-0"/>
  </node>
  <node id="-5581" version="0" timestamp="Fri Feb 24 10:53:37 +0100 2012" uid="1" user="" lat="50.5525666" lon="8.5097792">
    <tag k="name" v="RSV Lahn-Dill"/>
    <tag k="wheelchair" v="yes"/>
    <tag k="addr:city" v="Wetzlar"/>
    <tag k="addr:postcode" v="35576"/>
    <tag k="addr:housenumber" v="16"/>
    <tag k="addr:street" v="Friedenstraße"/>
    <tag k="wheelchair:description" v="Rollstuhlbasketball"/>
    <tag k="website" v="http://www.rsvlahndill.de"/>
    <tag k="phone" v="+49 (6441) 2002 59 00"/>
    <tag k="office" v="company"/>
  </node>
  <node id="-5583" version="0" timestamp="Fri Feb 24 10:53:37 +0100 2012" uid="1" user="" lat="50.57414" lon="8.50985">
    <tag k="name" v="RSV Lahn-Dill"/>
    <tag k="wheelchair" v="yes"/>
    <tag k="addr:city" v="Wetzlar"/>
    <tag k="addr:postcode" v="35576"/>
    <tag k="addr:housenumber" v="64"/>
    <tag k="addr:street" v="Dammstraße"/>
    <tag k="wheelchair:description" v="Spielhalle des deutschen Rollstuhlbasketball-Meisters RSV Lahn-Dill"/>
    <tag k="leisure" v="stadium"/>
    <tag k="website" v="http://www.rsvlahndill.de"/>
    <tag k="phone" v="+49 (6441) 2002 59 00"/>
  </node>
  <node id="-5701" version="0" timestamp="Fri Feb 24 10:53:37 +0100 2012" uid="1" user="" lat="50.5746176" lon="8.5145261">
    <tag k="name" v="August-Bebel-Sporthalle"/>
    <tag k="wheelchair" v="yes"/>
    <tag k="addr:city" v="Wetzlar"/>
    <tag k="addr:postcode" v="35576"/>
    <tag k="addr:housenumber" v="64"/>
    <tag k="addr:street" v="Dammstraße"/>
    <tag k="amenity" v="school"/>
  </node>
</osm>
