<?xml version='1.0' encoding='UTF-8'?>
<osm version="0.6" generator="Osmosis 0.39">
  <node id="-4869" version="0" timestamp="Fri Feb 24 10:53:36 +0100 2012" uid="1" user="" lat="51.36617" lon="9.39118">
    <tag k="shop" v="butcher"/>
    <tag k="name" v="Fröhlich"/>
    <tag k="wheelchair" v="yes"/>
  </node>
  <node id="-4870" version="0" timestamp="Fri Feb 24 10:53:36 +0100 2012" uid="1" user="" lat="51.36617" lon="9.39118">
    <tag k="name" v="Sparkasse"/>
    <tag k="wheelchair" v="yes"/>
    <tag k="amenity" v="bank"/>
  </node>
  <node id="-4871" version="0" timestamp="Fri Feb 24 10:53:36 +0100 2012" uid="1" user="" lat="51.3650068" lon="9.3924519">
    <tag k="name" v="Sparkasse"/>
    <tag k="wheelchair" v="unknown"/>
    <tag k="amenity" v="bank"/>
  </node>
  <node id="-4872" version="0" timestamp="Fri Feb 24 10:53:36 +0100 2012" uid="1" user="" lat="51.3660048" lon="9.3927139">
    <tag k="shop" v="butcher"/>
    <tag k="name" v="Fröhlich"/>
    <tag k="wheelchair" v="unknown"/>
  </node>
</osm>
