<?xml version='1.0' encoding='UTF-8'?>
<osm version="0.6" generator="Osmosis 0.39">
  <node id="-1128" version="0" timestamp="Fri Feb 24 10:53:33 +0100 2012" uid="1" user="" lat="50.2962934" lon="8.2554817">
    <tag k="name" v="Bad Camberg Bahnhof"/>
    <tag k="wheelchair" v="yes"/>
    <tag k="wheelchair:description" v="Gleis 1: Über Straße erreichbar und Ausstieg mit 20cm Stufe nach unten auf den Bahnsteig möglich, Gleis 2: über Unterführung erreichbar und Einstieg mit 20cm Stuf nach unten in den Zug möglich"/>
    <tag k="railway" v="platform"/>
  </node>
  <node id="-1129" version="0" timestamp="Fri Feb 24 10:53:33 +0100 2012" uid="1" user="" lat="50.2972711" lon="8.2644094">
    <tag k="shop" v="bicycle"/>
    <tag k="name" v="Martins Radl Werkstatt"/>
    <tag k="wheelchair" v="limited"/>
    <tag k="addr:city" v="Bad Camberg"/>
    <tag k="addr:postcode" v="65520"/>
    <tag k="addr:housenumber" v="17"/>
    <tag k="addr:street" v="Bahnhofstraße"/>
    <tag k="wheelchair:description" v="Geschäft/Werkstatt unten befahrbar mit einer Kante vor der Tür, Verkaufsräume oben nur über Treppen"/>
    <tag k="website" v="http://www.mrw-shop.com/"/>
  </node>
  <node id="-2793" version="0" timestamp="Fri Feb 24 10:53:34 +0100 2012" uid="1" user="" lat="50.45466" lon="8.16884">
    <tag k="name" v="Zur Dampfmühle"/>
    <tag k="wheelchair" v="yes"/>
    <tag k="addr:city" v="65614 Beselich-Schupbach"/>
    <tag k="addr:postcode" v="65614"/>
    <tag k="addr:housenumber" v="22"/>
    <tag k="addr:street" v="Obertiefenbacher Straße"/>
    <tag k="amenity" v="restaurant"/>
    <tag k="website" v="http://www.zurdampfmuehle.de"/>
    <tag k="phone" v="+49 64 84 91 19 55"/>
  </node>
</osm>
