<?xml version='1.0' encoding='UTF-8'?>
<osm version="0.6" generator="Osmosis 0.39">
  <node id="-210" version="0" timestamp="Fri Feb 24 10:53:32 +0100 2012" uid="1" user="" lat="50.0527865" lon="8.4447028">
    <tag k="name" v="Zum wilden Esel"/>
    <tag k="wheelchair" v="yes"/>
    <tag k="addr:city" v="Flörsheim am Main"/>
    <tag k="addr:postcode" v="65439"/>
    <tag k="addr:housenumber" v="75"/>
    <tag k="addr:street" v="Frankfurter Strasse"/>
    <tag k="wheelchair:description" v="Zugang Ebenerdig, behindertengerechte Toilette auf gleicher Ebene, große befahrbare Terrasse"/>
    <tag k="amenity" v="restaurant"/>
    <tag k="website" v="http://www.delicador.de/restaurants/zumwildenesel/"/>
    <tag k="phone" v="+496145 502905"/>
  </node>
  <node id="-380" version="0" timestamp="Fri Feb 24 10:53:32 +0100 2012" uid="1" user="" lat="50.085224" lon="8.4479249">
    <tag k="name" v="Restaurant Goldener Apfel"/>
    <tag k="wheelchair" v="yes"/>
    <tag k="addr:city" v="Hofheim am Taunus"/>
    <tag k="addr:postcode" v="65719"/>
    <tag k="addr:housenumber" v="4"/>
    <tag k="addr:street" v="Chinonplatz"/>
    <tag k="wheelchair:description" v="Keine Stufen"/>
    <tag k="amenity" v="restaurant"/>
    <tag k="website" v="http://www.goldenerapfel.de"/>
    <tag k="phone" v="+49-6192-23355"/>
  </node>
  <node id="-3025" version="0" timestamp="Fri Feb 24 10:53:35 +0100 2012" uid="1" user="" lat="50.14836" lon="8.56502">
    <tag k="name" v="Schule"/>
    <tag k="wheelchair" v="limited"/>
    <tag k="wheelchair:description" v="Behindertentoilette vorhanden Zugang nur für EG"/>
    <tag k="amenity" v="school"/>
  </node>
  <node id="-3026" version="0" timestamp="Fri Feb 24 10:53:35 +0100 2012" uid="1" user="" lat="50.15141" lon="8.55355">
    <tag k="name" v="Polizeistation"/>
    <tag k="wheelchair" v="limited"/>
    <tag k="wheelchair:description" v="Besucherbereich ok, UG nur Treppe"/>
  </node>
  <node id="-3314" version="0" timestamp="Fri Feb 24 10:53:35 +0100 2012" uid="1" user="" lat="50.1440238" lon="8.501548">
    <tag k="name" v="Kurschänke"/>
    <tag k="wheelchair" v="yes"/>
    <tag k="addr:city" v="Bad Soden"/>
    <tag k="addr:postcode" v="65812"/>
    <tag k="addr:housenumber" v="65"/>
    <tag k="addr:street" v="Königsteinerstr."/>
    <tag k="wheelchair:description" v="lediglich eine 2 cm hohe Türschwelle. Das freundliche Personal ist aber sehr hilfsbereit"/>
    <tag k="amenity" v="restaurant"/>
    <tag k="phone" v="06196/23436"/>
  </node>
</osm>
