<?xml version='1.0' encoding='UTF-8'?>
<osm version="0.6" generator="Osmosis 0.39">
  <node id="-139" version="0" timestamp="Fri Feb 24 10:53:32 +0100 2012" uid="1" user="" lat="50.1740458" lon="9.0447255">
    <tag k="shop" v="supermarket"/>
    <tag k="name" v="Penny"/>
    <tag k="wheelchair" v="yes"/>
    <tag k="addr:city" v="Langenselbold"/>
    <tag k="addr:postcode" v="63505"/>
    <tag k="addr:housenumber" v="11"/>
    <tag k="addr:street" v="Kinzigstraße"/>
  </node>
  <node id="-140" version="0" timestamp="Fri Feb 24 10:53:32 +0100 2012" uid="1" user="" lat="50.1728322" lon="9.0445775">
    <tag k="shop" v="supermarket"/>
    <tag k="name" v="Aldi Süd"/>
    <tag k="wheelchair" v="yes"/>
    <tag k="addr:city" v="Langenselbold"/>
    <tag k="addr:postcode" v="63505"/>
    <tag k="addr:housenumber" v="13"/>
    <tag k="addr:street" v="Kinzigstraße"/>
  </node>
  <node id="-141" version="0" timestamp="Fri Feb 24 10:53:32 +0100 2012" uid="1" user="" lat="50.1795" lon="9.02677">
    <tag k="shop" v="supermarket"/>
    <tag k="name" v="Tegut"/>
    <tag k="wheelchair" v="yes"/>
    <tag k="addr:city" v="Langenselbold"/>
    <tag k="addr:postcode" v="63505"/>
    <tag k="addr:street" v="Ringstraße"/>
  </node>
  <node id="-443" version="0" timestamp="Fri Feb 24 10:53:32 +0100 2012" uid="1" user="" lat="50.3954" lon="9.4972">
    <tag k="name" v="Evangelisches Gemeindehaus"/>
    <tag k="wheelchair" v="limited"/>
    <tag k="addr:city" v="Schlüchtern-Wallroth"/>
    <tag k="addr:postcode" v="36381"/>
    <tag k="wheelchair:description" v="1. OG nur über Treppe, vor dem Haus ist eine Rampe ins EG, im EG keine Stufen aber Behindertentoilette"/>
  </node>
  <node id="-445" version="0" timestamp="Fri Feb 24 10:53:32 +0100 2012" uid="1" user="" lat="50.34452" lon="9.50829">
    <tag k="name" v="Gaststätte Acisbrunnen"/>
    <tag k="wheelchair" v="limited"/>
    <tag k="amenity" v="restaurant"/>
  </node>
  <node id="-810" version="0" timestamp="Fri Feb 24 10:53:32 +0100 2012" uid="1" user="" lat="50.253" lon="9.30127">
    <tag k="name" v="Treppenland"/>
    <tag k="wheelchair" v="yes"/>
    <tag k="addr:city" v="Bad Orb"/>
    <tag k="addr:postcode" v="63619"/>
    <tag k="addr:housenumber" v="6"/>
    <tag k="addr:street" v="Gelnhäuser Weg"/>
    <tag k="wheelchair:description" v="Frei beweglicher KletterWald"/>
    <tag k="amenity" v="theatre"/>
    <tag k="phone" v="767676"/>
  </node>
  <node id="-2464" version="0" timestamp="Fri Feb 24 10:53:34 +0100 2012" uid="1" user="" lat="50.1760277" lon="9.0408334">
    <tag k="name" v="Eissalon Paolo&amp;Ricarda"/>
    <tag k="wheelchair" v="no"/>
    <tag k="wheelchair:description" v="Gehwege sind mit Tischen und Sühlen zugestellt"/>
    <tag k="amenity" v="cafe"/>
  </node>
  <node id="-2466" version="0" timestamp="Fri Feb 24 10:53:34 +0100 2012" uid="1" user="" lat="50.1788186" lon="9.0439643">
    <tag k="name" v="Stadtcafe Kirschner"/>
    <tag k="wheelchair" v="yes"/>
    <tag k="amenity" v="cafe"/>
  </node>
  <node id="-2467" version="0" timestamp="Fri Feb 24 10:53:34 +0100 2012" uid="1" user="" lat="50.1790158" lon="9.0441431">
    <tag k="name" v="VR Bank"/>
    <tag k="wheelchair" v="yes"/>
    <tag k="amenity" v="bank"/>
  </node>
  <node id="-2468" version="0" timestamp="Fri Feb 24 10:53:34 +0100 2012" uid="1" user="" lat="50.1774647" lon="9.0442528">
    <tag k="name" v="Gründauapotheke"/>
    <tag k="wheelchair" v="yes"/>
    <tag k="amenity" v="pharmacy"/>
  </node>
  <node id="-5179" version="0" timestamp="Fri Feb 24 10:53:37 +0100 2012" uid="1" user="" lat="50.224424" lon="9.3505774">
    <tag k="shop" v="alcohol"/>
    <tag k="name" v="Terra Toscana"/>
    <tag k="wheelchair" v="yes"/>
    <tag k="addr:city" v="Bad Orb"/>
    <tag k="addr:postcode" v="63619"/>
    <tag k="addr:housenumber" v="11"/>
    <tag k="addr:street" v="Ludwig-Schmank-Strasse"/>
    <tag k="wheelchair:description" v="Mit Rollstuhl zu befahren"/>
    <tag k="website" v="http://www.toscana-bad-orb.de"/>
    <tag k="phone" v="06052-918086"/>
  </node>
</osm>
