<?xml version='1.0' encoding='UTF-8'?>
<osm version="0.6" generator="Osmosis 0.39">
  <node id="-1090" version="0" timestamp="Fri Feb 24 10:53:33 +0100 2012" uid="1" user="" lat="49.8500084" lon="9.07555">
    <tag k="shop" v="supermarket"/>
    <tag k="name" v="Netto Marken-Discount"/>
    <tag k="wheelchair" v="limited"/>
  </node>
  <node id="-1093" version="0" timestamp="Fri Feb 24 10:53:33 +0100 2012" uid="1" user="" lat="49.8502314" lon="9.0766336">
    <tag k="shop" v="department_store"/>
    <tag k="name" v="Rofu -Spielwaren"/>
    <tag k="wheelchair" v="limited"/>
  </node>
  <node id="-1095" version="0" timestamp="Fri Feb 24 10:53:33 +0100 2012" uid="1" user="" lat="49.8507558" lon="9.0781481">
    <tag k="shop" v="clothes"/>
    <tag k="name" v="hefa Moden"/>
    <tag k="wheelchair" v="limited"/>
  </node>
  <node id="-1097" version="0" timestamp="Fri Feb 24 10:53:33 +0100 2012" uid="1" user="" lat="49.84975" lon="9.07477">
    <tag k="shop" v="department_store"/>
    <tag k="name" v="Schlecker "/>
    <tag k="wheelchair" v="limited"/>
  </node>
  <node id="-1098" version="0" timestamp="Fri Feb 24 10:53:33 +0100 2012" uid="1" user="" lat="49.8498641" lon="9.0750919">
    <tag k="shop" v="beverages"/>
    <tag k="name" v="Gentränke Hohm"/>
    <tag k="wheelchair" v="limited"/>
  </node>
  <node id="-1099" version="0" timestamp="Fri Feb 24 10:53:33 +0100 2012" uid="1" user="" lat="49.8501089" lon="9.0783868">
    <tag k="shop" v="garden_centre"/>
    <tag k="name" v="Gärtnerei Löwer"/>
    <tag k="wheelchair" v="limited"/>
  </node>
  <node id="-1100" version="0" timestamp="Fri Feb 24 10:53:33 +0100 2012" uid="1" user="" lat="49.8543716" lon="9.0865964">
    <tag k="name" v="Eiscafe Lido"/>
    <tag k="wheelchair" v="no"/>
    <tag k="amenity" v="cafe"/>
  </node>
</osm>
