<?xml version='1.0' encoding='UTF-8'?>
<osm version="0.6" generator="Osmosis 0.39">
  <node id="-1086" version="0" timestamp="Fri Feb 24 10:53:33 +0100 2012" uid="1" user="" lat="49.8215012" lon="9.0473952">
    <tag k="shop" v="bakery"/>
    <tag k="name" v="Bäckerei"/>
    <tag k="wheelchair" v="limited"/>
  </node>
  <node id="-3997" version="0" timestamp="Fri Feb 24 10:53:36 +0100 2012" uid="1" user="" lat="49.7406145" lon="9.0095563">
    <tag k="name" v="Pizzaria Maria"/>
    <tag k="wheelchair" v="yes"/>
    <tag k="addr:city" v="Bad-König"/>
    <tag k="addr:postcode" v="64732"/>
    <tag k="addr:housenumber" v="16"/>
    <tag k="addr:street" v="Martin-Luther-Str."/>
    <tag k="amenity" v="restaurant"/>
    <tag k="phone" v="06063 894"/>
  </node>
  <node id="-3998" version="0" timestamp="Fri Feb 24 10:53:36 +0100 2012" uid="1" user="" lat="49.6916967" lon="9.003477">
    <tag k="shop" v="supermarket"/>
    <tag k="name" v="Toom Lebensmittelmarkt"/>
    <tag k="wheelchair" v="yes"/>
  </node>
  <node id="-3999" version="0" timestamp="Fri Feb 24 10:53:36 +0100 2012" uid="1" user="" lat="49.6761804" lon="9.0013732">
    <tag k="shop" v="supermarket"/>
    <tag k="name" v="Kaufland"/>
    <tag k="wheelchair" v="yes"/>
  </node>
  <node id="-4000" version="0" timestamp="Fri Feb 24 10:53:36 +0100 2012" uid="1" user="" lat="49.6745033" lon="9.0034692">
    <tag k="name" v="Odenwaldhalle"/>
    <tag k="wheelchair" v="yes"/>
    <tag k="amenity" v="townhall"/>
  </node>
</osm>
