<?xml version='1.0' encoding='UTF-8'?>
<osm version="0.6" generator="Osmosis 0.39">
  <node id="-508" version="0" timestamp="Fri Feb 24 10:53:32 +0100 2012" uid="1" user="" lat="50.0173451" lon="8.9910517">
    <tag k="name" v="Main Reha"/>
    <tag k="wheelchair" v="yes"/>
    <tag k="leisure" v="sports_centre"/>
  </node>
  <node id="-509" version="0" timestamp="Fri Feb 24 10:53:32 +0100 2012" uid="1" user="" lat="50.01701" lon="8.99145">
    <tag k="shop" v="supermarket"/>
    <tag k="name" v="Edeka"/>
    <tag k="wheelchair" v="yes"/>
  </node>
  <node id="-919" version="0" timestamp="Fri Feb 24 10:53:33 +0100 2012" uid="1" user="" lat="50.04482" lon="8.85536">
    <tag k="name" v="Bindinggarten- Sportgaststätte"/>
    <tag k="wheelchair" v="limited"/>
    <tag k="addr:city" v="Heusenstamm- Rembrücken"/>
    <tag k="addr:postcode" v="63150"/>
    <tag k="addr:street" v="Bindingweg"/>
    <tag k="wheelchair:description" v="Eingang ebenerdig, keine Behindertentoilette"/>
    <tag k="amenity" v="restaurant"/>
  </node>
  <node id="-920" version="0" timestamp="Fri Feb 24 10:53:33 +0100 2012" uid="1" user="" lat="50.04589" lon="8.85337">
    <tag k="name" v="Bäckerei-Cafe Schnabel"/>
    <tag k="wheelchair" v="no"/>
    <tag k="wheelchair:description" v="2 Stufen. Personal bringt Waren hinaus. Im Sommer Plätze vor dem Cafe"/>
    <tag k="amenity" v="cafe"/>
  </node>
  <node id="-1948" version="0" timestamp="Fri Feb 24 10:53:33 +0100 2012" uid="1" user="" lat="50.04785" lon="8.79907">
    <tag k="shop" v="computer"/>
    <tag k="name" v="CTK Computer &amp; Service"/>
    <tag k="wheelchair" v="yes"/>
    <tag k="addr:city" v="Heusenstamm"/>
    <tag k="addr:postcode" v="63150"/>
    <tag k="addr:housenumber" v="3a"/>
    <tag k="addr:street" v="Ottostr."/>
    <tag k="wheelchair:description" v="Computergeschäft ebenerdig zu erreichen,"/>
    <tag k="website" v="http://www.ctk-pc.de"/>
    <tag k="phone" v="+496104406690"/>
  </node>
  <node id="-2715" version="0" timestamp="Fri Feb 24 10:53:34 +0100 2012" uid="1" user="" lat="49.9874" lon="8.64784">
    <tag k="name" v="Paul-Ehrlich-Institut"/>
    <tag k="wheelchair" v="yes"/>
    <tag k="addr:city" v="Langen"/>
    <tag k="addr:postcode" v="63225"/>
    <tag k="addr:housenumber" v="51-59"/>
    <tag k="addr:street" v="Paul-Ehrlich-Str. "/>
  </node>
  <node id="-3335" version="0" timestamp="Fri Feb 24 10:53:35 +0100 2012" uid="1" user="" lat="49.96953" lon="8.83243">
    <tag k="name" v="Kaffeerösterei Hansen GmbH"/>
    <tag k="wheelchair" v="yes"/>
    <tag k="addr:city" v="Rödermark"/>
    <tag k="addr:postcode" v="63322"/>
    <tag k="addr:housenumber" v="2"/>
    <tag k="addr:street" v="Forststrasse"/>
    <tag k="wheelchair:description" v="Toilette nur für schmale Rollstühle (Rückwärts einfahren)"/>
    <tag k="amenity" v="cafe"/>
    <tag k="website" v="http://www.hansen-kaffee.de"/>
    <tag k="phone" v="+4960742156076"/>
  </node>
  <node id="-3390" version="0" timestamp="Fri Feb 24 10:53:35 +0100 2012" uid="1" user="" lat="50.0270924" lon="8.6957706">
    <tag k="shop" v="hardware"/>
    <tag k="name" v="City-Tools GmbH"/>
    <tag k="wheelchair" v="yes"/>
    <tag k="addr:city" v="Dreieich"/>
    <tag k="addr:postcode" v="63303"/>
    <tag k="addr:housenumber" v="105"/>
    <tag k="addr:street" v="Frankfurter Straße "/>
    <tag k="website" v="http://www.City-Tools.com"/>
    <tag k="phone" v="06103/3010-9"/>
  </node>
  <node id="-3425" version="0" timestamp="Fri Feb 24 10:53:35 +0100 2012" uid="1" user="" lat="50.0427525" lon="8.6878732">
    <tag k="shop" v="department_store"/>
    <tag k="name" v="Softairwelt - Mathias Dreher "/>
    <tag k="wheelchair" v="limited"/>
    <tag k="addr:city" v="Neu-Isenburg"/>
    <tag k="addr:postcode" v="63263"/>
    <tag k="addr:housenumber" v="50"/>
    <tag k="addr:street" v="Hermannstrasse"/>
    <tag k="wheelchair:description" v="Eingang und Ladengeschäft rollstuhlgerecht"/>
    <tag k="website" v="http://www.softairwelt.de"/>
    <tag k="phone" v="06102-798118"/>
  </node>
  <node id="-5085" version="0" timestamp="Fri Feb 24 10:53:37 +0100 2012" uid="1" user="" lat="50.05751" lon="8.88433">
    <tag k="name" v="Jahnstube"/>
    <tag k="wheelchair" v="yes"/>
    <tag k="addr:city" v="Rodgau"/>
    <tag k="addr:postcode" v="63110"/>
    <tag k="addr:housenumber" v="168"/>
    <tag k="addr:street" v="Hauptstraße "/>
    <tag k="wheelchair:description" v="Mit Biergarten und Rolligerechtem WC "/>
    <tag k="amenity" v="restaurant"/>
  </node>
  <node id="-5087" version="0" timestamp="Fri Feb 24 10:53:37 +0100 2012" uid="1" user="" lat="50.01768" lon="8.88534">
    <tag k="name" v="Bahnhof"/>
    <tag k="wheelchair" v="yes"/>
    <tag k="addr:city" v="Rodgau"/>
    <tag k="addr:postcode" v="63110"/>
    <tag k="addr:street" v="Bahnhofstrasse"/>
    <tag k="wheelchair:description" v="Bahnsteig über Rampen zu erreichen"/>
    <tag k="railway" v="platform"/>
  </node>
  <node id="-5088" version="0" timestamp="Fri Feb 24 10:53:37 +0100 2012" uid="1" user="" lat="50.0391563" lon="8.8757403">
    <tag k="name" v="Bahnhof Hainhause"/>
    <tag k="wheelchair" v="yes"/>
    <tag k="addr:city" v="Rodgau"/>
    <tag k="addr:postcode" v="63110"/>
    <tag k="addr:street" v="Rochusstrasse"/>
    <tag k="wheelchair:description" v="Bahnsteige über Rampen zu erreichen "/>
    <tag k="railway" v="platform"/>
  </node>
  <node id="-5154" version="0" timestamp="Fri Feb 24 10:53:37 +0100 2012" uid="1" user="" lat="50.00825" lon="8.88598">
    <tag k="name" v="Bürgerhaus Gaststätte"/>
    <tag k="wheelchair" v="yes"/>
    <tag k="addr:city" v="Rodgau"/>
    <tag k="addr:postcode" v="63110"/>
    <tag k="addr:housenumber" v="1"/>
    <tag k="addr:street" v="Georg-August-Zinn-Straße "/>
    <tag k="amenity" v="restaurant"/>
    <tag k="phone" v="+49610621325"/>
  </node>
  <node id="-5155" version="0" timestamp="Fri Feb 24 10:53:37 +0100 2012" uid="1" user="" lat="50.00825" lon="8.88598">
    <tag k="name" v="Bürgerhaus Dudenhofen"/>
    <tag k="wheelchair" v="yes"/>
    <tag k="addr:city" v="Rodgau"/>
    <tag k="addr:postcode" v="63110"/>
    <tag k="addr:housenumber" v="1"/>
    <tag k="addr:street" v="Georg-August-Zinn-Straße"/>
    <tag k="amenity" v="community_center"/>
  </node>
</osm>
