<?xml version='1.0' encoding='UTF-8'?>
<osm version="0.6" generator="Osmosis 0.39">
  <node id="-198" version="0" timestamp="Fri Feb 24 10:53:32 +0100 2012" uid="1" user="" lat="50.1047613" lon="8.7660055">
    <tag k="name" v="Städtische Sparkasse Offenbach"/>
    <tag k="wheelchair" v="yes"/>
    <tag k="wheelchair:description" v="Tür für Rollstuhlfahreröffnet sich zwar nur von innen, aber bei der zahlreichen Kundschaft kann man jemanden kurz um Hilfe bitten. Kleinere Rollstühle können auch die Drehtüren verwenden."/>
    <tag k="amenity" v="bank"/>
    <tag k="website" v="https://www.sparkasse-offenbach.de/privatkunden/index.php?n=%2Fprivatkunden%2F"/>
  </node>
  <node id="-383" version="0" timestamp="Fri Feb 24 10:53:32 +0100 2012" uid="1" user="" lat="50.1324889" lon="8.7979653">
    <tag k="name" v="Poststelle Rumpenheim Kiosk Plaun"/>
    <tag k="wheelchair" v="no"/>
    <tag k="amenity" v="post_office"/>
  </node>
  <node id="-384" version="0" timestamp="Fri Feb 24 10:53:32 +0100 2012" uid="1" user="" lat="50.1334258" lon="8.8007475">
    <tag k="name" v="Restaurant Zum Schiffchen"/>
    <tag k="wheelchair" v="no"/>
    <tag k="amenity" v="restaurant"/>
  </node>
  <node id="-386" version="0" timestamp="Fri Feb 24 10:53:32 +0100 2012" uid="1" user="" lat="50.1294516" lon="8.7970482">
    <tag k="name" v="Kinderarztpraxis Gründler&amp;Eckrich"/>
    <tag k="wheelchair" v="no"/>
    <tag k="amenity" v="doctors"/>
  </node>
  <node id="-387" version="0" timestamp="Fri Feb 24 10:53:32 +0100 2012" uid="1" user="" lat="50.1048999" lon="8.7622185">
    <tag k="shop" v="department_store"/>
    <tag k="name" v="Douglas"/>
    <tag k="wheelchair" v="no"/>
  </node>
  <node id="-391" version="0" timestamp="Fri Feb 24 10:53:32 +0100 2012" uid="1" user="" lat="50.1046886" lon="8.7626576">
    <tag k="shop" v="department_store"/>
    <tag k="name" v="Kaufhof"/>
    <tag k="wheelchair" v="yes"/>
  </node>
  <node id="-393" version="0" timestamp="Fri Feb 24 10:53:32 +0100 2012" uid="1" user="" lat="50.103462" lon="8.7640559">
    <tag k="shop" v="supermarket"/>
    <tag k="name" v="Aldi"/>
    <tag k="wheelchair" v="yes"/>
  </node>
  <node id="-394" version="0" timestamp="Fri Feb 24 10:53:32 +0100 2012" uid="1" user="" lat="50.1055221" lon="8.7625189">
    <tag k="shop" v="clothes"/>
    <tag k="name" v="C&amp;A"/>
    <tag k="wheelchair" v="yes"/>
  </node>
  <node id="-395" version="0" timestamp="Fri Feb 24 10:53:32 +0100 2012" uid="1" user="" lat="50.1047354" lon="8.7607631">
    <tag k="shop" v="optician"/>
    <tag k="name" v="Fielmann"/>
    <tag k="wheelchair" v="no"/>
  </node>
  <node id="-397" version="0" timestamp="Fri Feb 24 10:53:32 +0100 2012" uid="1" user="" lat="50.1328909" lon="8.795516">
    <tag k="name" v="Pakplatz Friedhof"/>
    <tag k="wheelchair" v="unknown"/>
    <tag k="amenity" v="bank"/>
  </node>
  <node id="-398" version="0" timestamp="Fri Feb 24 10:53:32 +0100 2012" uid="1" user="" lat="50.1313666" lon="8.7994189">
    <tag k="shop" v="bakery"/>
    <tag k="name" v="Bäckerei"/>
    <tag k="wheelchair" v="no"/>
  </node>
  <node id="-400" version="0" timestamp="Fri Feb 24 10:53:32 +0100 2012" uid="1" user="" lat="50.1301045" lon="8.7979197">
    <tag k="shop" v="dry_cleaning"/>
    <tag k="name" v="Chemische Reinigung"/>
    <tag k="wheelchair" v="unknown"/>
  </node>
  <node id="-401" version="0" timestamp="Fri Feb 24 10:53:32 +0100 2012" uid="1" user="" lat="50.1289001" lon="8.7997328">
    <tag k="shop" v="bakery"/>
    <tag k="name" v="Bäckerei Bildstein"/>
    <tag k="wheelchair" v="unknown"/>
  </node>
  <node id="-661" version="0" timestamp="Fri Feb 24 10:53:32 +0100 2012" uid="1" user="" lat="50.130926" lon="8.7987671">
    <tag k="shop" v="kiosk"/>
    <tag k="name" v="Kiosk"/>
    <tag k="wheelchair" v="no"/>
  </node>
  <node id="-662" version="0" timestamp="Fri Feb 24 10:53:32 +0100 2012" uid="1" user="" lat="50.1313598" lon="8.7994298">
    <tag k="shop" v="bakery"/>
    <tag k="name" v="Bäckerei"/>
    <tag k="wheelchair" v="no"/>
  </node>
  <node id="-663" version="0" timestamp="Fri Feb 24 10:53:32 +0100 2012" uid="1" user="" lat="50.1300945" lon="8.797885">
    <tag k="shop" v="dry_cleaning"/>
    <tag k="name" v="Chemische Reinigung"/>
    <tag k="wheelchair" v="unknown"/>
  </node>
  <node id="-666" version="0" timestamp="Fri Feb 24 10:53:32 +0100 2012" uid="1" user="" lat="50.1294572" lon="8.7971068">
    <tag k="name" v="Apotheke"/>
    <tag k="wheelchair" v="limited"/>
    <tag k="amenity" v="pharmacy"/>
  </node>
  <node id="-667" version="0" timestamp="Fri Feb 24 10:53:32 +0100 2012" uid="1" user="" lat="50.1294779" lon="8.7971459">
    <tag k="name" v="Kinderärzt Gründler&amp;Eckrich"/>
    <tag k="wheelchair" v="limited"/>
    <tag k="amenity" v="doctors"/>
  </node>
  <node id="-668" version="0" timestamp="Fri Feb 24 10:53:32 +0100 2012" uid="1" user="" lat="50.1324064" lon="8.7980083">
    <tag k="shop" v="kiosk"/>
    <tag k="name" v="Kiosk &amp; Poststelle Plaun"/>
    <tag k="wheelchair" v="no"/>
  </node>
  <node id="-669" version="0" timestamp="Fri Feb 24 10:53:32 +0100 2012" uid="1" user="" lat="50.1298172" lon="8.7985035">
    <tag k="name" v="VR Bank"/>
    <tag k="wheelchair" v="limited"/>
    <tag k="amenity" v="bank"/>
  </node>
  <node id="-670" version="0" timestamp="Fri Feb 24 10:53:32 +0100 2012" uid="1" user="" lat="50.1296205" lon="8.7973091">
    <tag k="name" v="Offenbacher Sparkasse"/>
    <tag k="wheelchair" v="limited"/>
    <tag k="amenity" v="bank"/>
  </node>
  <node id="-671" version="0" timestamp="Fri Feb 24 10:53:32 +0100 2012" uid="1" user="" lat="50.1296884" lon="8.7997723">
    <tag k="shop" v="bakery"/>
    <tag k="name" v="Bäckerei Bildstein"/>
    <tag k="wheelchair" v="no"/>
  </node>
  <node id="-672" version="0" timestamp="Fri Feb 24 10:53:32 +0100 2012" uid="1" user="" lat="50.1312426" lon="8.7992479">
    <tag k="shop" v="clothes"/>
    <tag k="name" v="Änderungsschneiderei"/>
    <tag k="wheelchair" v="limited"/>
  </node>
  <node id="-1597" version="0" timestamp="Fri Feb 24 10:53:33 +0100 2012" uid="1" user="" lat="50.1035096" lon="8.7614415">
    <tag k="name" v="Starbucks"/>
    <tag k="wheelchair" v="yes"/>
    <tag k="amenity" v="cafe"/>
  </node>
  <node id="-1598" version="0" timestamp="Fri Feb 24 10:53:33 +0100 2012" uid="1" user="" lat="50.1037904" lon="8.761261">
    <tag k="name" v="Swiss Break"/>
    <tag k="wheelchair" v="yes"/>
    <tag k="amenity" v="restaurant"/>
  </node>
  <node id="-1599" version="0" timestamp="Fri Feb 24 10:53:33 +0100 2012" uid="1" user="" lat="50.1037934" lon="8.7615175">
    <tag k="name" v="tre secondi"/>
    <tag k="wheelchair" v="yes"/>
    <tag k="amenity" v="fast_food"/>
  </node>
  <node id="-1600" version="0" timestamp="Fri Feb 24 10:53:33 +0100 2012" uid="1" user="" lat="50.1036864" lon="8.7607244">
    <tag k="shop" v="books"/>
    <tag k="name" v="Thalia"/>
    <tag k="wheelchair" v="yes"/>
  </node>
  <node id="-1601" version="0" timestamp="Fri Feb 24 10:53:33 +0100 2012" uid="1" user="" lat="50.1041656" lon="8.7630927">
    <tag k="name" v="Nordsee"/>
    <tag k="wheelchair" v="yes"/>
    <tag k="amenity" v="fast_food"/>
  </node>
  <node id="-1602" version="0" timestamp="Fri Feb 24 10:53:33 +0100 2012" uid="1" user="" lat="50.1036086" lon="8.7614336">
    <tag k="shop" v="computer"/>
    <tag k="name" v="Gamestop"/>
    <tag k="wheelchair" v="yes"/>
  </node>
  <node id="-1603" version="0" timestamp="Fri Feb 24 10:53:33 +0100 2012" uid="1" user="" lat="50.1035997" lon="8.7615212">
    <tag k="shop" v="supermarket"/>
    <tag k="name" v="tegut"/>
    <tag k="wheelchair" v="yes"/>
  </node>
  <node id="-1752" version="0" timestamp="Fri Feb 24 10:53:33 +0100 2012" uid="1" user="" lat="50.1035037" lon="8.7614342">
    <tag k="shop" v="clothes"/>
    <tag k="name" v="Jack Wolfskin"/>
    <tag k="wheelchair" v="yes"/>
  </node>
  <node id="-1753" version="0" timestamp="Fri Feb 24 10:53:33 +0100 2012" uid="1" user="" lat="50.1034105" lon="8.7610062">
    <tag k="shop" v="department_store"/>
    <tag k="name" v="Müller"/>
    <tag k="wheelchair" v="yes"/>
  </node>
  <node id="-1754" version="0" timestamp="Fri Feb 24 10:53:33 +0100 2012" uid="1" user="" lat="50.1008314" lon="8.7658313">
    <tag k="shop" v="supermarket"/>
    <tag k="name" v="Norma"/>
    <tag k="wheelchair" v="yes"/>
  </node>
  <node id="-3306" version="0" timestamp="Fri Feb 24 10:53:35 +0100 2012" uid="1" user="" lat="50.1048711" lon="8.7625492">
    <tag k="shop" v="clothes"/>
    <tag k="name" v="1982"/>
    <tag k="wheelchair" v="yes"/>
  </node>
  <node id="-5405" version="0" timestamp="Fri Feb 24 10:53:37 +0100 2012" uid="1" user="" lat="50.10498" lon="8.76551">
    <tag k="name" v="Santander Consumer Bank"/>
    <tag k="wheelchair" v="limited"/>
    <tag k="addr:city" v="Offenbach"/>
    <tag k="addr:postcode" v="63065"/>
    <tag k="addr:housenumber" v="14"/>
    <tag k="addr:street" v="Marktplatz"/>
    <tag k="amenity" v="bank"/>
    <tag k="website" v="http://www.santander.de"/>
  </node>
</osm>
