<?xml version='1.0' encoding='UTF-8'?>
<osm version="0.6" generator="Osmosis 0.39">
  <node id="-644" version="0" timestamp="Fri Feb 24 10:53:32 +0100 2012" uid="1" user="" lat="50.1233128" lon="7.9436238">
    <tag k="name" v="DGH Dickschied"/>
    <tag k="wheelchair" v="yes"/>
    <tag k="addr:city" v="Heidenrod"/>
    <tag k="addr:postcode" v="65321"/>
    <tag k="addr:housenumber" v="2"/>
    <tag k="addr:street" v="Am Dorfgemeinschaftshaus"/>
    <tag k="wheelchair:description" v="Parkplätze, Eingänge, Ausgänge, Toiletten"/>
    <tag k="amenity" v="townhall"/>
    <tag k="website" v="http://www.heidenrod.de"/>
  </node>
  <node id="-937" version="0" timestamp="Fri Feb 24 10:53:33 +0100 2012" uid="1" user="" lat="50.2232112" lon="8.2547793">
    <tag k="shop" v="supermarket"/>
    <tag k="name" v="EDEKA Markt Georg"/>
    <tag k="wheelchair" v="yes"/>
    <tag k="addr:city" v="Idstein"/>
    <tag k="addr:postcode" v="65510"/>
    <tag k="addr:housenumber" v="1"/>
    <tag k="addr:street" v="Weldertstraße"/>
    <tag k="website" v="http://www.edeka-georg.de"/>
    <tag k="phone" v="+49 6126 95952-0"/>
  </node>
  <node id="-2417" version="0" timestamp="Fri Feb 24 10:53:34 +0100 2012" uid="1" user="" lat="50.0526139" lon="8.0973332">
    <tag k="name" v="Waldgaststätte Rausch"/>
    <tag k="wheelchair" v="limited"/>
    <tag k="wheelchair:description" v="Nur Außenanlage im Sommer!! "/>
    <tag k="amenity" v="restaurant"/>
  </node>
  <node id="-4290" version="0" timestamp="Fri Feb 24 10:53:36 +0100 2012" uid="1" user="" lat="50.18926" lon="8.12218">
    <tag k="shop" v="hairdresser"/>
    <tag k="name" v="Karo&apos;s Kopfkunst"/>
    <tag k="wheelchair" v="yes"/>
    <tag k="addr:city" v="Hohenstein"/>
    <tag k="addr:postcode" v="65329"/>
    <tag k="addr:housenumber" v="11"/>
    <tag k="addr:street" v="Heimannstraße"/>
    <tag k="wheelchair:description" v="Extra für Rollstuhlfahrer umgebauter Eingangsbereich"/>
    <tag k="website" v="http://www.karos-kopfkunst.de"/>
    <tag k="phone" v="06128 - 85 94 676"/>
  </node>
  <node id="-4757" version="0" timestamp="Fri Feb 24 10:53:36 +0100 2012" uid="1" user="" lat="50.22034" lon="8.26889">
    <tag k="name" v="Behinderten Toilette Löhrplatz"/>
    <tag k="wheelchair" v="yes"/>
    <tag k="wheelchair:description" v="mit LOCUS Euroschlüssel zu öffnen"/>
    <tag k="amenity" v="toilets"/>
  </node>
  <node id="-4976" version="0" timestamp="Fri Feb 24 10:53:36 +0100 2012" uid="1" user="" lat="50.2199456" lon="8.2685014">
    <tag k="name" v="Toilette"/>
    <tag k="wheelchair" v="yes"/>
    <tag k="wheelchair:description" v="mit Euro Schlüssel"/>
    <tag k="amenity" v="toilets"/>
  </node>
  <node id="-4978" version="0" timestamp="Fri Feb 24 10:53:36 +0100 2012" uid="1" user="" lat="50.2178006" lon="8.2660613">
    <tag k="name" v="Physiotherapie Praxis"/>
    <tag k="wheelchair" v="yes"/>
    <tag k="wheelchair:description" v="Parkplatz vor der Tür"/>
    <tag k="amenity" v="doctors"/>
  </node>
</osm>
