<?xml version='1.0' encoding='UTF-8'?>
<osm version="0.6" generator="Osmosis 0.39">
  <node id="-52" version="0" timestamp="Fri Feb 24 10:53:32 +0100 2012" uid="1" user="" lat="50.6711784" lon="9.5660367">
    <tag k="name" v="Ökonomiegebäude der Landesmusikakademie Hessen"/>
    <tag k="wheelchair" v="yes"/>
    <tag k="addr:city" v="Schltiz"/>
    <tag k="addr:postcode" v="36110"/>
    <tag k="addr:housenumber" v="4"/>
    <tag k="addr:street" v="Gräfin-Anna-Straße"/>
    <tag k="wheelchair:description" v="Barrierefreier Konzertsaal"/>
    <tag k="website" v="http://www.landesmusikakademie-hessen.de"/>
    <tag k="phone" v="+49 6642 9113 0"/>
  </node>
  <node id="-54" version="0" timestamp="Fri Feb 24 10:53:32 +0100 2012" uid="1" user="" lat="50.6754594" lon="9.5598833">
    <tag k="name" v="Praxis für Krankengymnastik und Sportrehabilitation &quot;Ulrich Niepoth&quot;"/>
    <tag k="wheelchair" v="yes"/>
    <tag k="addr:city" v="Schlitz"/>
    <tag k="addr:postcode" v="36110"/>
    <tag k="addr:housenumber" v="2b"/>
    <tag k="addr:street" v="Ringmauer"/>
    <tag k="amenity" v="doctors"/>
    <tag k="website" v="http://www.krankengymnastik-niepoth.de/"/>
    <tag k="phone" v="+49 6642 918081"/>
  </node>
  <node id="-3426" version="0" timestamp="Fri Feb 24 10:53:35 +0100 2012" uid="1" user="" lat="50.6319238" lon="9.5843149">
    <tag k="shop" v="department_store"/>
    <tag k="name" v="REHA Group Automotive GmbH &amp; Co. KG"/>
    <tag k="wheelchair" v="yes"/>
    <tag k="addr:city" v="Schlitz - Hartershausen"/>
    <tag k="addr:postcode" v="36110"/>
    <tag k="addr:housenumber" v="29"/>
    <tag k="addr:street" v="Fuldaerstr."/>
    <tag k="website" v="http://www.reha.com"/>
    <tag k="phone" v="06642-919170"/>
  </node>
</osm>
