<?xml version='1.0' encoding='UTF-8'?>
<osm version="0.6" generator="Osmosis 0.39">
  <node id="-430" version="0" timestamp="Fri Feb 24 10:53:32 +0100 2012" uid="1" user="" lat="51.0612189" lon="8.8034287">
    <tag k="name" v="Finanzamt"/>
    <tag k="wheelchair" v="unknown"/>
    <tag k="addr:city" v="Frankenberg (Eder)"/>
    <tag k="addr:postcode" v="35066"/>
    <tag k="addr:street" v="Geismarer Str."/>
    <tag k="wheelchair:description" v="incl. WC"/>
  </node>
  <node id="-487" version="0" timestamp="Fri Feb 24 10:53:32 +0100 2012" uid="1" user="" lat="51.3816328" lon="9.000446">
    <tag k="name" v="Zahnarztpraxis Markus Trost"/>
    <tag k="wheelchair" v="yes"/>
    <tag k="addr:city" v="Bad Arolsen"/>
    <tag k="addr:postcode" v="34454"/>
    <tag k="addr:housenumber" v="93"/>
    <tag k="addr:street" v="Bahnhofstraße"/>
    <tag k="amenity" v="doctors"/>
    <tag k="website" v="http://www.zahnarztpraxis-trost.de"/>
    <tag k="phone" v="+49 5691 62 44 60"/>
  </node>
  <node id="-1503" version="0" timestamp="Fri Feb 24 10:53:33 +0100 2012" uid="1" user="" lat="51" lon="9">
    <tag k="name" v="Dorint Hotel Sanssouci Berlin/Potsdam"/>
    <tag k="wheelchair" v="yes"/>
    <tag k="addr:city" v="Potsdam"/>
    <tag k="addr:postcode" v="14469"/>
    <tag k="addr:housenumber" v="20"/>
    <tag k="tourism" v="hotel"/>
    <tag k="addr:street" v="Jägeralle"/>
    <tag k="website" v="http://www.dorint.com/potsdam"/>
    <tag k="phone" v="+49 331 274 0"/>
  </node>
  <node id="-2220" version="0" timestamp="Fri Feb 24 10:53:34 +0100 2012" uid="1" user="" lat="51.1195759" lon="9.1227541">
    <tag k="name" v="Mehrgenerationenhaus"/>
    <tag k="wheelchair" v="yes"/>
    <tag k="addr:city" v="Bad Wildungen"/>
    <tag k="addr:postcode" v="34537"/>
    <tag k="addr:housenumber" v="9"/>
    <tag k="addr:street" v="Kirchplatz"/>
    <tag k="website" v="http://www.mgh-bad-wildungen.de"/>
    <tag k="phone" v="05621-9695950"/>
  </node>
  <node id="-2222" version="0" timestamp="Fri Feb 24 10:53:34 +0100 2012" uid="1" user="" lat="51.1202629" lon="9.1242779">
    <tag k="name" v="Altstadtbüro"/>
    <tag k="wheelchair" v="no"/>
    <tag k="addr:city" v="Bad Wildungen"/>
    <tag k="addr:postcode" v="34537"/>
    <tag k="addr:housenumber" v="10"/>
    <tag k="addr:street" v="Lindenstraße"/>
    <tag k="wheelchair:description" v="Zur Kontaktaufnahme bitte anrufen"/>
    <tag k="website" v="http://www.altstadtverein-bad-wildungen.de"/>
    <tag k="phone" v="05621-966330"/>
  </node>
  <node id="-3095" version="0" timestamp="Fri Feb 24 10:53:35 +0100 2012" uid="1" user="" lat="51.2737176" lon="8.8698812">
    <tag k="name" v="Jugendhaus"/>
    <tag k="wheelchair" v="yes"/>
    <tag k="addr:city" v="Korbach"/>
    <tag k="addr:postcode" v="34497"/>
    <tag k="addr:housenumber" v="20"/>
    <tag k="addr:street" v="Kirchstraße"/>
    <tag k="wheelchair:description" v="Eingang vom Ascher erreichbar"/>
    <tag k="amenity" v="gallery"/>
    <tag k="website" v="http://www.korbach.de"/>
    <tag k="phone" v="05631 53950"/>
  </node>
  <node id="-4069" version="0" timestamp="Fri Feb 24 10:53:36 +0100 2012" uid="1" user="" lat="51" lon="9">
    <tag k="name" v="Café Zeppenfeld"/>
    <tag k="wheelchair" v="yes"/>
    <tag k="addr:city" v="Olpe"/>
    <tag k="addr:postcode" v="57462"/>
    <tag k="addr:housenumber" v="6"/>
    <tag k="addr:street" v="Hospitalweg "/>
    <tag k="amenity" v="cafe"/>
    <tag k="phone" v="02761-852373"/>
  </node>
  <node id="-4346" version="0" timestamp="Fri Feb 24 10:53:36 +0100 2012" uid="1" user="" lat="51.2660722" lon="8.8426738">
    <tag k="name" v="Kanzlei Gebhardt"/>
    <tag k="wheelchair" v="yes"/>
    <tag k="addr:city" v="Korbach"/>
    <tag k="addr:postcode" v="34497"/>
    <tag k="addr:housenumber" v="14"/>
    <tag k="addr:street" v="Bahnhofstraße"/>
    <tag k="website" v="http://www.rechtsanwaeltin-gebhardt.info"/>
    <tag k="phone" v="05631/5016960"/>
    <tag k="office" v="lawyer"/>
  </node>
  <node id="-4354" version="0" timestamp="Fri Feb 24 10:53:36 +0100 2012" uid="1" user="" lat="51" lon="9">
    <tag k="name" v="Anwaltskanzlei Riedel"/>
    <tag k="wheelchair" v="limited"/>
    <tag k="addr:city" v="Baden-Baden"/>
    <tag k="addr:postcode" v="76532"/>
    <tag k="addr:housenumber" v="22"/>
    <tag k="addr:street" v="Gewerbepark-Cité"/>
    <tag k="wheelchair:description" v="Barrierefreie Zufahrt für Rollstuhlfahrer möglich. Die Kanzlei ist im ersten Stockwerk eines Büro- und Gewerbegebäudes. Die Zufahrt erfolgt über einen stufenlosen Eingang und und einen Aufzug. Von der Eingangstür bis in die Kanzleiräume sind keine Stufen."/>
    <tag k="website" v="http://www.kanzlei-riedel.de"/>
    <tag k="phone" v="+49 7221 992900"/>
    <tag k="office" v="lawyer"/>
  </node>
  <node id="-4695" version="0" timestamp="Fri Feb 24 10:53:36 +0100 2012" uid="1" user="" lat="51.1263811" lon="9.1013014">
    <tag k="name" v="Waffelhaus / Waffelkönigin"/>
    <tag k="wheelchair" v="yes"/>
    <tag k="addr:city" v="Bad Wildungen"/>
    <tag k="addr:postcode" v="34537"/>
    <tag k="addr:housenumber" v="67"/>
    <tag k="addr:street" v="Bilsteinstraße"/>
    <tag k="amenity" v="restaurant"/>
    <tag k="website" v="http://www.waffelhaus.de"/>
    <tag k="phone" v="+49 1805 923335"/>
  </node>
  <node id="-5325" version="0" timestamp="Fri Feb 24 10:53:37 +0100 2012" uid="1" user="" lat="51" lon="9">
    <tag k="name" v="Deadcatmedia"/>
    <tag k="wheelchair" v="yes"/>
    <tag k="addr:city" v="Bochum"/>
    <tag k="addr:postcode" v="44866"/>
    <tag k="addr:housenumber" v="5"/>
    <tag k="addr:street" v="Josef-Hauann-straße"/>
    <tag k="website" v="http://www.deadcatmedia.de/"/>
    <tag k="phone" v="02327 83 76 25"/>
    <tag k="office" v="company"/>
  </node>
  <node id="-5326" version="0" timestamp="Fri Feb 24 10:53:37 +0100 2012" uid="1" user="" lat="51" lon="9">
    <tag k="name" v="Kammerspie"/>
    <tag k="wheelchair" v="no"/>
    <tag k="addr:city" v="Bochum"/>
    <tag k="addr:postcode" v="44789 "/>
    <tag k="addr:housenumber" v="15"/>
    <tag k="addr:street" v="Königsallee "/>
    <tag k="amenity" v="theatre"/>
    <tag k="website" v="http://www.boropa.de/de_DE/contact"/>
    <tag k="phone" v="0234 / 33 33 55 55"/>
  </node>
  <node id="-5681" version="0" timestamp="Fri Feb 24 10:53:37 +0100 2012" uid="1" user="" lat="50.96861" lon="8.99418">
    <tag k="name" v="Lux-Kinos Frankenthal"/>
    <tag k="wheelchair" v="limited"/>
    <tag k="addr:city" v="Frankenthal"/>
    <tag k="addr:postcode" v="67227"/>
    <tag k="addr:housenumber" v="7-9"/>
    <tag k="addr:street" v="August-Bebel-Straße"/>
    <tag k="wheelchair:description" v="Toiletten und erster Stock NICHT rollstuhlgerecht!"/>
    <tag k="amenity" v="cinema"/>
    <tag k="website" v="http://www.lux-kinos.de"/>
    <tag k="phone" v="+49 6233 27110"/>
  </node>
</osm>
