<?xml version='1.0' encoding='UTF-8'?>
<osm version="0.6" generator="Osmosis 0.39">
  <node id="-715" version="0" timestamp="Fri Feb 24 10:53:32 +0100 2012" uid="1" user="" lat="51.3400506" lon="9.8663764">
    <tag k="name" v="Berufliche Schulen Witzenhausen"/>
    <tag k="wheelchair" v="yes"/>
    <tag k="addr:city" v="Witzenhausen"/>
    <tag k="addr:housenumber" v="33"/>
    <tag k="addr:street" v="Südbahnhofstraße"/>
    <tag k="amenity" v="school"/>
    <tag k="website" v="http://www.bs-witzenhausen.de"/>
  </node>
  <node id="-716" version="0" timestamp="Fri Feb 24 10:53:32 +0100 2012" uid="1" user="" lat="51.2955697" lon="9.8540217">
    <tag k="name" v="Grüner See"/>
    <tag k="wheelchair" v="no"/>
    <tag k="amenity" v="swimming_pool"/>
  </node>
  <node id="-717" version="0" timestamp="Fri Feb 24 10:53:32 +0100 2012" uid="1" user="" lat="51.2572573" lon="9.7720136">
    <tag k="shop" v="supermarket"/>
    <tag k="name" v="Netto"/>
    <tag k="wheelchair" v="limited"/>
  </node>
  <node id="-1700" version="0" timestamp="Fri Feb 24 10:53:33 +0100 2012" uid="1" user="" lat="51.2078693" lon="10.0700264">
    <tag k="name" v="Europa-Akademie"/>
    <tag k="wheelchair" v="yes"/>
    <tag k="addr:city" v="Meinhard-Grebendorf"/>
    <tag k="addr:postcode" v="37276"/>
    <tag k="addr:housenumber" v="1"/>
    <tag k="addr:street" v="Kochsberg"/>
    <tag k="amenity" v="restaurant"/>
    <tag k="phone" v="+495651 3394060"/>
  </node>
</osm>
