<?xml version='1.0' encoding='UTF-8'?>
<osm version="0.6" generator="Osmosis 0.39">
  <node id="-490" version="0" timestamp="Fri Feb 24 10:53:32 +0100 2012" uid="1" user="" lat="50.33585" lon="8.75701">
    <tag k="name" v="Pastis"/>
    <tag k="wheelchair" v="no"/>
    <tag k="amenity" v="cafe"/>
  </node>
  <node id="-491" version="0" timestamp="Fri Feb 24 10:53:32 +0100 2012" uid="1" user="" lat="50.33578" lon="8.75803">
    <tag k="name" v="Commerzbank"/>
    <tag k="wheelchair" v="no"/>
    <tag k="amenity" v="bank"/>
  </node>
  <node id="-1156" version="0" timestamp="Fri Feb 24 10:53:33 +0100 2012" uid="1" user="" lat="50.4154" lon="8.98111">
    <tag k="name" v="Justus von Liebig Therme"/>
    <tag k="wheelchair" v="yes"/>
    <tag k="wheelchair:description" v="behindertengerechte/r Eingang, Toiletten, Umkleide, Dusche, Rollstühle und Rollatoren zum Ausleihen"/>
    <tag k="amenity" v="swimming_pool"/>
  </node>
  <node id="-1158" version="0" timestamp="Fri Feb 24 10:53:33 +0100 2012" uid="1" user="" lat="50.4154" lon="8.98484">
    <tag k="name" v="Kurpark Bad Salzhausen"/>
    <tag k="wheelchair" v="yes"/>
    <tag k="tourism" v="attraction"/>
    <tag k="wheelchair:description" v="rollstuhlfähige Wege, Behindertentoiletten"/>
  </node>
  <node id="-1638" version="0" timestamp="Fri Feb 24 10:53:33 +0100 2012" uid="1" user="" lat="50.18074" lon="8.74062">
    <tag k="shop" v="electronics"/>
    <tag k="name" v="o2 Shop"/>
    <tag k="wheelchair" v="yes"/>
    <tag k="addr:city" v="Bad Vilbel"/>
    <tag k="addr:postcode" v="61118"/>
    <tag k="addr:housenumber" v="84"/>
    <tag k="addr:street" v="Frankfurter Str."/>
    <tag k="phone" v="http://www.o2shop-badvilbel.de"/>
  </node>
  <node id="-1639" version="0" timestamp="Fri Feb 24 10:53:33 +0100 2012" uid="1" user="" lat="50.18074" lon="8.74062">
    <tag k="shop" v="electronics"/>
    <tag k="name" v="Vodafone Shop"/>
    <tag k="wheelchair" v="no"/>
    <tag k="addr:city" v="Bad Vilbel"/>
    <tag k="addr:postcode" v="61118"/>
    <tag k="addr:housenumber" v="82"/>
    <tag k="addr:street" v="Frankfurter Str."/>
  </node>
  <node id="-1641" version="0" timestamp="Fri Feb 24 10:53:33 +0100 2012" uid="1" user="" lat="50.18095" lon="8.74132">
    <tag k="shop" v="hairdresser"/>
    <tag k="name" v="Intercoiffure Horinek"/>
    <tag k="wheelchair" v="limited"/>
    <tag k="addr:city" v="Bad Vilbel"/>
    <tag k="addr:postcode" v="61118"/>
    <tag k="addr:housenumber" v="84"/>
    <tag k="addr:street" v="Frankfurter Str."/>
    <tag k="website" v="http://www.intercoiffure-horinek.de"/>
  </node>
</osm>
