<?xml version='1.0' encoding='UTF-8'?>
<osm version="0.6" generator="Osmosis 0.39">
  <node id="-116" version="0" timestamp="Fri Feb 24 10:53:32 +0100 2012" uid="1" user="" lat="50.0581269" lon="8.2205382">
    <tag k="name" v="Friedrich-von-Bodelschwingh-Schule"/>
    <tag k="wheelchair" v="yes"/>
    <tag k="addr:city" v="Wiesbaden"/>
    <tag k="addr:postcode" v="65187"/>
    <tag k="addr:housenumber" v="12"/>
    <tag k="addr:street" v="Pörtschacher Straße"/>
    <tag k="wheelchair:description" v="Schule für Körperbehinderte"/>
    <tag k="amenity" v="school"/>
    <tag k="website" v="http://bodelschwinghschule.info"/>
    <tag k="phone" v="06115410710"/>
  </node>
  <node id="-118" version="0" timestamp="Fri Feb 24 10:53:32 +0100 2012" uid="1" user="" lat="50.0613852" lon="8.2172026">
    <tag k="shop" v="supermarket"/>
    <tag k="name" v="Rewe"/>
    <tag k="wheelchair" v="yes"/>
    <tag k="addr:city" v="Wiesbaden"/>
    <tag k="addr:postcode" v="65187"/>
    <tag k="addr:housenumber" v="70"/>
    <tag k="addr:street" v="Erich-Ollenhauer-Sraße"/>
    <tag k="phone" v="06111745453"/>
  </node>
  <node id="-119" version="0" timestamp="Fri Feb 24 10:53:32 +0100 2012" uid="1" user="" lat="50.0598785" lon="8.2198294">
    <tag k="shop" v="beverages"/>
    <tag k="name" v="Rewe-Getränkemarkt"/>
    <tag k="wheelchair" v="limited"/>
    <tag k="addr:city" v="Wiesbaden"/>
    <tag k="addr:postcode" v="65187"/>
    <tag k="addr:housenumber" v="89"/>
    <tag k="addr:street" v="Klagenfurter Ring"/>
    <tag k="phone" v="0611986370"/>
  </node>
  <node id="-120" version="0" timestamp="Fri Feb 24 10:53:32 +0100 2012" uid="1" user="" lat="50.0561991" lon="8.2231487">
    <tag k="shop" v="bakery"/>
    <tag k="name" v="Gerhard Pfennig"/>
    <tag k="wheelchair" v="no"/>
    <tag k="addr:city" v="Wiesbaden"/>
    <tag k="addr:postcode" v="65187"/>
    <tag k="addr:housenumber" v="1"/>
    <tag k="addr:street" v="Faaker Straße"/>
    <tag k="phone" v="0611846648"/>
  </node>
  <node id="-1220" version="0" timestamp="Fri Feb 24 10:53:33 +0100 2012" uid="1" user="" lat="50.0476061" lon="8.2409014">
    <tag k="name" v="Mund´s"/>
    <tag k="wheelchair" v="yes"/>
    <tag k="wheelchair:description" v="ebenerdig"/>
    <tag k="amenity" v="restaurant"/>
  </node>
  <node id="-1221" version="0" timestamp="Fri Feb 24 10:53:33 +0100 2012" uid="1" user="" lat="50.0502211" lon="8.2359306">
    <tag k="name" v="Sängerheim"/>
    <tag k="wheelchair" v="limited"/>
    <tag k="wheelchair:description" v="Nur im Garten/Wintergarten ebenerdig auch sehr eng!"/>
    <tag k="amenity" v="restaurant"/>
  </node>
  <node id="-1226" version="0" timestamp="Fri Feb 24 10:53:33 +0100 2012" uid="1" user="" lat="50.0427" lon="8.19482">
    <tag k="name" v="Arche Noah"/>
    <tag k="wheelchair" v="yes"/>
    <tag k="amenity" v="restaurant"/>
  </node>
  <node id="-1227" version="0" timestamp="Fri Feb 24 10:53:33 +0100 2012" uid="1" user="" lat="50.0419903" lon="8.1968478">
    <tag k="name" v="Arche Noah"/>
    <tag k="wheelchair" v="yes"/>
    <tag k="amenity" v="restaurant"/>
  </node>
  <node id="-1235" version="0" timestamp="Fri Feb 24 10:53:33 +0100 2012" uid="1" user="" lat="50.0565036" lon="8.2307003">
    <tag k="name" v="Lohmühle"/>
    <tag k="wheelchair" v="yes"/>
    <tag k="wheelchair:description" v="Seiteneingang barrierefrei"/>
    <tag k="amenity" v="restaurant"/>
  </node>
  <node id="-1502" version="0" timestamp="Fri Feb 24 10:53:33 +0100 2012" uid="1" user="" lat="50.08114" lon="8.23046">
    <tag k="name" v="Hepa Cafe"/>
    <tag k="wheelchair" v="yes"/>
    <tag k="addr:city" v="Wiesbaden"/>
    <tag k="addr:street" v="Kleine Schwalbacher Straße"/>
    <tag k="wheelchair:description" v="Keine Stufen, Behindertentoilette vorhanden"/>
    <tag k="amenity" v="cafe"/>
    <tag k="website" v="http://hepakaffee.de"/>
  </node>
  <node id="-1673" version="0" timestamp="Fri Feb 24 10:53:33 +0100 2012" uid="1" user="" lat="50.0883184" lon="8.2409354">
    <tag k="name" v="Brown Sugar"/>
    <tag k="wheelchair" v="no"/>
    <tag k="addr:city" v="Wiesbaden"/>
    <tag k="addr:postcode" v="65183"/>
    <tag k="addr:housenumber" v="41"/>
    <tag k="addr:street" v="Taunusstraße"/>
    <tag k="wheelchair:description" v="liegt im 1.OG ohne Aufzug"/>
    <tag k="amenity" v="bar"/>
  </node>
  <node id="-4104" version="0" timestamp="Fri Feb 24 10:53:36 +0100 2012" uid="1" user="" lat="50.0833" lon="8.25">
    <tag k="shop" v="hairdresser"/>
    <tag k="name" v="Karo&apos;s Kopfkunst"/>
    <tag k="wheelchair" v="yes"/>
    <tag k="addr:city" v="Hohenstein"/>
    <tag k="addr:postcode" v="65329"/>
    <tag k="addr:housenumber" v="11"/>
    <tag k="addr:street" v="Heimannstraße"/>
    <tag k="wheelchair:description" v="Rollstuhlgerecht Salon mit Rollstuhl befahrbar"/>
    <tag k="website" v="http://www.karos-kopfkunst.de"/>
    <tag k="phone" v="06128 - 85 94 676"/>
  </node>
  <node id="-4124" version="0" timestamp="Fri Feb 24 10:53:36 +0100 2012" uid="1" user="" lat="50.0860346" lon="8.2407852">
    <tag k="name" v="Renio &amp; Clark"/>
    <tag k="wheelchair" v="limited"/>
    <tag k="addr:city" v="Wiesbaden"/>
    <tag k="addr:postcode" v="65183"/>
    <tag k="addr:housenumber" v="16"/>
    <tag k="addr:street" v="Saalgasse "/>
    <tag k="amenity" v="gallery"/>
    <tag k="website" v="http://www.renioclark.de"/>
    <tag k="phone" v="+49 611 5410298"/>
  </node>
  <node id="-4163" version="0" timestamp="Fri Feb 24 10:53:36 +0100 2012" uid="1" user="" lat="50.0786207" lon="8.2360943">
    <tag k="name" v="Bürgerbüro Wiesbaden"/>
    <tag k="wheelchair" v="limited"/>
    <tag k="wheelchair:description" v="Ebenerdig, keine Stufen, Fahrstuhl, jedoch kein WC"/>
  </node>
  <node id="-4164" version="0" timestamp="Fri Feb 24 10:53:36 +0100 2012" uid="1" user="" lat="50.0975204" lon="8.2162876">
    <tag k="name" v=" Haus D Medieninformatik"/>
    <tag k="wheelchair" v="limited"/>
    <tag k="addr:city" v="Wiesbaden"/>
    <tag k="addr:postcode" v="65195 "/>
    <tag k="addr:housenumber" v="5"/>
    <tag k="addr:street" v="Unter den Eichen"/>
    <tag k="wheelchair:description" v="nicht alle Räume barrierefrei erreichbar"/>
    <tag k="amenity" v="college"/>
    <tag k="website" v="http://www.hs-rm.de/dcsm/studiengaenge/medieninformatik-bsc/index.html"/>
  </node>
  <node id="-4608" version="0" timestamp="Fri Feb 24 10:53:36 +0100 2012" uid="1" user="" lat="50.0753569" lon="8.2285231">
    <tag k="shop" v="hairdresser"/>
    <tag k="name" v="Haarschneiderei"/>
    <tag k="wheelchair" v="no"/>
    <tag k="addr:city" v="Wiesbaden"/>
    <tag k="addr:postcode" v="65197"/>
    <tag k="addr:housenumber" v="16"/>
    <tag k="addr:street" v="Rüdesheimer Straße"/>
    <tag k="wheelchair:description" v="Mehrstufige Treppen"/>
    <tag k="website" v="http://www.haarschneiderei.tv/"/>
    <tag k="phone" v="0611 801398"/>
  </node>
  <node id="-4610" version="0" timestamp="Fri Feb 24 10:53:36 +0100 2012" uid="1" user="" lat="50.0755146" lon="8.2308554">
    <tag k="shop" v="kiosk"/>
    <tag k="name" v="Jacksons Kiosk"/>
    <tag k="wheelchair" v="no"/>
    <tag k="addr:city" v="Wiesbaden"/>
    <tag k="addr:postcode" v="65185"/>
    <tag k="addr:housenumber" v="22"/>
    <tag k="addr:street" v="Kaiser-Friedrich-Ring"/>
    <tag k="wheelchair:description" v="niedrige Stufe und schwere Tür, mit Hilfe möglich"/>
    <tag k="phone" v="0611 3086150"/>
  </node>
  <node id="-4612" version="0" timestamp="Fri Feb 24 10:53:36 +0100 2012" uid="1" user="" lat="50.073978" lon="8.2324009">
    <tag k="shop" v="kiosk"/>
    <tag k="name" v="Bozan Cetiner Kiosk"/>
    <tag k="wheelchair" v="no"/>
    <tag k="addr:city" v="Wiesbaden"/>
    <tag k="addr:postcode" v="65185"/>
    <tag k="addr:housenumber" v="38"/>
    <tag k="addr:street" v="Kaiser-Friedrich-Ring"/>
    <tag k="wheelchair:description" v="Schwere Tür und sehr schmaler Eingang"/>
    <tag k="phone" v="(06 11) 3 36 89 30"/>
  </node>
  <node id="-5423" version="0" timestamp="Fri Feb 24 10:53:37 +0100 2012" uid="1" user="" lat="50.0755" lon="8.20974">
    <tag k="name" v="Santander Consumer Bank"/>
    <tag k="wheelchair" v="limited"/>
    <tag k="addr:city" v="Wiesbaden"/>
    <tag k="addr:postcode" v="65185"/>
    <tag k="addr:housenumber" v="12"/>
    <tag k="addr:street" v="Dotzheimer Straße "/>
    <tag k="amenity" v="bank"/>
    <tag k="website" v="http://www.santander.de"/>
  </node>
  <node id="-5589" version="0" timestamp="Fri Feb 24 10:53:37 +0100 2012" uid="1" user="" lat="50.069686" lon="8.2251343">
    <tag k="name" v="Leib und Seele"/>
    <tag k="wheelchair" v="yes"/>
    <tag k="addr:city" v="Wiesbaden"/>
    <tag k="addr:postcode" v="65197"/>
    <tag k="addr:housenumber" v="2a"/>
    <tag k="addr:street" v="Willy-Brandt-Allee"/>
    <tag k="wheelchair:description" v="Aufzug und Behinderten-WC vorhanden"/>
    <tag k="amenity" v="restaurant"/>
    <tag k="website" v="http://www.wiesbaden-leibundseele.de"/>
    <tag k="phone" v="+49 611 9889222"/>
  </node>
  <node id="-5590" version="0" timestamp="Fri Feb 24 10:53:37 +0100 2012" uid="1" user="" lat="50.0689877" lon="8.2298299">
    <tag k="name" v="Walters Futtergrippe"/>
    <tag k="wheelchair" v="no"/>
    <tag k="amenity" v="fast_food"/>
  </node>
</osm>
