<?xml version='1.0' encoding='UTF-8'?>
<osm version="0.6" generator="Osmosis 0.39">
  <node id="-399" version="0" timestamp="Fri Feb 24 10:53:32 +0100 2012" uid="1" user="" lat="52.8321281" lon="13.8099555">
    <tag k="name" v="Dirk-Amelung-Haus"/>
    <tag k="wheelchair" v="limited"/>
    <tag k="addr:city" v="Eberswalde"/>
    <tag k="addr:postcode" v="16225"/>
    <tag k="addr:housenumber" v="4"/>
    <tag k="addr:street" v="Ludwig-Sanberg-Straße"/>
    <tag k="wheelchair:description" v="ebenerdig, Fahrstühle, WC?"/>
    <tag k="amenity" v="doctors"/>
  </node>
  <node id="-402" version="0" timestamp="Fri Feb 24 10:53:32 +0100 2012" uid="1" user="" lat="52.8449177" lon="13.7342392">
    <tag k="name" v="Adventgemeinde Eberswalde"/>
    <tag k="wheelchair" v="limited"/>
    <tag k="addr:city" v="Eberswalde"/>
    <tag k="addr:postcode" v="16227"/>
    <tag k="addr:housenumber" v="13"/>
    <tag k="addr:street" v="Mühlenstraße"/>
    <tag k="wheelchair:description" v="die wichtigsten Räume sind erreichbar, kein gerechtes WC"/>
    <tag k="amenity" v="place_of_worship"/>
  </node>
  <node id="-403" version="0" timestamp="Fri Feb 24 10:53:32 +0100 2012" uid="1" user="" lat="52.8348989" lon="13.8150983">
    <tag k="name" v="Post Eberswalde"/>
    <tag k="wheelchair" v="no"/>
    <tag k="wheelchair:description" v="Treppen am Eingang"/>
    <tag k="amenity" v="post_office"/>
  </node>
  <node id="-1831" version="0" timestamp="Fri Feb 24 10:53:33 +0100 2012" uid="1" user="" lat="52.6383153" lon="13.797577">
    <tag k="shop" v="kiosk"/>
    <tag k="name" v="Konsum Hirschfelde"/>
    <tag k="wheelchair" v="no"/>
  </node>
  <node id="-2648" version="0" timestamp="Fri Feb 24 10:53:34 +0100 2012" uid="1" user="" lat="52.7888" lon="13.47894">
    <tag k="name" v="Gasthof &quot;Zum tapferen Schneiderlein&quot;"/>
    <tag k="wheelchair" v="limited"/>
    <tag k="addr:city" v="Wandlitz"/>
    <tag k="addr:postcode" v="16348"/>
    <tag k="addr:housenumber" v="70"/>
    <tag k="addr:street" v="Klosterfelder Haupstr."/>
    <tag k="amenity" v="restaurant"/>
    <tag k="phone" v="033396/286"/>
  </node>
  <node id="-2786" version="0" timestamp="Fri Feb 24 10:53:34 +0100 2012" uid="1" user="" lat="52.9132663" lon="13.7165251">
    <tag k="name" v="EJB am Werbellinsee"/>
    <tag k="wheelchair" v="yes"/>
    <tag k="addr:city" v="Joachimsthal"/>
    <tag k="addr:postcode" v="16247"/>
    <tag k="addr:housenumber" v="20"/>
    <tag k="addr:street" v="Joachimsthaler Str."/>
    <tag k="wheelchair:description" v="rollstuhlgerechte Eingänge, große rollstuhlgerechte WCs "/>
    <tag k="leisure" v="beach_resort"/>
    <tag k="website" v="http://www.ejb-werbellinsee.de"/>
    <tag k="phone" v="033363-6296 o. -6297"/>
  </node>
  <node id="-4168" version="0" timestamp="Fri Feb 24 10:53:36 +0100 2012" uid="1" user="" lat="52.8340984" lon="13.79722">
    <tag k="name" v="Eberswalde Hbf"/>
    <tag k="wheelchair" v="unknown"/>
    <tag k="addr:city" v="Eberswalde"/>
    <tag k="addr:postcode" v="16225"/>
    <tag k="addr:housenumber" v="41"/>
    <tag k="addr:street" v="Eisenbahnstraße"/>
    <tag k="railway" v="platform"/>
  </node>
  <node id="-4442" version="0" timestamp="Fri Feb 24 10:53:36 +0100 2012" uid="1" user="" lat="52.8333763" lon="13.8167467">
    <tag k="name" v="Haus 7 - Hochschulbibliothek"/>
    <tag k="wheelchair" v="limited"/>
    <tag k="wheelchair:description" v="Keine Rollstuhltoilette vorhanden"/>
    <tag k="amenity" v="library"/>
  </node>
  <node id="-4443" version="0" timestamp="Fri Feb 24 10:53:36 +0100 2012" uid="1" user="" lat="52.8331369" lon="13.8167661">
    <tag k="name" v="Haus 6 - Verwaltung"/>
    <tag k="wheelchair" v="no"/>
    <tag k="amenity" v="college"/>
  </node>
  <node id="-4444" version="0" timestamp="Fri Feb 24 10:53:36 +0100 2012" uid="1" user="" lat="52.8327997" lon="13.8169685">
    <tag k="name" v="Haus 5 - Neue Forstakademie"/>
    <tag k="wheelchair" v="yes"/>
    <tag k="amenity" v="college"/>
  </node>
  <node id="-4445" version="0" timestamp="Fri Feb 24 10:53:36 +0100 2012" uid="1" user="" lat="52.8326542" lon="13.8175225">
    <tag k="name" v="Haus 4 - Alte Forstakademie"/>
    <tag k="wheelchair" v="yes"/>
    <tag k="amenity" v="college"/>
  </node>
  <node id="-4446" version="0" timestamp="Fri Feb 24 10:53:36 +0100 2012" uid="1" user="" lat="52.8328931" lon="13.8180994">
    <tag k="name" v="Haus 3 - Personalangelegenheiten"/>
    <tag k="wheelchair" v="no"/>
    <tag k="amenity" v="college"/>
  </node>
  <node id="-4447" version="0" timestamp="Fri Feb 24 10:53:36 +0100 2012" uid="1" user="" lat="52.83289" lon="13.8181">
    <tag k="name" v="Haus 2 - Fachbereich Wirtschaft"/>
    <tag k="wheelchair" v="yes"/>
    <tag k="amenity" v="college"/>
  </node>
  <node id="-4448" version="0" timestamp="Fri Feb 24 10:53:36 +0100 2012" uid="1" user="" lat="52.8337148" lon="13.8138017">
    <tag k="name" v="EON Vertriebsbüro"/>
    <tag k="wheelchair" v="yes"/>
    <tag k="addr:city" v="Eberswalde"/>
    <tag k="addr:postcode" v="16225"/>
    <tag k="addr:housenumber" v="2"/>
    <tag k="addr:street" v="Friedrich-Ebert-Straße"/>
    <tag k="office" v="company"/>
  </node>
  <node id="-4449" version="0" timestamp="Fri Feb 24 10:53:36 +0100 2012" uid="1" user="" lat="52.833104" lon="13.8139717">
    <tag k="shop" v="sports"/>
    <tag k="name" v="Freizeit Laska"/>
    <tag k="wheelchair" v="no"/>
    <tag k="addr:city" v="Eberswalde"/>
    <tag k="addr:postcode" v="16225"/>
    <tag k="addr:housenumber" v="12"/>
    <tag k="addr:street" v="Puschkinstraße"/>
  </node>
  <node id="-4450" version="0" timestamp="Fri Feb 24 10:53:36 +0100 2012" uid="1" user="" lat="52.8335181" lon="13.8134282">
    <tag k="shop" v="hardware"/>
    <tag k="name" v="MUSAHL KLAUS SCHLEIFEREI, STAHLWAREN, WAFFEN U. GESCHENKARTIKEL"/>
    <tag k="wheelchair" v="no"/>
    <tag k="addr:city" v="Eberswalde"/>
    <tag k="addr:postcode" v="16225"/>
    <tag k="addr:housenumber" v="15"/>
    <tag k="addr:street" v="Puschkinstraße"/>
  </node>
  <node id="-4451" version="0" timestamp="Fri Feb 24 10:53:36 +0100 2012" uid="1" user="" lat="52.8329679" lon="13.8140964">
    <tag k="shop" v="sports"/>
    <tag k="name" v="Sportpoint Raasch Sport 2000"/>
    <tag k="wheelchair" v="no"/>
    <tag k="addr:city" v="Eberswalde"/>
    <tag k="addr:postcode" v="16225"/>
    <tag k="addr:housenumber" v="12"/>
    <tag k="addr:street" v="Puschkinstraße"/>
  </node>
  <node id="-4452" version="0" timestamp="Fri Feb 24 10:53:36 +0100 2012" uid="1" user="" lat="52.8337018" lon="13.8140299">
    <tag k="shop" v="clothes"/>
    <tag k="name" v="Mode Express"/>
    <tag k="wheelchair" v="yes"/>
    <tag k="addr:city" v="Eberswalde"/>
    <tag k="addr:postcode" v="16225"/>
    <tag k="addr:housenumber" v="2"/>
    <tag k="addr:street" v="Friedrich-Ebert-Straße"/>
  </node>
  <node id="-4453" version="0" timestamp="Fri Feb 24 10:53:36 +0100 2012" uid="1" user="" lat="52.8337065" lon="13.814089">
    <tag k="name" v="Märkische Post"/>
    <tag k="wheelchair" v="yes"/>
    <tag k="addr:city" v="Eberswalde"/>
    <tag k="addr:postcode" v="16225"/>
    <tag k="addr:housenumber" v="2"/>
    <tag k="addr:street" v="Friedrich-Ebert-Straße"/>
    <tag k="office" v="company"/>
  </node>
  <node id="-4454" version="0" timestamp="Fri Feb 24 10:53:36 +0100 2012" uid="1" user="" lat="52.83371" lon="13.8141436">
    <tag k="name" v="Sonnenstudio Sunvit"/>
    <tag k="wheelchair" v="no"/>
    <tag k="addr:city" v="Eberswalde"/>
    <tag k="addr:postcode" v="16225"/>
    <tag k="addr:housenumber" v="2"/>
    <tag k="addr:street" v="Friedrich-Ebert-Straße"/>
    <tag k="office" v="company"/>
  </node>
  <node id="-4455" version="0" timestamp="Fri Feb 24 10:53:36 +0100 2012" uid="1" user="" lat="52.83371" lon="13.81414">
    <tag k="shop" v="shoes"/>
    <tag k="name" v="Riemer Taschen und Schuhe"/>
    <tag k="wheelchair" v="yes"/>
    <tag k="addr:city" v="Eberswalde"/>
    <tag k="addr:postcode" v="16225"/>
    <tag k="addr:housenumber" v="2"/>
    <tag k="addr:street" v="Friedrich-Ebert-Straße"/>
  </node>
  <node id="-4456" version="0" timestamp="Fri Feb 24 10:53:36 +0100 2012" uid="1" user="" lat="52.83371" lon="13.81414">
    <tag k="shop" v="clothes"/>
    <tag k="name" v="A&apos;Natura Line"/>
    <tag k="wheelchair" v="yes"/>
    <tag k="addr:city" v="Eberswalde"/>
    <tag k="addr:postcode" v="16225"/>
    <tag k="addr:housenumber" v="2"/>
    <tag k="addr:street" v="Friedrich-Ebert-Straße"/>
  </node>
  <node id="-4457" version="0" timestamp="Fri Feb 24 10:53:36 +0100 2012" uid="1" user="" lat="52.8336972" lon="13.8141776">
    <tag k="shop" v="department_store"/>
    <tag k="name" v="Raum-Art Horstmann"/>
    <tag k="wheelchair" v="yes"/>
    <tag k="addr:city" v="Eberswalde"/>
    <tag k="addr:postcode" v="16225"/>
    <tag k="addr:housenumber" v="2"/>
    <tag k="addr:street" v="Friedrich-Ebert-Straße"/>
  </node>
  <node id="-4458" version="0" timestamp="Fri Feb 24 10:53:36 +0100 2012" uid="1" user="" lat="52.833888" lon="13.8149257">
    <tag k="shop" v="medical_supply"/>
    <tag k="name" v="Sanitätshaus Michael Westphal"/>
    <tag k="wheelchair" v="no"/>
    <tag k="addr:city" v="Eberswalde"/>
    <tag k="addr:postcode" v="16225"/>
    <tag k="addr:housenumber" v="5"/>
    <tag k="addr:street" v="Friedrich-Ebert-Straße"/>
  </node>
  <node id="-4459" version="0" timestamp="Fri Feb 24 10:53:36 +0100 2012" uid="1" user="" lat="52.833641" lon="13.8159534">
    <tag k="shop" v="butcher"/>
    <tag k="name" v="Fleischerei Gomell"/>
    <tag k="wheelchair" v="yes"/>
    <tag k="addr:city" v="Eberswalde"/>
    <tag k="addr:postcode" v="16225"/>
    <tag k="addr:housenumber" v="7"/>
    <tag k="addr:street" v="Friedrich-Ebert-Straße"/>
  </node>
  <node id="-4460" version="0" timestamp="Fri Feb 24 10:53:36 +0100 2012" uid="1" user="" lat="52.833636" lon="13.8161176">
    <tag k="shop" v="department_store"/>
    <tag k="name" v="Design Fachwerk"/>
    <tag k="wheelchair" v="no"/>
    <tag k="addr:city" v="Eberswalde"/>
    <tag k="addr:postcode" v="16225"/>
    <tag k="addr:housenumber" v="7"/>
    <tag k="addr:street" v="Friedrich-Ebert-Straße"/>
  </node>
  <node id="-4461" version="0" timestamp="Fri Feb 24 10:53:36 +0100 2012" uid="1" user="" lat="52.8336141" lon="13.8163668">
    <tag k="shop" v="clothes"/>
    <tag k="name" v="Modegeschäft Desirer"/>
    <tag k="wheelchair" v="no"/>
    <tag k="addr:city" v="Eberswalde"/>
    <tag k="addr:postcode" v="16225"/>
    <tag k="addr:housenumber" v="8"/>
    <tag k="addr:street" v="Friedrich-Ebert-Straße"/>
  </node>
  <node id="-4462" version="0" timestamp="Fri Feb 24 10:53:36 +0100 2012" uid="1" user="" lat="52.8336004" lon="13.8166395">
    <tag k="shop" v="clothes"/>
    <tag k="name" v="Mode Casa Bonita"/>
    <tag k="wheelchair" v="no"/>
    <tag k="addr:city" v="Eberswalde"/>
    <tag k="addr:postcode" v="16225"/>
    <tag k="addr:housenumber" v="9"/>
    <tag k="addr:street" v="Friedrich-Ebert-Straße"/>
  </node>
  <node id="-4463" version="0" timestamp="Fri Feb 24 10:53:36 +0100 2012" uid="1" user="" lat="52.8335935" lon="13.816699">
    <tag k="name" v="Choroma Wohnungen"/>
    <tag k="wheelchair" v="yes"/>
    <tag k="addr:city" v="Eberswalde"/>
    <tag k="addr:postcode" v="16225"/>
    <tag k="addr:housenumber" v="10"/>
    <tag k="addr:street" v="Friedrich-Ebert-Straße"/>
    <tag k="office" v="company"/>
  </node>
  <node id="-4464" version="0" timestamp="Fri Feb 24 10:53:36 +0100 2012" uid="1" user="" lat="52.8335868" lon="13.8167429">
    <tag k="shop" v="supermarket"/>
    <tag k="name" v="Valentina Veprejceva Valentinas Vitamin Oase"/>
    <tag k="wheelchair" v="yes"/>
    <tag k="addr:city" v="Eberswalde"/>
    <tag k="addr:postcode" v="16225"/>
    <tag k="addr:housenumber" v="10"/>
    <tag k="addr:street" v="Friedrich-Ebert-Straße"/>
  </node>
  <node id="-4465" version="0" timestamp="Fri Feb 24 10:53:36 +0100 2012" uid="1" user="" lat="52.83359" lon="13.8167936">
    <tag k="shop" v="supermarket"/>
    <tag k="name" v="Asien Supermarkt / Änderungsschneiderei"/>
    <tag k="wheelchair" v="no"/>
    <tag k="addr:city" v="Eberswalde"/>
    <tag k="addr:postcode" v="16225"/>
    <tag k="addr:housenumber" v="11"/>
    <tag k="addr:street" v="Friedrich-Ebert-Straße"/>
  </node>
  <node id="-4466" version="0" timestamp="Fri Feb 24 10:53:36 +0100 2012" uid="1" user="" lat="52.83359" lon="13.8168651">
    <tag k="shop" v="department_store"/>
    <tag k="name" v="Kids &amp; Co. Spielwaren"/>
    <tag k="wheelchair" v="yes"/>
    <tag k="addr:city" v="Eberswalde"/>
    <tag k="addr:postcode" v="16225"/>
    <tag k="addr:housenumber" v="12"/>
    <tag k="addr:street" v="Friedrich-Ebert-Straße"/>
  </node>
  <node id="-4467" version="0" timestamp="Fri Feb 24 10:53:36 +0100 2012" uid="1" user="" lat="52.83359" lon="13.8169022">
    <tag k="shop" v="clothes"/>
    <tag k="name" v="Modegalerie MG"/>
    <tag k="wheelchair" v="yes"/>
    <tag k="addr:city" v="Eberswalde"/>
    <tag k="addr:postcode" v="16225"/>
    <tag k="addr:housenumber" v="12"/>
    <tag k="addr:street" v="Friedrich-Ebert-Straße"/>
  </node>
  <node id="-4468" version="0" timestamp="Fri Feb 24 10:53:36 +0100 2012" uid="1" user="" lat="52.83359" lon="13.8169697">
    <tag k="shop" v="clothes"/>
    <tag k="name" v="Wäscheparadies Adam &amp; Eva"/>
    <tag k="wheelchair" v="yes"/>
    <tag k="addr:city" v="Eberswalde"/>
    <tag k="addr:postcode" v="16225"/>
    <tag k="addr:housenumber" v="12"/>
    <tag k="addr:street" v="Friedrich-Ebert-Straße"/>
  </node>
  <node id="-4469" version="0" timestamp="Fri Feb 24 10:53:36 +0100 2012" uid="1" user="" lat="52.8335835" lon="13.8173616">
    <tag k="name" v="AOK"/>
    <tag k="wheelchair" v="yes"/>
    <tag k="addr:city" v="Eberswalde"/>
    <tag k="addr:postcode" v="16225"/>
    <tag k="addr:housenumber" v="13"/>
    <tag k="addr:street" v="Friedrich-Ebert-Straße"/>
    <tag k="office" v="company"/>
  </node>
  <node id="-4470" version="0" timestamp="Fri Feb 24 10:53:36 +0100 2012" uid="1" user="" lat="52.8335573" lon="13.8177087">
    <tag k="shop" v="electronics"/>
    <tag k="name" v="o2 Partner Shop"/>
    <tag k="wheelchair" v="yes"/>
    <tag k="addr:city" v="Eberswalde"/>
    <tag k="addr:postcode" v="16225"/>
    <tag k="addr:housenumber" v="14"/>
    <tag k="addr:street" v="Friedrich-Ebert-Straße"/>
  </node>
  <node id="-4471" version="0" timestamp="Fri Feb 24 10:53:36 +0100 2012" uid="1" user="" lat="52.8335469" lon="13.8178249">
    <tag k="shop" v="clothes"/>
    <tag k="name" v="Jeans &amp; Sportswear"/>
    <tag k="wheelchair" v="yes"/>
    <tag k="addr:city" v="Eberswalde"/>
    <tag k="addr:postcode" v="16225"/>
    <tag k="addr:housenumber" v="14"/>
    <tag k="addr:street" v="Friedrich-Ebert-Straße"/>
  </node>
  <node id="-4472" version="0" timestamp="Fri Feb 24 10:53:36 +0100 2012" uid="1" user="" lat="52.833537" lon="13.8186998">
    <tag k="shop" v="clothes"/>
    <tag k="name" v="Kräft &amp; Kräft"/>
    <tag k="wheelchair" v="yes"/>
    <tag k="addr:city" v="Eberswalde"/>
    <tag k="addr:postcode" v="16225"/>
    <tag k="addr:housenumber" v="17"/>
    <tag k="addr:street" v="Friedrich-Ebert-Straße"/>
  </node>
  <node id="-4473" version="0" timestamp="Fri Feb 24 10:53:36 +0100 2012" uid="1" user="" lat="52.833553" lon="13.8188073">
    <tag k="name" v="Hotel Palmenhof"/>
    <tag k="wheelchair" v="yes"/>
    <tag k="addr:city" v="Eberswalde"/>
    <tag k="addr:postcode" v="16225"/>
    <tag k="addr:housenumber" v="17"/>
    <tag k="tourism" v="hotel"/>
    <tag k="addr:street" v="Friedrich-Ebert-Straße"/>
  </node>
  <node id="-4474" version="0" timestamp="Fri Feb 24 10:53:36 +0100 2012" uid="1" user="" lat="52.8336472" lon="13.8192552">
    <tag k="shop" v="department_store"/>
    <tag k="name" v="Pfennigland"/>
    <tag k="wheelchair" v="no"/>
    <tag k="addr:city" v="Eberswalde"/>
    <tag k="addr:postcode" v="16225"/>
    <tag k="addr:housenumber" v="17"/>
    <tag k="addr:street" v="Friedrich-Ebert-Straße"/>
  </node>
  <node id="-4475" version="0" timestamp="Fri Feb 24 10:53:36 +0100 2012" uid="1" user="" lat="52.8336889" lon="13.8195443">
    <tag k="shop" v="florist"/>
    <tag k="name" v="Blumenhaus am Markt"/>
    <tag k="wheelchair" v="no"/>
    <tag k="addr:city" v="Eberswalde"/>
    <tag k="addr:postcode" v="16225"/>
    <tag k="addr:housenumber" v="18"/>
    <tag k="addr:street" v="Friedrich-Ebert-Straße"/>
  </node>
  <node id="-4476" version="0" timestamp="Fri Feb 24 10:53:36 +0100 2012" uid="1" user="" lat="52.8337354" lon="13.8197224">
    <tag k="shop" v="department_store"/>
    <tag k="name" v="Uhren &amp; Schmuck"/>
    <tag k="wheelchair" v="no"/>
    <tag k="addr:city" v="Eberswalde"/>
    <tag k="addr:postcode" v="16225"/>
    <tag k="addr:housenumber" v="19"/>
    <tag k="addr:street" v="Friedrich-Ebert-Straße"/>
  </node>
  <node id="-4477" version="0" timestamp="Fri Feb 24 10:53:36 +0100 2012" uid="1" user="" lat="52.8337659" lon="13.8197897">
    <tag k="name" v="Altstadt Döner"/>
    <tag k="wheelchair" v="limited"/>
    <tag k="addr:city" v="Eberswalde"/>
    <tag k="addr:postcode" v="16225"/>
    <tag k="addr:housenumber" v="19"/>
    <tag k="addr:street" v="Friedrich-Ebert-Straße"/>
    <tag k="amenity" v="fast_food"/>
  </node>
  <node id="-4478" version="0" timestamp="Fri Feb 24 10:53:36 +0100 2012" uid="1" user="" lat="52.8338348" lon="13.8200207">
    <tag k="shop" v="stationery"/>
    <tag k="name" v="Papiertiger - Der Bürofachmarkt"/>
    <tag k="wheelchair" v="no"/>
    <tag k="addr:city" v="Eberswalde"/>
    <tag k="addr:postcode" v="16225"/>
    <tag k="addr:housenumber" v="20"/>
    <tag k="addr:street" v="Friedrich-Ebert-Straße"/>
  </node>
  <node id="-4479" version="0" timestamp="Fri Feb 24 10:53:36 +0100 2012" uid="1" user="" lat="52.833924" lon="13.8202989">
    <tag k="shop" v="optician"/>
    <tag k="name" v="Fielmann Optiker"/>
    <tag k="wheelchair" v="yes"/>
    <tag k="addr:city" v="Eberswalde"/>
    <tag k="addr:postcode" v="16225"/>
    <tag k="addr:housenumber" v="5"/>
    <tag k="addr:street" v="An der Friedensbrücke"/>
  </node>
  <node id="-4480" version="0" timestamp="Fri Feb 24 10:53:36 +0100 2012" uid="1" user="" lat="52.8340529" lon="13.8206916">
    <tag k="shop" v="electronics"/>
    <tag k="name" v="Telekom Shop"/>
    <tag k="wheelchair" v="no"/>
    <tag k="addr:city" v="Eberswalde"/>
    <tag k="addr:postcode" v="16225"/>
    <tag k="addr:housenumber" v="33"/>
    <tag k="addr:street" v="Breite Straße"/>
  </node>
  <node id="-4481" version="0" timestamp="Fri Feb 24 10:53:36 +0100 2012" uid="1" user="" lat="52.8335866" lon="13.8198532">
    <tag k="shop" v="clothes"/>
    <tag k="name" v="Street One"/>
    <tag k="wheelchair" v="yes"/>
    <tag k="addr:city" v="Eberswalde"/>
    <tag k="addr:postcode" v="16225"/>
    <tag k="addr:street" v="Friedrich-Ebert-Straße"/>
  </node>
  <node id="-4482" version="0" timestamp="Fri Feb 24 10:53:36 +0100 2012" uid="1" user="" lat="52.8335706" lon="13.8198017">
    <tag k="shop" v="clothes"/>
    <tag k="name" v="Ernstings Family"/>
    <tag k="wheelchair" v="yes"/>
    <tag k="addr:city" v="Eberswalde"/>
    <tag k="addr:postcode" v="16225"/>
    <tag k="addr:housenumber" v="26c"/>
    <tag k="addr:street" v="Friedrich-Ebert-Straße"/>
  </node>
  <node id="-4483" version="0" timestamp="Fri Feb 24 10:53:36 +0100 2012" uid="1" user="" lat="52.8335506" lon="13.8196605">
    <tag k="shop" v="optician"/>
    <tag k="name" v="Apollo Optik"/>
    <tag k="wheelchair" v="yes"/>
    <tag k="addr:city" v="Eberswalde"/>
    <tag k="addr:postcode" v="16225"/>
    <tag k="addr:housenumber" v="26d"/>
    <tag k="addr:street" v="Friedrich-Ebert-Straße"/>
  </node>
  <node id="-4484" version="0" timestamp="Fri Feb 24 10:53:36 +0100 2012" uid="1" user="" lat="52.8334366" lon="13.8192094">
    <tag k="name" v="Forst Apotheke"/>
    <tag k="wheelchair" v="yes"/>
    <tag k="addr:city" v="Eberswalde"/>
    <tag k="addr:postcode" v="16225"/>
    <tag k="addr:housenumber" v="27a"/>
    <tag k="addr:street" v="Friedrich-Ebert-Straße"/>
    <tag k="amenity" v="pharmacy"/>
  </node>
  <node id="-4485" version="0" timestamp="Fri Feb 24 10:53:36 +0100 2012" uid="1" user="" lat="52.8334044" lon="13.8190813">
    <tag k="name" v="Subway"/>
    <tag k="wheelchair" v="yes"/>
    <tag k="addr:city" v="Eberswalde"/>
    <tag k="addr:postcode" v="16225"/>
    <tag k="addr:housenumber" v="27b"/>
    <tag k="addr:street" v="Friedrich-Ebert-Straße"/>
    <tag k="amenity" v="fast_food"/>
  </node>
  <node id="-4486" version="0" timestamp="Fri Feb 24 10:53:36 +0100 2012" uid="1" user="" lat="52.8334" lon="13.81948">
    <tag k="shop" v="photo"/>
    <tag k="name" v="Foto Küttner"/>
    <tag k="wheelchair" v="yes"/>
    <tag k="addr:city" v="Eberswalde"/>
    <tag k="addr:postcode" v="16225"/>
    <tag k="addr:housenumber" v="27c"/>
    <tag k="addr:street" v="Friedrich-Ebert-Straße"/>
  </node>
  <node id="-4487" version="0" timestamp="Fri Feb 24 10:53:36 +0100 2012" uid="1" user="" lat="52.8333773" lon="13.8189918">
    <tag k="name" v="Barnimer Busgesellschaft"/>
    <tag k="wheelchair" v="yes"/>
    <tag k="addr:city" v="Eberswalde"/>
    <tag k="addr:postcode" v="16225"/>
    <tag k="addr:housenumber" v="27d"/>
    <tag k="addr:street" v="Friedrich-Ebert-Straße"/>
    <tag k="highway" v="bus_stop"/>
  </node>
  <node id="-4488" version="0" timestamp="Fri Feb 24 10:53:36 +0100 2012" uid="1" user="" lat="52.83338" lon="13.8188505">
    <tag k="shop" v="electronics"/>
    <tag k="name" v="Vodafone Shop"/>
    <tag k="wheelchair" v="yes"/>
    <tag k="addr:city" v="Eberswalde"/>
    <tag k="addr:postcode" v="16225"/>
    <tag k="addr:housenumber" v="27e"/>
    <tag k="addr:street" v="Friedrich-Ebert-Straße"/>
  </node>
  <node id="-4489" version="0" timestamp="Fri Feb 24 10:53:36 +0100 2012" uid="1" user="" lat="52.8335096" lon="13.8201053">
    <tag k="name" v="Tchibo"/>
    <tag k="wheelchair" v="yes"/>
    <tag k="addr:city" v="Eberswalde"/>
    <tag k="addr:postcode" v="16225"/>
    <tag k="addr:housenumber" v="2a"/>
    <tag k="addr:street" v="Am Markt"/>
    <tag k="amenity" v="cafe"/>
  </node>
  <node id="-4490" version="0" timestamp="Fri Feb 24 10:53:36 +0100 2012" uid="1" user="" lat="52.8330868" lon="13.8208599">
    <tag k="shop" v="department_store"/>
    <tag k="name" v="EWE Service-Punkt"/>
    <tag k="wheelchair" v="no"/>
    <tag k="addr:city" v="Eberswalde"/>
    <tag k="addr:postcode" v="16225"/>
    <tag k="addr:housenumber" v="8"/>
    <tag k="addr:street" v="Am Markt"/>
  </node>
  <node id="-4492" version="0" timestamp="Fri Feb 24 10:53:36 +0100 2012" uid="1" user="" lat="52.8331419" lon="13.8209834">
    <tag k="name" v="Café Venezia"/>
    <tag k="wheelchair" v="limited"/>
    <tag k="addr:city" v="Eberswalde"/>
    <tag k="addr:postcode" v="16225"/>
    <tag k="addr:housenumber" v="7"/>
    <tag k="addr:street" v="Am Markt"/>
    <tag k="wheelchair:description" v="Keine Rollstuhltoilette vorhanden"/>
    <tag k="amenity" v="cafe"/>
  </node>
  <node id="-4494" version="0" timestamp="Fri Feb 24 10:53:36 +0100 2012" uid="1" user="" lat="52.8332016" lon="13.8211624">
    <tag k="shop" v="hairdresser"/>
    <tag k="name" v="Friseur am Markt"/>
    <tag k="wheelchair" v="limited"/>
    <tag k="addr:city" v="Eberswalde"/>
    <tag k="addr:postcode" v="16225"/>
    <tag k="addr:housenumber" v="6"/>
    <tag k="addr:street" v="Am Markt"/>
    <tag k="wheelchair:description" v="Keine Rollstuhltoilette vorhanden"/>
  </node>
  <node id="-4495" version="0" timestamp="Fri Feb 24 10:53:36 +0100 2012" uid="1" user="" lat="52.8332194" lon="13.8213424">
    <tag k="shop" v="clothes"/>
    <tag k="name" v="Pellz- und Ledermoden"/>
    <tag k="wheelchair" v="limited"/>
    <tag k="addr:city" v="Eberswalde"/>
    <tag k="addr:postcode" v="16225"/>
    <tag k="addr:housenumber" v="5"/>
    <tag k="addr:street" v="Am Markt"/>
  </node>
  <node id="-4496" version="0" timestamp="Fri Feb 24 10:53:36 +0100 2012" uid="1" user="" lat="52.8343376" lon="13.8217388">
    <tag k="name" v="Shiva"/>
    <tag k="wheelchair" v="limited"/>
    <tag k="addr:city" v="Eberswalde"/>
    <tag k="addr:postcode" v="16225"/>
    <tag k="addr:housenumber" v="1"/>
    <tag k="addr:street" v="Kreuzstraße"/>
    <tag k="wheelchair:description" v="Keine Rollstuhltoilette vorhanden"/>
    <tag k="amenity" v="restaurant"/>
  </node>
  <node id="-4497" version="0" timestamp="Fri Feb 24 10:53:36 +0100 2012" uid="1" user="" lat="52.8344081" lon="13.822035">
    <tag k="name" v="Spielothek"/>
    <tag k="wheelchair" v="limited"/>
    <tag k="addr:city" v="Eberswalde"/>
    <tag k="addr:postcode" v="16225"/>
    <tag k="addr:housenumber" v="1"/>
    <tag k="addr:street" v="Kreuzstraße"/>
    <tag k="wheelchair:description" v="Keine Rollstuhltoilette vorhanden"/>
    <tag k="office" v="company"/>
  </node>
  <node id="-4498" version="0" timestamp="Fri Feb 24 10:53:36 +0100 2012" uid="1" user="" lat="52.8345234" lon="13.82307">
    <tag k="name" v="Gemütliche Klause"/>
    <tag k="wheelchair" v="no"/>
    <tag k="addr:city" v="Eberswalde"/>
    <tag k="addr:postcode" v="16225"/>
    <tag k="addr:housenumber" v="19"/>
    <tag k="addr:street" v="Kreuzstraße"/>
    <tag k="amenity" v="pub"/>
  </node>
  <node id="-4499" version="0" timestamp="Fri Feb 24 10:53:36 +0100 2012" uid="1" user="" lat="52.8344487" lon="13.8228018">
    <tag k="name" v="Lohnsteuerhilfe"/>
    <tag k="wheelchair" v="no"/>
    <tag k="addr:city" v="Eberswalde"/>
    <tag k="addr:postcode" v="16225"/>
    <tag k="addr:housenumber" v="20"/>
    <tag k="addr:street" v="Kreuzstraße"/>
    <tag k="office" v="company"/>
  </node>
  <node id="-4500" version="0" timestamp="Fri Feb 24 10:53:36 +0100 2012" uid="1" user="" lat="52.8344144" lon="13.8226659">
    <tag k="shop" v="clothes"/>
    <tag k="name" v="Kokada Fashion"/>
    <tag k="wheelchair" v="no"/>
    <tag k="addr:city" v="Eberswalde"/>
    <tag k="addr:postcode" v="16225"/>
    <tag k="addr:housenumber" v="20"/>
    <tag k="addr:street" v="Kreuzstraße"/>
  </node>
  <node id="-4502" version="0" timestamp="Fri Feb 24 10:53:36 +0100 2012" uid="1" user="" lat="52.8343873" lon="13.8225734">
    <tag k="name" v="Zwielicht Tattoo &amp; Piercing"/>
    <tag k="wheelchair" v="no"/>
    <tag k="addr:city" v="Eberswalde"/>
    <tag k="addr:postcode" v="16225"/>
    <tag k="addr:housenumber" v="21"/>
    <tag k="addr:street" v="Kreuzstraße"/>
    <tag k="amenity" v="gallery"/>
  </node>
  <node id="-4503" version="0" timestamp="Fri Feb 24 10:53:36 +0100 2012" uid="1" user="" lat="52.8342414" lon="13.8220382">
    <tag k="shop" v="electronics"/>
    <tag k="name" v="Innova Bestkauf"/>
    <tag k="wheelchair" v="yes"/>
    <tag k="addr:city" v="Eberswalde"/>
    <tag k="addr:postcode" v="16225"/>
    <tag k="addr:housenumber" v="25"/>
    <tag k="addr:street" v="Kreuzstraße"/>
  </node>
  <node id="-4504" version="0" timestamp="Fri Feb 24 10:53:36 +0100 2012" uid="1" user="" lat="52.8340002" lon="13.8212675">
    <tag k="shop" v="department_store"/>
    <tag k="name" v="Sammler- und Gebrauchtwarenshop"/>
    <tag k="wheelchair" v="no"/>
    <tag k="addr:city" v="Eberswalde"/>
    <tag k="addr:postcode" v="16225"/>
    <tag k="addr:housenumber" v="27"/>
    <tag k="addr:street" v="Kreuzstraße"/>
  </node>
  <node id="-4505" version="0" timestamp="Fri Feb 24 10:53:36 +0100 2012" uid="1" user="" lat="52.834272" lon="13.820029">
    <tag k="name" v="Il Castello"/>
    <tag k="wheelchair" v="yes"/>
    <tag k="addr:city" v="Eberswalde"/>
    <tag k="addr:postcode" v="16225"/>
    <tag k="addr:housenumber" v="14"/>
    <tag k="addr:street" v="Steinstrasse"/>
    <tag k="amenity" v="restaurant"/>
  </node>
  <node id="-4506" version="0" timestamp="Fri Feb 24 10:53:36 +0100 2012" uid="1" user="" lat="52.8342992" lon="13.8197886">
    <tag k="shop" v="clothes"/>
    <tag k="name" v="Modeatelier Monique Schostan"/>
    <tag k="wheelchair" v="yes"/>
    <tag k="addr:city" v="Eberswalde"/>
    <tag k="addr:postcode" v="16225"/>
    <tag k="addr:housenumber" v="2c"/>
    <tag k="addr:street" v="Steinstrasse"/>
  </node>
  <node id="-4507" version="0" timestamp="Fri Feb 24 10:53:36 +0100 2012" uid="1" user="" lat="52.8341963" lon="13.8198812">
    <tag k="shop" v="department_store"/>
    <tag k="name" v="Zoohaus Hartwig"/>
    <tag k="wheelchair" v="no"/>
    <tag k="addr:city" v="Eberswalde"/>
    <tag k="addr:postcode" v="16225"/>
    <tag k="addr:housenumber" v="23a"/>
    <tag k="addr:street" v="An der Friedensbrücke"/>
  </node>
  <node id="-4508" version="0" timestamp="Fri Feb 24 10:53:36 +0100 2012" uid="1" user="" lat="52.8342" lon="13.81988">
    <tag k="shop" v="optician"/>
    <tag k="name" v="Optik Ortel"/>
    <tag k="wheelchair" v="no"/>
    <tag k="addr:city" v="Eberswalde"/>
    <tag k="addr:postcode" v="16225"/>
    <tag k="addr:housenumber" v="23"/>
    <tag k="addr:street" v="An der Friedensbrücke"/>
  </node>
  <node id="-4509" version="0" timestamp="Fri Feb 24 10:53:36 +0100 2012" uid="1" user="" lat="52.8340477" lon="13.8199712">
    <tag k="shop" v="shoes"/>
    <tag k="name" v="Schuhkunst"/>
    <tag k="wheelchair" v="no"/>
    <tag k="addr:city" v="Eberswalde"/>
    <tag k="addr:postcode" v="16225"/>
    <tag k="addr:housenumber" v="23"/>
    <tag k="addr:street" v="An der Friedensbrücke"/>
  </node>
  <node id="-4510" version="0" timestamp="Fri Feb 24 10:53:36 +0100 2012" uid="1" user="" lat="52.8340565" lon="13.8201363">
    <tag k="shop" v="clothes"/>
    <tag k="name" v="Elas Kinderstube"/>
    <tag k="wheelchair" v="no"/>
    <tag k="addr:city" v="Eberswalde"/>
    <tag k="addr:postcode" v="16225"/>
    <tag k="addr:housenumber" v="5"/>
    <tag k="addr:street" v="An der Friedensbrücke"/>
  </node>
  <node id="-4511" version="0" timestamp="Fri Feb 24 10:53:36 +0100 2012" uid="1" user="" lat="52.8342285" lon="13.8200434">
    <tag k="shop" v="department_store"/>
    <tag k="name" v="Juwelier Elling"/>
    <tag k="wheelchair" v="no"/>
    <tag k="addr:city" v="Eberswalde"/>
    <tag k="addr:postcode" v="16225"/>
    <tag k="addr:housenumber" v="14"/>
    <tag k="addr:street" v="Steinstrasse"/>
  </node>
  <node id="-4512" version="0" timestamp="Fri Feb 24 10:53:36 +0100 2012" uid="1" user="" lat="52.8345184" lon="13.8195143">
    <tag k="name" v="Mrs Sporty"/>
    <tag k="wheelchair" v="no"/>
    <tag k="addr:city" v="Eberswalde"/>
    <tag k="addr:postcode" v="16225"/>
    <tag k="addr:housenumber" v="18c"/>
    <tag k="addr:street" v="Goethestraße"/>
    <tag k="leisure" v="sports_centre"/>
  </node>
  <node id="-4513" version="0" timestamp="Fri Feb 24 10:53:36 +0100 2012" uid="1" user="" lat="52.834426" lon="13.8193652">
    <tag k="name" v="Reisebüro Fern &amp; Meer"/>
    <tag k="wheelchair" v="no"/>
    <tag k="addr:city" v="Eberswalde"/>
    <tag k="addr:postcode" v="16225"/>
    <tag k="addr:housenumber" v="18a"/>
    <tag k="addr:street" v="Goethestraße"/>
    <tag k="office" v="company"/>
  </node>
  <node id="-4514" version="0" timestamp="Fri Feb 24 10:53:36 +0100 2012" uid="1" user="" lat="52.8343004" lon="13.8192091">
    <tag k="shop" v="hairdresser"/>
    <tag k="name" v="Salon Sigitta"/>
    <tag k="wheelchair" v="limited"/>
    <tag k="addr:city" v="Eberswalde"/>
    <tag k="addr:postcode" v="16225"/>
    <tag k="addr:housenumber" v="17b"/>
    <tag k="addr:street" v="Goethestraße"/>
    <tag k="wheelchair:description" v="Keine Rollstuhltoilette vorhanden"/>
  </node>
  <node id="-4515" version="0" timestamp="Fri Feb 24 10:53:36 +0100 2012" uid="1" user="" lat="52.8337718" lon="13.8213397">
    <tag k="name" v="Stadtverwaltung Eberswalde"/>
    <tag k="wheelchair" v="yes"/>
    <tag k="addr:city" v="Eberswalde"/>
    <tag k="addr:postcode" v="16225"/>
    <tag k="addr:housenumber" v="42"/>
    <tag k="addr:street" v="Breite Straße"/>
    <tag k="amenity" v="townhall"/>
  </node>
  <node id="-4516" version="0" timestamp="Fri Feb 24 10:53:36 +0100 2012" uid="1" user="" lat="52.8316522" lon="13.8177469">
    <tag k="name" v="Polizeiwache Eberswalde"/>
    <tag k="wheelchair" v="no"/>
    <tag k="addr:city" v="Eberswalde"/>
    <tag k="addr:postcode" v="16225"/>
    <tag k="addr:housenumber" v="1"/>
    <tag k="addr:street" v="Pfeilstraße"/>
    <tag k="amenity" v="police"/>
  </node>
  <node id="-4518" version="0" timestamp="Fri Feb 24 10:53:36 +0100 2012" uid="1" user="" lat="52.8347969" lon="13.8150946">
    <tag k="name" v="Deutsche Post"/>
    <tag k="wheelchair" v="no"/>
    <tag k="addr:city" v="Eberswalde"/>
    <tag k="addr:postcode" v="16225"/>
    <tag k="addr:housenumber" v="101"/>
    <tag k="addr:street" v="Eisenbahnstraße"/>
    <tag k="amenity" v="post_office"/>
  </node>
  <node id="-4519" version="0" timestamp="Fri Feb 24 10:53:36 +0100 2012" uid="1" user="" lat="52.8348972" lon="13.8160341">
    <tag k="shop" v="books"/>
    <tag k="name" v="Buchhandlung Mahler"/>
    <tag k="wheelchair" v="yes"/>
    <tag k="addr:city" v="Eberswalde"/>
    <tag k="addr:postcode" v="16225"/>
    <tag k="addr:housenumber" v="2"/>
    <tag k="addr:street" v="Eisenbahnstraße"/>
  </node>
  <node id="-4520" version="0" timestamp="Fri Feb 24 10:53:36 +0100 2012" uid="1" user="" lat="52.8349" lon="13.8169527">
    <tag k="name" v="Sparkasse"/>
    <tag k="wheelchair" v="yes"/>
    <tag k="addr:city" v="Eberswalde"/>
    <tag k="addr:postcode" v="16225"/>
    <tag k="addr:housenumber" v="1"/>
    <tag k="addr:street" v="Michaelisstraße"/>
    <tag k="amenity" v="bank"/>
  </node>
  <node id="-4521" version="0" timestamp="Fri Feb 24 10:53:36 +0100 2012" uid="1" user="" lat="52.8346245" lon="13.8151851">
    <tag k="shop" v="supermarket"/>
    <tag k="name" v="Globus Naturkost"/>
    <tag k="wheelchair" v="yes"/>
    <tag k="addr:city" v="Eberswalde"/>
    <tag k="addr:postcode" v="16225"/>
    <tag k="addr:housenumber" v="7"/>
    <tag k="addr:street" v="Eisenbahnstraße"/>
  </node>
  <node id="-4522" version="0" timestamp="Fri Feb 24 10:53:36 +0100 2012" uid="1" user="" lat="52.8343834" lon="13.8144014">
    <tag k="name" v="Reisebüro Azur"/>
    <tag k="wheelchair" v="yes"/>
    <tag k="addr:city" v="Eberswalde"/>
    <tag k="addr:postcode" v="16225"/>
    <tag k="addr:housenumber" v="12"/>
    <tag k="addr:street" v="Eisenbahnstraße"/>
    <tag k="office" v="company"/>
  </node>
  <node id="-4523" version="0" timestamp="Fri Feb 24 10:53:36 +0100 2012" uid="1" user="" lat="52.83438" lon="13.8144">
    <tag k="shop" v="hearing_aids"/>
    <tag k="name" v="Hörgeräte-Hörpartner"/>
    <tag k="wheelchair" v="yes"/>
    <tag k="addr:city" v="Eberswalde"/>
    <tag k="addr:postcode" v="16225"/>
    <tag k="addr:housenumber" v="12b"/>
    <tag k="addr:street" v="Eisenbahnstraße"/>
  </node>
  <node id="-4524" version="0" timestamp="Fri Feb 24 10:53:36 +0100 2012" uid="1" user="" lat="52.83438" lon="13.8144">
    <tag k="name" v="KKH Versicherung"/>
    <tag k="wheelchair" v="yes"/>
    <tag k="addr:city" v="Eberswalde"/>
    <tag k="addr:postcode" v="16225"/>
    <tag k="addr:housenumber" v="12b"/>
    <tag k="addr:street" v="Eisenbahnstraße"/>
    <tag k="office" v="company"/>
  </node>
  <node id="-4525" version="0" timestamp="Fri Feb 24 10:53:36 +0100 2012" uid="1" user="" lat="52.8343508" lon="13.8143195">
    <tag k="name" v="Accurat Personaldienstleistung"/>
    <tag k="wheelchair" v="yes"/>
    <tag k="addr:city" v="Eberswalde"/>
    <tag k="addr:postcode" v="16225"/>
    <tag k="addr:housenumber" v="12"/>
    <tag k="addr:street" v="Eisenbahnstraße"/>
    <tag k="office" v="company"/>
  </node>
  <node id="-4526" version="0" timestamp="Fri Feb 24 10:53:36 +0100 2012" uid="1" user="" lat="52.8343079" lon="13.8138157">
    <tag k="shop" v="department_store"/>
    <tag k="name" v="Digitaldruck/Stickerei"/>
    <tag k="wheelchair" v="no"/>
    <tag k="addr:city" v="Eberswalde"/>
    <tag k="addr:postcode" v="16225"/>
    <tag k="addr:housenumber" v="98"/>
    <tag k="addr:street" v="Eisenbahnstraße"/>
  </node>
  <node id="-4527" version="0" timestamp="Fri Feb 24 10:53:36 +0100 2012" uid="1" user="" lat="52.8339481" lon="13.8134516">
    <tag k="name" v="Volksbank "/>
    <tag k="wheelchair" v="yes"/>
    <tag k="addr:city" v="Eberswalde"/>
    <tag k="addr:postcode" v="16225"/>
    <tag k="addr:housenumber" v="1"/>
    <tag k="addr:street" v="Friedrich-Ebert-Straße"/>
    <tag k="amenity" v="bank"/>
  </node>
  <node id="-4528" version="0" timestamp="Fri Feb 24 10:53:36 +0100 2012" uid="1" user="" lat="52.8339144" lon="13.8130155">
    <tag k="name" v="Pizza Point"/>
    <tag k="wheelchair" v="no"/>
    <tag k="addr:city" v="Eberswalde"/>
    <tag k="addr:postcode" v="16225"/>
    <tag k="addr:housenumber" v="14"/>
    <tag k="addr:street" v="Eisenbahnstraße"/>
    <tag k="amenity" v="restaurant"/>
  </node>
  <node id="-4529" version="0" timestamp="Fri Feb 24 10:53:36 +0100 2012" uid="1" user="" lat="52.8339554" lon="13.8119686">
    <tag k="name" v="Cafe "/>
    <tag k="wheelchair" v="unknown"/>
    <tag k="amenity" v="bank"/>
  </node>
  <node id="-4530" version="0" timestamp="Fri Feb 24 10:53:36 +0100 2012" uid="1" user="" lat="52.83396" lon="13.81197">
    <tag k="name" v="Cafe&amp;Bar Kleinschmidt"/>
    <tag k="wheelchair" v="no"/>
    <tag k="addr:city" v="Eberswalde"/>
    <tag k="addr:postcode" v="16225"/>
    <tag k="addr:housenumber" v="94"/>
    <tag k="addr:street" v="Eisenbahnstraße"/>
    <tag k="amenity" v="cafe"/>
  </node>
  <node id="-4531" version="0" timestamp="Fri Feb 24 10:53:36 +0100 2012" uid="1" user="" lat="52.8339049" lon="13.8116052">
    <tag k="name" v="Eberswalder Minicenter - Asia,Pizza,Döner"/>
    <tag k="wheelchair" v="unknown"/>
    <tag k="addr:city" v="Eberswalde"/>
    <tag k="addr:postcode" v="16225"/>
    <tag k="addr:street" v="Eisenbahnstraße"/>
    <tag k="amenity" v="fast_food"/>
  </node>
  <node id="-4532" version="0" timestamp="Fri Feb 24 10:53:36 +0100 2012" uid="1" user="" lat="52.833887" lon="13.8112989">
    <tag k="name" v="Bäckerei&amp;Konditorei Engelhardt"/>
    <tag k="wheelchair" v="no"/>
    <tag k="addr:city" v="Eberswalde"/>
    <tag k="addr:postcode" v="16225"/>
    <tag k="addr:housenumber" v="89"/>
    <tag k="addr:street" v="Eisenbahnstraße"/>
    <tag k="amenity" v="bank"/>
  </node>
  <node id="-4533" version="0" timestamp="Fri Feb 24 10:53:36 +0100 2012" uid="1" user="" lat="52.83389" lon="13.8112893">
    <tag k="name" v="Bäckerei&amp;Konditorei Engelhardt"/>
    <tag k="wheelchair" v="no"/>
    <tag k="addr:city" v="Eberswalde"/>
    <tag k="addr:postcode" v="16225"/>
    <tag k="addr:housenumber" v="89"/>
    <tag k="addr:street" v="Eisenbahnstraße"/>
    <tag k="amenity" v="cafe"/>
  </node>
  <node id="-4534" version="0" timestamp="Fri Feb 24 10:53:36 +0100 2012" uid="1" user="" lat="52.83389" lon="13.8109735">
    <tag k="name" v="Yamans Grillhaus"/>
    <tag k="wheelchair" v="limited"/>
    <tag k="addr:city" v="Eberswalde"/>
    <tag k="addr:postcode" v="16225"/>
    <tag k="addr:housenumber" v="88"/>
    <tag k="addr:street" v="Eisenbahnstraße"/>
    <tag k="wheelchair:description" v="Keine Rollstuhltoilette vorhanden"/>
    <tag k="amenity" v="fast_food"/>
  </node>
  <node id="-4535" version="0" timestamp="Fri Feb 24 10:53:36 +0100 2012" uid="1" user="" lat="52.8337668" lon="13.812177">
    <tag k="name" v="Trödelcafé"/>
    <tag k="wheelchair" v="no"/>
    <tag k="addr:city" v="Eberswalde"/>
    <tag k="addr:postcode" v="16225"/>
    <tag k="addr:housenumber" v="14"/>
    <tag k="addr:street" v="Eisenbahnstraße"/>
    <tag k="amenity" v="cafe"/>
  </node>
  <node id="-4536" version="0" timestamp="Fri Feb 24 10:53:36 +0100 2012" uid="1" user="" lat="52.837631" lon="13.8092752">
    <tag k="shop" v="clothes"/>
    <tag k="name" v="Hochzeitsausstatter &amp; Modesalon Paczynski"/>
    <tag k="wheelchair" v="yes"/>
    <tag k="addr:housenumber" v="1a"/>
    <tag k="addr:street" v="Georg-Friedrich-Hegel-Straße"/>
  </node>
  <node id="-4537" version="0" timestamp="Fri Feb 24 10:53:36 +0100 2012" uid="1" user="" lat="52.8359918" lon="13.8079173">
    <tag k="name" v="Agentur für Arbeit"/>
    <tag k="wheelchair" v="yes"/>
    <tag k="addr:city" v="Eberswalde"/>
    <tag k="addr:postcode" v="16225"/>
    <tag k="addr:housenumber" v="30"/>
    <tag k="addr:street" v="Bergerstraße"/>
    <tag k="amenity" v="social_facility"/>
  </node>
  <node id="-4538" version="0" timestamp="Fri Feb 24 10:53:36 +0100 2012" uid="1" user="" lat="52.8336891" lon="13.8054211">
    <tag k="name" v="Mira&apos;s Blumenstube &amp; Caféstube"/>
    <tag k="wheelchair" v="limited"/>
    <tag k="addr:city" v="Eberswalde"/>
    <tag k="addr:postcode" v="16225"/>
    <tag k="addr:housenumber" v="69"/>
    <tag k="addr:street" v="Eisenbahnstraße"/>
    <tag k="wheelchair:description" v="Keine Rollstuhltoilette vorhanden"/>
    <tag k="amenity" v="cafe"/>
  </node>
  <node id="-4539" version="0" timestamp="Fri Feb 24 10:53:36 +0100 2012" uid="1" user="" lat="52.8338609" lon="13.8012889">
    <tag k="name" v="AWO Café Brücke"/>
    <tag k="wheelchair" v="limited"/>
    <tag k="addr:city" v="Eberswalde"/>
    <tag k="addr:postcode" v="16225"/>
    <tag k="addr:housenumber" v="51"/>
    <tag k="addr:street" v="Eisenbahnstraße"/>
    <tag k="amenity" v="cafe"/>
  </node>
  <node id="-4540" version="0" timestamp="Fri Feb 24 10:53:36 +0100 2012" uid="1" user="" lat="52.8357945" lon="13.7917438">
    <tag k="name" v="Wilder Eber"/>
    <tag k="wheelchair" v="yes"/>
    <tag k="addr:city" v="Eberswalde"/>
    <tag k="addr:postcode" v="16225"/>
    <tag k="addr:housenumber" v="16"/>
    <tag k="addr:street" v="Heegermühler Strasse^"/>
    <tag k="amenity" v="restaurant"/>
  </node>
  <node id="-4541" version="0" timestamp="Fri Feb 24 10:53:36 +0100 2012" uid="1" user="" lat="52.8365657" lon="13.7865167">
    <tag k="name" v="Mendoza "/>
    <tag k="wheelchair" v="no"/>
    <tag k="addr:city" v="Eberswalde"/>
    <tag k="addr:postcode" v="16225"/>
    <tag k="addr:housenumber" v="27"/>
    <tag k="addr:street" v="Heegermühler Strasse"/>
    <tag k="amenity" v="restaurant"/>
  </node>
  <node id="-4542" version="0" timestamp="Fri Feb 24 10:53:36 +0100 2012" uid="1" user="" lat="52.83498" lon="13.79386">
    <tag k="shop" v="shoes"/>
    <tag k="name" v="Reno Schuhe"/>
    <tag k="wheelchair" v="yes"/>
    <tag k="addr:city" v="Eberswalde"/>
    <tag k="addr:postcode" v="16225"/>
    <tag k="addr:housenumber" v="1"/>
    <tag k="addr:street" v="Heegermühler Strasse"/>
  </node>
  <node id="-4543" version="0" timestamp="Fri Feb 24 10:53:36 +0100 2012" uid="1" user="" lat="52.8348536" lon="13.7943964">
    <tag k="shop" v="clothes"/>
    <tag k="name" v="Takko Fashion"/>
    <tag k="wheelchair" v="yes"/>
    <tag k="addr:city" v="Eberswalde"/>
    <tag k="addr:postcode" v="16225"/>
    <tag k="addr:housenumber" v="1"/>
    <tag k="addr:street" v="Heegermühler Strasse"/>
  </node>
</osm>
