<?xml version='1.0' encoding='UTF-8'?>
<osm version="0.6" generator="Osmosis 0.39">
  <node id="-631" version="0" timestamp="Fri Feb 24 10:53:32 +0100 2012" uid="1" user="" lat="51.75972" lon="14.3288">
    <tag k="name" v="Piccolo Theater Cottbus"/>
    <tag k="wheelchair" v="yes"/>
    <tag k="addr:city" v="Cottbus"/>
    <tag k="addr:postcode" v="03046"/>
    <tag k="addr:street" v="Erich-Kästner-Platz"/>
    <tag k="wheelchair:description" v="Parkplätze in ca. 70 m Entfernung, Hörschleife vorhanden, Aufzug vorhanden, innen ebenerdig"/>
    <tag k="amenity" v="theatre"/>
    <tag k="website" v="http://www.piccolo-cottbus.de"/>
    <tag k="phone" v="0355 23687"/>
  </node>
  <node id="-3191" version="0" timestamp="Fri Feb 24 10:53:35 +0100 2012" uid="1" user="" lat="51.75162" lon="14.34559">
    <tag k="name" v="Stadion der Freundschaft"/>
    <tag k="wheelchair" v="yes"/>
    <tag k="addr:city" v="Cottbus"/>
    <tag k="addr:postcode" v="03046"/>
    <tag k="addr:housenumber" v="1"/>
    <tag k="addr:street" v="Am Eliaspark "/>
    <tag k="wheelchair:description" v="Rollstuhlplätze unten an der Osttribühne"/>
    <tag k="leisure" v="stadium"/>
    <tag k="website" v="http://fcenergie.de"/>
    <tag k="phone" v="+49 355 756950"/>
  </node>
  <node id="-4922" version="0" timestamp="Fri Feb 24 10:53:36 +0100 2012" uid="1" user="" lat="51.76141" lon="14.3254161">
    <tag k="shop" v="computer"/>
    <tag k="name" v="DEMATH"/>
    <tag k="wheelchair" v="yes"/>
    <tag k="addr:city" v="Cottbus"/>
    <tag k="addr:postcode" v="03046"/>
    <tag k="addr:housenumber" v="139"/>
    <tag k="addr:street" v="Berliner Straße"/>
    <tag k="wheelchair:description" v="Parkplatz 5m nebenan, Systemhaus ebenerdig"/>
    <tag k="website" v="http://www.demath.de"/>
    <tag k="phone" v="+49 355 48 37 06-0"/>
  </node>
  <node id="-5380" version="0" timestamp="Fri Feb 24 10:53:37 +0100 2012" uid="1" user="" lat="51.75433" lon="14.30314">
    <tag k="name" v="Santander Consumer Bank"/>
    <tag k="wheelchair" v="limited"/>
    <tag k="addr:city" v="Cottbus"/>
    <tag k="addr:postcode" v="03046"/>
    <tag k="addr:housenumber" v="7"/>
    <tag k="addr:street" v="Karl-Liebknecht-Straße "/>
    <tag k="amenity" v="bank"/>
    <tag k="website" v="http://www.santander.de"/>
  </node>
</osm>
