<?xml version='1.0' encoding='UTF-8'?>
<osm version="0.6" generator="Osmosis 0.39">
  <node id="-929" version="0" timestamp="Fri Feb 24 10:53:33 +0100 2012" uid="1" user="" lat="52.3481362" lon="13.629608">
    <tag k="name" v="Zahnarztpraxis Dr. Hirsch &amp; Partner"/>
    <tag k="wheelchair" v="yes"/>
    <tag k="addr:city" v="Zeuthen"/>
    <tag k="addr:postcode" v="15738"/>
    <tag k="addr:housenumber" v="3"/>
    <tag k="addr:street" v="Goethestraße"/>
    <tag k="amenity" v="doctors"/>
    <tag k="website" v="http://www.zahnaerzte-hirsch.de"/>
    <tag k="phone" v="+49 33762  9276"/>
  </node>
  <node id="-2550" version="0" timestamp="Fri Feb 24 10:53:34 +0100 2012" uid="1" user="" lat="52.287385" lon="13.6163136">
    <tag k="shop" v="supermarket"/>
    <tag k="name" v="Schlecker"/>
    <tag k="wheelchair" v="limited"/>
    <tag k="wheelchair:description" v="Keine Stufen"/>
  </node>
  <node id="-2551" version="0" timestamp="Fri Feb 24 10:53:34 +0100 2012" uid="1" user="" lat="52.2872739" lon="13.6164834">
    <tag k="name" v="Sparkasse"/>
    <tag k="wheelchair" v="limited"/>
    <tag k="wheelchair:description" v="Keine Stufen"/>
    <tag k="amenity" v="bank"/>
  </node>
  <node id="-2552" version="0" timestamp="Fri Feb 24 10:53:34 +0100 2012" uid="1" user="" lat="52.2874858" lon="13.616343">
    <tag k="shop" v="optician"/>
    <tag k="name" v="Stettnisch Optiker"/>
    <tag k="wheelchair" v="limited"/>
    <tag k="wheelchair:description" v="Keine Stufen"/>
  </node>
  <node id="-2553" version="0" timestamp="Fri Feb 24 10:53:34 +0100 2012" uid="1" user="" lat="52.2879109" lon="13.6169585">
    <tag k="name" v="Sport Bar"/>
    <tag k="wheelchair" v="limited"/>
    <tag k="wheelchair:description" v="Keine Stufen"/>
    <tag k="amenity" v="bar"/>
  </node>
  <node id="-2554" version="0" timestamp="Fri Feb 24 10:53:34 +0100 2012" uid="1" user="" lat="52.2879639" lon="13.616694">
    <tag k="shop" v="florist"/>
    <tag k="name" v="Blumengeschäft"/>
    <tag k="wheelchair" v="limited"/>
  </node>
  <node id="-2555" version="0" timestamp="Fri Feb 24 10:53:34 +0100 2012" uid="1" user="" lat="52.2884906" lon="13.6173808">
    <tag k="shop" v="bakery"/>
    <tag k="name" v="Steinecke Bäcker"/>
    <tag k="wheelchair" v="limited"/>
    <tag k="wheelchair:description" v="Keine Stufen"/>
  </node>
  <node id="-2556" version="0" timestamp="Fri Feb 24 10:53:34 +0100 2012" uid="1" user="" lat="52.2876122" lon="13.6164109">
    <tag k="shop" v="supermarket"/>
    <tag k="name" v="Elma Tiefkühlgeschäft"/>
    <tag k="wheelchair" v="limited"/>
    <tag k="wheelchair:description" v="Keine Stufen"/>
  </node>
  <node id="-2558" version="0" timestamp="Fri Feb 24 10:53:34 +0100 2012" uid="1" user="" lat="52.2882719" lon="13.6172758">
    <tag k="name" v="Öffentliche Toilette"/>
    <tag k="wheelchair" v="yes"/>
    <tag k="amenity" v="toilets"/>
  </node>
  <node id="-2559" version="0" timestamp="Fri Feb 24 10:53:34 +0100 2012" uid="1" user="" lat="52.2680702" lon="13.6040375">
    <tag k="name" v="Strandhaus"/>
    <tag k="wheelchair" v="no"/>
    <tag k="amenity" v="cafe"/>
  </node>
  <node id="-2560" version="0" timestamp="Fri Feb 24 10:53:34 +0100 2012" uid="1" user="" lat="52.2999201" lon="13.6242114">
    <tag k="name" v="Ärztehaus"/>
    <tag k="wheelchair" v="yes"/>
    <tag k="amenity" v="doctors"/>
  </node>
  <node id="-2561" version="0" timestamp="Fri Feb 24 10:53:34 +0100 2012" uid="1" user="" lat="52.2891113" lon="13.6186262">
    <tag k="name" v="Fontane Apotheke"/>
    <tag k="wheelchair" v="yes"/>
    <tag k="amenity" v="pharmacy"/>
  </node>
  <node id="-3505" version="0" timestamp="Fri Feb 24 10:53:35 +0100 2012" uid="1" user="" lat="52.3717475" lon="13.6139559">
    <tag k="name" v="Zahnarztpraxis"/>
    <tag k="wheelchair" v="no"/>
    <tag k="addr:city" v="Eichwalde"/>
    <tag k="addr:postcode" v="15732"/>
    <tag k="addr:housenumber" v="1"/>
    <tag k="addr:street" v="Schulzendorfer Str."/>
    <tag k="wheelchair:description" v="Treppe in den ersten Stock ohne Lift"/>
    <tag k="amenity" v="doctors"/>
  </node>
  <node id="-3506" version="0" timestamp="Fri Feb 24 10:53:35 +0100 2012" uid="1" user="" lat="52.3716976" lon="13.6138581">
    <tag k="name" v="Villa Borgeze"/>
    <tag k="wheelchair" v="yes"/>
    <tag k="addr:city" v="Eichwalde"/>
    <tag k="addr:postcode" v="15732"/>
    <tag k="addr:housenumber" v="1"/>
    <tag k="addr:street" v="Schulzendorfer Str."/>
    <tag k="amenity" v="restaurant"/>
  </node>
  <node id="-4776" version="0" timestamp="Fri Feb 24 10:53:36 +0100 2012" uid="1" user="" lat="52.24536" lon="13.77265">
    <tag k="name" v="Teamgeist-Yachtclub - Restaurant &amp; Eventlocation"/>
    <tag k="wheelchair" v="yes"/>
    <tag k="addr:city" v="Heidesee"/>
    <tag k="addr:postcode" v="15754"/>
    <tag k="addr:housenumber" v="2"/>
    <tag k="addr:street" v="Am Strandcasino"/>
    <tag k="wheelchair:description" v="der Zugang zum Restaurant ist rollstuhlgerecht. Auch eine Rollstuhlgerechte Toilette ist vorhanden. Der Zugang zum Garte und Hafen ist indirekt möglich."/>
    <tag k="amenity" v="restaurant"/>
    <tag k="website" v="http://www.teamgeist.com"/>
    <tag k="phone" v="033768 208641"/>
  </node>
</osm>
