<?xml version='1.0' encoding='UTF-8'?>
<osm version="0.6" generator="Osmosis 0.39">
  <node id="-2100" version="0" timestamp="Fri Feb 24 10:53:34 +0100 2012" uid="1" user="" lat="52.3434505" lon="14.5578406">
    <tag k="name" v="Odertraining"/>
    <tag k="wheelchair" v="yes"/>
    <tag k="addr:city" v="Frankfurt/Oder"/>
    <tag k="addr:postcode" v="15230"/>
    <tag k="addr:housenumber" v="3"/>
    <tag k="addr:street" v="Uferstraße "/>
    <tag k="wheelchair:description" v="Beh.toilette im Haus"/>
    <tag k="leisure" v="sports_centre"/>
    <tag k="website" v="http://www.rehalinksderoder.de"/>
    <tag k="phone" v="033550080238"/>
  </node>
  <node id="-2107" version="0" timestamp="Fri Feb 24 10:53:34 +0100 2012" uid="1" user="" lat="52.3273151" lon="14.5185202">
    <tag k="shop" v="mall"/>
    <tag k="name" v="Südringcenter"/>
    <tag k="wheelchair" v="yes"/>
  </node>
  <node id="-2930" version="0" timestamp="Fri Feb 24 10:53:34 +0100 2012" uid="1" user="" lat="52.3293776" lon="14.5397542">
    <tag k="shop" v="hairdresser"/>
    <tag k="name" v="Frisör KLIER"/>
    <tag k="wheelchair" v="yes"/>
    <tag k="wheelchair:description" v="beh.WC im HEP"/>
  </node>
  <node id="-2931" version="0" timestamp="Fri Feb 24 10:53:34 +0100 2012" uid="1" user="" lat="52.32253" lon="14.54184">
    <tag k="name" v="Haus der Begegnung"/>
    <tag k="wheelchair" v="yes"/>
  </node>
  <node id="-3007" version="0" timestamp="Fri Feb 24 10:53:35 +0100 2012" uid="1" user="" lat="52.3437975" lon="14.5509274">
    <tag k="name" v="Behindertenparkplatz"/>
    <tag k="wheelchair" v="yes"/>
    <tag k="wheelchair:description" v="Behindertenparkplatz"/>
    <tag k="amenity" v="parking"/>
  </node>
  <node id="-3009" version="0" timestamp="Fri Feb 24 10:53:35 +0100 2012" uid="1" user="" lat="52.3437869" lon="14.5512143">
    <tag k="name" v="Behindertenparkplatz"/>
    <tag k="wheelchair" v="yes"/>
    <tag k="wheelchair:description" v="Behindertenparkplatz"/>
    <tag k="amenity" v="parking"/>
  </node>
  <node id="-3010" version="0" timestamp="Fri Feb 24 10:53:35 +0100 2012" uid="1" user="" lat="52.34278" lon="14.5534">
    <tag k="name" v="Behindertenparkplatz"/>
    <tag k="wheelchair" v="yes"/>
    <tag k="wheelchair:description" v="Behindertenparkplatz"/>
    <tag k="amenity" v="parking"/>
  </node>
  <node id="-3012" version="0" timestamp="Fri Feb 24 10:53:35 +0100 2012" uid="1" user="" lat="52.3428815" lon="14.5543262">
    <tag k="name" v="Behindertenparkplatz"/>
    <tag k="wheelchair" v="yes"/>
    <tag k="wheelchair:description" v="Behindertenparkplatz"/>
    <tag k="amenity" v="parking"/>
  </node>
  <node id="-3014" version="0" timestamp="Fri Feb 24 10:53:35 +0100 2012" uid="1" user="" lat="52.3431088" lon="14.5573685">
    <tag k="name" v="Behindertenparkplatz"/>
    <tag k="wheelchair" v="yes"/>
    <tag k="wheelchair:description" v="Behindertenparkplatz"/>
    <tag k="amenity" v="parking"/>
  </node>
  <node id="-3016" version="0" timestamp="Fri Feb 24 10:53:35 +0100 2012" uid="1" user="" lat="52.3211496" lon="14.5376177">
    <tag k="shop" v="bicycle"/>
    <tag k="name" v="A.T.U."/>
    <tag k="wheelchair" v="limited"/>
    <tag k="wheelchair:description" v="A.T.U. Kfzzubehör"/>
  </node>
  <node id="-3812" version="0" timestamp="Fri Feb 24 10:53:35 +0100 2012" uid="1" user="" lat="52.332555" lon="14.5562085">
    <tag k="name" v="Stadion der Freundschaft"/>
    <tag k="wheelchair" v="no"/>
    <tag k="leisure" v="stadium"/>
  </node>
  <node id="-3906" version="0" timestamp="Fri Feb 24 10:53:35 +0100 2012" uid="1" user="" lat="52.3477039" lon="14.5087365">
    <tag k="shop" v="computer"/>
    <tag k="name" v="Computer-False"/>
    <tag k="wheelchair" v="limited"/>
    <tag k="addr:city" v="Frankfurt/Oder"/>
    <tag k="addr:postcode" v="15234"/>
    <tag k="addr:housenumber" v="69"/>
    <tag k="addr:street" v="A.Bebel Str."/>
    <tag k="wheelchair:description" v="frei zugängl., kein Beh.WC"/>
    <tag k="phone" v="0335/504751"/>
  </node>
  <node id="-5511" version="0" timestamp="Fri Feb 24 10:53:37 +0100 2012" uid="1" user="" lat="52.3310365" lon="14.5546573">
    <tag k="name" v="Physiotherapie"/>
    <tag k="wheelchair" v="yes"/>
    <tag k="amenity" v="doctors"/>
  </node>
</osm>
