<?xml version='1.0' encoding='UTF-8'?>
<osm version="0.6" generator="Osmosis 0.39">
  <node id="-500" version="0" timestamp="Fri Feb 24 10:53:32 +0100 2012" uid="1" user="" lat="52.4813479" lon="13.8525088">
    <tag k="name" v="Gaststätte &quot;Zur alten Schmiede&quot;"/>
    <tag k="wheelchair" v="limited"/>
    <tag k="addr:city" v="Herzfelde"/>
    <tag k="addr:postcode" v="15378"/>
    <tag k="addr:street" v="Lindenstr."/>
    <tag k="wheelchair:description" v="Zugang ebenerdig (Stufe 3 cm), Klo nicht rollstuhlgerecht"/>
    <tag k="amenity" v="restaurant"/>
    <tag k="website" v="http://www.zur-altenschmiede.de/"/>
    <tag k="phone" v="+49 33434 15084"/>
  </node>
  <node id="-501" version="0" timestamp="Fri Feb 24 10:53:32 +0100 2012" uid="1" user="" lat="52.480521" lon="13.8428269">
    <tag k="name" v="Praxis für Physiotherapie und Ergotherapie"/>
    <tag k="wheelchair" v="limited"/>
    <tag k="addr:city" v="Herzfelde"/>
    <tag k="addr:postcode" v="15378"/>
    <tag k="addr:housenumber" v="13"/>
    <tag k="addr:street" v="Rüdersdorfer Str."/>
    <tag k="wheelchair:description" v="Zufahrt über Rampe, Toiletten nur bedingt nutzbar für Rollis"/>
    <tag k="amenity" v="doctors"/>
    <tag k="phone" v="+49 33434 71573"/>
  </node>
  <node id="-2915" version="0" timestamp="Fri Feb 24 10:53:34 +0100 2012" uid="1" user="" lat="52.532022" lon="14.3753293">
    <tag k="name" v="V+R Bank"/>
    <tag k="wheelchair" v="limited"/>
    <tag k="addr:city" v="Seelow"/>
    <tag k="addr:postcode" v="15306"/>
    <tag k="amenity" v="bank"/>
  </node>
  <node id="-2916" version="0" timestamp="Fri Feb 24 10:53:34 +0100 2012" uid="1" user="" lat="52.5320725" lon="14.3784803">
    <tag k="name" v="AoK Geschaftsstelle Seelow"/>
    <tag k="wheelchair" v="yes"/>
    <tag k="addr:city" v="Seelow"/>
    <tag k="addr:postcode" v="15306"/>
    <tag k="addr:housenumber" v="4"/>
    <tag k="addr:street" v="Breite Str. "/>
    <tag k="amenity" v="pharmacy"/>
  </node>
  <node id="-2917" version="0" timestamp="Fri Feb 24 10:53:34 +0100 2012" uid="1" user="" lat="52.529257" lon="14.3670216">
    <tag k="name" v="Apotheke am EKZ"/>
    <tag k="wheelchair" v="limited"/>
    <tag k="addr:city" v="Seelow"/>
    <tag k="addr:postcode" v="15306"/>
    <tag k="addr:street" v="Diedresdorfer Straße"/>
    <tag k="wheelchair:description" v="barrierefreier Zugang"/>
    <tag k="amenity" v="pharmacy"/>
    <tag k="phone" v="0334688991"/>
  </node>
  <node id="-2922" version="0" timestamp="Fri Feb 24 10:53:34 +0100 2012" uid="1" user="" lat="52.6458563" lon="14.359835">
    <tag k="name" v="Restaurant Treptow"/>
    <tag k="wheelchair" v="yes"/>
    <tag k="amenity" v="restaurant"/>
  </node>
  <node id="-2925" version="0" timestamp="Fri Feb 24 10:53:34 +0100 2012" uid="1" user="" lat="52.5114268" lon="14.327606">
    <tag k="name" v="Gasthof &quot;Zur Linde&quot;"/>
    <tag k="wheelchair" v="limited"/>
    <tag k="wheelchair:description" v="barrierefreier Zugang &quot;über den Hof&quot;"/>
    <tag k="amenity" v="restaurant"/>
  </node>
  <node id="-2926" version="0" timestamp="Fri Feb 24 10:53:34 +0100 2012" uid="1" user="" lat="52.5323184" lon="14.3810089">
    <tag k="shop" v="electronics"/>
    <tag k="name" v="TVH elektronic"/>
    <tag k="wheelchair" v="limited"/>
    <tag k="addr:city" v="Seelow"/>
    <tag k="addr:postcode" v="15306"/>
    <tag k="addr:street" v="Breite Str."/>
    <tag k="wheelchair:description" v="barrierefreier Zugang"/>
  </node>
  <node id="-2927" version="0" timestamp="Fri Feb 24 10:53:34 +0100 2012" uid="1" user="" lat="52.4262854" lon="14.5332493">
    <tag k="name" v="Sparkasse"/>
    <tag k="wheelchair" v="limited"/>
    <tag k="wheelchair:description" v="barrierefreier Zugang"/>
    <tag k="amenity" v="bank"/>
  </node>
  <node id="-2928" version="0" timestamp="Fri Feb 24 10:53:34 +0100 2012" uid="1" user="" lat="52.4261281" lon="14.5332694">
    <tag k="shop" v="supermarket"/>
    <tag k="name" v="Schlecker Markt"/>
    <tag k="wheelchair" v="limited"/>
    <tag k="wheelchair:description" v="barrierefreier Zugang"/>
  </node>
  <node id="-2929" version="0" timestamp="Fri Feb 24 10:53:34 +0100 2012" uid="1" user="" lat="52.4177906" lon="14.5295637">
    <tag k="shop" v="bakery"/>
    <tag k="name" v="Bäcker Dreißig"/>
    <tag k="wheelchair" v="limited"/>
    <tag k="wheelchair:description" v="barrierefreier Zugang"/>
  </node>
  <node id="-3315" version="0" timestamp="Fri Feb 24 10:53:35 +0100 2012" uid="1" user="" lat="52.5931198" lon="14.2329695">
    <tag k="shop" v="computer"/>
    <tag k="name" v="BÜRO PERFEKT Ihr Bürofachmarkt"/>
    <tag k="wheelchair" v="yes"/>
    <tag k="addr:city" v="Neuhardenberg"/>
    <tag k="addr:postcode" v="15320"/>
    <tag k="addr:housenumber" v="7"/>
    <tag k="addr:street" v="Am Windmühlenberg"/>
    <tag k="website" v="http://buero-perfekt.bueroshops.de/frontpage"/>
    <tag k="phone" v="033476/5192"/>
  </node>
  <node id="-3886" version="0" timestamp="Fri Feb 24 10:53:35 +0100 2012" uid="1" user="" lat="52.5478311" lon="13.8637569">
    <tag k="name" v="REKIS"/>
    <tag k="wheelchair" v="yes"/>
    <tag k="addr:city" v="Strausberg"/>
    <tag k="addr:postcode" v="15344"/>
    <tag k="addr:housenumber" v="57"/>
    <tag k="addr:street" v="Am Annatal"/>
    <tag k="wheelchair:description" v="RE gionale  K ontakt u. I nfostelle f.  S elbsthilfe"/>
    <tag k="website" v="http://www.rekis-strausberg.de"/>
    <tag k="phone" v="03341/471381"/>
  </node>
</osm>
