<?xml version='1.0' encoding='UTF-8'?>
<osm version="0.6" generator="Osmosis 0.39">
  <node id="-191" version="0" timestamp="Fri Feb 24 10:53:32 +0100 2012" uid="1" user="" lat="51.85683" lon="13.95302">
    <tag k="name" v="Spreewelten Lübbenau"/>
    <tag k="wheelchair" v="yes"/>
    <tag k="addr:city" v="Lübbenau"/>
    <tag k="addr:postcode" v="03222"/>
    <tag k="addr:street" v="Alte Huttung"/>
    <tag k="wheelchair:description" v="Barrierefreiheit im gesamten Bad und zu 90% in den Saunen gewährleistet"/>
    <tag k="amenity" v="swimming_pool"/>
    <tag k="website" v="http://www.spreewelten-bad.de/"/>
  </node>
  <node id="-1980" version="0" timestamp="Fri Feb 24 10:53:34 +0100 2012" uid="1" user="" lat="51.4667" lon="13.8667">
    <tag k="name" v="Skihalle Snowtropolis"/>
    <tag k="wheelchair" v="limited"/>
    <tag k="addr:city" v="Hörlitz"/>
    <tag k="addr:postcode" v="01968"/>
    <tag k="addr:housenumber" v="1"/>
    <tag k="addr:street" v="Tropolis "/>
    <tag k="wheelchair:description" v="barrierefreier Zugang zum Gastrobereich, Toiletten nicht rollstuhlgerecht"/>
    <tag k="amenity" v="bar"/>
    <tag k="website" v="http://www.snowtropolis.de"/>
    <tag k="phone" v="+49 3573 3637065"/>
  </node>
  <node id="-2454" version="0" timestamp="Fri Feb 24 10:53:34 +0100 2012" uid="1" user="" lat="51.479891" lon="13.8522571">
    <tag k="shop" v="hairdresser"/>
    <tag k="name" v="Querschnitt Haarsalon Kathrin Heinze"/>
    <tag k="wheelchair" v="yes"/>
    <tag k="addr:city" v="Schwarzheide"/>
    <tag k="addr:postcode" v="01987"/>
    <tag k="addr:housenumber" v="11"/>
    <tag k="addr:street" v="Am Bahnhof Wandelhof"/>
    <tag k="wheelchair:description" v="ebene Erde, breite Tür, genug Platz zum rangieren"/>
    <tag k="website" v="http://www.querschnitt.biz"/>
    <tag k="phone" v="+49 035752 7682"/>
  </node>
  <node id="-2503" version="0" timestamp="Fri Feb 24 10:53:34 +0100 2012" uid="1" user="" lat="51.4826448" lon="13.841809">
    <tag k="shop" v="florist"/>
    <tag k="name" v="Gärtnerei Konzag - Stielwerk"/>
    <tag k="wheelchair" v="limited"/>
    <tag k="addr:city" v="Schwarzheide"/>
    <tag k="addr:postcode" v="01987"/>
    <tag k="addr:housenumber" v="149"/>
    <tag k="addr:street" v="Ruhlander Straße"/>
    <tag k="wheelchair:description" v="alles zur ebenen Erde"/>
    <tag k="website" v="http://www.gaertnerei-konzag.de"/>
    <tag k="phone" v="+49 035752 80374"/>
  </node>
  <node id="-2666" version="0" timestamp="Fri Feb 24 10:53:34 +0100 2012" uid="1" user="" lat="51.8683825" lon="13.9577633">
    <tag k="name" v="Ferienwohnung"/>
    <tag k="wheelchair" v="yes"/>
    <tag k="addr:city" v="Lübbenau"/>
    <tag k="addr:postcode" v="03222"/>
    <tag k="addr:housenumber" v="30"/>
    <tag k="tourism" v="guest_house"/>
    <tag k="addr:street" v="Lange Straße"/>
  </node>
  <node id="-2667" version="0" timestamp="Fri Feb 24 10:53:34 +0100 2012" uid="1" user="" lat="51.8678403" lon="13.9690922">
    <tag k="name" v="Sankt-Nickolai-Kirche"/>
    <tag k="wheelchair" v="limited"/>
    <tag k="amenity" v="place_of_worship"/>
  </node>
</osm>
