<?xml version='1.0' encoding='UTF-8'?>
<osm version="0.6" generator="Osmosis 0.39">
  <node id="-703" version="0" timestamp="Fri Feb 24 10:53:32 +0100 2012" uid="1" user="" lat="52.4773585" lon="13.6999284">
    <tag k="shop" v="supermarket"/>
    <tag k="name" v="Edeka Neukauf"/>
    <tag k="wheelchair" v="yes"/>
    <tag k="addr:city" v="Schöneiche b. Berlin"/>
    <tag k="addr:postcode" v="15566"/>
    <tag k="addr:housenumber" v="153"/>
    <tag k="addr:street" v="Brandenburgische Straße"/>
    <tag k="wheelchair:description" v="Ebenerdiger Zugang, Behindertenparkplatz, Behinderten WC"/>
    <tag k="website" v="http://www.edeka-schoeneiche.de"/>
    <tag k="phone" v="030-649 01 19"/>
  </node>
  <node id="-813" version="0" timestamp="Fri Feb 24 10:53:32 +0100 2012" uid="1" user="" lat="52.1473904" lon="14.6309382">
    <tag k="shop" v="kiosk"/>
    <tag k="name" v="Galerie, Laden für Rahmungen und Gemälde (z.B. Matthias Steier)"/>
    <tag k="wheelchair" v="limited"/>
    <tag k="addr:city" v="Eisenhüttenstadt"/>
    <tag k="addr:postcode" v="15890"/>
    <tag k="wheelchair:description" v="zu steile Rampe, schwere Tür"/>
  </node>
  <node id="-1604" version="0" timestamp="Fri Feb 24 10:53:33 +0100 2012" uid="1" user="" lat="52.1434274" lon="14.6635983">
    <tag k="name" v="Ettmeier Pflegen und Betreuen"/>
    <tag k="wheelchair" v="yes"/>
    <tag k="addr:city" v="Eisenhüttenstadt"/>
    <tag k="addr:postcode" v="15890"/>
    <tag k="addr:housenumber" v="1"/>
    <tag k="addr:street" v="Kastanienhof"/>
    <tag k="amenity" v="doctors"/>
    <tag k="website" v="http://www.ettmeier.de"/>
    <tag k="phone" v="03364/7738850"/>
  </node>
  <node id="-1612" version="0" timestamp="Fri Feb 24 10:53:33 +0100 2012" uid="1" user="" lat="52.1406391" lon="14.6352191">
    <tag k="name" v="Bierbar zur Tenne"/>
    <tag k="wheelchair" v="limited"/>
    <tag k="addr:city" v="Eisenhüttenstadt"/>
    <tag k="addr:postcode" v="15890"/>
    <tag k="addr:housenumber" v="62"/>
    <tag k="addr:street" v="Karl-Marx-Straße"/>
    <tag k="amenity" v="pub"/>
    <tag k="website" v="http://www.tenne-ehst.de/"/>
    <tag k="phone" v="03364 / 43065 "/>
  </node>
  <node id="-2852" version="0" timestamp="Fri Feb 24 10:53:34 +0100 2012" uid="1" user="" lat="52.1486737" lon="14.6154505">
    <tag k="name" v="Frauenartzt"/>
    <tag k="wheelchair" v="no"/>
    <tag k="wheelchair:description" v="Rampe, kein Parkplatz, schwere Türen, Untersuchungsräume nicht für Rollis"/>
    <tag k="amenity" v="doctors"/>
  </node>
  <node id="-2854" version="0" timestamp="Fri Feb 24 10:53:34 +0100 2012" uid="1" user="" lat="52.1410914" lon="14.6240677">
    <tag k="name" v="Rolli-Eingang Krankenhaus"/>
    <tag k="wheelchair" v="unknown"/>
    <tag k="wheelchair:description" v="ebenerdig, aber schwere Tür, 2 Parkplätze"/>
    <tag k="amenity" v="hospital"/>
  </node>
  <node id="-3440" version="0" timestamp="Fri Feb 24 10:53:35 +0100 2012" uid="1" user="" lat="52.1951486" lon="13.9978624">
    <tag k="name" v="Oberberg Klinik Berlin-Brandenburg"/>
    <tag k="wheelchair" v="yes"/>
    <tag k="addr:city" v="Wendisch-Rietz"/>
    <tag k="addr:postcode" v="15864"/>
    <tag k="addr:housenumber" v="46"/>
    <tag k="addr:street" v="Am Glubigsee"/>
    <tag k="amenity" v="hospital"/>
    <tag k="website" v="http://www.oberbergkliniken.de"/>
    <tag k="phone" v="+49 33 679 64 - 100"/>
  </node>
  <node id="-3905" version="0" timestamp="Fri Feb 24 10:53:35 +0100 2012" uid="1" user="" lat="52.350242" lon="14.0694348">
    <tag k="name" v="Reha zentrum Stefan"/>
    <tag k="wheelchair" v="limited"/>
    <tag k="addr:city" v="Fürstenwalde"/>
    <tag k="addr:postcode" v="15517"/>
    <tag k="addr:housenumber" v="131"/>
    <tag k="addr:street" v="A.Bebel Str."/>
    <tag k="wheelchair:description" v="frei zugängl., kein Beh.WC"/>
    <tag k="phone" v="03361/368674"/>
  </node>
</osm>
