<?xml version='1.0' encoding='UTF-8'?>
<osm version="0.6" generator="Osmosis 0.39">
  <node id="-913" version="0" timestamp="Fri Feb 24 10:53:33 +0100 2012" uid="1" user="" lat="52.4033433" lon="13.0584029">
    <tag k="name" v="Daily Coffee"/>
    <tag k="wheelchair" v="unknown"/>
    <tag k="addr:city" v="Potsdam"/>
    <tag k="addr:postcode" v="14467"/>
    <tag k="addr:housenumber" v="31"/>
    <tag k="addr:street" v="Friedrich-Ebert-Straße"/>
    <tag k="amenity" v="cafe"/>
    <tag k="website" v="http://www.daily-coffee.com"/>
    <tag k="phone" v="0331 2011979"/>
  </node>
  <node id="-1293" version="0" timestamp="Fri Feb 24 10:53:33 +0100 2012" uid="1" user="" lat="52.3594883" lon="13.0910957">
    <tag k="name" v="Haus der Begegnung"/>
    <tag k="wheelchair" v="yes"/>
    <tag k="addr:city" v="Potsdam"/>
    <tag k="addr:postcode" v="14478"/>
    <tag k="addr:housenumber" v="30"/>
    <tag k="addr:street" v="Zum Teufelssee"/>
    <tag k="amenity" v="cafe"/>
    <tag k="website" v="http://hdb-potsdam.de/"/>
    <tag k="phone" v="+49 331 2702926"/>
  </node>
  <node id="-1506" version="0" timestamp="Fri Feb 24 10:53:33 +0100 2012" uid="1" user="" lat="52.4090125" lon="13.0539092">
    <tag k="name" v="Dorint Hotel Sanssouci Berlin/Potsdam"/>
    <tag k="wheelchair" v="yes"/>
    <tag k="addr:city" v="Potsdam"/>
    <tag k="addr:postcode" v="14469"/>
    <tag k="addr:housenumber" v="20"/>
    <tag k="tourism" v="hotel"/>
    <tag k="addr:street" v="Jägerallee"/>
    <tag k="website" v="http://www.dorint.com/potsdam"/>
    <tag k="phone" v="+49 331 274 0"/>
  </node>
  <node id="-3408" version="0" timestamp="Fri Feb 24 10:53:35 +0100 2012" uid="1" user="" lat="52.3782" lon="13.09385">
    <tag k="name" v="Bürgerhaus am Schlaatz"/>
    <tag k="wheelchair" v="yes"/>
    <tag k="addr:city" v="Potsdam"/>
    <tag k="addr:postcode" v="14478"/>
    <tag k="addr:housenumber" v="28"/>
    <tag k="addr:street" v="Schilfhof"/>
    <tag k="website" v="http://www.buergerhaus-schlaatz.de"/>
    <tag k="phone" v="+49 331 81719-0"/>
  </node>
  <node id="-3542" version="0" timestamp="Fri Feb 24 10:53:35 +0100 2012" uid="1" user="" lat="52.36495" lon="13.13368">
    <tag k="name" v="SC Potsdam e.V."/>
    <tag k="wheelchair" v="yes"/>
    <tag k="addr:city" v="Potsdam"/>
    <tag k="addr:postcode" v="14480"/>
    <tag k="addr:housenumber" v="11/13"/>
    <tag k="addr:street" v="Maimi-von-Mirbach-Straße"/>
    <tag k="leisure" v="sports_centre"/>
    <tag k="website" v="http://www.sc-potsdam.de"/>
    <tag k="phone" v="+49 331 622900"/>
  </node>
  <node id="-3602" version="0" timestamp="Fri Feb 24 10:53:35 +0100 2012" uid="1" user="" lat="52.35847" lon="13.07573">
    <tag k="name" v="Akademie 2. Lebenshälfte"/>
    <tag k="wheelchair" v="limited"/>
    <tag k="addr:city" v="Brandenburg"/>
    <tag k="addr:postcode" v="14776"/>
    <tag k="addr:housenumber" v="12"/>
    <tag k="addr:street" v="Jacobstr. "/>
    <tag k="wheelchair:description" v="barrierefrei"/>
    <tag k="amenity" v="school"/>
    <tag k="website" v="http://www.akademie2.lebenshaelfte.de"/>
    <tag k="phone" v="+49 3381 410088"/>
  </node>
  <node id="-3603" version="0" timestamp="Fri Feb 24 10:53:35 +0100 2012" uid="1" user="" lat="52.35847" lon="13.07573">
    <tag k="name" v="Akademie 2. Lebenshälfte"/>
    <tag k="wheelchair" v="yes"/>
    <tag k="addr:city" v="Ludwigsfelde"/>
    <tag k="addr:postcode" v="14974"/>
    <tag k="addr:housenumber" v="2"/>
    <tag k="addr:street" v="August-Bebel-Str. "/>
    <tag k="wheelchair:description" v="barrierefrei"/>
    <tag k="amenity" v="school"/>
    <tag k="website" v="http://www.akademie2.lebenshaelfte.de"/>
    <tag k="phone" v="+49 3378 879714"/>
  </node>
  <node id="-4419" version="0" timestamp="Fri Feb 24 10:53:36 +0100 2012" uid="1" user="" lat="52.3951654" lon="13.0520605">
    <tag k="name" v="Volkshochschule Albert Einstein"/>
    <tag k="wheelchair" v="no"/>
    <tag k="addr:city" v="Potsdam"/>
    <tag k="addr:postcode" v="14467"/>
    <tag k="addr:housenumber" v="37"/>
    <tag k="addr:street" v="Dortustraße"/>
    <tag k="wheelchair:description" v="Treppen teilweise ohne Handlauf"/>
    <tag k="amenity" v="school"/>
    <tag k="website" v="http://www.potsdam-vhs.de/"/>
    <tag k="phone" v="+49 331 289-4560"/>
  </node>
  <node id="-5035" version="0" timestamp="Fri Feb 24 10:53:36 +0100 2012" uid="1" user="" lat="52.3900767" lon="13.0655437">
    <tag k="name" v="Ministerium für Wirtschaft und Europaangelegenheiten"/>
    <tag k="wheelchair" v="yes"/>
    <tag k="wheelchair:description" v="Haus 2"/>
    <tag k="office" v="company"/>
  </node>
  <node id="-5499" version="0" timestamp="Fri Feb 24 10:53:37 +0100 2012" uid="1" user="" lat="52.3801257" lon="13.017097">
    <tag k="name" v="MBS Arena"/>
    <tag k="wheelchair" v="yes"/>
    <tag k="addr:city" v="Potsdam"/>
    <tag k="addr:postcode" v="14471"/>
    <tag k="addr:housenumber" v="2"/>
    <tag k="addr:street" v="Am Luftschiffhafen"/>
    <tag k="leisure" v="stadium"/>
    <tag k="website" v="http://www.sportpark-luftschiffhafen.de"/>
  </node>
</osm>
