<?xml version='1.0' encoding='UTF-8'?>
<osm version="0.6" generator="Osmosis 0.39">
  <node id="-569" version="0" timestamp="Fri Feb 24 10:53:32 +0100 2012" uid="1" user="" lat="52.388142" lon="13.2658015">
    <tag k="shop" v="garden_centre"/>
    <tag k="name" v="Pflanzen Kölle"/>
    <tag k="wheelchair" v="unknown"/>
    <tag k="addr:city" v="Teltow"/>
    <tag k="addr:postcode" v="14513"/>
    <tag k="addr:housenumber" v="2"/>
    <tag k="addr:street" v="Asternstraße"/>
    <tag k="website" v="http://www.pflanzen-koelle.de/standorte/berlin-brandenburg/teltow/standort.html"/>
    <tag k="phone" v="03328 3440"/>
  </node>
  <node id="-3458" version="0" timestamp="Fri Feb 24 10:53:35 +0100 2012" uid="1" user="" lat="52.39435" lon="13.28378">
    <tag k="name" v="Philantow Familienzentrum"/>
    <tag k="wheelchair" v="limited"/>
    <tag k="addr:city" v="Teltow"/>
    <tag k="addr:postcode" v="14513"/>
    <tag k="addr:housenumber" v="139"/>
    <tag k="addr:street" v="Mahlower Straße"/>
    <tag k="wheelchair:description" v="EG und WC barrierefrei"/>
    <tag k="amenity" v="cafe"/>
    <tag k="website" v="http://www.philantow.de"/>
    <tag k="phone" v="+49 3328 470140"/>
  </node>
  <node id="-3539" version="0" timestamp="Fri Feb 24 10:53:35 +0100 2012" uid="1" user="" lat="52.33115" lon="13.05787">
    <tag k="name" v="Grund- und Oberschule Wilhelmshorst"/>
    <tag k="wheelchair" v="no"/>
    <tag k="addr:city" v="Wilhelmshorst"/>
    <tag k="addr:postcode" v="14552"/>
    <tag k="addr:housenumber" v="1"/>
    <tag k="addr:street" v="Heidereuterweg"/>
    <tag k="amenity" v="school"/>
    <tag k="website" v="http://www.schulewilhelmshorst.de/"/>
    <tag k="phone" v="+49 33205 62295"/>
  </node>
  <node id="-4061" version="0" timestamp="Fri Feb 24 10:53:36 +0100 2012" uid="1" user="" lat="52.1329924" lon="12.7511391">
    <tag k="name" v="Marche Restaurant"/>
    <tag k="wheelchair" v="yes"/>
    <tag k="amenity" v="restaurant"/>
  </node>
  <node id="-4062" version="0" timestamp="Fri Feb 24 10:53:36 +0100 2012" uid="1" user="" lat="52.1321546" lon="12.7532548">
    <tag k="name" v="Marche Restaurant"/>
    <tag k="wheelchair" v="yes"/>
    <tag k="amenity" v="restaurant"/>
  </node>
</osm>
