<?xml version='1.0' encoding='UTF-8'?>
<osm version="0.6" generator="Osmosis 0.39">
  <node id="-631" version="0" timestamp="Fri Feb 24 10:53:32 +0100 2012" uid="1" user="" lat="51.75972" lon="14.3288">
    <tag k="name" v="Piccolo Theater Cottbus"/>
    <tag k="wheelchair" v="yes"/>
    <tag k="addr:city" v="Cottbus"/>
    <tag k="addr:postcode" v="03046"/>
    <tag k="addr:street" v="Erich-Kästner-Platz"/>
    <tag k="wheelchair:description" v="Parkplätze in ca. 70 m Entfernung, Hörschleife vorhanden, Aufzug vorhanden, innen ebenerdig"/>
    <tag k="amenity" v="theatre"/>
    <tag k="website" v="http://www.piccolo-cottbus.de"/>
    <tag k="phone" v="0355 23687"/>
  </node>
  <node id="-1644" version="0" timestamp="Fri Feb 24 10:53:33 +0100 2012" uid="1" user="" lat="51.5707233" lon="14.3756267">
    <tag k="shop" v="department_store"/>
    <tag k="name" v="Büro- und Schreibwarenladen Horenburg"/>
    <tag k="wheelchair" v="limited"/>
    <tag k="addr:city" v="Spremberg"/>
    <tag k="addr:postcode" v="03130"/>
    <tag k="addr:housenumber" v="22a"/>
    <tag k="addr:street" v="Lange Str. "/>
  </node>
  <node id="-1645" version="0" timestamp="Fri Feb 24 10:53:33 +0100 2012" uid="1" user="" lat="51.57074" lon="14.3759">
    <tag k="name" v="Asia Fast Food"/>
    <tag k="wheelchair" v="yes"/>
    <tag k="amenity" v="fast_food"/>
  </node>
  <node id="-1646" version="0" timestamp="Fri Feb 24 10:53:33 +0100 2012" uid="1" user="" lat="51.5727234" lon="14.3605608">
    <tag k="name" v="Tele Pizza"/>
    <tag k="wheelchair" v="yes"/>
    <tag k="amenity" v="fast_food"/>
  </node>
  <node id="-1647" version="0" timestamp="Fri Feb 24 10:53:33 +0100 2012" uid="1" user="" lat="51.5748334" lon="14.3580915">
    <tag k="name" v="Tennisheim "/>
    <tag k="wheelchair" v="limited"/>
    <tag k="amenity" v="restaurant"/>
  </node>
  <node id="-1648" version="0" timestamp="Fri Feb 24 10:53:33 +0100 2012" uid="1" user="" lat="51.5646499" lon="14.3529838">
    <tag k="name" v="EVENTHAUS"/>
    <tag k="wheelchair" v="limited"/>
    <tag k="amenity" v="nightclub"/>
  </node>
  <node id="-1649" version="0" timestamp="Fri Feb 24 10:53:33 +0100 2012" uid="1" user="" lat="51.557883" lon="14.3560474">
    <tag k="shop" v="department_store"/>
    <tag k="name" v="Kaufland"/>
    <tag k="wheelchair" v="yes"/>
  </node>
  <node id="-1650" version="0" timestamp="Fri Feb 24 10:53:33 +0100 2012" uid="1" user="" lat="51.5589634" lon="14.3598894">
    <tag k="shop" v="shoes"/>
    <tag k="name" v="Deichmann"/>
    <tag k="wheelchair" v="yes"/>
  </node>
  <node id="-1651" version="0" timestamp="Fri Feb 24 10:53:33 +0100 2012" uid="1" user="" lat="51.55896" lon="14.35989">
    <tag k="shop" v="department_store"/>
    <tag k="name" v="Dänisches Bettenlager"/>
    <tag k="wheelchair" v="yes"/>
  </node>
  <node id="-3191" version="0" timestamp="Fri Feb 24 10:53:35 +0100 2012" uid="1" user="" lat="51.75162" lon="14.34559">
    <tag k="name" v="Stadion der Freundschaft"/>
    <tag k="wheelchair" v="yes"/>
    <tag k="addr:city" v="Cottbus"/>
    <tag k="addr:postcode" v="03046"/>
    <tag k="addr:housenumber" v="1"/>
    <tag k="addr:street" v="Am Eliaspark "/>
    <tag k="wheelchair:description" v="Rollstuhlplätze unten an der Osttribühne"/>
    <tag k="leisure" v="stadium"/>
    <tag k="website" v="http://fcenergie.de"/>
    <tag k="phone" v="+49 355 756950"/>
  </node>
  <node id="-4912" version="0" timestamp="Fri Feb 24 10:53:36 +0100 2012" uid="1" user="" lat="51.8380936" lon="14.1354408">
    <tag k="name" v="Spreewald Therme"/>
    <tag k="wheelchair" v="unknown"/>
    <tag k="addr:city" v="Burg"/>
    <tag k="addr:postcode" v="03096"/>
    <tag k="addr:housenumber" v="152"/>
    <tag k="addr:street" v="Ringchaussee"/>
    <tag k="amenity" v="swimming_pool"/>
    <tag k="website" v="http://www.spreewaldtherme.de"/>
    <tag k="phone" v="035603 18850"/>
  </node>
  <node id="-4922" version="0" timestamp="Fri Feb 24 10:53:36 +0100 2012" uid="1" user="" lat="51.76141" lon="14.3254161">
    <tag k="shop" v="computer"/>
    <tag k="name" v="DEMATH"/>
    <tag k="wheelchair" v="yes"/>
    <tag k="addr:city" v="Cottbus"/>
    <tag k="addr:postcode" v="03046"/>
    <tag k="addr:housenumber" v="139"/>
    <tag k="addr:street" v="Berliner Straße"/>
    <tag k="wheelchair:description" v="Parkplatz 5m nebenan, Systemhaus ebenerdig"/>
    <tag k="website" v="http://www.demath.de"/>
    <tag k="phone" v="+49 355 48 37 06-0"/>
  </node>
  <node id="-5380" version="0" timestamp="Fri Feb 24 10:53:37 +0100 2012" uid="1" user="" lat="51.75433" lon="14.30314">
    <tag k="name" v="Santander Consumer Bank"/>
    <tag k="wheelchair" v="limited"/>
    <tag k="addr:city" v="Cottbus"/>
    <tag k="addr:postcode" v="03046"/>
    <tag k="addr:housenumber" v="7"/>
    <tag k="addr:street" v="Karl-Liebknecht-Straße "/>
    <tag k="amenity" v="bank"/>
    <tag k="website" v="http://www.santander.de"/>
  </node>
</osm>
