<?xml version='1.0' encoding='UTF-8'?>
<osm version="0.6" generator="Osmosis 0.39">
  <node id="-1510" version="0" timestamp="Fri Feb 24 10:53:33 +0100 2012" uid="1" user="" lat="52.0867411" lon="13.4">
    <tag k="name" v="Sofia-Apotheke"/>
    <tag k="wheelchair" v="yes"/>
    <tag k="addr:city" v="Düsseldorf"/>
    <tag k="addr:postcode" v="40468"/>
    <tag k="addr:housenumber" v="44"/>
    <tag k="addr:street" v="Unterrather Straße"/>
    <tag k="wheelchair:description" v="automatische Tür"/>
    <tag k="amenity" v="pharmacy"/>
    <tag k="website" v="http://www.sofia-apotheke.de"/>
    <tag k="phone" v="0049-211-411211"/>
  </node>
  <node id="-3743" version="0" timestamp="Fri Feb 24 10:53:35 +0100 2012" uid="1" user="" lat="52.31006" lon="13.2392">
    <tag k="name" v="Akademie 2. Lebenshälfte"/>
    <tag k="wheelchair" v="yes"/>
    <tag k="addr:city" v="Ludwigsfelde"/>
    <tag k="addr:postcode" v="14974"/>
    <tag k="addr:housenumber" v="2"/>
    <tag k="addr:street" v="August-Bebel-Str. "/>
    <tag k="wheelchair:description" v="barrierefrei"/>
    <tag k="amenity" v="school"/>
    <tag k="website" v="http://www.akademie2.lebenshaelfte.de"/>
    <tag k="phone" v="+49 3378 879714"/>
  </node>
  <node id="-3744" version="0" timestamp="Fri Feb 24 10:53:35 +0100 2012" uid="1" user="" lat="52.30835" lon="13.24884">
    <tag k="name" v="Akademie 2. Lebenshälfte"/>
    <tag k="wheelchair" v="yes"/>
    <tag k="addr:city" v="Brandenburg"/>
    <tag k="addr:postcode" v="14776"/>
    <tag k="addr:housenumber" v="12"/>
    <tag k="addr:street" v="Jacobstr."/>
    <tag k="wheelchair:description" v="barrierefrei"/>
    <tag k="amenity" v="school"/>
    <tag k="website" v="http://www.akademie2.lebenshaelfte.de"/>
    <tag k="phone" v="+49 3381 410088"/>
  </node>
  <node id="-4149" version="0" timestamp="Fri Feb 24 10:53:36 +0100 2012" uid="1" user="" lat="52.1669415" lon="13.4715707">
    <tag k="shop" v="clothes"/>
    <tag k="name" v="Mode Pur"/>
    <tag k="wheelchair" v="unknown"/>
    <tag k="addr:city" v="Zossen"/>
    <tag k="addr:postcode" v="15806"/>
    <tag k="addr:housenumber" v="30-32"/>
    <tag k="addr:street" v="Berliner Allee"/>
    <tag k="website" v="http://www.modepur-fashion.de"/>
    <tag k="phone" v="033702 65874"/>
  </node>
</osm>
