<?xml version='1.0' encoding='UTF-8'?>
<osm version="0.6" generator="Osmosis 0.39">
  <node id="-204" version="0" timestamp="Fri Feb 24 10:53:32 +0100 2012" uid="1" user="" lat="53.3805556" lon="12.6118083">
    <tag k="name" v="Haus des Gastes"/>
    <tag k="wheelchair" v="yes"/>
  </node>
  <node id="-206" version="0" timestamp="Fri Feb 24 10:53:32 +0100 2012" uid="1" user="" lat="53.3805916" lon="12.6118334">
    <tag k="name" v="Haus des Gastes"/>
    <tag k="wheelchair" v="yes"/>
    <tag k="addr:city" v="Röbel/Müritz"/>
    <tag k="addr:postcode" v="17207"/>
    <tag k="addr:housenumber" v="7http://wheelmap.org/nodes/new?zoom=17&amp;lat=53.38031&amp;lon=12.6109&amp;layers=BT"/>
    <tag k="addr:street" v="Straße der Deutschen Einheit"/>
    <tag k="phone" v="039931   80116"/>
  </node>
  <node id="-212" version="0" timestamp="Fri Feb 24 10:53:32 +0100 2012" uid="1" user="" lat="53.3750352" lon="12.6020649">
    <tag k="name" v="Müritz Therme"/>
    <tag k="wheelchair" v="yes"/>
    <tag k="addr:city" v="Röbel/Müritz "/>
    <tag k="addr:postcode" v=" 17207 "/>
    <tag k="addr:housenumber" v="14"/>
    <tag k="addr:street" v="Am Gotthunskamp "/>
    <tag k="amenity" v="swimming_pool"/>
    <tag k="website" v="http://www.mueritztherme.de"/>
    <tag k="phone" v="039931   878 19"/>
  </node>
  <node id="-1036" version="0" timestamp="Fri Feb 24 10:53:33 +0100 2012" uid="1" user="" lat="53.4783639" lon="12.4241496">
    <tag k="shop" v="supermarket"/>
    <tag k="name" v="Edeka"/>
    <tag k="wheelchair" v="yes"/>
  </node>
  <node id="-1037" version="0" timestamp="Fri Feb 24 10:53:33 +0100 2012" uid="1" user="" lat="53.4766988" lon="12.4259484">
    <tag k="name" v="Gaststätte Spiegelei Inh. R. Sigismund"/>
    <tag k="wheelchair" v="yes"/>
    <tag k="addr:city" v="Malchow"/>
    <tag k="addr:postcode" v="17213"/>
    <tag k="addr:housenumber" v="43"/>
    <tag k="addr:street" v="Güstrower Straße"/>
    <tag k="amenity" v="restaurant"/>
    <tag k="phone" v="039932 12451"/>
  </node>
  <node id="-2826" version="0" timestamp="Fri Feb 24 10:53:34 +0100 2012" uid="1" user="" lat="53.5221901" lon="12.6857035">
    <tag k="name" v="MediClin Müritz-Klinikum"/>
    <tag k="wheelchair" v="yes"/>
    <tag k="addr:city" v=" Waren (Müritz"/>
    <tag k="addr:postcode" v="17192)"/>
    <tag k="addr:housenumber" v="19 "/>
    <tag k="addr:street" v="Weinbergstr. "/>
    <tag k="amenity" v="hospital"/>
    <tag k="website" v="http://www.mueritz-klinikum.de/desktopdefault.aspx/tabid-3140/"/>
  </node>
  <node id="-3824" version="0" timestamp="Fri Feb 24 10:53:35 +0100 2012" uid="1" user="" lat="53.5198762" lon="12.6824933">
    <tag k="name" v="Hotel Am Bahnhof"/>
    <tag k="wheelchair" v="limited"/>
    <tag k="addr:city" v="Waren"/>
    <tag k="addr:postcode" v="17192"/>
    <tag k="addr:housenumber" v="19"/>
    <tag k="addr:street" v="Bahnhofstraße "/>
    <tag k="wheelchair:description" v="Auffahrrampe"/>
    <tag k="amenity" v="restaurant"/>
    <tag k="website" v="http://www.hotel-am-bahnhof-waren.de/"/>
    <tag k="phone" v="+493991731038"/>
  </node>
  <node id="-3825" version="0" timestamp="Fri Feb 24 10:53:35 +0100 2012" uid="1" user="" lat="53.5198864" lon="12.6823344">
    <tag k="name" v="Hotel Am Bahnhof"/>
    <tag k="wheelchair" v="no"/>
    <tag k="addr:city" v="Waren"/>
    <tag k="addr:postcode" v="17192"/>
    <tag k="addr:housenumber" v="19"/>
    <tag k="tourism" v="hotel"/>
    <tag k="addr:street" v="Bahnhofstraße"/>
    <tag k="website" v="http://www.hotel-am-bahnhof-waren.de/"/>
    <tag k="phone" v="+493991731038"/>
  </node>
  <node id="-5382" version="0" timestamp="Fri Feb 24 10:53:37 +0100 2012" uid="1" user="" lat="53.5571" lon="13.26378">
    <tag k="name" v="Santander Consumer bank"/>
    <tag k="wheelchair" v="limited"/>
    <tag k="addr:city" v="Neubrandenburg"/>
    <tag k="addr:postcode" v="17033"/>
    <tag k="addr:housenumber" v="23"/>
    <tag k="addr:street" v="Turmstraße"/>
    <tag k="amenity" v="bank"/>
    <tag k="website" v="http://www.santander.de"/>
  </node>
</osm>
