<?xml version='1.0' encoding='UTF-8'?>
<osm version="0.6" generator="Osmosis 0.39">
  <node id="-488" version="0" timestamp="Fri Feb 24 10:53:32 +0100 2012" uid="1" user="" lat="54.1042119" lon="11.6094133">
    <tag k="name" v="Rerik ---Rollisegeln"/>
    <tag k="wheelchair" v="yes"/>
    <tag k="addr:city" v="Rerik"/>
    <tag k="addr:postcode" v="18230"/>
    <tag k="addr:housenumber" v="7"/>
    <tag k="addr:street" v="Haffplatz "/>
    <tag k="wheelchair:description" v="Segeln für Rollifahrer + Rerik Rollstuhlgerecht"/>
    <tag k="amenity" v="swimming_pool"/>
    <tag k="website" v="http://www.combi-tri.de"/>
    <tag k="phone" v="0176/86302452"/>
  </node>
  <node id="-2038" version="0" timestamp="Fri Feb 24 10:53:34 +0100 2012" uid="1" user="" lat="54.0774549" lon="12.1069467">
    <tag k="name" v="Konrad Zuse Haus - Institut für Informatik"/>
    <tag k="wheelchair" v="yes"/>
    <tag k="addr:city" v="Rostock"/>
    <tag k="addr:postcode" v="18059"/>
    <tag k="addr:housenumber" v="22"/>
    <tag k="addr:street" v="Albert-Einstein Straße"/>
    <tag k="amenity" v="university"/>
    <tag k="website" v="http://www.ief.uni-rostock.de/"/>
  </node>
  <node id="-2308" version="0" timestamp="Fri Feb 24 10:53:34 +0100 2012" uid="1" user="" lat="54.0902127" lon="12.1345283">
    <tag k="name" v="&quot;Samtrot&quot; Restaurant und Weinbar"/>
    <tag k="wheelchair" v="yes"/>
    <tag k="addr:city" v="Rostock"/>
    <tag k="addr:postcode" v="18055"/>
    <tag k="addr:housenumber" v="9"/>
    <tag k="addr:street" v="Lange Straße "/>
    <tag k="wheelchair:description" v="uneingeschränkt Rollstuhlgerecht mit WC"/>
    <tag k="amenity" v="restaurant"/>
    <tag k="website" v="http://www.samtrot-rostock.de/index.php/das-restaurant.html"/>
    <tag k="phone" v="0381-877 299 60"/>
  </node>
  <node id="-2497" version="0" timestamp="Fri Feb 24 10:53:34 +0100 2012" uid="1" user="" lat="54.1439274" lon="12.027317">
    <tag k="name" v="Lichtenhagen,Wiesengrund"/>
    <tag k="wheelchair" v="limited"/>
    <tag k="wheelchair:description" v="Bushaltestelle Ja; Einstieg in Bus nur auf Telefonische Anfrage "/>
    <tag k="amenity" v="bus_station"/>
    <tag k="website" v="http://www.rvk-rostock.de/Startseite.1.0.html"/>
    <tag k="phone" v="0381-4056018      "/>
  </node>
  <node id="-2499" version="0" timestamp="Fri Feb 24 10:53:34 +0100 2012" uid="1" user="" lat="54.1401862" lon="12.0325959">
    <tag k="name" v="Landgasthaus Gute Laune"/>
    <tag k="wheelchair" v="yes"/>
    <tag k="wheelchair:description" v="Alle Räume Barierefrei"/>
    <tag k="amenity" v="restaurant"/>
    <tag k="website" v="http://www.gasthaus-gute-laune.de/"/>
    <tag k="phone" v="0381-715311      ."/>
  </node>
  <node id="-2500" version="0" timestamp="Fri Feb 24 10:53:34 +0100 2012" uid="1" user="" lat="54.1389489" lon="12.0402401">
    <tag k="shop" v="supermarket"/>
    <tag k="name" v="Aldi"/>
    <tag k="wheelchair" v="yes"/>
  </node>
  <node id="-2501" version="0" timestamp="Fri Feb 24 10:53:34 +0100 2012" uid="1" user="" lat="54.1329694" lon="12.0623218">
    <tag k="name" v="Burger King"/>
    <tag k="wheelchair" v="yes"/>
    <tag k="amenity" v="fast_food"/>
  </node>
  <node id="-2502" version="0" timestamp="Fri Feb 24 10:53:34 +0100 2012" uid="1" user="" lat="54.1333974" lon="12.0637101">
    <tag k="name" v="McDonald´s"/>
    <tag k="wheelchair" v="yes"/>
    <tag k="amenity" v="fast_food"/>
  </node>
  <node id="-2711" version="0" timestamp="Fri Feb 24 10:53:34 +0100 2012" uid="1" user="" lat="54.0934435" lon="12.1189866">
    <tag k="name" v="Beh.-WC im Parkhauseingang"/>
    <tag k="wheelchair" v="yes"/>
    <tag k="wheelchair:description" v="mit Euroschlüssel"/>
    <tag k="amenity" v="toilets"/>
  </node>
  <node id="-2712" version="0" timestamp="Fri Feb 24 10:53:34 +0100 2012" uid="1" user="" lat="54.0939148" lon="12.1166974">
    <tag k="name" v="Bühne 602"/>
    <tag k="wheelchair" v="yes"/>
    <tag k="wheelchair:description" v="incl. Beh-WC (Euroschlüssel)"/>
    <tag k="amenity" v="theatre"/>
  </node>
  <node id="-2713" version="0" timestamp="Fri Feb 24 10:53:34 +0100 2012" uid="1" user="" lat="54.0925009" lon="12.1222493">
    <tag k="name" v="Besitos"/>
    <tag k="wheelchair" v="yes"/>
    <tag k="wheelchair:description" v="incl. Beh.-WC"/>
    <tag k="amenity" v="restaurant"/>
  </node>
  <node id="-2714" version="0" timestamp="Fri Feb 24 10:53:34 +0100 2012" uid="1" user="" lat="54.0881501" lon="12.1321653">
    <tag k="shop" v="clothes"/>
    <tag k="name" v="C&amp;A"/>
    <tag k="wheelchair" v="yes"/>
    <tag k="wheelchair:description" v="incl. Beh.-WC"/>
  </node>
  <node id="-2933" version="0" timestamp="Fri Feb 24 10:53:34 +0100 2012" uid="1" user="" lat="54.0764866" lon="12.1154955">
    <tag k="name" v="ST-Club Rostock e.V."/>
    <tag k="wheelchair" v="limited"/>
    <tag k="addr:city" v="Rostock"/>
    <tag k="addr:postcode" v="18059"/>
    <tag k="addr:housenumber" v="2 a"/>
    <tag k="addr:street" v="Albert-Einstein-Straße"/>
    <tag k="wheelchair:description" v="leider kein Rollstuhl-WC, sonst alle Räume ohne Stufen zugänglich - einzige Ausnahme: der Raucherbereich (Rauchen aber im Außengelände möglich) "/>
    <tag k="amenity" v="nightclub"/>
    <tag k="website" v="http://www.stclub.de"/>
    <tag k="phone" v="0381405030"/>
  </node>
  <node id="-3031" version="0" timestamp="Fri Feb 24 10:53:35 +0100 2012" uid="1" user="" lat="54.0884571" lon="12.123615">
    <tag k="name" v="RONJA Espresso Coffee Bar"/>
    <tag k="wheelchair" v="yes"/>
    <tag k="addr:city" v="Rostock"/>
    <tag k="addr:postcode" v="18057"/>
    <tag k="addr:housenumber" v="158"/>
    <tag k="addr:street" v="Doberaner Str. "/>
    <tag k="wheelchair:description" v="Kein WC"/>
    <tag k="amenity" v="bar"/>
  </node>
  <node id="-3217" version="0" timestamp="Fri Feb 24 10:53:35 +0100 2012" uid="1" user="" lat="54.087711" lon="12.1176755">
    <tag k="name" v="Cafe Lom"/>
    <tag k="wheelchair" v="limited"/>
    <tag k="amenity" v="bar"/>
  </node>
  <node id="-3218" version="0" timestamp="Fri Feb 24 10:53:35 +0100 2012" uid="1" user="" lat="54.0875356" lon="12.115136">
    <tag k="shop" v="books"/>
    <tag k="name" v="Copy &amp; Paste"/>
    <tag k="wheelchair" v="no"/>
    <tag k="addr:city" v="Rostock"/>
    <tag k="addr:postcode" v="18057"/>
    <tag k="addr:housenumber" v="40"/>
    <tag k="addr:street" v="Margaretenstraße"/>
    <tag k="website" v="http://copypaste24.de/"/>
    <tag k="phone" v="+49 381 375 85 85"/>
  </node>
  <node id="-3219" version="0" timestamp="Fri Feb 24 10:53:35 +0100 2012" uid="1" user="" lat="54.0873189" lon="12.1093741">
    <tag k="shop" v="books"/>
    <tag k="name" v="Copy &amp; Paste"/>
    <tag k="wheelchair" v="limited"/>
    <tag k="addr:city" v="Rostock"/>
    <tag k="addr:postcode" v="18057"/>
    <tag k="addr:housenumber" v="42"/>
    <tag k="addr:street" v="Ulmenstraße"/>
    <tag k="website" v="http://copypaste24.de/"/>
    <tag k="phone" v="+49 381 20 33 700"/>
  </node>
  <node id="-3220" version="0" timestamp="Fri Feb 24 10:53:35 +0100 2012" uid="1" user="" lat="54.0887899" lon="12.1210713">
    <tag k="name" v="Freigarten"/>
    <tag k="wheelchair" v="no"/>
    <tag k="amenity" v="bar"/>
  </node>
  <node id="-3221" version="0" timestamp="Fri Feb 24 10:53:35 +0100 2012" uid="1" user="" lat="54.1333711" lon="12.0585477">
    <tag k="shop" v="supermarket"/>
    <tag k="name" v="Norma"/>
    <tag k="wheelchair" v="limited"/>
  </node>
  <node id="-3222" version="0" timestamp="Fri Feb 24 10:53:35 +0100 2012" uid="1" user="" lat="54.1334674" lon="12.0583837">
    <tag k="shop" v="bakery"/>
    <tag k="name" v="Bäckerei"/>
    <tag k="wheelchair" v="yes"/>
  </node>
  <node id="-3224" version="0" timestamp="Fri Feb 24 10:53:35 +0100 2012" uid="1" user="" lat="54.0913643" lon="12.0945371">
    <tag k="name" v="Toilette im Botanischen Garten"/>
    <tag k="wheelchair" v="no"/>
    <tag k="amenity" v="toilets"/>
  </node>
  <node id="-3225" version="0" timestamp="Fri Feb 24 10:53:35 +0100 2012" uid="1" user="" lat="54.089563" lon="12.1338651">
    <tag k="shop" v="mall"/>
    <tag k="name" v="Galeria Kaufhof"/>
    <tag k="wheelchair" v="limited"/>
  </node>
  <node id="-3226" version="0" timestamp="Fri Feb 24 10:53:35 +0100 2012" uid="1" user="" lat="54.08661" lon="12.1229834">
    <tag k="name" v="Cro"/>
    <tag k="wheelchair" v="limited"/>
    <tag k="amenity" v="bar"/>
  </node>
  <node id="-3228" version="0" timestamp="Fri Feb 24 10:53:35 +0100 2012" uid="1" user="" lat="54.0755594" lon="12.1036539">
    <tag k="name" v="Universitätsbibliothek Südstadt"/>
    <tag k="wheelchair" v="yes"/>
    <tag k="amenity" v="library"/>
  </node>
  <node id="-3229" version="0" timestamp="Fri Feb 24 10:53:35 +0100 2012" uid="1" user="" lat="54.0773227" lon="12.1051734">
    <tag k="shop" v="bicycle"/>
    <tag k="name" v="Fahrradladen"/>
    <tag k="wheelchair" v="unknown"/>
  </node>
  <node id="-3230" version="0" timestamp="Fri Feb 24 10:53:35 +0100 2012" uid="1" user="" lat="54.088876" lon="12.1031651">
    <tag k="shop" v="books"/>
    <tag k="name" v="Videothek"/>
    <tag k="wheelchair" v="unknown"/>
  </node>
  <node id="-4360" version="0" timestamp="Fri Feb 24 10:53:36 +0100 2012" uid="1" user="" lat="54.0885089" lon="12.1313156">
    <tag k="name" v="4ever Fitness Rostock"/>
    <tag k="wheelchair" v="yes"/>
    <tag k="addr:city" v="Rostock"/>
    <tag k="addr:postcode" v="18057"/>
    <tag k="addr:housenumber" v="57"/>
    <tag k="addr:street" v="Kröpeliner Straße "/>
    <tag k="wheelchair:description" v="Alles schwellenlos und mit Fahrstuhl und passendem WC...wer mit Auto kommt, bitte ins zweite Untergeschoss fahren, dort gibt es Automatiktüren."/>
    <tag k="leisure" v="sports_centre"/>
    <tag k="website" v="http://www.4everfitness.de"/>
  </node>
  <node id="-4989" version="0" timestamp="Fri Feb 24 10:53:36 +0100 2012" uid="1" user="" lat="54.0990116" lon="12.0921685">
    <tag k="name" v="Kantine RSAG"/>
    <tag k="wheelchair" v="unknown"/>
    <tag k="amenity" v="restaurant"/>
  </node>
  <node id="-4990" version="0" timestamp="Fri Feb 24 10:53:36 +0100 2012" uid="1" user="" lat="54.0923656" lon="12.0963468">
    <tag k="name" v="Loki Schmidt Gewächshaus"/>
    <tag k="wheelchair" v="unknown"/>
    <tag k="tourism" v="attraction"/>
  </node>
  <node id="-4991" version="0" timestamp="Fri Feb 24 10:53:36 +0100 2012" uid="1" user="" lat="54.0985908" lon="12.0877127">
    <tag k="name" v="Kunsthalle Rostock"/>
    <tag k="wheelchair" v="limited"/>
    <tag k="amenity" v="arts_centre"/>
  </node>
  <node id="-4992" version="0" timestamp="Fri Feb 24 10:53:36 +0100 2012" uid="1" user="" lat="54.1136294" lon="12.0819087">
    <tag k="shop" v="second_hand"/>
    <tag k="name" v="An- und Verkauf"/>
    <tag k="wheelchair" v="no"/>
  </node>
  <node id="-4994" version="0" timestamp="Fri Feb 24 10:53:36 +0100 2012" uid="1" user="" lat="54.1217281" lon="12.0579969">
    <tag k="name" v="OSPA Evershagen"/>
    <tag k="wheelchair" v="limited"/>
    <tag k="amenity" v="bank"/>
  </node>
  <node id="-5310" version="0" timestamp="Fri Feb 24 10:53:37 +0100 2012" uid="1" user="" lat="54.0340489" lon="11.6751905">
    <tag k="shop" v="supermarket"/>
    <tag k="name" v="Netto Markendiscount"/>
    <tag k="wheelchair" v="yes"/>
  </node>
  <node id="-5384" version="0" timestamp="Fri Feb 24 10:53:37 +0100 2012" uid="1" user="" lat="54.08903" lon="12.12576">
    <tag k="name" v="Santander Consumer Bank"/>
    <tag k="wheelchair" v="limited"/>
    <tag k="addr:city" v="Rostock"/>
    <tag k="addr:postcode" v="18057"/>
    <tag k="addr:housenumber" v="1-2"/>
    <tag k="addr:street" v="Gertrudenstraße"/>
    <tag k="amenity" v="bank"/>
    <tag k="website" v="http://www.santander.de"/>
  </node>
</osm>
