<?xml version='1.0' encoding='UTF-8'?>
<osm version="0.6" generator="Osmosis 0.39">
  <node id="-199" version="0" timestamp="Fri Feb 24 10:53:32 +0100 2012" uid="1" user="" lat="53.62981" lon="11.38013">
    <tag k="name" v="Restaurant Hafenmeisterei"/>
    <tag k="wheelchair" v="yes"/>
    <tag k="addr:city" v="Schwerin"/>
    <tag k="addr:postcode" v="19055"/>
    <tag k="addr:housenumber" v="74b"/>
    <tag k="addr:street" v="Werderstrasse "/>
    <tag k="amenity" v="restaurant"/>
    <tag k="website" v="http://www.hafenmeisterei-schwerin.de"/>
    <tag k="phone" v="0385 74209870"/>
  </node>
  <node id="-200" version="0" timestamp="Fri Feb 24 10:53:32 +0100 2012" uid="1" user="" lat="53.62981" lon="11.38013">
    <tag k="name" v="Steakhouse Schwerin"/>
    <tag k="wheelchair" v="limited"/>
    <tag k="addr:city" v="Schwerin"/>
    <tag k="addr:postcode" v="19055"/>
    <tag k="addr:housenumber" v="37"/>
    <tag k="addr:street" v="Puschkinstrasse"/>
    <tag k="amenity" v="restaurant"/>
    <tag k="website" v="http://www.steak24.eu"/>
    <tag k="phone" v="0385 7788400"/>
  </node>
  <node id="-2581" version="0" timestamp="Fri Feb 24 10:53:34 +0100 2012" uid="1" user="" lat="53.6213795" lon="11.4166346">
    <tag k="name" v="Klub Einblicl e.V."/>
    <tag k="wheelchair" v="yes"/>
    <tag k="addr:city" v="Schwerin"/>
    <tag k="addr:postcode" v="19053"/>
    <tag k="addr:housenumber" v="43"/>
    <tag k="addr:street" v="Lübecker Str."/>
    <tag k="amenity" v="cafe"/>
    <tag k="website" v="http://klub-einblick.de/"/>
    <tag k="phone" v="+49 385 555560"/>
  </node>
  <node id="-2583" version="0" timestamp="Fri Feb 24 10:53:34 +0100 2012" uid="1" user="" lat="53.6308864" lon="11.4068568">
    <tag k="name" v="Klub Einblick e.V."/>
    <tag k="wheelchair" v="yes"/>
    <tag k="addr:city" v="Schwerin"/>
    <tag k="addr:postcode" v="19053"/>
    <tag k="addr:housenumber" v="43"/>
    <tag k="addr:street" v="Lübecker Str."/>
    <tag k="wheelchair:description" v="kleiner Podest mit Auffahrhilfe, Eingang mit Flügeltür"/>
    <tag k="amenity" v="cafe"/>
    <tag k="website" v="http://klub-einblick.de/"/>
    <tag k="phone" v="+49 385 555560"/>
  </node>
  <node id="-4112" version="0" timestamp="Fri Feb 24 10:53:36 +0100 2012" uid="1" user="" lat="53.6274013" lon="11.4146343">
    <tag k="name" v="Cafe Prag"/>
    <tag k="wheelchair" v="yes"/>
    <tag k="addr:city" v="Schwerin"/>
    <tag k="addr:postcode" v="19055"/>
    <tag k="addr:housenumber" v="64"/>
    <tag k="addr:street" v="Puschkinstraße"/>
    <tag k="amenity" v="cafe"/>
    <tag k="website" v="http://www.restaurant-cafe-prag.de"/>
    <tag k="phone" v="+49 385 565909"/>
  </node>
</osm>
