<?xml version='1.0' encoding='UTF-8'?>
<osm version="0.6" generator="Osmosis 0.39">
  <node id="-853" version="0" timestamp="Fri Feb 24 10:53:32 +0100 2012" uid="1" user="" lat="54.09151" lon="13.43158">
    <tag k="name" v="Caspar-David-Friedrich Schule"/>
    <tag k="wheelchair" v="yes"/>
    <tag k="addr:city" v="Greifswald"/>
    <tag k="addr:postcode" v="17493"/>
    <tag k="addr:housenumber" v="1"/>
    <tag k="addr:street" v="Usedomer Weg "/>
    <tag k="wheelchair:description" v="Eine Schule mit Fahrstuhl"/>
    <tag k="amenity" v="school"/>
    <tag k="phone" v="0383484/196"/>
  </node>
  <node id="-854" version="0" timestamp="Fri Feb 24 10:53:32 +0100 2012" uid="1" user="" lat="54.0808168" lon="13.4036811">
    <tag k="name" v="IGS Erwin Fischer"/>
    <tag k="wheelchair" v="no"/>
    <tag k="addr:city" v="Greifswald"/>
    <tag k="addr:postcode" v="17491"/>
    <tag k="addr:housenumber" v="6"/>
    <tag k="addr:street" v="Einsteinstraße"/>
    <tag k="wheelchair:description" v="Eine Schule ohne Fahrstuhl nur mit Treppen!"/>
    <tag k="amenity" v="school"/>
    <tag k="phone" v="03834500775"/>
  </node>
  <node id="-855" version="0" timestamp="Fri Feb 24 10:53:32 +0100 2012" uid="1" user="" lat="54.0819577" lon="13.4047457">
    <tag k="shop" v="department_store"/>
    <tag k="name" v="Rewe und Pennymarkt"/>
    <tag k="wheelchair" v="yes"/>
    <tag k="addr:city" v="Greifswald"/>
    <tag k="addr:postcode" v="17491"/>
    <tag k="addr:street" v="Einsteinstraße"/>
    <tag k="wheelchair:description" v="2 Einkaufshallen rollstuhlgerecht da keine Treppen vorhanden sind"/>
  </node>
  <node id="-2123" version="0" timestamp="Fri Feb 24 10:53:34 +0100 2012" uid="1" user="" lat="54.0817399" lon="13.4190366">
    <tag k="shop" v="supermarket"/>
    <tag k="name" v="Penny"/>
    <tag k="wheelchair" v="yes"/>
    <tag k="addr:city" v="Greifswald"/>
  </node>
  <node id="-2124" version="0" timestamp="Fri Feb 24 10:53:34 +0100 2012" uid="1" user="" lat="54.0805177" lon="13.4173586">
    <tag k="name" v="Asia Imbiss"/>
    <tag k="wheelchair" v="limited"/>
    <tag k="amenity" v="fast_food"/>
  </node>
  <node id="-2125" version="0" timestamp="Fri Feb 24 10:53:34 +0100 2012" uid="1" user="" lat="54.081379" lon="13.4182237">
    <tag k="shop" v="convenience"/>
    <tag k="name" v="ZOOlogisch"/>
    <tag k="wheelchair" v="yes"/>
  </node>
  <node id="-2126" version="0" timestamp="Fri Feb 24 10:53:34 +0100 2012" uid="1" user="" lat="54.0809101" lon="13.4173939">
    <tag k="name" v="Casino"/>
    <tag k="wheelchair" v="unknown"/>
    <tag k="amenity" v="nightclub"/>
  </node>
  <node id="-2127" version="0" timestamp="Fri Feb 24 10:53:34 +0100 2012" uid="1" user="" lat="54.0824545" lon="13.4057435">
    <tag k="name" v="Sparda Bank"/>
    <tag k="wheelchair" v="unknown"/>
    <tag k="amenity" v="bank"/>
  </node>
  <node id="-2128" version="0" timestamp="Fri Feb 24 10:53:34 +0100 2012" uid="1" user="" lat="54.0829409" lon="13.4047744">
    <tag k="shop" v="clothes"/>
    <tag k="name" v="KIK"/>
    <tag k="wheelchair" v="yes"/>
  </node>
  <node id="-2129" version="0" timestamp="Fri Feb 24 10:53:34 +0100 2012" uid="1" user="" lat="54.08294" lon="13.40477">
    <tag k="shop" v="convenience"/>
    <tag k="name" v="Schlecker"/>
    <tag k="wheelchair" v="yes"/>
  </node>
  <node id="-2131" version="0" timestamp="Fri Feb 24 10:53:34 +0100 2012" uid="1" user="" lat="54.09055" lon="13.40478">
    <tag k="name" v="Universitätsbibliothek"/>
    <tag k="wheelchair" v="yes"/>
    <tag k="amenity" v="library"/>
  </node>
  <node id="-2134" version="0" timestamp="Fri Feb 24 10:53:34 +0100 2012" uid="1" user="" lat="54.09437" lon="13.37682">
    <tag k="name" v="Institut für Deutsche Philologie"/>
    <tag k="wheelchair" v="limited"/>
    <tag k="amenity" v="college"/>
  </node>
  <node id="-4167" version="0" timestamp="Fri Feb 24 10:53:36 +0100 2012" uid="1" user="" lat="54.09537" lon="13.38004">
    <tag k="shop" v="hairdresser"/>
    <tag k="name" v="vevien Salon Damenfrisieur Herrenfriseur Friseur"/>
    <tag k="wheelchair" v="yes"/>
    <tag k="addr:city" v="Greifswald"/>
    <tag k="addr:postcode" v="17489"/>
    <tag k="addr:housenumber" v="20-21"/>
    <tag k="addr:street" v="Markt"/>
    <tag k="wheelchair:description" v="Dieser Salon verfügt über einen extra rollstuhlgerechten Frisierplatz mit extra Schwenkbereich, auch für elektrische Rollstühle. Bei Anfahrt mit PKW Parkplatz mit Ladezone für Rampe direkt vor dem Salon."/>
    <tag k="website" v="http://vevien.com"/>
    <tag k="phone" v="+49 3834 897171"/>
  </node>
  <node id="-4658" version="0" timestamp="Fri Feb 24 10:53:36 +0100 2012" uid="1" user="" lat="54.09599" lon="13.38564">
    <tag k="name" v="Mensa am Wall und Studentenwerk"/>
    <tag k="wheelchair" v="yes"/>
    <tag k="wheelchair:description" v="Rampe zum Hochfahren an der Seite, automatische Tür, Aufzug"/>
    <tag k="amenity" v="restaurant"/>
  </node>
  <node id="-4659" version="0" timestamp="Fri Feb 24 10:53:36 +0100 2012" uid="1" user="" lat="54.0949501" lon="13.3770671">
    <tag k="name" v="Rechts- und Staatwissenschaftliche Fakultät"/>
    <tag k="wheelchair" v="no"/>
    <tag k="amenity" v="university"/>
  </node>
  <node id="-4660" version="0" timestamp="Fri Feb 24 10:53:36 +0100 2012" uid="1" user="" lat="54.1197874" lon="13.3602324">
    <tag k="shop" v="supermarket"/>
    <tag k="name" v="Marktkauf"/>
    <tag k="wheelchair" v="yes"/>
  </node>
  <node id="-4906" version="0" timestamp="Fri Feb 24 10:53:36 +0100 2012" uid="1" user="" lat="54.02966" lon="14.01658">
    <tag k="name" v="Usedom Ferienwohnungen Tannengrund"/>
    <tag k="wheelchair" v="limited"/>
    <tag k="addr:city" v="Seebad Kölpinsee / Loddin"/>
    <tag k="addr:postcode" v="17459"/>
    <tag k="addr:housenumber" v="4"/>
    <tag k="tourism" v="hotel"/>
    <tag k="addr:street" v="Tannengrund"/>
    <tag k="website" v="http://www.ferienwohnungen-insel-usedom.de/seniorengerechte-ferienwohnungen-usedom-erdgeschoss/"/>
    <tag k="phone" v="+49 160 96281273"/>
  </node>
</osm>
