<?xml version='1.0' encoding='UTF-8'?>
<osm version="0.6" generator="Osmosis 0.39">
  <node id="-277" version="0" timestamp="Fri Feb 24 10:53:32 +0100 2012" uid="1" user="" lat="54.3796776" lon="13.6957181">
    <tag k="name" v="Privathote Roewers"/>
    <tag k="wheelchair" v="yes"/>
    <tag k="tourism" v="hotel"/>
    <tag k="website" v="http://www.roewers.de/"/>
  </node>
  <node id="-812" version="0" timestamp="Fri Feb 24 10:53:32 +0100 2012" uid="1" user="" lat="54.5691448" lon="13.4594977">
    <tag k="name" v="Parkplatz zu Sandstrand Ostseeperle"/>
    <tag k="wheelchair" v="limited"/>
    <tag k="addr:city" v="Glowe"/>
    <tag k="wheelchair:description" v="kein Rolli-Parkplatz"/>
    <tag k="amenity" v="parking"/>
  </node>
  <node id="-2108" version="0" timestamp="Fri Feb 24 10:53:34 +0100 2012" uid="1" user="" lat="54.3073961" lon="13.0410591">
    <tag k="name" v="IGS Grünthal"/>
    <tag k="wheelchair" v="yes"/>
    <tag k="addr:city" v="Stralsund"/>
    <tag k="addr:postcode" v="18437"/>
    <tag k="addr:housenumber" v="12"/>
    <tag k="addr:street" v="Grünthal"/>
    <tag k="amenity" v="school"/>
  </node>
  <node id="-2650" version="0" timestamp="Fri Feb 24 10:53:34 +0100 2012" uid="1" user="" lat="54.3189563" lon="13.0874229">
    <tag k="name" v="Kulisse Theater-Cafe"/>
    <tag k="wheelchair" v="no"/>
    <tag k="addr:city" v="Stralsund"/>
    <tag k="addr:postcode" v="18435"/>
    <tag k="addr:housenumber" v="8"/>
    <tag k="addr:street" v="Sarnowstraße"/>
    <tag k="amenity" v="cafe"/>
    <tag k="phone" v="+49 3831 390207"/>
  </node>
  <node id="-3400" version="0" timestamp="Fri Feb 24 10:53:35 +0100 2012" uid="1" user="" lat="54.45683" lon="13.17982">
    <tag k="name" v="Pension &amp; Fischrestaurant Holzerland"/>
    <tag k="wheelchair" v="limited"/>
    <tag k="addr:city" v="Waase"/>
    <tag k="addr:postcode" v="18569"/>
    <tag k="wheelchair:description" v="Gaststätte über Rampe an Terrasse erreichbar"/>
    <tag k="amenity" v="restaurant"/>
    <tag k="website" v="http://www.ummanz-ruegen.de"/>
    <tag k="phone" v="+49 38305 8159"/>
  </node>
  <node id="-3410" version="0" timestamp="Fri Feb 24 10:53:35 +0100 2012" uid="1" user="" lat="54.4747581" lon="13.1481677">
    <tag k="name" v="Parkplatz Surfhostel"/>
    <tag k="wheelchair" v="yes"/>
    <tag k="addr:city" v="Haide"/>
    <tag k="addr:postcode" v="18569"/>
    <tag k="wheelchair:description" v="Rasengittersteine"/>
    <tag k="amenity" v="parking"/>
    <tag k="website" v="http://www.surfen-auf-ruegen.de/ruegen_surfhostel_ostsee.html"/>
    <tag k="phone" v="+49 38305 55018"/>
  </node>
  <node id="-3411" version="0" timestamp="Fri Feb 24 10:53:35 +0100 2012" uid="1" user="" lat="54.4231525" lon="13.4161791">
    <tag k="name" v="Jobcenter Rügen"/>
    <tag k="wheelchair" v="yes"/>
    <tag k="addr:city" v="Bergen"/>
    <tag k="addr:postcode" v="18528"/>
    <tag k="addr:housenumber" v="5A"/>
    <tag k="addr:street" v="Gingster Chaussee"/>
    <tag k="website" v="http://www.arbeitsagentur.de/nn_8036/Partner/RD-N/Stralsund/03406-Jobcenter-Ruegen.html"/>
  </node>
  <node id="-3412" version="0" timestamp="Fri Feb 24 10:53:35 +0100 2012" uid="1" user="" lat="54.4231718" lon="13.4165931">
    <tag k="name" v="Agentur für Arbeit Stralsund Geschäftsstelle Bergen"/>
    <tag k="wheelchair" v="yes"/>
    <tag k="addr:city" v="Bergen"/>
    <tag k="addr:postcode" v="18528"/>
    <tag k="addr:housenumber" v="6"/>
    <tag k="addr:street" v="Gingster Chaussee"/>
    <tag k="website" v="http://www.arbeitsagentur.de/nn_8042/Partner/RD-N/Stralsund/03413-Geschaeftsstelle-Bergen.html"/>
  </node>
  <node id="-3413" version="0" timestamp="Fri Feb 24 10:53:35 +0100 2012" uid="1" user="" lat="54.4572642" lon="13.2538833">
    <tag k="name" v="EDEKA E aktiv markt Preller"/>
    <tag k="wheelchair" v="limited"/>
    <tag k="addr:city" v="Gingst"/>
    <tag k="addr:postcode" v="18569"/>
    <tag k="addr:housenumber" v="39"/>
    <tag k="addr:street" v="Mühlenstrasse"/>
    <tag k="amenity" v="post_office"/>
    <tag k="phone" v="+49 38305 53925"/>
  </node>
  <node id="-3780" version="0" timestamp="Fri Feb 24 10:53:35 +0100 2012" uid="1" user="" lat="54.4510714" lon="13.1578998">
    <tag k="shop" v="mall"/>
    <tag k="name" v=" Töpferei Susan Schmorell"/>
    <tag k="wheelchair" v="limited"/>
    <tag k="addr:city" v="Wusse"/>
    <tag k="addr:postcode" v="18569"/>
    <tag k="addr:housenumber" v="1"/>
    <tag k="addr:street" v="Pappelweg"/>
    <tag k="wheelchair:description" v="eine Stufe am Eingang, zum Überwinden Kantholz vor Ort"/>
    <tag k="phone" v="+49 38305 8111"/>
  </node>
  <node id="-4289" version="0" timestamp="Fri Feb 24 10:53:36 +0100 2012" uid="1" user="" lat="54.4402351" lon="12.6814566">
    <tag k="name" v="STEIGENBERGER STRANDHOTEL AND SPA"/>
    <tag k="wheelchair" v="yes"/>
    <tag k="addr:city" v="Zingst"/>
    <tag k="addr:postcode" v="18374"/>
    <tag k="addr:housenumber" v="60"/>
    <tag k="tourism" v="hotel"/>
    <tag k="addr:street" v="Seestraße"/>
    <tag k="website" v="http://www.steigenberger.com/Zingst_Strandhotel"/>
    <tag k="phone" v="+49 38232 842-100"/>
  </node>
  <node id="-4348" version="0" timestamp="Fri Feb 24 10:53:36 +0100 2012" uid="1" user="" lat="54.4410017" lon="12.6819121">
    <tag k="name" v="Kurhaus Restaurant"/>
    <tag k="wheelchair" v="limited"/>
    <tag k="addr:city" v="Ostseeheilbad Zingst"/>
    <tag k="addr:postcode" v="18374"/>
    <tag k="addr:housenumber" v="56/57"/>
    <tag k="addr:street" v="Seestraße"/>
    <tag k="amenity" v="restaurant"/>
    <tag k="phone" v="+49 3 82 32 81576"/>
  </node>
  <node id="-4875" version="0" timestamp="Fri Feb 24 10:53:36 +0100 2012" uid="1" user="" lat="54.3111181" lon="13.0897195">
    <tag k="name" v="Cinestar"/>
    <tag k="wheelchair" v="yes"/>
    <tag k="addr:city" v="Stralsund"/>
    <tag k="addr:postcode" v="18439"/>
    <tag k="addr:housenumber" v="7"/>
    <tag k="addr:street" v="Frankenstrasse"/>
    <tag k="amenity" v="cinema"/>
    <tag k="website" v="http://www.cinestar.de/de/kino/stralsund-cinestar/"/>
    <tag k="phone" v="+49 3831 288558"/>
  </node>
</osm>
